{"type":"FeatureCollection","schema_version":"1.0.0","city_id":"nyc","year":1928,"features":[{"type":"Feature","id":"nyc_parks_property_169101","properties":{"city_id":"nyc","event_id":"nyc_parks_property_169101","title":"Parks property acquisition: Amundsen Circle","short_description":"NYC Parks property record for Amundsen Circle; type Triangle/Plaza; acres 0.916; waterfront=False.","year":1928,"effective_date":"1928-08-01","date_precision":"day","category":"environment","lens":"green_space","confidence":"documented","source_ids":["enfh-gkve"],"explanation":"Parks property record with acquisition date for Amundsen Circle."},"geometry":{"type":"Point","coordinates":[-74.130968,40.564638]}},{"type":"Feature","id":"nyc_parks_property_169190","properties":{"city_id":"nyc","event_id":"nyc_parks_property_169190","title":"Parks property acquisition: Corporal Wiltshire Square","short_description":"NYC Parks property record for Corporal Wiltshire Square; type Triangle/Plaza; acres 0.051; waterfront=False.","year":1928,"effective_date":"1928-11-13","date_precision":"day","category":"environment","lens":"green_space","confidence":"documented","source_ids":["enfh-gkve"],"explanation":"Parks property record with acquisition date for Corporal Wiltshire Square."},"geometry":{"type":"Point","coordinates":[-73.953187,40.610891]}},{"type":"Feature","id":"nyc_parks_property_169704","properties":{"city_id":"nyc","event_id":"nyc_parks_property_169704","title":"Parks property acquisition: Lincoln Terrace / Arthur S. Somers Park","short_description":"NYC Parks property record for Lincoln Terrace / Arthur S. Somers Park; type Community Park; acres 17.14; waterfront=False.","year":1928,"effective_date":"1928-08-23","date_precision":"day","category":"environment","lens":"green_space","confidence":"documented","source_ids":["enfh-gkve"],"explanation":"Parks property record with acquisition date for Lincoln Terrace / Arthur S. Somers Park."},"geometry":{"type":"Point","coordinates":[-73.926344,40.666635]}},{"type":"Feature","id":"nyc_parks_property_169746","properties":{"city_id":"nyc","event_id":"nyc_parks_property_169746","title":"Parks property acquisition: Trolley Car Triangle","short_description":"NYC Parks property record for Trolley Car Triangle; type Triangle/Plaza; acres 0.032; waterfront=False.","year":1928,"effective_date":"1928-09-15","date_precision":"day","category":"environment","lens":"green_space","confidence":"documented","source_ids":["enfh-gkve"],"explanation":"Parks property record with acquisition date for Trolley Car Triangle."},"geometry":{"type":"Point","coordinates":[-73.872402,40.762299]}},{"type":"Feature","id":"nyc_parks_property_169762","properties":{"city_id":"nyc","event_id":"nyc_parks_property_169762","title":"Parks property acquisition: Corona Plaza","short_description":"NYC Parks property record for Corona Plaza; type Triangle/Plaza; acres 0.041; waterfront=False.","year":1928,"effective_date":"1928-02-21","date_precision":"day","category":"environment","lens":"green_space","confidence":"documented","source_ids":["enfh-gkve"],"explanation":"Parks property record with acquisition date for Corona Plaza."},"geometry":{"type":"Point","coordinates":[-73.86247,40.749727]}},{"type":"Feature","id":"nyc_parks_property_169813","properties":{"city_id":"nyc","event_id":"nyc_parks_property_169813","title":"Parks property acquisition: Veterans Triangle","short_description":"NYC Parks property record for Veterans Triangle; type Triangle/Plaza; acres 0.025; waterfront=False.","year":1928,"effective_date":"1928-04-02","date_precision":"day","category":"environment","lens":"green_space","confidence":"documented","source_ids":["enfh-gkve"],"explanation":"Parks property record with acquisition date for Veterans Triangle."},"geometry":{"type":"Point","coordinates":[-73.903794,40.656927]}},{"type":"Feature","id":"nyc_parks_property_169838","properties":{"city_id":"nyc","event_id":"nyc_parks_property_169838","title":"Parks property acquisition: Owl's Head Park","short_description":"NYC Parks property record for Owl's Head Park; type Neighborhood Park; acres 24.218; waterfront=False.","year":1928,"effective_date":"1928-09-07","date_precision":"day","category":"environment","lens":"green_space","confidence":"documented","source_ids":["enfh-gkve"],"explanation":"Parks property record with acquisition date for Owl's Head Park."},"geometry":{"type":"Point","coordinates":[-74.032449,40.640836]}},{"type":"Feature","id":"nyc_parks_property_169905","properties":{"city_id":"nyc","event_id":"nyc_parks_property_169905","title":"Parks property acquisition: Veterans Plaza","short_description":"NYC Parks property record for Veterans Plaza; type Triangle/Plaza; acres 0.09; waterfront=False.","year":1928,"effective_date":"1928-12-13","date_precision":"day","category":"environment","lens":"green_space","confidence":"documented","source_ids":["enfh-gkve"],"explanation":"Parks property record with acquisition date for Veterans Plaza."},"geometry":{"type":"Point","coordinates":[-73.874836,40.758767]}},{"type":"Feature","id":"nyc_parks_property_170168","properties":{"city_id":"nyc","event_id":"nyc_parks_property_170168","title":"Parks property acquisition: Veterans Grove","short_description":"NYC Parks property record for Veterans Grove; type Playground; acres 0.626; waterfront=False.","year":1928,"effective_date":"1928-11-26","date_precision":"day","category":"environment","lens":"green_space","confidence":"documented","source_ids":["enfh-gkve"],"explanation":"Parks property record with acquisition date for Veterans Grove."},"geometry":{"type":"Point","coordinates":[-73.877721,40.742714]}},{"type":"Feature","id":"nyc_parks_property_170739","properties":{"city_id":"nyc","event_id":"nyc_parks_property_170739","title":"Parks property acquisition: Faber Pool and Park","short_description":"NYC Parks property record for Faber Pool and Park; type Community Park; acres 4.339; waterfront=True.","year":1928,"effective_date":"1928-09-26","date_precision":"day","category":"environment","lens":"green_space","confidence":"documented","source_ids":["enfh-gkve"],"explanation":"Parks property record with acquisition date for Faber Pool and Park."},"geometry":{"type":"Point","coordinates":[-74.135862,40.641041]}},{"type":"Feature","id":"nyc_parks_property_171040","properties":{"city_id":"nyc","event_id":"nyc_parks_property_171040","title":"Parks property acquisition: LaTourette Park & Golf Course","short_description":"NYC Parks property record for LaTourette Park & Golf Course; type Flagship Park; acres 760.79; waterfront=False.","year":1928,"effective_date":"1928-07-26","date_precision":"day","category":"environment","lens":"green_space","confidence":"documented","source_ids":["enfh-gkve"],"explanation":"Parks property record with acquisition date for LaTourette Park & Golf Course."},"geometry":{"type":"Point","coordinates":[-74.154278,40.571792]}}]}
