{"type":"FeatureCollection","schema_version":"1.0.0","city_id":"nyc","year":1923,"features":[{"type":"Feature","id":"nyc_parks_property_169590","properties":{"city_id":"nyc","event_id":"nyc_parks_property_169590","title":"Parks property acquisition: Plaut Triangle","year":1923,"effective_date":"1923-12-22","date_precision":"day","category":"environment","lens":"green_space","confidence":"documented","source_ids":["enfh-gkve"],"explanation":"Parks property record with acquisition date for Plaut Triangle."},"geometry":{"type":"Point","coordinates":[-73.797112,40.758349]}},{"type":"Feature","id":"nyc_parks_property_169701","properties":{"city_id":"nyc","event_id":"nyc_parks_property_169701","title":"Parks property acquisition: Ketchum Triangle","year":1923,"effective_date":"1923-10-25","date_precision":"day","category":"environment","lens":"green_space","confidence":"documented","source_ids":["enfh-gkve"],"explanation":"Parks property record with acquisition date for Ketchum Triangle."},"geometry":{"type":"Point","coordinates":[-73.982273,40.605511]}},{"type":"Feature","id":"nyc_parks_property_169864","properties":{"city_id":"nyc","event_id":"nyc_parks_property_169864","title":"Parks property acquisition: Alben Square","year":1923,"effective_date":"1923-10-23","date_precision":"day","category":"environment","lens":"green_space","confidence":"documented","source_ids":["enfh-gkve"],"explanation":"Parks property record with acquisition date for Alben Square."},"geometry":{"type":"Point","coordinates":[-73.994554,40.639447]}},{"type":"Feature","id":"nyc_parks_property_169999","properties":{"city_id":"nyc","event_id":"nyc_parks_property_169999","title":"Parks property acquisition: Grover Cleveland Playground","year":1923,"effective_date":"1923-10-05","date_precision":"day","category":"environment","lens":"green_space","confidence":"documented","source_ids":["enfh-gkve"],"explanation":"Parks property record with acquisition date for Grover Cleveland Playground."},"geometry":{"type":"Point","coordinates":[-73.910676,40.711179]}},{"type":"Feature","id":"nyc_parks_property_170884","properties":{"city_id":"nyc","event_id":"nyc_parks_property_170884","title":"Parks property acquisition: Alexander Hamilton Playground","year":1923,"effective_date":"1923-05-10","date_precision":"day","category":"environment","lens":"green_space","confidence":"documented","source_ids":["enfh-gkve"],"explanation":"Parks property record with acquisition date for Alexander Hamilton Playground."},"geometry":{"type":"Point","coordinates":[-73.951253,40.823093]}},{"type":"Feature","id":"nyc_parks_property_171097","properties":{"city_id":"nyc","event_id":"nyc_parks_property_171097","title":"Parks property acquisition: Clove Lakes Park","year":1923,"effective_date":"1923-09-01","date_precision":"day","category":"environment","lens":"green_space","confidence":"documented","source_ids":["enfh-gkve"],"explanation":"Parks property record with acquisition date for Clove Lakes Park."},"geometry":{"type":"Point","coordinates":[-74.115984,40.621772]}},{"type":"Feature","id":"nyc_parks_property_171149","properties":{"city_id":"nyc","event_id":"nyc_parks_property_171149","title":"Parks property acquisition: Elmjack Mall","year":1923,"effective_date":"1923-12-24","date_precision":"day","category":"environment","lens":"green_space","confidence":"documented","source_ids":["enfh-gkve"],"explanation":"Parks property record with acquisition date for Elmjack Mall."},"geometry":{"type":"Point","coordinates":[-73.890397,40.74641]}}]}
