{"type":"FeatureCollection","schema_version":"1.0.0","city_id":"nyc","year":1935,"features":[{"type":"Feature","id":"nyc_parks_property_169063","properties":{"city_id":"nyc","event_id":"nyc_parks_property_169063","title":"Parks property acquisition: Park","year":1935,"effective_date":"1935-07-20","date_precision":"day","category":"environment","lens":"green_space","confidence":"documented","source_ids":["enfh-gkve"],"explanation":"Parks property record with acquisition date for Park."},"geometry":{"type":"Point","coordinates":[-73.915284,40.883039]}},{"type":"Feature","id":"nyc_parks_property_169064","properties":{"city_id":"nyc","event_id":"nyc_parks_property_169064","title":"Parks property acquisition: Phyllis Post Goodman Park","year":1935,"effective_date":"1935-07-20","date_precision":"day","category":"environment","lens":"green_space","confidence":"documented","source_ids":["enfh-gkve"],"explanation":"Parks property record with acquisition date for Phyllis Post Goodman Park."},"geometry":{"type":"Point","coordinates":[-73.9176,40.880559]}},{"type":"Feature","id":"nyc_parks_property_169079","properties":{"city_id":"nyc","event_id":"nyc_parks_property_169079","title":"Parks property acquisition: Henry Hudson Park","year":1935,"effective_date":"1935-10-16","date_precision":"day","category":"environment","lens":"green_space","confidence":"documented","source_ids":["enfh-gkve"],"explanation":"Parks property record with acquisition date for Henry Hudson Park."},"geometry":{"type":"Point","coordinates":[-73.920386,40.880767]}},{"type":"Feature","id":"nyc_parks_property_169104","properties":{"city_id":"nyc","event_id":"nyc_parks_property_169104","title":"Parks property acquisition: MacDonald Park","year":1935,"effective_date":"1935-03-06","date_precision":"day","category":"environment","lens":"green_space","confidence":"documented","source_ids":["enfh-gkve"],"explanation":"Parks property record with acquisition date for MacDonald Park."},"geometry":{"type":"Point","coordinates":[-73.846631,40.722155]}},{"type":"Feature","id":"nyc_parks_property_169143","properties":{"city_id":"nyc","event_id":"nyc_parks_property_169143","title":"Parks property acquisition: Heckscher Playground","year":1935,"effective_date":"1935-08-09","date_precision":"day","category":"environment","lens":"green_space","confidence":"documented","source_ids":["enfh-gkve"],"explanation":"Parks property record with acquisition date for Heckscher Playground."},"geometry":{"type":"Point","coordinates":[-73.918301,40.695088]}},{"type":"Feature","id":"nyc_parks_property_169337","properties":{"city_id":"nyc","event_id":"nyc_parks_property_169337","title":"Parks property acquisition: Horsebrook Island","year":1935,"effective_date":"1935-03-15","date_precision":"day","category":"environment","lens":"green_space","confidence":"documented","source_ids":["enfh-gkve"],"explanation":"Parks property record with acquisition date for Horsebrook Island."},"geometry":{"type":"Point","coordinates":[-73.872503,40.735913]}},{"type":"Feature","id":"nyc_parks_property_169463","properties":{"city_id":"nyc","event_id":"nyc_parks_property_169463","title":"Parks property acquisition: Henry Hudson Parkway","year":1935,"effective_date":"1935-07-20","date_precision":"day","category":"environment","lens":"green_space","confidence":"documented","source_ids":["enfh-gkve"],"explanation":"Parks property record with acquisition date for Henry Hudson Parkway."},"geometry":{"type":"Point","coordinates":[-73.906378,40.89598]}},{"type":"Feature","id":"nyc_parks_property_169690","properties":{"city_id":"nyc","event_id":"nyc_parks_property_169690","title":"Parks property acquisition: Hunts Point Playground","year":1935,"effective_date":"1935-01-09","date_precision":"day","category":"environment","lens":"green_space","confidence":"documented","source_ids":["enfh-gkve"],"explanation":"Parks property record with acquisition date for Hunts Point Playground."},"geometry":{"type":"Point","coordinates":[-73.885957,40.814127]}},{"type":"Feature","id":"nyc_parks_property_169760","properties":{"city_id":"nyc","event_id":"nyc_parks_property_169760","title":"Parks property acquisition: Ruoff Triangle","year":1935,"effective_date":"1935-02-25","date_precision":"day","category":"environment","lens":"green_space","confidence":"documented","source_ids":["enfh-gkve"],"explanation":"Parks property record with acquisition date for Ruoff Triangle."},"geometry":{"type":"Point","coordinates":[-73.852675,40.682526]}},{"type":"Feature","id":"nyc_parks_property_169761","properties":{"city_id":"nyc","event_id":"nyc_parks_property_169761","title":"Parks property acquisition: Catholic War Veterans Square","year":1935,"effective_date":"1935-04-11","date_precision":"day","category":"environment","lens":"green_space","confidence":"documented","source_ids":["enfh-gkve"],"explanation":"Parks property record with acquisition date for Catholic War Veterans Square."},"geometry":{"type":"Point","coordinates":[-73.816196,40.675863]}},{"type":"Feature","id":"nyc_parks_property_169840","properties":{"city_id":"nyc","event_id":"nyc_parks_property_169840","title":"Parks property acquisition: De Matti Park","year":1935,"effective_date":"1935-03-12","date_precision":"day","category":"environment","lens":"green_space","confidence":"documented","source_ids":["enfh-gkve"],"explanation":"Parks property record with acquisition date for De Matti Park."},"geometry":{"type":"Point","coordinates":[-74.074265,40.61435]}},{"type":"Feature","id":"nyc_parks_property_169842","properties":{"city_id":"nyc","event_id":"nyc_parks_property_169842","title":"Parks property acquisition: Liotti Ikefugi Playground","year":1935,"effective_date":"1935-10-16","date_precision":"day","category":"environment","lens":"green_space","confidence":"documented","source_ids":["enfh-gkve"],"explanation":"Parks property record with acquisition date for Liotti Ikefugi Playground."},"geometry":{"type":"Point","coordinates":[-74.08388,40.63869]}},{"type":"Feature","id":"nyc_parks_property_169911","properties":{"city_id":"nyc","event_id":"nyc_parks_property_169911","title":"Parks property acquisition: Jackson Mill Green","year":1935,"effective_date":"1935-03-19","date_precision":"day","category":"environment","lens":"green_space","confidence":"documented","source_ids":["enfh-gkve"],"explanation":"Parks property record with acquisition date for Jackson Mill Green."},"geometry":{"type":"Point","coordinates":[-73.875735,40.766398]}},{"type":"Feature","id":"nyc_parks_property_170081","properties":{"city_id":"nyc","event_id":"nyc_parks_property_170081","title":"Parks property acquisition: Park","year":1935,"effective_date":"1935-03-13","date_precision":"day","category":"environment","lens":"green_space","confidence":"documented","source_ids":["enfh-gkve"],"explanation":"Parks property record with acquisition date for Park."},"geometry":{"type":"Point","coordinates":[-73.944434,40.780757]}},{"type":"Feature","id":"nyc_parks_property_170157","properties":{"city_id":"nyc","event_id":"nyc_parks_property_170157","title":"Parks property acquisition: Dodger Playground","year":1935,"effective_date":"1935-05-01","date_precision":"day","category":"environment","lens":"green_space","confidence":"documented","source_ids":["enfh-gkve"],"explanation":"Parks property record with acquisition date for Dodger Playground."},"geometry":{"type":"Point","coordinates":[-73.952375,40.664925]}},{"type":"Feature","id":"nyc_parks_property_170334","properties":{"city_id":"nyc","event_id":"nyc_parks_property_170334","title":"Parks property acquisition: Frank D. O'Connor Playground","year":1935,"effective_date":"1935-08-23","date_precision":"day","category":"environment","lens":"green_space","confidence":"documented","source_ids":["enfh-gkve"],"explanation":"Parks property record with acquisition date for Frank D. O'Connor Playground."},"geometry":{"type":"Point","coordinates":[-73.887004,40.744475]}},{"type":"Feature","id":"nyc_parks_property_170367","properties":{"city_id":"nyc","event_id":"nyc_parks_property_170367","title":"Parks property acquisition: Thomas Greene Playground","year":1935,"effective_date":"1935-09-23","date_precision":"day","category":"environment","lens":"green_space","confidence":"documented","source_ids":["enfh-gkve"],"explanation":"Parks property record with acquisition date for Thomas Greene Playground."},"geometry":{"type":"Point","coordinates":[-73.985141,40.680297]}},{"type":"Feature","id":"nyc_parks_property_170770","properties":{"city_id":"nyc","event_id":"nyc_parks_property_170770","title":"Parks property acquisition: Metropolitan Recreation Center","year":1935,"effective_date":"1935-05-15","date_precision":"day","category":"environment","lens":"green_space","confidence":"documented","source_ids":["enfh-gkve"],"explanation":"Parks property record with acquisition date for Metropolitan Recreation Center."},"geometry":{"type":"Point","coordinates":[-73.960236,40.715026]}},{"type":"Feature","id":"nyc_parks_property_170940","properties":{"city_id":"nyc","event_id":"nyc_parks_property_170940","title":"Parks property acquisition: Columbus Park","year":1935,"effective_date":"1935-05-16","date_precision":"day","category":"transport","lens":"traffic","confidence":"documented","source_ids":["enfh-gkve"],"explanation":"Parks property record with acquisition date for Columbus Park."},"geometry":{"type":"Point","coordinates":[-73.990289,40.693328]}}]}
