{"type":"FeatureCollection","schema_version":"1.0.0","city_id":"nyc","year":1995,"features":[{"type":"Feature","id":"nyc_lpc_individual_landmark_112","properties":{"city_id":"nyc","event_id":"nyc_lpc_individual_landmark_112","title":"Individual landmark designated: International Mercantile Marine Company Building","short_description":"LPC individual landmark site LP-01926; status Designated; type Individual Landmark; alternate name not stated.","year":1995,"effective_date":"1995-09-19","date_precision":"day","category":"built_environment","lens":"built_environment","confidence":"documented","source_ids":["buis-pvji"],"explanation":"LPC designation record for International Mercantile Marine Company Building; designation date is taken from the source desdate field."},"geometry":{"type":"Point","coordinates":[-74.014319,40.704962]}},{"type":"Feature","id":"nyc_lpc_individual_landmark_1126","properties":{"city_id":"nyc","event_id":"nyc_lpc_individual_landmark_1126","title":"Individual landmark designated: Unisphere and Surrounding Reflecting Pool","short_description":"LPC individual landmark site LP-01925; status Designated; type Individual Landmark; alternate name not stated.","year":1995,"effective_date":"1995-05-16","date_precision":"day","category":"built_environment","lens":"built_environment","confidence":"documented","source_ids":["buis-pvji"],"explanation":"LPC designation record for Unisphere and Surrounding Reflecting Pool; designation date is taken from the source desdate field."},"geometry":{"type":"Point","coordinates":[-73.845068,40.746402]}},{"type":"Feature","id":"nyc_lpc_individual_landmark_1132","properties":{"city_id":"nyc","event_id":"nyc_lpc_individual_landmark_1132","title":"Individual landmark designated: Westfield Township School No. 5","short_description":"LPC individual landmark site LP-01868; status Designated; type Individual Landmark; alternate name now Public School 1 Annex.","year":1995,"effective_date":"1995-05-16","date_precision":"day","category":"built_environment","lens":"built_environment","confidence":"documented","source_ids":["buis-pvji"],"explanation":"LPC designation record for Westfield Township School No. 5; designation date is taken from the source desdate field."},"geometry":{"type":"Point","coordinates":[-74.243569,40.508493]}},{"type":"Feature","id":"nyc_lpc_individual_landmark_114","properties":{"city_id":"nyc","event_id":"nyc_lpc_individual_landmark_114","title":"Individual landmark designated: Bowling Green Offices Building","short_description":"LPC individual landmark site LP-01927; status Designated; type Individual Landmark; alternate name not stated.","year":1995,"effective_date":"1995-09-19","date_precision":"day","category":"built_environment","lens":"built_environment","confidence":"documented","source_ids":["buis-pvji"],"explanation":"LPC designation record for Bowling Green Offices Building; designation date is taken from the source desdate field."},"geometry":{"type":"Point","coordinates":[-74.014188,40.70526]}},{"type":"Feature","id":"nyc_lpc_individual_landmark_121","properties":{"city_id":"nyc","event_id":"nyc_lpc_individual_landmark_121","title":"Individual landmark designated: Standard Oil Building","short_description":"LPC individual landmark site LP-01930; status Designated; type Individual Landmark; alternate name not stated.","year":1995,"effective_date":"1995-09-19","date_precision":"day","category":"built_environment","lens":"built_environment","confidence":"documented","source_ids":["buis-pvji"],"explanation":"LPC designation record for Standard Oil Building; designation date is taken from the source desdate field."},"geometry":{"type":"Point","coordinates":[-74.012913,40.70554]}},{"type":"Feature","id":"nyc_lpc_individual_landmark_1281","properties":{"city_id":"nyc","event_id":"nyc_lpc_individual_landmark_1281","title":"Individual landmark designated: Westfield Township School No. 7","short_description":"LPC individual landmark site LP-01876; status Designated; type Individual Landmark; alternate name later Public School 4.","year":1995,"effective_date":"1995-05-16","date_precision":"day","category":"built_environment","lens":"built_environment","confidence":"documented","source_ids":["buis-pvji"],"explanation":"LPC designation record for Westfield Township School No. 7; designation date is taken from the source desdate field."},"geometry":{"type":"Point","coordinates":[-74.237192,40.539817]}},{"type":"Feature","id":"nyc_lpc_individual_landmark_1284","properties":{"city_id":"nyc","event_id":"nyc_lpc_individual_landmark_1284","title":"Individual landmark designated: Lewis H. Latimer House","short_description":"LPC individual landmark site LP-01924; status Designated; type Individual Landmark; alternate name not stated.","year":1995,"effective_date":"1995-03-21","date_precision":"day","category":"built_environment","lens":"built_environment","confidence":"documented","source_ids":["buis-pvji"],"explanation":"LPC designation record for Lewis H. Latimer House; designation date is taken from the source desdate field."},"geometry":{"type":"Point","coordinates":[-73.829525,40.766031]}},{"type":"Feature","id":"nyc_lpc_individual_landmark_1285","properties":{"city_id":"nyc","event_id":"nyc_lpc_individual_landmark_1285","title":"Individual landmark designated: Engine Company No. 252","short_description":"LPC individual landmark site LP-01931; status Designated; type Individual Landmark; alternate name originally Fire Engine Company 52, later Engine Company 152.","year":1995,"effective_date":"1995-10-19","date_precision":"day","category":"built_environment","lens":"built_environment","confidence":"documented","source_ids":["buis-pvji"],"explanation":"LPC designation record for Engine Company No. 252; designation date is taken from the source desdate field."},"geometry":{"type":"Point","coordinates":[-73.908088,40.688624]}},{"type":"Feature","id":"nyc_lpc_individual_landmark_330","properties":{"city_id":"nyc","event_id":"nyc_lpc_individual_landmark_330","title":"Individual landmark designated: Manhattan Company Building","short_description":"LPC individual landmark site LP-01936; status Designated; type Individual Landmark; alternate name now the Trump Building.","year":1995,"effective_date":"1995-12-12","date_precision":"day","category":"built_environment","lens":"built_environment","confidence":"documented","source_ids":["buis-pvji"],"explanation":"LPC designation record for Manhattan Company Building; designation date is taken from the source desdate field."},"geometry":{"type":"Point","coordinates":[-74.009733,40.707063]}},{"type":"Feature","id":"nyc_lpc_individual_landmark_382","properties":{"city_id":"nyc","event_id":"nyc_lpc_individual_landmark_382","title":"Individual landmark designated: Bennett Building","short_description":"LPC individual landmark site LP-01937; status Designated; type Individual Landmark; alternate name not stated.","year":1995,"effective_date":"1995-11-21","date_precision":"day","category":"built_environment","lens":"built_environment","confidence":"documented","source_ids":["buis-pvji"],"explanation":"LPC designation record for Bennett Building; designation date is taken from the source desdate field."},"geometry":{"type":"Point","coordinates":[-74.007792,40.710526]}},{"type":"Feature","id":"nyc_lpc_individual_landmark_60","properties":{"city_id":"nyc","event_id":"nyc_lpc_individual_landmark_60","title":"Individual landmark designated: New York Public Library, Tottenville Branch","short_description":"LPC individual landmark site LP-01867; status Designated; type Individual Landmark; alternate name not stated.","year":1995,"effective_date":"1995-05-16","date_precision":"day","category":"built_environment","lens":"built_environment","confidence":"documented","source_ids":["buis-pvji"],"explanation":"LPC designation record for New York Public Library, Tottenville Branch; designation date is taken from the source desdate field."},"geometry":{"type":"Point","coordinates":[-74.244075,40.509546]}},{"type":"Feature","id":"nyc_lpc_individual_landmark_603","properties":{"city_id":"nyc","event_id":"nyc_lpc_individual_landmark_603","title":"Individual landmark designated: American Express Company Building","short_description":"LPC individual landmark site LP-01932; status Designated; type Individual Landmark; alternate name not stated.","year":1995,"effective_date":"1995-12-12","date_precision":"day","category":"built_environment","lens":"built_environment","confidence":"documented","source_ids":["buis-pvji"],"explanation":"LPC designation record for American Express Company Building; designation date is taken from the source desdate field."},"geometry":{"type":"Point","coordinates":[-74.012586,40.707333]}},{"type":"Feature","id":"nyc_lpc_individual_landmark_763","properties":{"city_id":"nyc","event_id":"nyc_lpc_individual_landmark_763","title":"Individual landmark designated: Cunard Building","short_description":"LPC individual landmark site LP-01928; status Designated; type Individual Landmark; alternate name not stated.","year":1995,"effective_date":"1995-09-19","date_precision":"day","category":"built_environment","lens":"built_environment","confidence":"documented","source_ids":["buis-pvji"],"explanation":"LPC designation record for Cunard Building; designation date is taken from the source desdate field."},"geometry":{"type":"Point","coordinates":[-74.013952,40.705859]}},{"type":"Feature","id":"nyc_lpc_individual_landmark_787","properties":{"city_id":"nyc","event_id":"nyc_lpc_individual_landmark_787","title":"Individual landmark designated: Pepsi-Cola Building","short_description":"LPC individual landmark site LP-01920; status Designated; type Individual Landmark; alternate name not stated.","year":1995,"effective_date":"1995-06-20","date_precision":"day","category":"built_environment","lens":"built_environment","confidence":"documented","source_ids":["buis-pvji"],"explanation":"LPC designation record for Pepsi-Cola Building; designation date is taken from the source desdate field."},"geometry":{"type":"Point","coordinates":[-73.970334,40.762853]}},{"type":"Feature","id":"nyc_lpc_individual_landmark_80","properties":{"city_id":"nyc","event_id":"nyc_lpc_individual_landmark_80","title":"Individual landmark designated: Adrian and Ann Wyckoff Onderdonk House","short_description":"LPC individual landmark site LP-01923; status Designated; type Individual Landmark; alternate name now Vander Ende-Onderdonk House.","year":1995,"effective_date":"1995-03-21","date_precision":"day","category":"built_environment","lens":"built_environment","confidence":"documented","source_ids":["buis-pvji"],"explanation":"LPC designation record for Adrian and Ann Wyckoff Onderdonk House; designation date is taken from the source desdate field."},"geometry":{"type":"Point","coordinates":[-73.919309,40.710712]}},{"type":"Feature","id":"nyc_lpc_individual_landmark_945","properties":{"city_id":"nyc","event_id":"nyc_lpc_individual_landmark_945","title":"Individual landmark designated: Public School 27","short_description":"LPC individual landmark site LP-01895; status Designated; type Individual Landmark; alternate name also known as Saint Mary's Park School, originally Public School 154.","year":1995,"effective_date":"1995-09-19","date_precision":"day","category":"built_environment","lens":"built_environment","confidence":"documented","source_ids":["buis-pvji"],"explanation":"LPC designation record for Public School 27; designation date is taken from the source desdate field."},"geometry":{"type":"Point","coordinates":[-73.913963,40.813367]}},{"type":"Feature","id":"nyc_parks_property_169094","properties":{"city_id":"nyc","event_id":"nyc_parks_property_169094","title":"Parks property acquisition: El Flamboyan Garden","short_description":"NYC Parks property record for El Flamboyan Garden; type Garden; acres 0.402; waterfront=False.","year":1995,"effective_date":"1995-11-21","date_precision":"day","category":"environment","lens":"green_space","confidence":"documented","source_ids":["enfh-gkve"],"explanation":"Parks property record with acquisition date for El Flamboyan Garden."},"geometry":{"type":"Point","coordinates":[-73.905545,40.813622]}},{"type":"Feature","id":"nyc_parks_property_169499","properties":{"city_id":"nyc","event_id":"nyc_parks_property_169499","title":"Parks property acquisition: Freeman Garden","short_description":"NYC Parks property record for Freeman Garden; type Garden; acres 0.05; waterfront=False.","year":1995,"effective_date":"1995-09-14","date_precision":"day","category":"environment","lens":"green_space","confidence":"documented","source_ids":["enfh-gkve"],"explanation":"Parks property record with acquisition date for Freeman Garden."},"geometry":{"type":"Point","coordinates":[-73.891161,40.82961]}},{"type":"Feature","id":"nyc_parks_property_169521","properties":{"city_id":"nyc","event_id":"nyc_parks_property_169521","title":"Parks property acquisition: Synergi Urban Garden UCFP","short_description":"NYC Parks property record for Synergi Urban Garden UCFP; type Garden; acres 0.336; waterfront=False.","year":1995,"effective_date":"1995-09-14","date_precision":"day","category":"environment","lens":"green_space","confidence":"documented","source_ids":["enfh-gkve"],"explanation":"Parks property record with acquisition date for Synergi Urban Garden UCFP."},"geometry":{"type":"Point","coordinates":[-73.891135,40.829294]}},{"type":"Feature","id":"nyc_parks_property_169768","properties":{"city_id":"nyc","event_id":"nyc_parks_property_169768","title":"Parks property acquisition: Seagirt Ave Wetlands","short_description":"NYC Parks property record for Seagirt Ave Wetlands; type Nature Area; acres 5.323; waterfront=True.","year":1995,"effective_date":"1995-09-27","date_precision":"day","category":"environment","lens":"green_space","confidence":"documented","source_ids":["enfh-gkve"],"explanation":"Parks property record with acquisition date for Seagirt Ave Wetlands."},"geometry":{"type":"Point","coordinates":[-73.739193,40.597043]}},{"type":"Feature","id":"nyc_parks_property_169843","properties":{"city_id":"nyc","event_id":"nyc_parks_property_169843","title":"Parks property acquisition: Park","short_description":"NYC Parks property record for Park; type Nature Area; acres 5.765; waterfront=False.","year":1995,"effective_date":"1995-08-04","date_precision":"day","category":"environment","lens":"green_space","confidence":"documented","source_ids":["enfh-gkve"],"explanation":"Parks property record with acquisition date for Park."},"geometry":{"type":"Point","coordinates":[-74.100669,40.576313]}},{"type":"Feature","id":"nyc_parks_property_170083","properties":{"city_id":"nyc","event_id":"nyc_parks_property_170083","title":"Parks property acquisition: Sutton Place Park","short_description":"NYC Parks property record for Sutton Place Park; type Neighborhood Park; acres 0.268; waterfront=True.","year":1995,"effective_date":"1995-10-20","date_precision":"day","category":"environment","lens":"green_space","confidence":"documented","source_ids":["enfh-gkve"],"explanation":"Parks property record with acquisition date for Sutton Place Park."},"geometry":{"type":"Point","coordinates":[-73.960266,40.756727]}},{"type":"Feature","id":"nyc_parks_property_170092","properties":{"city_id":"nyc","event_id":"nyc_parks_property_170092","title":"Parks property acquisition: Givans Creek Woods","short_description":"NYC Parks property record for Givans Creek Woods; type Nature Area; acres 10.735; waterfront=False.","year":1995,"effective_date":"1995-08-10","date_precision":"day","category":"environment","lens":"green_space","confidence":"documented","source_ids":["enfh-gkve"],"explanation":"Parks property record with acquisition date for Givans Creek Woods."},"geometry":{"type":"Point","coordinates":[-73.829783,40.87982]}},{"type":"Feature","id":"nyc_parks_property_170325","properties":{"city_id":"nyc","event_id":"nyc_parks_property_170325","title":"Parks property acquisition: Park","short_description":"NYC Parks property record for Park; type Undeveloped; acres 0.96; waterfront=False.","year":1995,"effective_date":"1995-04-04","date_precision":"day","category":"environment","lens":"green_space","confidence":"documented","source_ids":["enfh-gkve"],"explanation":"Parks property record with acquisition date for Park."},"geometry":{"type":"Point","coordinates":[-74.121789,40.638151]}},{"type":"Feature","id":"nyc_parks_property_170427","properties":{"city_id":"nyc","event_id":"nyc_parks_property_170427","title":"Parks property acquisition: Ranaqua Playground","short_description":"NYC Parks property record for Ranaqua Playground; type Neighborhood Park; acres 0.972; waterfront=False.","year":1995,"effective_date":"1995-09-14","date_precision":"day","category":"environment","lens":"green_space","confidence":"documented","source_ids":["enfh-gkve"],"explanation":"Parks property record with acquisition date for Ranaqua Playground."},"geometry":{"type":"Point","coordinates":[-73.92214,40.806731]}},{"type":"Feature","id":"nyc_parks_property_170641","properties":{"city_id":"nyc","event_id":"nyc_parks_property_170641","title":"Parks property acquisition: Louis Armstrong Community Center","short_description":"NYC Parks property record for Louis Armstrong Community Center; type Buildings/Institutions; acres 0.452; waterfront=False.","year":1995,"effective_date":"1995-01-13","date_precision":"day","category":"environment","lens":"green_space","confidence":"documented","source_ids":["enfh-gkve"],"explanation":"Parks property record with acquisition date for Louis Armstrong Community Center."},"geometry":{"type":"Point","coordinates":[-73.8613,40.757191]}},{"type":"Feature","id":"nyc_parks_property_170766","properties":{"city_id":"nyc","event_id":"nyc_parks_property_170766","title":"Parks property acquisition: A.R.R.O.W. Field House","short_description":"NYC Parks property record for A.R.R.O.W. Field House; type Buildings/Institutions; acres 0.29; waterfront=False.","year":1995,"effective_date":"1995-11-29","date_precision":"day","category":"environment","lens":"green_space","confidence":"documented","source_ids":["enfh-gkve"],"explanation":"Parks property record with acquisition date for A.R.R.O.W. Field House."},"geometry":{"type":"Point","coordinates":[-73.92629,40.755848]}},{"type":"Feature","id":"nyc_parks_property_170888","properties":{"city_id":"nyc","event_id":"nyc_parks_property_170888","title":"Parks property acquisition: Grant Park","short_description":"NYC Parks property record for Grant Park; type Neighborhood Park; acres 4.72; waterfront=False.","year":1995,"effective_date":"1995-09-14","date_precision":"day","category":"environment","lens":"green_space","confidence":"documented","source_ids":["enfh-gkve"],"explanation":"Parks property record with acquisition date for Grant Park."},"geometry":{"type":"Point","coordinates":[-73.912948,40.836981]}},{"type":"Feature","id":"nyc_parks_property_170951","properties":{"city_id":"nyc","event_id":"nyc_parks_property_170951","title":"Parks property acquisition: Cpl Fischer Park","short_description":"NYC Parks property record for Cpl Fischer Park; type Neighborhood Park; acres 0.44; waterfront=False.","year":1995,"effective_date":"1995-09-14","date_precision":"day","category":"environment","lens":"green_space","confidence":"documented","source_ids":["enfh-gkve"],"explanation":"Parks property record with acquisition date for Cpl Fischer Park."},"geometry":{"type":"Point","coordinates":[-73.922785,40.840413]}},{"type":"Feature","id":"nyc_parks_property_171055","properties":{"city_id":"nyc","event_id":"nyc_parks_property_171055","title":"Parks property acquisition: Crescent Beach Park","short_description":"NYC Parks property record for Crescent Beach Park; type Nature Area; acres 111.53; waterfront=True.","year":1995,"effective_date":"1995-08-04","date_precision":"day","category":"environment","lens":"green_space","confidence":"documented","source_ids":["enfh-gkve"],"explanation":"Parks property record with acquisition date for Crescent Beach Park."},"geometry":{"type":"Point","coordinates":[-74.147736,40.534645]}}]}
