{"type":"FeatureCollection","schema_version":"1.0.0","city_id":"nyc","year":1958,"map_feature_count":33,"withheld_geometry_event_count":0,"features":[{"type":"Feature","id":"nyc_parks_property_169301","properties":{"city_id":"nyc","event_id":"nyc_parks_property_169301","title":"Parks property acquisition: Gonzalo Plasencia Playground","subtitle":"Brooklyn / 1958-01-20 / Documented / Parks Properties","details":"Parks property record with acquisition date for Gonzalo Plasencia Playground.","year":1958,"effective_date":"1958-01-20","date_precision":"day","short_description":"NYC Parks property record for Gonzalo Plasencia Playground; type Jointly Operated Playground; acres 1.236; waterfront=False.","category":"environment","lens":"green_space","confidence":"documented","source_ids":["enfh-gkve"],"affected_area_label":"Brooklyn","explanation":"Parks property record with acquisition date for Gonzalo Plasencia Playground."},"geometry":{"type":"Point","coordinates":[-74.008247,40.652566]}},{"type":"Feature","id":"nyc_parks_property_169371","properties":{"city_id":"nyc","event_id":"nyc_parks_property_169371","title":"Parks property acquisition: Surf Playground","subtitle":"Brooklyn / 1958-02-27 / Documented / Parks Properties","details":"Parks property record with acquisition date for Surf Playground.","year":1958,"effective_date":"1958-02-27","date_precision":"day","short_description":"NYC Parks property record for Surf Playground; type Jointly Operated Playground; acres 0.933; waterfront=False.","category":"environment","lens":"green_space","confidence":"documented","source_ids":["enfh-gkve"],"affected_area_label":"Brooklyn","explanation":"Parks property record with acquisition date for Surf Playground."},"geometry":{"type":"Point","coordinates":[-73.992317,40.573873]}},{"type":"Feature","id":"nyc_parks_property_169391","properties":{"city_id":"nyc","event_id":"nyc_parks_property_169391","title":"Parks property acquisition: 64th Street Community Garden","subtitle":"Brooklyn / 1958-12-30 / Documented / Parks Properties","details":"Parks property record with acquisition date for 64th Street Community Garden.","year":1958,"effective_date":"1958-12-30","date_precision":"day","short_description":"NYC Parks property record for 64th Street Community Garden; type Strip; acres 0.009; waterfront=False.","category":"environment","lens":"green_space","confidence":"documented","source_ids":["enfh-gkve"],"affected_area_label":"Brooklyn","explanation":"Parks property record with acquisition date for 64th Street Community Garden."},"geometry":{"type":"Point","coordinates":[-74.021253,40.639365]}},{"type":"Feature","id":"nyc_parks_property_169588","properties":{"city_id":"nyc","event_id":"nyc_parks_property_169588","title":"Parks property acquisition: Glenwood Landing","subtitle":"Queens / 1958-10-23 / Documented / Parks Properties","details":"Parks property record with acquisition date for Glenwood Landing.","year":1958,"effective_date":"1958-10-23","date_precision":"day","short_description":"NYC Parks property record for Glenwood Landing; type Triangle/Plaza; acres 0.3; waterfront=False.","category":"environment","lens":"green_space","confidence":"documented","source_ids":["enfh-gkve"],"affected_area_label":"Queens","explanation":"Parks property record with acquisition date for Glenwood Landing."},"geometry":{"type":"Point","coordinates":[-73.739973,40.775051]}},{"type":"Feature","id":"nyc_parks_property_169821","properties":{"city_id":"nyc","event_id":"nyc_parks_property_169821","title":"Parks property acquisition: Bruckner Playground","subtitle":"Bronx / 1958-09-25 / Documented / Parks Properties","details":"Parks property record with acquisition date for Bruckner Playground.","year":1958,"effective_date":"1958-09-25","date_precision":"day","short_description":"NYC Parks property record for Bruckner Playground; type Jointly Operated Playground; acres 1.053; waterfront=False.","category":"environment","lens":"green_space","confidence":"documented","source_ids":["enfh-gkve"],"affected_area_label":"Bronx","explanation":"Parks property record with acquisition date for Bruckner Playground."},"geometry":{"type":"Point","coordinates":[-73.828611,40.826778]}},{"type":"Feature","id":"nyc_parks_property_169824","properties":{"city_id":"nyc","event_id":"nyc_parks_property_169824","title":"Parks property acquisition: Westwood Park","subtitle":"Staten Island / 1958-01-17 / Documented / Parks Properties","details":"Parks property record with acquisition date for Westwood Park.","year":1958,"effective_date":"1958-01-17","date_precision":"day","short_description":"NYC Parks property record for Westwood Park; type Nature Area; acres 6.563; waterfront=False.","category":"environment","lens":"green_space","confidence":"documented","source_ids":["enfh-gkve"],"affected_area_label":"Staten Island","explanation":"Parks property record with acquisition date for Westwood Park."},"geometry":{"type":"Point","coordinates":[-74.141988,40.606541]}},{"type":"Feature","id":"nyc_parks_property_169826","properties":{"city_id":"nyc","event_id":"nyc_parks_property_169826","title":"Parks property acquisition: Ingram Woods","subtitle":"Staten Island / 1958-01-17 / Documented / Parks Properties","details":"Parks property record with acquisition date for Ingram Woods.","year":1958,"effective_date":"1958-01-17","date_precision":"day","short_description":"NYC Parks property record for Ingram Woods; type Nature Area; acres 3.77; waterfront=False.","category":"environment","lens":"green_space","confidence":"documented","source_ids":["enfh-gkve"],"affected_area_label":"Staten Island","explanation":"Parks property record with acquisition date for Ingram Woods."},"geometry":{"type":"Point","coordinates":[-74.136494,40.609028]}},{"type":"Feature","id":"nyc_parks_property_169850","properties":{"city_id":"nyc","event_id":"nyc_parks_property_169850","title":"Parks property acquisition: Christopher J. Igneri Playground","subtitle":"Staten Island / 1958-07-24 / Documented / Parks Properties","details":"Parks property record with acquisition date for Christopher J. Igneri Playground.","year":1958,"effective_date":"1958-07-24","date_precision":"day","short_description":"NYC Parks property record for Christopher J. Igneri Playground; type Neighborhood Park; acres 1.145; waterfront=False.","category":"environment","lens":"green_space","confidence":"documented","source_ids":["enfh-gkve"],"affected_area_label":"Staten Island","explanation":"Parks property record with acquisition date for Christopher J. Igneri Playground."},"geometry":{"type":"Point","coordinates":[-74.11936,40.608554]}},{"type":"Feature","id":"nyc_parks_property_169867","properties":{"city_id":"nyc","event_id":"nyc_parks_property_169867","title":"Parks property acquisition: Park — Queens","subtitle":"Queens / 1958-11-25 / Documented / Parks Properties","details":"Parks property record with acquisition date for Park.","year":1958,"effective_date":"1958-11-25","date_precision":"day","short_description":"NYC Parks property record for Park; type Strip; acres 0.002; waterfront=False.","category":"environment","lens":"green_space","confidence":"documented","source_ids":["enfh-gkve"],"affected_area_label":"Queens","explanation":"Parks property record with acquisition date for Park."},"geometry":{"type":"Point","coordinates":[-73.88977,40.725833]}},{"type":"Feature","id":"nyc_parks_property_170035","properties":{"city_id":"nyc","event_id":"nyc_parks_property_170035","title":"Parks property acquisition: Park — Brooklyn","subtitle":"Brooklyn / 1958-12-30 / Documented / Parks Properties","details":"Parks property record with acquisition date for Park.","year":1958,"effective_date":"1958-12-30","date_precision":"day","short_description":"NYC Parks property record for Park; type Strip; acres 0.006; waterfront=False.","category":"environment","lens":"green_space","confidence":"documented","source_ids":["enfh-gkve"],"affected_area_label":"Brooklyn","explanation":"Parks property record with acquisition date for Park."},"geometry":{"type":"Point","coordinates":[-74.015658,40.634056]}},{"type":"Feature","id":"nyc_parks_property_170057","properties":{"city_id":"nyc","event_id":"nyc_parks_property_170057","title":"Parks property acquisition: Park — Queens · 170057","subtitle":"Queens / 1958-11-25 / Documented / Parks Properties","details":"Parks property record with acquisition date for Park.","year":1958,"effective_date":"1958-11-25","date_precision":"day","short_description":"NYC Parks property record for Park; type Strip; acres 0.004; waterfront=False.","category":"environment","lens":"green_space","confidence":"documented","source_ids":["enfh-gkve"],"affected_area_label":"Queens","explanation":"Parks property record with acquisition date for Park."},"geometry":{"type":"Point","coordinates":[-73.890835,40.726356]}},{"type":"Feature","id":"nyc_parks_property_170108","properties":{"city_id":"nyc","event_id":"nyc_parks_property_170108","title":"Parks property acquisition: Park — Brooklyn · 170108","subtitle":"Brooklyn / 1958-12-30 / Documented / Parks Properties","details":"Parks property record with acquisition date for Park.","year":1958,"effective_date":"1958-12-30","date_precision":"day","short_description":"NYC Parks property record for Park; type Strip; acres 0.002; waterfront=False.","category":"environment","lens":"green_space","confidence":"documented","source_ids":["enfh-gkve"],"affected_area_label":"Brooklyn","explanation":"Parks property record with acquisition date for Park."},"geometry":{"type":"Point","coordinates":[-74.020732,40.638153]}},{"type":"Feature","id":"nyc_parks_property_170109","properties":{"city_id":"nyc","event_id":"nyc_parks_property_170109","title":"Parks property acquisition: Park — Brooklyn · 170109","subtitle":"Brooklyn / 1958-12-30 / Documented / Parks Properties","details":"Parks property record with acquisition date for Park.","year":1958,"effective_date":"1958-12-30","date_precision":"day","short_description":"NYC Parks property record for Park; type Strip; acres 0.008; waterfront=False.","category":"environment","lens":"green_space","confidence":"documented","source_ids":["enfh-gkve"],"affected_area_label":"Brooklyn","explanation":"Parks property record with acquisition date for Park."},"geometry":{"type":"Point","coordinates":[-74.021736,40.638722]}},{"type":"Feature","id":"nyc_parks_property_170115","properties":{"city_id":"nyc","event_id":"nyc_parks_property_170115","title":"Parks property acquisition: Colgate Close","subtitle":"Bronx / 1958-09-17 / Documented / Parks Properties","details":"Parks property record with acquisition date for Colgate Close.","year":1958,"effective_date":"1958-09-17","date_precision":"day","short_description":"NYC Parks property record for Colgate Close; type Neighborhood Park; acres 1.871; waterfront=False.","category":"environment","lens":"green_space","confidence":"documented","source_ids":["enfh-gkve"],"affected_area_label":"Bronx","explanation":"Parks property record with acquisition date for Colgate Close."},"geometry":{"type":"Point","coordinates":[-73.881499,40.82445]}},{"type":"Feature","id":"nyc_parks_property_170292","properties":{"city_id":"nyc","event_id":"nyc_parks_property_170292","title":"Parks property acquisition: Harold Schneiderman Playground","subtitle":"Queens / 1958-07-15 / Documented / Parks Properties","details":"Parks property record with acquisition date for Harold Schneiderman Playground.","year":1958,"effective_date":"1958-07-15","date_precision":"day","short_description":"NYC Parks property record for Harold Schneiderman Playground; type Jointly Operated Playground; acres 0.878; waterfront=False.","category":"environment","lens":"green_space","confidence":"documented","source_ids":["enfh-gkve"],"affected_area_label":"Queens","explanation":"Parks property record with acquisition date for Harold Schneiderman Playground."},"geometry":{"type":"Point","coordinates":[-73.850504,40.664965]}},{"type":"Feature","id":"nyc_parks_property_170307","properties":{"city_id":"nyc","event_id":"nyc_parks_property_170307","title":"Parks property acquisition: Conch Playground","subtitle":"Queens / 1958-07-07 / Documented / Parks Properties","details":"Parks property record with acquisition date for Conch Playground.","year":1958,"effective_date":"1958-07-07","date_precision":"day","short_description":"NYC Parks property record for Conch Playground; type Jointly Operated Playground; acres 1.889; waterfront=False.","category":"environment","lens":"green_space","confidence":"documented","source_ids":["enfh-gkve"],"affected_area_label":"Queens","explanation":"Parks property record with acquisition date for Conch Playground."},"geometry":{"type":"Point","coordinates":[-73.780485,40.596251]}},{"type":"Feature","id":"nyc_parks_property_170308","properties":{"city_id":"nyc","event_id":"nyc_parks_property_170308","title":"Parks property acquisition: Auburndale Playground","subtitle":"Queens / 1958-12-16 / Documented / Parks Properties","details":"Parks property record with acquisition date for Auburndale Playground.","year":1958,"effective_date":"1958-12-16","date_precision":"day","short_description":"NYC Parks property record for Auburndale Playground; type Jointly Operated Playground; acres 0.686; waterfront=False.","category":"environment","lens":"green_space","confidence":"documented","source_ids":["enfh-gkve"],"affected_area_label":"Queens","explanation":"Parks property record with acquisition date for Auburndale Playground."},"geometry":{"type":"Point","coordinates":[-73.794342,40.765904]}},{"type":"Feature","id":"nyc_parks_property_170309","properties":{"city_id":"nyc","event_id":"nyc_parks_property_170309","title":"Parks property acquisition: Rosemary's Playground","subtitle":"Queens / 1958-03-06 / Documented / Parks Properties","details":"Parks property record with acquisition date for Rosemary's Playground.","year":1958,"effective_date":"1958-03-06","date_precision":"day","short_description":"NYC Parks property record for Rosemary's Playground; type Jointly Operated Playground; acres 1.967; waterfront=False.","category":"environment","lens":"green_space","confidence":"documented","source_ids":["enfh-gkve"],"affected_area_label":"Queens","explanation":"Parks property record with acquisition date for Rosemary's Playground."},"geometry":{"type":"Point","coordinates":[-73.904044,40.704454]}},{"type":"Feature","id":"nyc_parks_property_170310","properties":{"city_id":"nyc","event_id":"nyc_parks_property_170310","title":"Parks property acquisition: Bay Terrace Playground","subtitle":"Queens / 1958-10-16 / Documented / Parks Properties","details":"Parks property record with acquisition date for Bay Terrace Playground.","year":1958,"effective_date":"1958-10-16","date_precision":"day","short_description":"NYC Parks property record for Bay Terrace Playground; type Jointly Operated Playground; acres 0.91; waterfront=False.","category":"environment","lens":"green_space","confidence":"documented","source_ids":["enfh-gkve"],"affected_area_label":"Queens","explanation":"Parks property record with acquisition date for Bay Terrace Playground."},"geometry":{"type":"Point","coordinates":[-73.777584,40.7822]}},{"type":"Feature","id":"nyc_parks_property_170414","properties":{"city_id":"nyc","event_id":"nyc_parks_property_170414","title":"Parks property acquisition: Park — Brooklyn · 170414","subtitle":"Brooklyn / 1958-12-18 / Documented / Parks Properties","details":"Parks property record with acquisition date for Park.","year":1958,"effective_date":"1958-12-18","date_precision":"day","short_description":"NYC Parks property record for Park; type Triangle/Plaza; acres 0.205; waterfront=False.","category":"environment","lens":"green_space","confidence":"documented","source_ids":["enfh-gkve"],"affected_area_label":"Brooklyn","explanation":"Parks property record with acquisition date for Park."},"geometry":{"type":"Point","coordinates":[-73.973956,40.65085]}},{"type":"Feature","id":"nyc_parks_property_170433","properties":{"city_id":"nyc","event_id":"nyc_parks_property_170433","title":"Parks property acquisition: Power Playground","subtitle":"Brooklyn / 1958-01-23 / Documented / Parks Properties","details":"Parks property record with acquisition date for Power Playground.","year":1958,"effective_date":"1958-01-23","date_precision":"day","short_description":"NYC Parks property record for Power Playground; type Neighborhood Park; acres 2.295; waterfront=False.","category":"environment","lens":"green_space","confidence":"documented","source_ids":["enfh-gkve"],"affected_area_label":"Brooklyn","explanation":"Parks property record with acquisition date for Power Playground."},"geometry":{"type":"Point","coordinates":[-73.927234,40.617999]}},{"type":"Feature","id":"nyc_parks_property_170441","properties":{"city_id":"nyc","event_id":"nyc_parks_property_170441","title":"Parks property acquisition: Playground 286","subtitle":"Brooklyn / 1958-02-28 / Documented / Parks Properties","details":"Parks property record with acquisition date for Playground 286.","year":1958,"effective_date":"1958-02-28","date_precision":"day","short_description":"NYC Parks property record for Playground 286; type Jointly Operated Playground; acres 0.868; waterfront=False.","category":"environment","lens":"green_space","confidence":"documented","source_ids":["enfh-gkve"],"affected_area_label":"Brooklyn","explanation":"Parks property record with acquisition date for Playground 286."},"geometry":{"type":"Point","coordinates":[-73.938423,40.591206]}},{"type":"Feature","id":"nyc_parks_property_170445","properties":{"city_id":"nyc","event_id":"nyc_parks_property_170445","title":"Parks property acquisition: Woodruff Playground","subtitle":"Brooklyn / 1958-02-14 / Documented / Parks Properties","details":"Parks property record with acquisition date for Woodruff Playground.","year":1958,"effective_date":"1958-02-14","date_precision":"day","short_description":"NYC Parks property record for Woodruff Playground; type Jointly Operated Playground; acres 0.536; waterfront=False.","category":"environment","lens":"green_space","confidence":"documented","source_ids":["enfh-gkve"],"affected_area_label":"Brooklyn","explanation":"Parks property record with acquisition date for Woodruff Playground."},"geometry":{"type":"Point","coordinates":[-73.865943,40.665272]}},{"type":"Feature","id":"nyc_parks_property_170446","properties":{"city_id":"nyc","event_id":"nyc_parks_property_170446","title":"Parks property acquisition: El Shabazz Playground","subtitle":"Brooklyn / 1958-11-21 / Documented / Parks Properties","details":"Parks property record with acquisition date for El Shabazz Playground.","year":1958,"effective_date":"1958-11-21","date_precision":"day","short_description":"NYC Parks property record for El Shabazz Playground; type Jointly Operated Playground; acres 0.89; waterfront=False.","category":"environment","lens":"green_space","confidence":"documented","source_ids":["enfh-gkve"],"affected_area_label":"Brooklyn","explanation":"Parks property record with acquisition date for El Shabazz Playground."},"geometry":{"type":"Point","coordinates":[-73.930628,40.682928]}},{"type":"Feature","id":"nyc_parks_property_170451","properties":{"city_id":"nyc","event_id":"nyc_parks_property_170451","title":"Parks property acquisition: Park Slope Playground","subtitle":"Brooklyn / 1958-12-28 / Documented / Parks Properties","details":"Parks property record with acquisition date for Park Slope Playground.","year":1958,"effective_date":"1958-12-28","date_precision":"day","short_description":"NYC Parks property record for Park Slope Playground; type Jointly Operated Playground; acres 0.955; waterfront=False.","category":"environment","lens":"green_space","confidence":"documented","source_ids":["enfh-gkve"],"affected_area_label":"Brooklyn","explanation":"Parks property record with acquisition date for Park Slope Playground."},"geometry":{"type":"Point","coordinates":[-73.97843,40.676833]}},{"type":"Feature","id":"nyc_parks_property_170535","properties":{"city_id":"nyc","event_id":"nyc_parks_property_170535","title":"Parks property acquisition: Park — Brooklyn · 170535","subtitle":"Brooklyn / 1958-12-30 / Documented / Parks Properties","details":"Parks property record with acquisition date for Park.","year":1958,"effective_date":"1958-12-30","date_precision":"day","short_description":"NYC Parks property record for Park; type Parkway; acres 0.586; waterfront=False.","category":"environment","lens":"green_space","confidence":"documented","source_ids":["enfh-gkve"],"affected_area_label":"Brooklyn","explanation":"Parks property record with acquisition date for Park."},"geometry":{"type":"Point","coordinates":[-74.027022,40.614286]}},{"type":"Feature","id":"nyc_parks_property_170539","properties":{"city_id":"nyc","event_id":"nyc_parks_property_170539","title":"Parks property acquisition: Park — Brooklyn · 170539","subtitle":"Brooklyn / 1958-12-18 / Documented / Parks Properties","details":"Parks property record with acquisition date for Park.","year":1958,"effective_date":"1958-12-18","date_precision":"day","short_description":"NYC Parks property record for Park; type Triangle/Plaza; acres 0.116; waterfront=False.","category":"environment","lens":"green_space","confidence":"documented","source_ids":["enfh-gkve"],"affected_area_label":"Brooklyn","explanation":"Parks property record with acquisition date for Park."},"geometry":{"type":"Point","coordinates":[-73.973524,40.650012]}},{"type":"Feature","id":"nyc_parks_property_170587","properties":{"city_id":"nyc","event_id":"nyc_parks_property_170587","title":"Parks property acquisition: Howard Bennett Playground","subtitle":"Manhattan / 1958-10-03 / Documented / Parks Properties","details":"Parks property record with acquisition date for Howard Bennett Playground.","year":1958,"effective_date":"1958-10-03","date_precision":"day","short_description":"NYC Parks property record for Howard Bennett Playground; type Jointly Operated Playground; acres 1.228; waterfront=False.","category":"environment","lens":"green_space","confidence":"documented","source_ids":["enfh-gkve"],"affected_area_label":"Manhattan","explanation":"Parks property record with acquisition date for Howard Bennett Playground."},"geometry":{"type":"Point","coordinates":[-73.93863,40.813689]}},{"type":"Feature","id":"nyc_parks_property_170714","properties":{"city_id":"nyc","event_id":"nyc_parks_property_170714","title":"Parks property acquisition: Story Playground","subtitle":"Bronx / 1958-01-08 / Documented / Parks Properties","details":"Parks property record with acquisition date for Story Playground.","year":1958,"effective_date":"1958-01-08","date_precision":"day","short_description":"NYC Parks property record for Story Playground; type Jointly Operated Playground; acres 2.075; waterfront=False.","category":"environment","lens":"green_space","confidence":"documented","source_ids":["enfh-gkve"],"affected_area_label":"Bronx","explanation":"Parks property record with acquisition date for Story Playground."},"geometry":{"type":"Point","coordinates":[-73.8628,40.82305]}},{"type":"Feature","id":"nyc_parks_property_170730","properties":{"city_id":"nyc","event_id":"nyc_parks_property_170730","title":"Parks property acquisition: Rev. Dr. Maggie Howard Playground","subtitle":"Staten Island / 1958-04-07 / Documented / Parks Properties","details":"Parks property record with acquisition date for Rev. Dr. Maggie Howard Playground.","year":1958,"effective_date":"1958-04-07","date_precision":"day","short_description":"NYC Parks property record for Rev. Dr. Maggie Howard Playground; type Jointly Operated Playground; acres 4.096; waterfront=False.","category":"environment","lens":"green_space","confidence":"documented","source_ids":["enfh-gkve"],"affected_area_label":"Staten Island","explanation":"Parks property record with acquisition date for Rev. Dr. Maggie Howard Playground."},"geometry":{"type":"Point","coordinates":[-74.07951,40.623324]}},{"type":"Feature","id":"nyc_parks_property_170816","properties":{"city_id":"nyc","event_id":"nyc_parks_property_170816","title":"Parks property acquisition: Captain Rivera Playground","subtitle":"Bronx / 1958-05-22 / Documented / Parks Properties","details":"Parks property record with acquisition date for Captain Rivera Playground.","year":1958,"effective_date":"1958-05-22","date_precision":"day","short_description":"NYC Parks property record for Captain Rivera Playground; type Playground; acres 0.988; waterfront=False.","category":"environment","lens":"green_space","confidence":"documented","source_ids":["enfh-gkve"],"affected_area_label":"Bronx","explanation":"Parks property record with acquisition date for Captain Rivera Playground."},"geometry":{"type":"Point","coordinates":[-73.906838,40.817971]}},{"type":"Feature","id":"nyc_parks_property_170829","properties":{"city_id":"nyc","event_id":"nyc_parks_property_170829","title":"Parks property acquisition: Haffen Park","subtitle":"Bronx / 1958-10-02 / Documented / Parks Properties","details":"Parks property record with acquisition date for Haffen Park.","year":1958,"effective_date":"1958-10-02","date_precision":"day","short_description":"NYC Parks property record for Haffen Park; type Neighborhood Park; acres 9.238; waterfront=False.","category":"environment","lens":"green_space","confidence":"documented","source_ids":["enfh-gkve"],"affected_area_label":"Bronx","explanation":"Parks property record with acquisition date for Haffen Park."},"geometry":{"type":"Point","coordinates":[-73.838857,40.87361]}},{"type":"Feature","id":"nyc_parks_property_171086","properties":{"city_id":"nyc","event_id":"nyc_parks_property_171086","title":"Parks property acquisition: Al Quiñones Playground","subtitle":"Bronx / 1958-02-14 / Documented / Parks Properties","details":"Parks property record with acquisition date for Al Quiñones Playground.","year":1958,"effective_date":"1958-02-14","date_precision":"day","short_description":"NYC Parks property record for Al Quiñones Playground; type Jointly Operated Playground; acres 1.793; waterfront=False.","category":"environment","lens":"green_space","confidence":"documented","source_ids":["enfh-gkve"],"affected_area_label":"Bronx","explanation":"Parks property record with acquisition date for Al Quiñones Playground."},"geometry":{"type":"Point","coordinates":[-73.901816,40.815152]}}]}
