{"type":"FeatureCollection","schema_version":"1.0.0","city_id":"nyc","year":1833,"features":[{"type":"Feature","id":"nyc_parks_property_171124","properties":{"city_id":"nyc","event_id":"nyc_parks_property_171124","title":"Parks property acquisition: Union Square Park","subtitle":"Manhattan / 1833-04-04 / Documented / Parks Properties","details":"Parks property record with acquisition date for Union Square Park.","year":1833,"effective_date":"1833-04-04","date_precision":"day","short_description":"NYC Parks property record for Union Square Park; type Community Park; acres 6.51; waterfront=False.","category":"environment","lens":"green_space","confidence":"documented","source_ids":["enfh-gkve"],"affected_area_label":"Manhattan","explanation":"Parks property record with acquisition date for Union Square Park."},"geometry":{"type":"Point","coordinates":[-73.990302,40.735301]}}],"map_feature_count":1,"withheld_geometry_event_count":0}
