{"type":"FeatureCollection","schema_version":"1.0.0","city_id":"nyc","year":2008,"features":[{"type":"Feature","id":"nyc-milestone-2008-select-bus-service-and-summer-streets-era-starts-13","properties":{"city_id":"nyc","event_id":"nyc-milestone-2008-select-bus-service-and-summer-streets-era-starts-13","title":"Select Bus Service and Summer Streets era starts","year":2008,"effective_date":"2008","date_precision":"year","category":"transport","lens":"traffic","confidence":"documented","source_ids":["c9sj-fmsg","tqtj-sjs8","i6b5-j7bu"],"explanation":"Bus priority and temporary car-free streets"},"geometry":{"type":"Point","coordinates":[-73.925252,40.76499]}}]}
