{"type":"FeatureCollection","schema_version":"1.0.0","city_id":"nyc","year":1900,"features":[{"type":"Feature","id":"nyc_parks_property_169173","properties":{"city_id":"nyc","event_id":"nyc_parks_property_169173","title":"Parks property acquisition: Ryan Triangle","short_description":"NYC Parks property record for Ryan Triangle; type Triangle/Plaza; acres 0.22; waterfront=False.","year":1900,"effective_date":"1900-07-23","date_precision":"day","category":"environment","lens":"green_space","confidence":"documented","source_ids":["enfh-gkve"],"explanation":"Parks property record with acquisition date for Ryan Triangle."},"geometry":{"type":"Point","coordinates":[-73.924374,40.815388]}},{"type":"Feature","id":"nyc_parks_property_170705","properties":{"city_id":"nyc","event_id":"nyc_parks_property_170705","title":"Parks property acquisition: Andrews Grove","short_description":"NYC Parks property record for Andrews Grove; type Playground; acres 0.518; waterfront=False.","year":1900,"effective_date":"1900-10-28","date_precision":"day","category":"environment","lens":"green_space","confidence":"documented","source_ids":["enfh-gkve"],"explanation":"Parks property record with acquisition date for Andrews Grove."},"geometry":{"type":"Point","coordinates":[-73.954773,40.743374]}},{"type":"Feature","id":"nyc_parks_property_170868","properties":{"city_id":"nyc","event_id":"nyc_parks_property_170868","title":"Parks property acquisition: Riverside Park","short_description":"NYC Parks property record for Riverside Park; type Neighborhood Park; acres 13.35; waterfront=False.","year":1900,"effective_date":"1900-09-22","date_precision":"day","category":"environment","lens":"green_space","confidence":"documented","source_ids":["enfh-gkve"],"explanation":"Parks property record with acquisition date for Riverside Park."},"geometry":{"type":"Point","coordinates":[-73.953424,40.826222]}}]}
