{"type":"FeatureCollection","schema_version":"1.0.0","city_id":"nyc","year":1942,"features":[{"type":"Feature","id":"nyc_parks_property_169599","properties":{"city_id":"nyc","event_id":"nyc_parks_property_169599","title":"Parks property acquisition: Riverdale Park","year":1942,"effective_date":"1942-04-09","date_precision":"day","category":"environment","lens":"green_space","confidence":"documented","source_ids":["enfh-gkve"],"explanation":"Parks property record with acquisition date for Riverdale Park."},"geometry":{"type":"Point","coordinates":[-73.918067,40.892002]}},{"type":"Feature","id":"nyc_parks_property_169714","properties":{"city_id":"nyc","event_id":"nyc_parks_property_169714","title":"Parks property acquisition: Brookville Park","year":1942,"effective_date":"1942-03-19","date_precision":"day","category":"environment","lens":"green_space","confidence":"documented","source_ids":["enfh-gkve"],"explanation":"Parks property record with acquisition date for Brookville Park."},"geometry":{"type":"Point","coordinates":[-73.744892,40.659652]}},{"type":"Feature","id":"nyc_parks_property_169736","properties":{"city_id":"nyc","event_id":"nyc_parks_property_169736","title":"Parks property acquisition: Washington Hall Park","year":1942,"effective_date":"1942-02-09","date_precision":"day","category":"environment","lens":"green_space","confidence":"documented","source_ids":["enfh-gkve"],"explanation":"Parks property record with acquisition date for Washington Hall Park."},"geometry":{"type":"Point","coordinates":[-73.966754,40.695255]}},{"type":"Feature","id":"nyc_parks_property_169737","properties":{"city_id":"nyc","event_id":"nyc_parks_property_169737","title":"Parks property acquisition: Steuben Playground","year":1942,"effective_date":"1942-02-09","date_precision":"day","category":"environment","lens":"green_space","confidence":"documented","source_ids":["enfh-gkve"],"explanation":"Parks property record with acquisition date for Steuben Playground."},"geometry":{"type":"Point","coordinates":[-73.96334,40.697222]}},{"type":"Feature","id":"nyc_parks_property_169890","properties":{"city_id":"nyc","event_id":"nyc_parks_property_169890","title":"Parks property acquisition: Decatur Playground","year":1942,"effective_date":"1942-09-23","date_precision":"day","category":"environment","lens":"green_space","confidence":"documented","source_ids":["enfh-gkve"],"explanation":"Parks property record with acquisition date for Decatur Playground."},"geometry":{"type":"Point","coordinates":[-73.936524,40.681441]}},{"type":"Feature","id":"nyc_parks_property_169982","properties":{"city_id":"nyc","event_id":"nyc_parks_property_169982","title":"Parks property acquisition: Admiral Triangle","year":1942,"effective_date":"1942-12-30","date_precision":"day","category":"environment","lens":"green_space","confidence":"documented","source_ids":["enfh-gkve"],"explanation":"Parks property record with acquisition date for Admiral Triangle."},"geometry":{"type":"Point","coordinates":[-74.001019,40.676949]}},{"type":"Feature","id":"nyc_parks_property_169983","properties":{"city_id":"nyc","event_id":"nyc_parks_property_169983","title":"Parks property acquisition: Cough Triangle","year":1942,"effective_date":"1942-12-30","date_precision":"day","category":"environment","lens":"green_space","confidence":"documented","source_ids":["enfh-gkve"],"explanation":"Parks property record with acquisition date for Cough Triangle."},"geometry":{"type":"Point","coordinates":[-73.999872,40.674507]}},{"type":"Feature","id":"nyc_parks_property_170040","properties":{"city_id":"nyc","event_id":"nyc_parks_property_170040","title":"Parks property acquisition: Park","year":1942,"effective_date":"1942-06-08","date_precision":"day","category":"environment","lens":"green_space","confidence":"documented","source_ids":["enfh-gkve"],"explanation":"Parks property record with acquisition date for Park."},"geometry":{"type":"Point","coordinates":[-73.92953,40.797001]}},{"type":"Feature","id":"nyc_parks_property_170114","properties":{"city_id":"nyc","event_id":"nyc_parks_property_170114","title":"Parks property acquisition: Triangle Three Sixteen","year":1942,"effective_date":"1942-12-30","date_precision":"day","category":"environment","lens":"green_space","confidence":"documented","source_ids":["enfh-gkve"],"explanation":"Parks property record with acquisition date for Triangle Three Sixteen."},"geometry":{"type":"Point","coordinates":[-73.994986,40.667285]}},{"type":"Feature","id":"nyc_parks_property_170387","properties":{"city_id":"nyc","event_id":"nyc_parks_property_170387","title":"Parks property acquisition: Pierrepont Playground","year":1942,"effective_date":"1942-11-25","date_precision":"day","category":"environment","lens":"green_space","confidence":"documented","source_ids":["enfh-gkve"],"explanation":"Parks property record with acquisition date for Pierrepont Playground."},"geometry":{"type":"Point","coordinates":[-73.997351,40.696205]}},{"type":"Feature","id":"nyc_parks_property_170399","properties":{"city_id":"nyc","event_id":"nyc_parks_property_170399","title":"Parks property acquisition: Queens Valley Playground","year":1942,"effective_date":"1942-09-16","date_precision":"day","category":"environment","lens":"green_space","confidence":"documented","source_ids":["enfh-gkve"],"explanation":"Parks property record with acquisition date for Queens Valley Playground."},"geometry":{"type":"Point","coordinates":[-73.823708,40.721999]}},{"type":"Feature","id":"nyc_parks_property_170424","properties":{"city_id":"nyc","event_id":"nyc_parks_property_170424","title":"Parks property acquisition: Grady Playground","year":1942,"effective_date":"1942-05-07","date_precision":"day","category":"environment","lens":"green_space","confidence":"documented","source_ids":["enfh-gkve"],"explanation":"Parks property record with acquisition date for Grady Playground."},"geometry":{"type":"Point","coordinates":[-73.964819,40.583036]}},{"type":"Feature","id":"nyc_parks_property_171201","properties":{"city_id":"nyc","event_id":"nyc_parks_property_171201","title":"Parks property acquisition: Newtown Barge Playground","year":1942,"effective_date":"1942-02-13","date_precision":"day","category":"environment","lens":"green_space","confidence":"documented","source_ids":["enfh-gkve"],"explanation":"Parks property record with acquisition date for Newtown Barge Playground."},"geometry":{"type":"Point","coordinates":[-73.960378,40.735817]}}]}
