{"type":"FeatureCollection","schema_version":"1.0.0","city_id":"nyc","year":1899,"features":[{"type":"Feature","id":"nyc_parks_property_169172","properties":{"city_id":"nyc","event_id":"nyc_parks_property_169172","title":"Parks property acquisition: Echo Triangle","subtitle":"Bronx / 1899-05-31 / Documented / Parks Properties","details":"Parks property record with acquisition date for Echo Triangle.","year":1899,"effective_date":"1899-05-31","date_precision":"day","short_description":"NYC Parks property record for Echo Triangle; type Triangle/Plaza; acres 0.16; waterfront=False.","category":"environment","lens":"green_space","confidence":"documented","source_ids":["enfh-gkve"],"affected_area_label":"Bronx","explanation":"Parks property record with acquisition date for Echo Triangle."},"geometry":{"type":"Point","coordinates":[-73.906141,40.849882]}},{"type":"Feature","id":"nyc_parks_property_169823","properties":{"city_id":"nyc","event_id":"nyc_parks_property_169823","title":"Parks property acquisition: Keltch Park","subtitle":"Bronx / 1899-05-31 / Documented / Parks Properties","details":"Parks property record with acquisition date for Keltch Park.","year":1899,"effective_date":"1899-05-31","date_precision":"day","short_description":"NYC Parks property record for Keltch Park; type Triangle/Plaza; acres 0.287; waterfront=False.","category":"environment","lens":"green_space","confidence":"documented","source_ids":["enfh-gkve"],"affected_area_label":"Bronx","explanation":"Parks property record with acquisition date for Keltch Park."},"geometry":{"type":"Point","coordinates":[-73.917907,40.840329]}},{"type":"Feature","id":"nyc_parks_property_170030","properties":{"city_id":"nyc","event_id":"nyc_parks_property_170030","title":"Parks property acquisition: University Woods","subtitle":"Bronx / 1899-06-28 / Documented / Parks Properties","details":"Parks property record with acquisition date for University Woods.","year":1899,"effective_date":"1899-06-28","date_precision":"day","short_description":"NYC Parks property record for University Woods; type Neighborhood Park; acres 3.306; waterfront=False.","category":"environment","lens":"green_space","confidence":"documented","source_ids":["enfh-gkve"],"affected_area_label":"Bronx","explanation":"Parks property record with acquisition date for University Woods."},"geometry":{"type":"Point","coordinates":[-73.915081,40.859161]}},{"type":"Feature","id":"nyc_parks_property_170925","properties":{"city_id":"nyc","event_id":"nyc_parks_property_170925","title":"Parks property acquisition: Jackie Robinson Park","subtitle":"Manhattan / 1899-05-05 / Documented / Parks Properties","details":"Parks property record with acquisition date for Jackie Robinson Park.","year":1899,"effective_date":"1899-05-05","date_precision":"day","short_description":"NYC Parks property record for Jackie Robinson Park; type Neighborhood Park; acres 12.772; waterfront=False.","category":"environment","lens":"green_space","confidence":"documented","source_ids":["enfh-gkve"],"affected_area_label":"Manhattan","explanation":"Parks property record with acquisition date for Jackie Robinson Park."},"geometry":{"type":"Point","coordinates":[-73.939813,40.829236]}},{"type":"Feature","id":"nyc_parks_property_171188","properties":{"city_id":"nyc","event_id":"nyc_parks_property_171188","title":"Parks property acquisition: Highbridge Park","subtitle":"Manhattan / 1899-12-08 / Documented / Parks Properties","details":"Parks property record with acquisition date for Highbridge Park.","year":1899,"effective_date":"1899-12-08","date_precision":"day","short_description":"NYC Parks property record for Highbridge Park; type Community Park; acres 130.1; waterfront=True.","category":"environment","lens":"green_space","confidence":"documented","source_ids":["enfh-gkve"],"affected_area_label":"Manhattan","explanation":"Parks property record with acquisition date for Highbridge Park."},"geometry":{"type":"Point","coordinates":[-73.934797,40.839277]}},{"type":"Feature","id":"nyc_parks_property_171206","properties":{"city_id":"nyc","event_id":"nyc_parks_property_171206","title":"Parks property acquisition: Harlem River Park","subtitle":"Manhattan / 1899-12-08 / Documented / Parks Properties","details":"Parks property record with acquisition date for Harlem River Park.","year":1899,"effective_date":"1899-12-08","date_precision":"day","short_description":"NYC Parks property record for Harlem River Park; type Parkway; acres 46.657; waterfront=True.","category":"environment","lens":"green_space","confidence":"documented","source_ids":["enfh-gkve"],"affected_area_label":"Manhattan","explanation":"Parks property record with acquisition date for Harlem River Park."},"geometry":{"type":"Point","coordinates":[-73.936461,40.830968]}}],"map_feature_count":6,"withheld_geometry_event_count":0}
