{"type":"FeatureCollection","schema_version":"1.0.0","city_id":"nyc","year":1940,"features":[{"type":"Feature","id":"nyc-milestone-1940-ind-sixth-avenue-subway-opens-municipal-subway-consolidation-era-5","properties":{"city_id":"nyc","event_id":"nyc-milestone-1940-ind-sixth-avenue-subway-opens-municipal-subway-consolidation-era-5","title":"IND Sixth Avenue subway opens; municipal subway consolidation era","short_description":"Subway network consolidation and Midtown access changes","year":1940,"effective_date":"1940","date_precision":"year","category":"transport","lens":"traffic","confidence":"documented","source_ids":["c9sj-fmsg","tqtj-sjs8","i6b5-j7bu"],"explanation":"Subway network consolidation and Midtown access changes"},"geometry":{"type":"Point","coordinates":[-73.9851,40.7589]}},{"type":"Feature","id":"nyc_parks_property_169071","properties":{"city_id":"nyc","event_id":"nyc_parks_property_169071","title":"Parks property acquisition: Jerome Park","short_description":"NYC Parks property record for Jerome Park; type Neighborhood Park; acres 4.359; waterfront=False.","year":1940,"effective_date":"1940-04-04","date_precision":"day","category":"environment","lens":"green_space","confidence":"documented","source_ids":["enfh-gkve"],"explanation":"Parks property record with acquisition date for Jerome Park."},"geometry":{"type":"Point","coordinates":[-73.891434,40.879292]}},{"type":"Feature","id":"nyc_parks_property_169131","properties":{"city_id":"nyc","event_id":"nyc_parks_property_169131","title":"Parks property acquisition: Dodgers Triangle","short_description":"NYC Parks property record for Dodgers Triangle; type Triangle/Plaza; acres 0.033; waterfront=False.","year":1940,"effective_date":"1940-06-27","date_precision":"day","category":"environment","lens":"green_space","confidence":"documented","source_ids":["enfh-gkve"],"explanation":"Parks property record with acquisition date for Dodgers Triangle."},"geometry":{"type":"Point","coordinates":[-74.119517,40.614804]}},{"type":"Feature","id":"nyc_parks_property_169149","properties":{"city_id":"nyc","event_id":"nyc_parks_property_169149","title":"Parks property acquisition: Hot Spot Tot Lot","short_description":"NYC Parks property record for Hot Spot Tot Lot; type Playground; acres 0.322; waterfront=False.","year":1940,"effective_date":"1940-06-27","date_precision":"day","category":"environment","lens":"green_space","confidence":"documented","source_ids":["enfh-gkve"],"explanation":"Parks property record with acquisition date for Hot Spot Tot Lot."},"geometry":{"type":"Point","coordinates":[-73.956662,40.630954]}},{"type":"Feature","id":"nyc_parks_property_169354","properties":{"city_id":"nyc","event_id":"nyc_parks_property_169354","title":"Parks property acquisition: \"Uncle\" Vito F. Maranzano Glendale Playground","short_description":"NYC Parks property record for \"Uncle\" Vito F. Maranzano Glendale Playground; type Playground; acres 1.15; waterfront=False.","year":1940,"effective_date":"1940-02-01","date_precision":"day","category":"environment","lens":"green_space","confidence":"documented","source_ids":["enfh-gkve"],"explanation":"Parks property record with acquisition date for \"Uncle\" Vito F. Maranzano Glendale Playground."},"geometry":{"type":"Point","coordinates":[-73.881661,40.704883]}},{"type":"Feature","id":"nyc_parks_property_169456","properties":{"city_id":"nyc","event_id":"nyc_parks_property_169456","title":"Parks property acquisition: Kissena Corridor Park","short_description":"NYC Parks property record for Kissena Corridor Park; type Community Park; acres 100.873; waterfront=False.","year":1940,"effective_date":"1940-12-24","date_precision":"day","category":"environment","lens":"green_space","confidence":"documented","source_ids":["enfh-gkve"],"explanation":"Parks property record with acquisition date for Kissena Corridor Park."},"geometry":{"type":"Point","coordinates":[-73.825119,40.748635]}},{"type":"Feature","id":"nyc_parks_property_169592","properties":{"city_id":"nyc","event_id":"nyc_parks_property_169592","title":"Parks property acquisition: Utopia Playground","short_description":"NYC Parks property record for Utopia Playground; type Neighborhood Park; acres 2.98; waterfront=False.","year":1940,"effective_date":"1940-03-07","date_precision":"day","category":"environment","lens":"green_space","confidence":"documented","source_ids":["enfh-gkve"],"explanation":"Parks property record with acquisition date for Utopia Playground."},"geometry":{"type":"Point","coordinates":[-73.792893,40.730761]}},{"type":"Feature","id":"nyc_parks_property_169703","properties":{"city_id":"nyc","event_id":"nyc_parks_property_169703","title":"Parks property acquisition: Homecrest Playground","short_description":"NYC Parks property record for Homecrest Playground; type Playground; acres 2.372; waterfront=False.","year":1940,"effective_date":"1940-06-25","date_precision":"day","category":"environment","lens":"green_space","confidence":"documented","source_ids":["enfh-gkve"],"explanation":"Parks property record with acquisition date for Homecrest Playground."},"geometry":{"type":"Point","coordinates":[-73.957195,40.585979]}},{"type":"Feature","id":"nyc_parks_property_169739","properties":{"city_id":"nyc","event_id":"nyc_parks_property_169739","title":"Parks property acquisition: Michel Triangle","short_description":"NYC Parks property record for Michel Triangle; type Triangle/Plaza; acres 0.28; waterfront=False.","year":1940,"effective_date":"1940-05-22","date_precision":"day","category":"environment","lens":"green_space","confidence":"documented","source_ids":["enfh-gkve"],"explanation":"Parks property record with acquisition date for Michel Triangle."},"geometry":{"type":"Point","coordinates":[-73.905893,40.839144]}},{"type":"Feature","id":"nyc_parks_property_169781","properties":{"city_id":"nyc","event_id":"nyc_parks_property_169781","title":"Parks property acquisition: Meucci Triangle","short_description":"NYC Parks property record for Meucci Triangle; type Triangle/Plaza; acres 0.045; waterfront=False.","year":1940,"effective_date":"1940-02-20","date_precision":"day","category":"environment","lens":"green_space","confidence":"documented","source_ids":["enfh-gkve"],"explanation":"Parks property record with acquisition date for Meucci Triangle."},"geometry":{"type":"Point","coordinates":[-73.983247,40.595749]}},{"type":"Feature","id":"nyc_parks_property_169885","properties":{"city_id":"nyc","event_id":"nyc_parks_property_169885","title":"Parks property acquisition: Park","short_description":"NYC Parks property record for Park; type Undeveloped; acres 1.08; waterfront=False.","year":1940,"effective_date":"1940-06-27","date_precision":"day","category":"environment","lens":"green_space","confidence":"documented","source_ids":["enfh-gkve"],"explanation":"Parks property record with acquisition date for Park."},"geometry":{"type":"Point","coordinates":[-73.996006,40.666484]}},{"type":"Feature","id":"nyc_parks_property_169995","properties":{"city_id":"nyc","event_id":"nyc_parks_property_169995","title":"Parks property acquisition: South Pacific Playground","short_description":"NYC Parks property record for South Pacific Playground; type Neighborhood Park; acres 2.264; waterfront=False.","year":1940,"effective_date":"1940-09-30","date_precision":"day","category":"environment","lens":"green_space","confidence":"documented","source_ids":["enfh-gkve"],"explanation":"Parks property record with acquisition date for South Pacific Playground."},"geometry":{"type":"Point","coordinates":[-73.920833,40.6757]}},{"type":"Feature","id":"nyc_parks_property_169997","properties":{"city_id":"nyc","event_id":"nyc_parks_property_169997","title":"Parks property acquisition: James Forten Playground","short_description":"NYC Parks property record for James Forten Playground; type Playground; acres 0.59; waterfront=False.","year":1940,"effective_date":"1940-03-07","date_precision":"day","category":"environment","lens":"green_space","confidence":"documented","source_ids":["enfh-gkve"],"explanation":"Parks property record with acquisition date for James Forten Playground."},"geometry":{"type":"Point","coordinates":[-73.965685,40.676601]}},{"type":"Feature","id":"nyc_parks_property_170194","properties":{"city_id":"nyc","event_id":"nyc_parks_property_170194","title":"Parks property acquisition: D'Emic Playground","short_description":"NYC Parks property record for D'Emic Playground; type Playground; acres 1.13; waterfront=False.","year":1940,"effective_date":"1940-05-28","date_precision":"day","category":"environment","lens":"green_space","confidence":"documented","source_ids":["enfh-gkve"],"explanation":"Parks property record with acquisition date for D'Emic Playground."},"geometry":{"type":"Point","coordinates":[-74.004815,40.655916]}},{"type":"Feature","id":"nyc_parks_property_170268","properties":{"city_id":"nyc","event_id":"nyc_parks_property_170268","title":"Parks property acquisition: Saul Weprin Playground","short_description":"NYC Parks property record for Saul Weprin Playground; type Jointly Operated Playground; acres 1.964; waterfront=False.","year":1940,"effective_date":"1940-02-28","date_precision":"day","category":"environment","lens":"green_space","confidence":"documented","source_ids":["enfh-gkve"],"explanation":"Parks property record with acquisition date for Saul Weprin Playground."},"geometry":{"type":"Point","coordinates":[-73.776307,40.747996]}},{"type":"Feature","id":"nyc_parks_property_170335","properties":{"city_id":"nyc","event_id":"nyc_parks_property_170335","title":"Parks property acquisition: Willowbrook Park","short_description":"NYC Parks property record for Willowbrook Park; type Community Park; acres 214.947; waterfront=False.","year":1940,"effective_date":"1940-01-30","date_precision":"day","category":"environment","lens":"green_space","confidence":"documented","source_ids":["enfh-gkve"],"explanation":"Parks property record with acquisition date for Willowbrook Park."},"geometry":{"type":"Point","coordinates":[-74.154937,40.598677]}},{"type":"Feature","id":"nyc_parks_property_170358","properties":{"city_id":"nyc","event_id":"nyc_parks_property_170358","title":"Parks property acquisition: John Allen Payne Playground","short_description":"NYC Parks property record for John Allen Payne Playground; type Playground; acres 1.51; waterfront=False.","year":1940,"effective_date":"1940-06-16","date_precision":"day","category":"environment","lens":"green_space","confidence":"documented","source_ids":["enfh-gkve"],"explanation":"Parks property record with acquisition date for John Allen Payne Playground."},"geometry":{"type":"Point","coordinates":[-74.023773,40.63979]}},{"type":"Feature","id":"nyc_parks_property_170381","properties":{"city_id":"nyc","event_id":"nyc_parks_property_170381","title":"Parks property acquisition: Hamilton Metz Field","short_description":"NYC Parks property record for Hamilton Metz Field; type Neighborhood Park; acres 2.112; waterfront=False.","year":1940,"effective_date":"1940-07-25","date_precision":"day","category":"environment","lens":"green_space","confidence":"documented","source_ids":["enfh-gkve"],"explanation":"Parks property record with acquisition date for Hamilton Metz Field."},"geometry":{"type":"Point","coordinates":[-73.940959,40.662517]}},{"type":"Feature","id":"nyc_parks_property_170382","properties":{"city_id":"nyc","event_id":"nyc_parks_property_170382","title":"Parks property acquisition: Mellett Playground","short_description":"NYC Parks property record for Mellett Playground; type Neighborhood Park; acres 1.056; waterfront=False.","year":1940,"effective_date":"1940-04-04","date_precision":"day","category":"environment","lens":"green_space","confidence":"documented","source_ids":["enfh-gkve"],"explanation":"Parks property record with acquisition date for Mellett Playground."},"geometry":{"type":"Point","coordinates":[-73.957438,40.597063]}},{"type":"Feature","id":"nyc_parks_property_170383","properties":{"city_id":"nyc","event_id":"nyc_parks_property_170383","title":"Parks property acquisition: Sunners Playground","short_description":"NYC Parks property record for Sunners Playground; type Playground; acres 0.197; waterfront=False.","year":1940,"effective_date":"1940-06-06","date_precision":"day","category":"environment","lens":"green_space","confidence":"documented","source_ids":["enfh-gkve"],"explanation":"Parks property record with acquisition date for Sunners Playground."},"geometry":{"type":"Point","coordinates":[-73.929572,40.632497]}},{"type":"Feature","id":"nyc_parks_property_170384","properties":{"city_id":"nyc","event_id":"nyc_parks_property_170384","title":"Parks property acquisition: Pfc Norton Playground","short_description":"NYC Parks property record for Pfc Norton Playground; type Playground; acres 0.55; waterfront=False.","year":1940,"effective_date":"1940-06-06","date_precision":"day","category":"environment","lens":"green_space","confidence":"documented","source_ids":["enfh-gkve"],"explanation":"Parks property record with acquisition date for Pfc Norton Playground."},"geometry":{"type":"Point","coordinates":[-73.945012,40.614444]}},{"type":"Feature","id":"nyc_parks_property_170385","properties":{"city_id":"nyc","event_id":"nyc_parks_property_170385","title":"Parks property acquisition: Galapo Playground","short_description":"NYC Parks property record for Galapo Playground; type Playground; acres 0.565; waterfront=False.","year":1940,"effective_date":"1940-06-06","date_precision":"day","category":"environment","lens":"green_space","confidence":"documented","source_ids":["enfh-gkve"],"explanation":"Parks property record with acquisition date for Galapo Playground."},"geometry":{"type":"Point","coordinates":[-73.946687,40.597963]}},{"type":"Feature","id":"nyc_parks_property_170534","properties":{"city_id":"nyc","event_id":"nyc_parks_property_170534","title":"Parks property acquisition: Sarsfield Playground","short_description":"NYC Parks property record for Sarsfield Playground; type Playground; acres 0.579; waterfront=False.","year":1940,"effective_date":"1940-06-06","date_precision":"day","category":"environment","lens":"green_space","confidence":"documented","source_ids":["enfh-gkve"],"explanation":"Parks property record with acquisition date for Sarsfield Playground."},"geometry":{"type":"Point","coordinates":[-73.937101,40.620324]}},{"type":"Feature","id":"nyc_parks_property_170550","properties":{"city_id":"nyc","event_id":"nyc_parks_property_170550","title":"Parks property acquisition: Vladeck Park","short_description":"NYC Parks property record for Vladeck Park; type Neighborhood Park; acres 0.789; waterfront=False.","year":1940,"effective_date":"1940-06-13","date_precision":"day","category":"environment","lens":"green_space","confidence":"documented","source_ids":["enfh-gkve"],"explanation":"Parks property record with acquisition date for Vladeck Park."},"geometry":{"type":"Point","coordinates":[-73.98198,40.712232]}},{"type":"Feature","id":"nyc_parks_property_170603","properties":{"city_id":"nyc","event_id":"nyc_parks_property_170603","title":"Parks property acquisition: Starr Playground","short_description":"NYC Parks property record for Starr Playground; type Playground; acres 0.9; waterfront=False.","year":1940,"effective_date":"1940-06-06","date_precision":"day","category":"environment","lens":"green_space","confidence":"documented","source_ids":["enfh-gkve"],"explanation":"Parks property record with acquisition date for Starr Playground."},"geometry":{"type":"Point","coordinates":[-73.917706,40.709793]}},{"type":"Feature","id":"nyc_parks_property_170604","properties":{"city_id":"nyc","event_id":"nyc_parks_property_170604","title":"Parks property acquisition: Playground Thirty Five XXXV","short_description":"NYC Parks property record for Playground Thirty Five XXXV; type Playground; acres 0.218; waterfront=False.","year":1940,"effective_date":"1940-06-27","date_precision":"day","category":"environment","lens":"green_space","confidence":"documented","source_ids":["enfh-gkve"],"explanation":"Parks property record with acquisition date for Playground Thirty Five XXXV."},"geometry":{"type":"Point","coordinates":[-73.921976,40.754816]}},{"type":"Feature","id":"nyc_parks_property_170913","properties":{"city_id":"nyc","event_id":"nyc_parks_property_170913","title":"Parks property acquisition: Harris Park","short_description":"NYC Parks property record for Harris Park; type Neighborhood Park; acres 15.32; waterfront=False.","year":1940,"effective_date":"1940-04-04","date_precision":"day","category":"environment","lens":"green_space","confidence":"documented","source_ids":["enfh-gkve"],"explanation":"Parks property record with acquisition date for Harris Park."},"geometry":{"type":"Point","coordinates":[-73.891497,40.87641]}},{"type":"Feature","id":"nyc_parks_property_170957","properties":{"city_id":"nyc","event_id":"nyc_parks_property_170957","title":"Parks property acquisition: Overlook Park","short_description":"NYC Parks property record for Overlook Park; type Nature Area; acres 2.327; waterfront=False.","year":1940,"effective_date":"1940-12-16","date_precision":"day","category":"environment","lens":"green_space","confidence":"documented","source_ids":["enfh-gkve"],"explanation":"Parks property record with acquisition date for Overlook Park."},"geometry":{"type":"Point","coordinates":[-73.87254,40.770491]}},{"type":"Feature","id":"nyc_parks_property_171075","properties":{"city_id":"nyc","event_id":"nyc_parks_property_171075","title":"Parks property acquisition: Mount Prospect Park","short_description":"NYC Parks property record for Mount Prospect Park; type Neighborhood Park; acres 7.79; waterfront=False.","year":1940,"effective_date":"1940-03-07","date_precision":"day","category":"environment","lens":"green_space","confidence":"documented","source_ids":["enfh-gkve"],"explanation":"Parks property record with acquisition date for Mount Prospect Park."},"geometry":{"type":"Point","coordinates":[-73.966751,40.671939]}},{"type":"Feature","id":"nyc_parks_property_171118","properties":{"city_id":"nyc","event_id":"nyc_parks_property_171118","title":"Parks property acquisition: Queensbridge Park","short_description":"NYC Parks property record for Queensbridge Park; type Community Park; acres 20.863; waterfront=True.","year":1940,"effective_date":"1940-06-13","date_precision":"day","category":"environment","lens":"green_space","confidence":"documented","source_ids":["enfh-gkve"],"explanation":"Parks property record with acquisition date for Queensbridge Park."},"geometry":{"type":"Point","coordinates":[-73.946902,40.753961]}},{"type":"Feature","id":"nyc_parks_property_171170","properties":{"city_id":"nyc","event_id":"nyc_parks_property_171170","title":"Parks property acquisition: Belt Parkway","short_description":"NYC Parks property record for Belt Parkway; type Parkway; acres 202.647; waterfront=False.","year":1940,"effective_date":"1940-06-29","date_precision":"day","category":"environment","lens":"green_space","confidence":"documented","source_ids":["enfh-gkve"],"explanation":"Parks property record with acquisition date for Belt Parkway."},"geometry":{"type":"Point","coordinates":[-73.787974,40.666459]}},{"type":"Feature","id":"nyc_parks_property_171211","properties":{"city_id":"nyc","event_id":"nyc_parks_property_171211","title":"Parks property acquisition: Willowbrook Parkway","short_description":"NYC Parks property record for Willowbrook Parkway; type Parkway; acres 198.481; waterfront=False.","year":1940,"effective_date":"1940-01-30","date_precision":"day","category":"environment","lens":"green_space","confidence":"documented","source_ids":["enfh-gkve"],"explanation":"Parks property record with acquisition date for Willowbrook Parkway."},"geometry":{"type":"Point","coordinates":[-74.142552,40.604241]}}]}
