{"type":"FeatureCollection","schema_version":"1.0.0","city_id":"nyc","year":1847,"features":[{"type":"Feature","id":"nyc_parks_property_169320","properties":{"city_id":"nyc","event_id":"nyc_parks_property_169320","title":"Parks property acquisition: Madison Square Park","year":1847,"effective_date":"1847-05-03","date_precision":"day","category":"environment","lens":"green_space","confidence":"documented","source_ids":["enfh-gkve"],"explanation":"Parks property record with acquisition date for Madison Square Park."},"geometry":{"type":"Point","coordinates":[-73.987866,40.742327]}},{"type":"Feature","id":"nyc_parks_property_169827","properties":{"city_id":"nyc","event_id":"nyc_parks_property_169827","title":"Parks property acquisition: Fort Greene Park","year":1847,"effective_date":"1847-11-29","date_precision":"day","category":"environment","lens":"green_space","confidence":"documented","source_ids":["enfh-gkve"],"explanation":"Parks property record with acquisition date for Fort Greene Park."},"geometry":{"type":"Point","coordinates":[-73.976598,40.691723]}},{"type":"Feature","id":"nyc_parks_property_170822","properties":{"city_id":"nyc","event_id":"nyc_parks_property_170822","title":"Parks property acquisition: Worth Square","year":1847,"effective_date":"1847-12-11","date_precision":"day","category":"environment","lens":"green_space","confidence":"documented","source_ids":["enfh-gkve"],"explanation":"Parks property record with acquisition date for Worth Square."},"geometry":{"type":"Point","coordinates":[-73.98898,40.742692]}}]}
