{"type":"FeatureCollection","schema_version":"1.0.0","city_id":"nyc","year":1894,"features":[{"type":"Feature","id":"nyc_parks_property_169837","properties":{"city_id":"nyc","event_id":"nyc_parks_property_169837","title":"Parks property acquisition: Memorial Gore","subtitle":"Brooklyn / 1894-10-23 / Documented / Parks Properties","details":"Parks property record with acquisition date for Memorial Gore.","year":1894,"effective_date":"1894-10-23","date_precision":"day","short_description":"NYC Parks property record for Memorial Gore; type Triangle/Plaza; acres 0.066; waterfront=False.","category":"environment","lens":"green_space","confidence":"documented","source_ids":["enfh-gkve"],"affected_area_label":"Brooklyn","explanation":"Parks property record with acquisition date for Memorial Gore."},"geometry":{"type":"Point","coordinates":[-73.942354,40.714838]}},{"type":"Feature","id":"nyc_parks_property_170926","properties":{"city_id":"nyc","event_id":"nyc_parks_property_170926","title":"Parks property acquisition: Columbus Park","subtitle":"Manhattan / 1894-07-19 / Documented / Parks Properties","details":"Parks property record with acquisition date for Columbus Park.","year":1894,"effective_date":"1894-07-19","date_precision":"day","short_description":"NYC Parks property record for Columbus Park; type Playground; acres 3.233; waterfront=False.","category":"environment","lens":"green_space","confidence":"documented","source_ids":["enfh-gkve"],"affected_area_label":"Manhattan","explanation":"Parks property record with acquisition date for Columbus Park."},"geometry":{"type":"Point","coordinates":[-73.999928,40.715185]}}],"map_feature_count":2,"withheld_geometry_event_count":0}
