{"type":"FeatureCollection","schema_version":"1.0.0","city_id":"nyc","year":1881,"features":[{"type":"Feature","id":"nyc_parks_property_169156","properties":{"city_id":"nyc","event_id":"nyc_parks_property_169156","title":"Parks property acquisition: Major General John R Brown Triangle","year":1881,"effective_date":"1881-11-03","date_precision":"day","category":"environment","lens":"green_space","confidence":"documented","source_ids":["enfh-gkve"],"explanation":"Parks property record with acquisition date for Major General John R Brown Triangle."},"geometry":{"type":"Point","coordinates":[-73.904166,40.869639]}}]}
