{"type":"FeatureCollection","schema_version":"1.0.0","city_id":"nyc","year":1996,"map_feature_count":31,"withheld_geometry_event_count":0,"features":[{"type":"Feature","id":"nyc_lpc_historic_district_lp-01938","properties":{"city_id":"nyc","event_id":"nyc_lpc_historic_district_lp-01938","title":"Historic district designated: Stone Street Historic District","subtitle":"Manhattan / 1996-06-25 / Documented / Historic Districts","details":"LPC historic district designation record for Stone Street Historic District.","year":1996,"effective_date":"1996-06-25","date_precision":"day","short_description":"LPC historic district record LP-01938; status DESIGNATED; public hearing 9/19/1995; 2/13/1996.","category":"built_environment","lens":"built_environment","confidence":"documented","source_ids":["skyk-mpzq"],"affected_area_label":"Manhattan","explanation":"LPC historic district designation record for Stone Street Historic District."},"geometry":{"type":"Point","coordinates":[-74.009986,40.704521]}},{"type":"Feature","id":"nyc_lpc_historic_district_lp-01946","properties":{"city_id":"nyc","event_id":"nyc_lpc_historic_district_lp-01946","title":"Historic district designated: Governors Island Historic District","subtitle":"Manhattan / 1996-06-18 / Documented / Historic Districts","details":"LPC historic district designation record for Governors Island Historic District.","year":1996,"effective_date":"1996-06-18","date_precision":"day","short_description":"LPC historic district record LP-01946; status DESIGNATED; public hearing 2/13/1996.","category":"built_environment","lens":"built_environment","confidence":"documented","source_ids":["skyk-mpzq"],"affected_area_label":"Manhattan","explanation":"LPC historic district designation record for Governors Island Historic District."},"geometry":{"type":"Point","coordinates":[-74.016805,40.690214]}},{"type":"Feature","id":"nyc_lpc_individual_landmark_105","properties":{"city_id":"nyc","event_id":"nyc_lpc_individual_landmark_105","title":"Individual landmark designated: La Casina","subtitle":"Queens / 1996-01-30 / Documented / Individual Landmark Sites","details":"LPC designation record for La Casina; designation date is taken from the source desdate field.","year":1996,"effective_date":"1996-01-30","date_precision":"day","short_description":"LPC individual landmark site LP-01940; status Designated; type Individual Landmark; alternate name also known as La Casino, now Jamaica Business Resource Center.","category":"built_environment","lens":"built_environment","confidence":"documented","source_ids":["buis-pvji"],"affected_area_label":"Queens","explanation":"LPC designation record for La Casina; designation date is taken from the source desdate field."},"geometry":{"type":"Point","coordinates":[-73.799232,40.704351]}},{"type":"Feature","id":"nyc_lpc_individual_landmark_113","properties":{"city_id":"nyc","event_id":"nyc_lpc_individual_landmark_113","title":"Individual landmark designated: Beaver Building","subtitle":"Manhattan / 1996-02-13 / Documented / Individual Landmark Sites","details":"LPC designation record for Beaver Building; designation date is taken from the source desdate field.","year":1996,"effective_date":"1996-02-13","date_precision":"day","short_description":"LPC individual landmark site LP-01942; status Designated; type Individual Landmark; alternate name later the New York Coca Exchange Building.","category":"built_environment","lens":"built_environment","confidence":"documented","source_ids":["buis-pvji"],"affected_area_label":"Manhattan","explanation":"LPC designation record for Beaver Building; designation date is taken from the source desdate field."},"geometry":{"type":"Point","coordinates":[-74.008502,40.705169]}},{"type":"Feature","id":"nyc_lpc_individual_landmark_116","properties":{"city_id":"nyc","event_id":"nyc_lpc_individual_landmark_116","title":"Individual landmark designated: City Bank-Farmers Trust Company Building","subtitle":"Manhattan / 1996-06-25 / Documented / Individual Landmark Sites","details":"LPC designation record for City Bank-Farmers Trust Company Building; designation date is taken from the source desdate field.","year":1996,"effective_date":"1996-06-25","date_precision":"day","short_description":"LPC individual landmark site LP-01941; status Designated; type Individual Landmark; alternate name not stated.","category":"built_environment","lens":"built_environment","confidence":"documented","source_ids":["buis-pvji"],"affected_area_label":"Manhattan","explanation":"LPC designation record for City Bank-Farmers Trust Company Building; designation date is taken from the source desdate field."},"geometry":{"type":"Point","coordinates":[-74.009556,40.70541]}},{"type":"Feature","id":"nyc_lpc_individual_landmark_118","properties":{"city_id":"nyc","event_id":"nyc_lpc_individual_landmark_118","title":"Individual landmark designated: J. & W. Seligman & Company Building","subtitle":"Manhattan / 1996-02-13 / Documented / Individual Landmark Sites","details":"LPC designation record for J. & W. Seligman & Company Building; designation date is taken from the source desdate field.","year":1996,"effective_date":"1996-02-13","date_precision":"day","short_description":"LPC individual landmark site LP-01943; status Designated; type Individual Landmark; alternate name later Lehman Brothers, now Banca Commerciale Italiana.","category":"built_environment","lens":"built_environment","confidence":"documented","source_ids":["buis-pvji"],"affected_area_label":"Manhattan","explanation":"LPC designation record for J. & W. Seligman & Company Building; designation date is taken from the source desdate field."},"geometry":{"type":"Point","coordinates":[-74.010002,40.704781]}},{"type":"Feature","id":"nyc_lpc_individual_landmark_1286","properties":{"city_id":"nyc","event_id":"nyc_lpc_individual_landmark_1286","title":"Individual landmark designated: First Reformed Church of Jamaica","subtitle":"Queens / 1996-01-30 / Documented / Individual Landmark Sites","details":"LPC designation record for First Reformed Church of Jamaica; designation date is taken from the source desdate field.","year":1996,"effective_date":"1996-01-30","date_precision":"day","short_description":"LPC individual landmark site LP-01939; status Designated; type Individual Landmark; alternate name not stated.","category":"built_environment","lens":"built_environment","confidence":"documented","source_ids":["buis-pvji"],"affected_area_label":"Queens","explanation":"LPC designation record for First Reformed Church of Jamaica; designation date is taken from the source desdate field."},"geometry":{"type":"Point","coordinates":[-73.80178,40.702438]}},{"type":"Feature","id":"nyc_lpc_individual_landmark_1287","properties":{"city_id":"nyc","event_id":"nyc_lpc_individual_landmark_1287","title":"Individual landmark designated: Delmonico's Building","subtitle":"Manhattan / 1996-02-13 / Documented / Individual Landmark Sites","details":"LPC designation record for Delmonico's Building; designation date is taken from the source desdate field.","year":1996,"effective_date":"1996-02-13","date_precision":"day","short_description":"LPC individual landmark site LP-01944; status Designated; type Individual Landmark; alternate name not stated.","category":"built_environment","lens":"built_environment","confidence":"documented","source_ids":["buis-pvji"],"affected_area_label":"Manhattan","explanation":"LPC designation record for Delmonico's Building; designation date is taken from the source desdate field."},"geometry":{"type":"Point","coordinates":[-74.010288,40.704982]}},{"type":"Feature","id":"nyc_lpc_individual_landmark_2","properties":{"city_id":"nyc","event_id":"nyc_lpc_individual_landmark_2","title":"Individual landmark designated: Public School 15 (Daniel D. Tompkins School)","subtitle":"Staten Island / 1996-11-19 / Documented / Individual Landmark Sites","details":"LPC designation record for Public School 15 (Daniel D. Tompkins School); designation date is taken from the source desdate field.","year":1996,"effective_date":"1996-11-19","date_precision":"day","short_description":"LPC individual landmark site LP-01877; status Designated; type Individual Landmark; alternate name not stated.","category":"built_environment","lens":"built_environment","confidence":"documented","source_ids":["buis-pvji"],"affected_area_label":"Staten Island","explanation":"LPC designation record for Public School 15 (Daniel D. Tompkins School); designation date is taken from the source desdate field."},"geometry":{"type":"Point","coordinates":[-74.078244,40.633639]}},{"type":"Feature","id":"nyc_lpc_individual_landmark_283","properties":{"city_id":"nyc","event_id":"nyc_lpc_individual_landmark_283","title":"Individual landmark designated: Potter Building","subtitle":"Manhattan / 1996-09-17 / Documented / Individual Landmark Sites","details":"LPC designation record for Potter Building; designation date is taken from the source desdate field.","year":1996,"effective_date":"1996-09-17","date_precision":"day","short_description":"LPC individual landmark site LP-01948; status Designated; type Individual Landmark; alternate name not stated.","category":"built_environment","lens":"built_environment","confidence":"documented","source_ids":["buis-pvji"],"affected_area_label":"Manhattan","explanation":"LPC designation record for Potter Building; designation date is taken from the source desdate field."},"geometry":{"type":"Point","coordinates":[-74.006414,40.711535]}},{"type":"Feature","id":"nyc_lpc_individual_landmark_289","properties":{"city_id":"nyc","event_id":"nyc_lpc_individual_landmark_289","title":"Individual landmark designated: Empire Building","subtitle":"Manhattan / 1996-06-25 / Documented / Individual Landmark Sites","details":"LPC designation record for Empire Building; designation date is taken from the source desdate field.","year":1996,"effective_date":"1996-06-25","date_precision":"day","short_description":"LPC individual landmark site LP-01933; status Designated; type Individual Landmark; alternate name not stated.","category":"built_environment","lens":"built_environment","confidence":"documented","source_ids":["buis-pvji"],"affected_area_label":"Manhattan","explanation":"LPC designation record for Empire Building; designation date is taken from the source desdate field."},"geometry":{"type":"Point","coordinates":[-74.012501,40.707449]}},{"type":"Feature","id":"nyc_lpc_individual_landmark_415","properties":{"city_id":"nyc","event_id":"nyc_lpc_individual_landmark_415","title":"Individual landmark designated: Union Square Savings Bank","subtitle":"Manhattan / 1996-02-13 / Documented / Individual Landmark Sites","details":"LPC designation record for Union Square Savings Bank; designation date is taken from the source desdate field.","year":1996,"effective_date":"1996-02-13","date_precision":"day","short_description":"LPC individual landmark site LP-01945; status Designated; type Individual Landmark; alternate name not stated.","category":"built_environment","lens":"built_environment","confidence":"documented","source_ids":["buis-pvji"],"affected_area_label":"Manhattan","explanation":"LPC designation record for Union Square Savings Bank; designation date is taken from the source desdate field."},"geometry":{"type":"Point","coordinates":[-73.989274,40.735353]}},{"type":"Feature","id":"nyc_lpc_individual_landmark_540","properties":{"city_id":"nyc","event_id":"nyc_lpc_individual_landmark_540","title":"Individual landmark designated: New York Public Library, Aguilar Branch","subtitle":"Manhattan / 1996-06-25 / Documented / Individual Landmark Sites","details":"LPC designation record for New York Public Library, Aguilar Branch; designation date is taken from the source desdate field.","year":1996,"effective_date":"1996-06-25","date_precision":"day","short_description":"LPC individual landmark site LP-01837; status Designated; type Individual Landmark; alternate name not stated.","category":"built_environment","lens":"built_environment","confidence":"documented","source_ids":["buis-pvji"],"affected_area_label":"Manhattan","explanation":"LPC designation record for New York Public Library, Aguilar Branch; designation date is taken from the source desdate field."},"geometry":{"type":"Point","coordinates":[-73.943455,40.794148]}},{"type":"Feature","id":"nyc_lpc_individual_landmark_678","properties":{"city_id":"nyc","event_id":"nyc_lpc_individual_landmark_678","title":"Individual landmark designated: Manhasset Apartments","subtitle":"Manhattan / 1996-09-17 / Documented / Individual Landmark Sites","details":"LPC designation record for Manhasset Apartments; designation date is taken from the source desdate field.","year":1996,"effective_date":"1996-09-17","date_precision":"day","short_description":"LPC individual landmark site LP-01947; status Designated; type Individual Landmark; alternate name not stated.","category":"built_environment","lens":"built_environment","confidence":"documented","source_ids":["buis-pvji"],"affected_area_label":"Manhattan","explanation":"LPC designation record for Manhasset Apartments; designation date is taken from the source desdate field."},"geometry":{"type":"Point","coordinates":[-73.967852,40.803398]}},{"type":"Feature","id":"nyc_lpc_individual_landmark_723","properties":{"city_id":"nyc","event_id":"nyc_lpc_individual_landmark_723","title":"Individual landmark designated: Equitable Building","subtitle":"Manhattan / 1996-06-25 / Documented / Individual Landmark Sites","details":"LPC designation record for Equitable Building; designation date is taken from the source desdate field.","year":1996,"effective_date":"1996-06-25","date_precision":"day","short_description":"LPC individual landmark site LP-01935; status Designated; type Individual Landmark; alternate name not stated.","category":"built_environment","lens":"built_environment","confidence":"documented","source_ids":["buis-pvji"],"affected_area_label":"Manhattan","explanation":"LPC designation record for Equitable Building; designation date is taken from the source desdate field."},"geometry":{"type":"Point","coordinates":[-74.010391,40.708195]}},{"type":"Feature","id":"nyc_lpc_individual_landmark_782","properties":{"city_id":"nyc","event_id":"nyc_lpc_individual_landmark_782","title":"Individual landmark designated: Public School 72","subtitle":"Manhattan / 1996-06-25 / Documented / Individual Landmark Sites","details":"LPC designation record for Public School 72; designation date is taken from the source desdate field.","year":1996,"effective_date":"1996-06-25","date_precision":"day","short_description":"LPC individual landmark site LP-01836; status Designated; type Individual Landmark; alternate name later Public School 107, now Julio de Burgos Cultural Center.","category":"built_environment","lens":"built_environment","confidence":"documented","source_ids":["buis-pvji"],"affected_area_label":"Manhattan","explanation":"LPC designation record for Public School 72; designation date is taken from the source desdate field."},"geometry":{"type":"Point","coordinates":[-73.946969,40.792017]}},{"type":"Feature","id":"nyc_lpc_individual_landmark_803","properties":{"city_id":"nyc","event_id":"nyc_lpc_individual_landmark_803","title":"Individual landmark designated: Bowery Savings Bank Building","subtitle":"Manhattan / 1996-09-17 / Documented / Individual Landmark Sites","details":"LPC designation record for Bowery Savings Bank Building; designation date is taken from the source desdate field.","year":1996,"effective_date":"1996-09-17","date_precision":"day","short_description":"LPC individual landmark site LP-01912; status Designated; type Individual Landmark; alternate name not stated.","category":"built_environment","lens":"built_environment","confidence":"documented","source_ids":["buis-pvji"],"affected_area_label":"Manhattan","explanation":"LPC designation record for Bowery Savings Bank Building; designation date is taken from the source desdate field."},"geometry":{"type":"Point","coordinates":[-73.976973,40.75142]}},{"type":"Feature","id":"nyc_lpc_individual_landmark_822","properties":{"city_id":"nyc","event_id":"nyc_lpc_individual_landmark_822","title":"Individual landmark designated: Brooklyn Trust Company Building","subtitle":"Brooklyn / 1996-06-25 / Documented / Individual Landmark Sites","details":"LPC designation record for Brooklyn Trust Company Building; designation date is taken from the source desdate field.","year":1996,"effective_date":"1996-06-25","date_precision":"day","short_description":"LPC individual landmark site LP-01905; status Designated; type Individual Landmark; alternate name not stated.","category":"built_environment","lens":"built_environment","confidence":"documented","source_ids":["buis-pvji"],"affected_area_label":"Brooklyn","explanation":"LPC designation record for Brooklyn Trust Company Building; designation date is taken from the source desdate field."},"geometry":{"type":"Point","coordinates":[-73.991997,40.694583]}},{"type":"Feature","id":"nyc_parks_property_169090","properties":{"city_id":"nyc","event_id":"nyc_parks_property_169090","title":"Parks property acquisition: Mosaic Success Garden","subtitle":"Bronx / 1996-12-31 / Documented / Parks Properties","details":"Parks property record with acquisition date for Mosaic Success Garden.","year":1996,"effective_date":"1996-12-31","date_precision":"day","short_description":"NYC Parks property record for Mosaic Success Garden; type Garden; acres 0.286; waterfront=False.","category":"environment","lens":"green_space","confidence":"documented","source_ids":["enfh-gkve"],"affected_area_label":"Bronx","explanation":"Parks property record with acquisition date for Mosaic Success Garden."},"geometry":{"type":"Point","coordinates":[-73.925422,40.840518]}},{"type":"Feature","id":"nyc_parks_property_169138","properties":{"city_id":"nyc","event_id":"nyc_parks_property_169138","title":"Parks property acquisition: Vernam Barbadoes Peninsula","subtitle":"Queens / 1996-10-25 / Documented / Parks Properties","details":"Parks property record with acquisition date for Vernam Barbadoes Peninsula.","year":1996,"effective_date":"1996-10-25","date_precision":"day","short_description":"NYC Parks property record for Vernam Barbadoes Peninsula; type Nature Area; acres 23.958; waterfront=True.","category":"environment","lens":"green_space","confidence":"documented","source_ids":["enfh-gkve"],"affected_area_label":"Queens","explanation":"Parks property record with acquisition date for Vernam Barbadoes Peninsula."},"geometry":{"type":"Point","coordinates":[-73.80554,40.593654]}},{"type":"Feature","id":"nyc_parks_property_169706","properties":{"city_id":"nyc","event_id":"nyc_parks_property_169706","title":"Parks property acquisition: Hybrid Oak Woods Park","subtitle":"Staten Island / 1996-12-31 / Documented / Parks Properties","details":"Parks property record with acquisition date for Hybrid Oak Woods Park.","year":1996,"effective_date":"1996-12-31","date_precision":"day","short_description":"NYC Parks property record for Hybrid Oak Woods Park; type Nature Area; acres 9.763; waterfront=False.","category":"environment","lens":"green_space","confidence":"documented","source_ids":["enfh-gkve"],"affected_area_label":"Staten Island","explanation":"Parks property record with acquisition date for Hybrid Oak Woods Park."},"geometry":{"type":"Point","coordinates":[-74.234233,40.503018]}},{"type":"Feature","id":"nyc_parks_property_170097","properties":{"city_id":"nyc","event_id":"nyc_parks_property_170097","title":"Parks property acquisition: St. Luke's Park","subtitle":"Bronx / 1996-12-31 / Documented / Parks Properties","details":"Parks property record with acquisition date for St. Luke's Park.","year":1996,"effective_date":"1996-12-31","date_precision":"day","short_description":"NYC Parks property record for St. Luke's Park; type Garden; acres 0.401; waterfront=False.","category":"environment","lens":"green_space","confidence":"documented","source_ids":["enfh-gkve"],"affected_area_label":"Bronx","explanation":"Parks property record with acquisition date for St. Luke's Park."},"geometry":{"type":"Point","coordinates":[-73.915361,40.805579]}},{"type":"Feature","id":"nyc_parks_property_170103","properties":{"city_id":"nyc","event_id":"nyc_parks_property_170103","title":"Parks property acquisition: Granja Farm OTF","subtitle":"Bronx / 1996-12-31 / Documented / Parks Properties","details":"Parks property record with acquisition date for Granja Farm OTF.","year":1996,"effective_date":"1996-12-31","date_precision":"day","short_description":"NYC Parks property record for Granja Farm OTF; type Garden; acres 0.375; waterfront=False.","category":"environment","lens":"green_space","confidence":"documented","source_ids":["enfh-gkve"],"affected_area_label":"Bronx","explanation":"Parks property record with acquisition date for Granja Farm OTF."},"geometry":{"type":"Point","coordinates":[-73.911624,40.815683]}},{"type":"Feature","id":"nyc_parks_property_170117","properties":{"city_id":"nyc","event_id":"nyc_parks_property_170117","title":"Parks property acquisition: Cottages Hill New Brighton Park","subtitle":"Staten Island / 1996-02-13 / Documented / Parks Properties","details":"Parks property record with acquisition date for Cottages Hill New Brighton Park.","year":1996,"effective_date":"1996-02-13","date_precision":"day","short_description":"NYC Parks property record for Cottages Hill New Brighton Park; type Neighborhood Park; acres 2.057; waterfront=False.","category":"environment","lens":"green_space","confidence":"documented","source_ids":["enfh-gkve"],"affected_area_label":"Staten Island","explanation":"Parks property record with acquisition date for Cottages Hill New Brighton Park."},"geometry":{"type":"Point","coordinates":[-74.089215,40.639354]}},{"type":"Feature","id":"nyc_parks_property_170137","properties":{"city_id":"nyc","event_id":"nyc_parks_property_170137","title":"Parks property acquisition: Rock Garden Park","subtitle":"Bronx / 1996-12-31 / Documented / Parks Properties","details":"Parks property record with acquisition date for Rock Garden Park.","year":1996,"effective_date":"1996-12-31","date_precision":"day","short_description":"NYC Parks property record for Rock Garden Park; type Neighborhood Park; acres 0.977; waterfront=False.","category":"environment","lens":"green_space","confidence":"documented","source_ids":["enfh-gkve"],"affected_area_label":"Bronx","explanation":"Parks property record with acquisition date for Rock Garden Park."},"geometry":{"type":"Point","coordinates":[-73.885199,40.835314]}},{"type":"Feature","id":"nyc_parks_property_170575","properties":{"city_id":"nyc","event_id":"nyc_parks_property_170575","title":"Parks property acquisition: Chiarantano Playground","subtitle":"Brooklyn / 1996-01-31 / Documented / Parks Properties","details":"Parks property record with acquisition date for Chiarantano Playground.","year":1996,"effective_date":"1996-01-31","date_precision":"day","short_description":"NYC Parks property record for Chiarantano Playground; type Jointly Operated Playground; acres 0.206; waterfront=False.","category":"environment","lens":"green_space","confidence":"documented","source_ids":["enfh-gkve"],"affected_area_label":"Brooklyn","explanation":"Parks property record with acquisition date for Chiarantano Playground."},"geometry":{"type":"Point","coordinates":[-73.93334,40.636903]}},{"type":"Feature","id":"nyc_parks_property_170653","properties":{"city_id":"nyc","event_id":"nyc_parks_property_170653","title":"Parks property acquisition: Fishbridge Garden","subtitle":"Manhattan / 1996-03-14 / Documented / Parks Properties","details":"Parks property record with acquisition date for Fishbridge Garden.","year":1996,"effective_date":"1996-03-14","date_precision":"day","short_description":"NYC Parks property record for Fishbridge Garden; type Garden; acres 0.1; waterfront=False.","category":"environment","lens":"green_space","confidence":"documented","source_ids":["enfh-gkve"],"affected_area_label":"Manhattan","explanation":"Parks property record with acquisition date for Fishbridge Garden."},"geometry":{"type":"Point","coordinates":[-74.001301,40.709005]}},{"type":"Feature","id":"nyc_parks_property_170654","properties":{"city_id":"nyc","event_id":"nyc_parks_property_170654","title":"Parks property acquisition: Sunshine Playground","subtitle":"Manhattan / 1996-09-17 / Documented / Parks Properties","details":"Parks property record with acquisition date for Sunshine Playground.","year":1996,"effective_date":"1996-09-17","date_precision":"day","short_description":"NYC Parks property record for Sunshine Playground; type Playground; acres 0.24; waterfront=False.","category":"environment","lens":"green_space","confidence":"documented","source_ids":["enfh-gkve"],"affected_area_label":"Manhattan","explanation":"Parks property record with acquisition date for Sunshine Playground."},"geometry":{"type":"Point","coordinates":[-73.947823,40.788497]}},{"type":"Feature","id":"nyc_parks_property_170655","properties":{"city_id":"nyc","event_id":"nyc_parks_property_170655","title":"Parks property acquisition: 6th St and Ave B Community Garden","subtitle":"Manhattan / 1996-12-31 / Documented / Parks Properties","details":"Parks property record with acquisition date for 6th St and Ave B Community Garden.","year":1996,"effective_date":"1996-12-31","date_precision":"day","short_description":"NYC Parks property record for 6th St and Ave B Community Garden; type Garden; acres 0.39; waterfront=False.","category":"environment","lens":"green_space","confidence":"documented","source_ids":["enfh-gkve"],"affected_area_label":"Manhattan","explanation":"Parks property record with acquisition date for 6th St and Ave B Community Garden."},"geometry":{"type":"Point","coordinates":[-73.982046,40.724317]}},{"type":"Feature","id":"nyc_parks_property_170812","properties":{"city_id":"nyc","event_id":"nyc_parks_property_170812","title":"Parks property acquisition: United We Stand Garden","subtitle":"Bronx / 1996-12-31 / Documented / Parks Properties","details":"Parks property record with acquisition date for United We Stand Garden.","year":1996,"effective_date":"1996-12-31","date_precision":"day","short_description":"NYC Parks property record for United We Stand Garden; type Garden; acres 0.344; waterfront=False.","category":"environment","lens":"green_space","confidence":"documented","source_ids":["enfh-gkve"],"affected_area_label":"Bronx","explanation":"Parks property record with acquisition date for United We Stand Garden."},"geometry":{"type":"Point","coordinates":[-73.915522,40.805381]}},{"type":"Feature","id":"nyc_parks_property_170908","properties":{"city_id":"nyc","event_id":"nyc_parks_property_170908","title":"Parks property acquisition: Mount Hope Garden","subtitle":"Bronx / 1996-09-17 / Documented / Parks Properties","details":"Parks property record with acquisition date for Mount Hope Garden.","year":1996,"effective_date":"1996-09-17","date_precision":"day","short_description":"NYC Parks property record for Mount Hope Garden; type Playground; acres 0.28; waterfront=False.","category":"environment","lens":"green_space","confidence":"documented","source_ids":["enfh-gkve"],"affected_area_label":"Bronx","explanation":"Parks property record with acquisition date for Mount Hope Garden."},"geometry":{"type":"Point","coordinates":[-73.905353,40.852513]}}]}
