{"type":"FeatureCollection","schema_version":"1.0.0","city_id":"nyc","year":1916,"features":[{"type":"Feature","id":"nyc-milestone-1916-first-nyc-zoning-resolution-3","properties":{"city_id":"nyc","event_id":"nyc-milestone-1916-first-nyc-zoning-resolution-3","title":"First NYC Zoning Resolution","year":1916,"effective_date":"1916","date_precision":"year","category":"built_environment","lens":"built_environment","confidence":"documented","source_ids":["hgx4-8ukb","2iga-a6mk","as9z-kwsh"],"explanation":"Height/setback/use regulation begins"},"geometry":{"type":"Point","coordinates":[-74.15524,40.57508]}}]}
