{"type":"FeatureCollection","schema_version":"1.0.0","city_id":"nyc","year":1948,"features":[{"type":"Feature","id":"nyc_parks_property_169055","properties":{"city_id":"nyc","event_id":"nyc_parks_property_169055","title":"Parks property acquisition: Townsend Walk","year":1948,"effective_date":"1948-09-23","date_precision":"day","category":"environment","lens":"green_space","confidence":"documented","source_ids":["enfh-gkve"],"explanation":"Parks property record with acquisition date for Townsend Walk."},"geometry":{"type":"Point","coordinates":[-73.912915,40.845938]}},{"type":"Feature","id":"nyc_parks_property_169056","properties":{"city_id":"nyc","event_id":"nyc_parks_property_169056","title":"Parks property acquisition: Walton Walk","year":1948,"effective_date":"1948-09-23","date_precision":"day","category":"environment","lens":"green_space","confidence":"documented","source_ids":["enfh-gkve"],"explanation":"Parks property record with acquisition date for Walton Walk."},"geometry":{"type":"Point","coordinates":[-73.912193,40.845448]}},{"type":"Feature","id":"nyc_parks_property_169165","properties":{"city_id":"nyc","event_id":"nyc_parks_property_169165","title":"Parks property acquisition: Sidney Hillman Playground","year":1948,"effective_date":"1948-06-10","date_precision":"day","category":"environment","lens":"green_space","confidence":"documented","source_ids":["enfh-gkve"],"explanation":"Parks property record with acquisition date for Sidney Hillman Playground."},"geometry":{"type":"Point","coordinates":[-73.97969,40.715166]}},{"type":"Feature","id":"nyc_parks_property_169167","properties":{"city_id":"nyc","event_id":"nyc_parks_property_169167","title":"Parks property acquisition: Wald Playground","year":1948,"effective_date":"1948-04-22","date_precision":"day","category":"environment","lens":"green_space","confidence":"documented","source_ids":["enfh-gkve"],"explanation":"Parks property record with acquisition date for Wald Playground."},"geometry":{"type":"Point","coordinates":[-73.97676,40.719576]}},{"type":"Feature","id":"nyc_parks_property_169382","properties":{"city_id":"nyc","event_id":"nyc_parks_property_169382","title":"Parks property acquisition: Patterson Playground","year":1948,"effective_date":"1948-06-17","date_precision":"day","category":"environment","lens":"green_space","confidence":"documented","source_ids":["enfh-gkve"],"explanation":"Parks property record with acquisition date for Patterson Playground."},"geometry":{"type":"Point","coordinates":[-73.922499,40.815474]}},{"type":"Feature","id":"nyc_parks_property_169594","properties":{"city_id":"nyc","event_id":"nyc_parks_property_169594","title":"Parks property acquisition: Travers Park","year":1948,"effective_date":"1948-04-07","date_precision":"day","category":"environment","lens":"green_space","confidence":"documented","source_ids":["enfh-gkve"],"explanation":"Parks property record with acquisition date for Travers Park."},"geometry":{"type":"Point","coordinates":[-73.889399,40.754124]}},{"type":"Feature","id":"nyc_parks_property_169773","properties":{"city_id":"nyc","event_id":"nyc_parks_property_169773","title":"Parks property acquisition: Broad Channel Veteran's Park","year":1948,"effective_date":"1948-05-10","date_precision":"day","category":"transport","lens":"traffic","confidence":"documented","source_ids":["enfh-gkve"],"explanation":"Parks property record with acquisition date for Broad Channel Veteran's Park."},"geometry":{"type":"Point","coordinates":[-73.818872,40.610871]}},{"type":"Feature","id":"nyc_parks_property_169816","properties":{"city_id":"nyc","event_id":"nyc_parks_property_169816","title":"Parks property acquisition: North Shore Esplanade","year":1948,"effective_date":"1948-09-28","date_precision":"day","category":"environment","lens":"green_space","confidence":"documented","source_ids":["enfh-gkve"],"explanation":"Parks property record with acquisition date for North Shore Esplanade."},"geometry":{"type":"Point","coordinates":[-74.080468,40.647292]}},{"type":"Feature","id":"nyc_parks_property_170047","properties":{"city_id":"nyc","event_id":"nyc_parks_property_170047","title":"Parks property acquisition: Parkside Playground","year":1948,"effective_date":"1948-12-09","date_precision":"day","category":"environment","lens":"green_space","confidence":"documented","source_ids":["enfh-gkve"],"explanation":"Parks property record with acquisition date for Parkside Playground."},"geometry":{"type":"Point","coordinates":[-73.86793,40.868426]}},{"type":"Feature","id":"nyc_parks_property_170049","properties":{"city_id":"nyc","event_id":"nyc_parks_property_170049","title":"Parks property acquisition: Eastchester Playground","year":1948,"effective_date":"1948-11-18","date_precision":"day","category":"environment","lens":"green_space","confidence":"documented","source_ids":["enfh-gkve"],"explanation":"Parks property record with acquisition date for Eastchester Playground."},"geometry":{"type":"Point","coordinates":[-73.852861,40.869891]}},{"type":"Feature","id":"nyc_parks_property_170093","properties":{"city_id":"nyc","event_id":"nyc_parks_property_170093","title":"Parks property acquisition: Gen. Douglas MacArthur Park","year":1948,"effective_date":"1948-10-31","date_precision":"day","category":"environment","lens":"green_space","confidence":"documented","source_ids":["enfh-gkve"],"explanation":"Parks property record with acquisition date for Gen. Douglas MacArthur Park."},"geometry":{"type":"Point","coordinates":[-74.100133,40.58696]}},{"type":"Feature","id":"nyc_parks_property_170264","properties":{"city_id":"nyc","event_id":"nyc_parks_property_170264","title":"Parks property acquisition: Hillside Playground","year":1948,"effective_date":"1948-11-04","date_precision":"day","category":"environment","lens":"green_space","confidence":"documented","source_ids":["enfh-gkve"],"explanation":"Parks property record with acquisition date for Hillside Playground."},"geometry":{"type":"Point","coordinates":[-73.71312,40.741118]}},{"type":"Feature","id":"nyc_parks_property_170270","properties":{"city_id":"nyc","event_id":"nyc_parks_property_170270","title":"Parks property acquisition: Tall Oak Playground","year":1948,"effective_date":"1948-10-02","date_precision":"day","category":"environment","lens":"green_space","confidence":"documented","source_ids":["enfh-gkve"],"explanation":"Parks property record with acquisition date for Tall Oak Playground."},"geometry":{"type":"Point","coordinates":[-73.758094,40.745923]}},{"type":"Feature","id":"nyc_parks_property_170278","properties":{"city_id":"nyc","event_id":"nyc_parks_property_170278","title":"Parks property acquisition: Vleigh Playground","year":1948,"effective_date":"1948-10-21","date_precision":"day","category":"environment","lens":"green_space","confidence":"documented","source_ids":["enfh-gkve"],"explanation":"Parks property record with acquisition date for Vleigh Playground."},"geometry":{"type":"Point","coordinates":[-73.8165,40.72981]}},{"type":"Feature","id":"nyc_parks_property_170397","properties":{"city_id":"nyc","event_id":"nyc_parks_property_170397","title":"Parks property acquisition: Jennie Jerome Playground","year":1948,"effective_date":"1948-09-23","date_precision":"day","category":"environment","lens":"green_space","confidence":"documented","source_ids":["enfh-gkve"],"explanation":"Parks property record with acquisition date for Jennie Jerome Playground."},"geometry":{"type":"Point","coordinates":[-73.913389,40.845698]}},{"type":"Feature","id":"nyc_parks_property_170407","properties":{"city_id":"nyc","event_id":"nyc_parks_property_170407","title":"Parks property acquisition: Tilden Playground","year":1948,"effective_date":"1948-09-08","date_precision":"day","category":"environment","lens":"green_space","confidence":"documented","source_ids":["enfh-gkve"],"explanation":"Parks property record with acquisition date for Tilden Playground."},"geometry":{"type":"Point","coordinates":[-73.931471,40.647501]}},{"type":"Feature","id":"nyc_parks_property_170408","properties":{"city_id":"nyc","event_id":"nyc_parks_property_170408","title":"Parks property acquisition: Herman Dolgon Playground","year":1948,"effective_date":"1948-02-25","date_precision":"day","category":"environment","lens":"green_space","confidence":"documented","source_ids":["enfh-gkve"],"explanation":"Parks property record with acquisition date for Herman Dolgon Playground."},"geometry":{"type":"Point","coordinates":[-73.939981,40.597897]}},{"type":"Feature","id":"nyc_parks_property_170409","properties":{"city_id":"nyc","event_id":"nyc_parks_property_170409","title":"Parks property acquisition: Sheepshead Playground","year":1948,"effective_date":"1948-11-18","date_precision":"day","category":"environment","lens":"green_space","confidence":"documented","source_ids":["enfh-gkve"],"explanation":"Parks property record with acquisition date for Sheepshead Playground."},"geometry":{"type":"Point","coordinates":[-73.94015,40.588752]}},{"type":"Feature","id":"nyc_parks_property_170527","properties":{"city_id":"nyc","event_id":"nyc_parks_property_170527","title":"Parks property acquisition: Dean Playground","year":1948,"effective_date":"1948-07-26","date_precision":"day","category":"environment","lens":"green_space","confidence":"documented","source_ids":["enfh-gkve"],"explanation":"Parks property record with acquisition date for Dean Playground."},"geometry":{"type":"Point","coordinates":[-73.973236,40.680899]}},{"type":"Feature","id":"nyc_parks_property_170532","properties":{"city_id":"nyc","event_id":"nyc_parks_property_170532","title":"Parks property acquisition: Washington Skate Park","year":1948,"effective_date":"1948-06-17","date_precision":"day","category":"environment","lens":"green_space","confidence":"documented","source_ids":["enfh-gkve"],"explanation":"Parks property record with acquisition date for Washington Skate Park."},"geometry":{"type":"Point","coordinates":[-73.985254,40.672788]}},{"type":"Feature","id":"nyc_parks_property_170558","properties":{"city_id":"nyc","event_id":"nyc_parks_property_170558","title":"Parks property acquisition: Monsignor Kett Playground","year":1948,"effective_date":"1948-07-28","date_precision":"day","category":"environment","lens":"green_space","confidence":"documented","source_ids":["enfh-gkve"],"explanation":"Parks property record with acquisition date for Monsignor Kett Playground."},"geometry":{"type":"Point","coordinates":[-73.920788,40.862574]}},{"type":"Feature","id":"nyc_parks_property_170561","properties":{"city_id":"nyc","event_id":"nyc_parks_property_170561","title":"Parks property acquisition: Trygve Lie Plaza","year":1948,"effective_date":"1948-08-19","date_precision":"day","category":"environment","lens":"green_space","confidence":"documented","source_ids":["enfh-gkve"],"explanation":"Parks property record with acquisition date for Trygve Lie Plaza."},"geometry":{"type":"Point","coordinates":[-73.970349,40.748636]}},{"type":"Feature","id":"nyc_parks_property_170565","properties":{"city_id":"nyc","event_id":"nyc_parks_property_170565","title":"Parks property acquisition: Playground One Twenty Five CXXV","year":1948,"effective_date":"1948-06-24","date_precision":"day","category":"environment","lens":"green_space","confidence":"documented","source_ids":["enfh-gkve"],"explanation":"Parks property record with acquisition date for Playground One Twenty Five CXXV."},"geometry":{"type":"Point","coordinates":[-73.955886,40.810906]}},{"type":"Feature","id":"nyc_parks_property_170605","properties":{"city_id":"nyc","event_id":"nyc_parks_property_170605","title":"Parks property acquisition: Mafera Park","year":1948,"effective_date":"1948-08-09","date_precision":"day","category":"environment","lens":"green_space","confidence":"documented","source_ids":["enfh-gkve"],"explanation":"Parks property record with acquisition date for Mafera Park."},"geometry":{"type":"Point","coordinates":[-73.890792,40.707228]}},{"type":"Feature","id":"nyc_parks_property_170732","properties":{"city_id":"nyc","event_id":"nyc_parks_property_170732","title":"Parks property acquisition: Old Town Playground","year":1948,"effective_date":"1948-01-29","date_precision":"day","category":"environment","lens":"green_space","confidence":"documented","source_ids":["enfh-gkve"],"explanation":"Parks property record with acquisition date for Old Town Playground."},"geometry":{"type":"Point","coordinates":[-74.081184,40.595311]}},{"type":"Feature","id":"nyc_parks_property_170768","properties":{"city_id":"nyc","event_id":"nyc_parks_property_170768","title":"Parks property acquisition: Mazzei Playground","year":1948,"effective_date":"1948-08-17","date_precision":"day","category":"environment","lens":"green_space","confidence":"documented","source_ids":["enfh-gkve"],"explanation":"Parks property record with acquisition date for Mazzei Playground."},"geometry":{"type":"Point","coordinates":[-73.858473,40.862347]}},{"type":"Feature","id":"nyc_parks_property_170801","properties":{"city_id":"nyc","event_id":"nyc_parks_property_170801","title":"Parks property acquisition: Dag Hammarskjold Plaza","year":1948,"effective_date":"1948-09-21","date_precision":"day","category":"environment","lens":"green_space","confidence":"documented","source_ids":["enfh-gkve"],"explanation":"Parks property record with acquisition date for Dag Hammarskjold Plaza."},"geometry":{"type":"Point","coordinates":[-73.968999,40.752308]}},{"type":"Feature","id":"nyc_parks_property_170859","properties":{"city_id":"nyc","event_id":"nyc_parks_property_170859","title":"Parks property acquisition: Daniel Boone Playground","year":1948,"effective_date":"1948-02-25","date_precision":"day","category":"environment","lens":"green_space","confidence":"documented","source_ids":["enfh-gkve"],"explanation":"Parks property record with acquisition date for Daniel Boone Playground."},"geometry":{"type":"Point","coordinates":[-73.885891,40.82942]}},{"type":"Feature","id":"nyc_parks_property_170933","properties":{"city_id":"nyc","event_id":"nyc_parks_property_170933","title":"Parks property acquisition: Ralph Bunche Park","year":1948,"effective_date":"1948-08-19","date_precision":"day","category":"environment","lens":"green_space","confidence":"documented","source_ids":["enfh-gkve"],"explanation":"Parks property record with acquisition date for Ralph Bunche Park."},"geometry":{"type":"Point","coordinates":[-73.969883,40.749148]}},{"type":"Feature","id":"nyc_parks_property_171001","properties":{"city_id":"nyc","event_id":"nyc_parks_property_171001","title":"Parks property acquisition: Jerome Playground South","year":1948,"effective_date":"1948-09-23","date_precision":"day","category":"environment","lens":"green_space","confidence":"documented","source_ids":["enfh-gkve"],"explanation":"Parks property record with acquisition date for Jerome Playground South."},"geometry":{"type":"Point","coordinates":[-73.913775,40.844834]}},{"type":"Feature","id":"nyc_parks_property_171174","properties":{"city_id":"nyc","event_id":"nyc_parks_property_171174","title":"Parks property acquisition: Richmond Parkway","year":1948,"effective_date":"1948-09-22","date_precision":"day","category":"environment","lens":"green_space","confidence":"documented","source_ids":["enfh-gkve"],"explanation":"Parks property record with acquisition date for Richmond Parkway."},"geometry":{"type":"Point","coordinates":[-74.163126,40.562525]}}]}
