{"type":"FeatureCollection","schema_version":"1.0.0","city_id":"nyc","year":1810,"features":[{"type":"Feature","id":"nyc_parks_property_169607","properties":{"city_id":"nyc","event_id":"nyc_parks_property_169607","title":"Parks property acquisition: Tribeca Park","year":1810,"effective_date":"1810-02-19","date_precision":"day","category":"environment","lens":"green_space","confidence":"documented","source_ids":["enfh-gkve"],"explanation":"Parks property record with acquisition date for Tribeca Park."},"geometry":{"type":"Point","coordinates":[-74.005603,40.720349]}}]}
