{"type":"FeatureCollection","schema_version":"1.0.0","city_id":"nyc","year":1947,"features":[{"type":"Feature","id":"nyc_parks_property_169137","properties":{"city_id":"nyc","event_id":"nyc_parks_property_169137","title":"Parks property acquisition: Brooklyn Heights Promenade","year":1947,"effective_date":"1947-05-14","date_precision":"day","category":"environment","lens":"green_space","confidence":"documented","source_ids":["enfh-gkve"],"explanation":"Parks property record with acquisition date for Brooklyn Heights Promenade."},"geometry":{"type":"Point","coordinates":[-73.998157,40.695482]}},{"type":"Feature","id":"nyc_parks_property_169139","properties":{"city_id":"nyc","event_id":"nyc_parks_property_169139","title":"Parks property acquisition: Brooklyn Heights Promenade","year":1947,"effective_date":"1947-05-14","date_precision":"day","category":"environment","lens":"green_space","confidence":"documented","source_ids":["enfh-gkve"],"explanation":"Parks property record with acquisition date for Brooklyn Heights Promenade."},"geometry":{"type":"Point","coordinates":[-73.998501,40.694898]}},{"type":"Feature","id":"nyc_parks_property_169140","properties":{"city_id":"nyc","event_id":"nyc_parks_property_169140","title":"Parks property acquisition: Clumber Corner","year":1947,"effective_date":"1947-07-29","date_precision":"day","category":"environment","lens":"green_space","confidence":"documented","source_ids":["enfh-gkve"],"explanation":"Parks property record with acquisition date for Clumber Corner."},"geometry":{"type":"Point","coordinates":[-73.989103,40.701129]}},{"type":"Feature","id":"nyc_parks_property_169141","properties":{"city_id":"nyc","event_id":"nyc_parks_property_169141","title":"Parks property acquisition: Bar and Grill Park","year":1947,"effective_date":"1947-07-29","date_precision":"day","category":"environment","lens":"green_space","confidence":"documented","source_ids":["enfh-gkve"],"explanation":"Parks property record with acquisition date for Bar and Grill Park."},"geometry":{"type":"Point","coordinates":[-73.988092,40.701287]}},{"type":"Feature","id":"nyc_parks_property_169176","properties":{"city_id":"nyc","event_id":"nyc_parks_property_169176","title":"Parks property acquisition: Harlem River Park","year":1947,"effective_date":"1947-01-16","date_precision":"day","category":"environment","lens":"green_space","confidence":"documented","source_ids":["enfh-gkve"],"explanation":"Parks property record with acquisition date for Harlem River Park."},"geometry":{"type":"Point","coordinates":[-73.934627,40.807723]}},{"type":"Feature","id":"nyc_parks_property_169388","properties":{"city_id":"nyc","event_id":"nyc_parks_property_169388","title":"Parks property acquisition: Park","year":1947,"effective_date":"1947-07-29","date_precision":"day","category":"environment","lens":"green_space","confidence":"documented","source_ids":["enfh-gkve"],"explanation":"Parks property record with acquisition date for Park."},"geometry":{"type":"Point","coordinates":[-73.987594,40.701176]}},{"type":"Feature","id":"nyc_parks_property_169389","properties":{"city_id":"nyc","event_id":"nyc_parks_property_169389","title":"Parks property acquisition: Park","year":1947,"effective_date":"1947-07-29","date_precision":"day","category":"environment","lens":"green_space","confidence":"documented","source_ids":["enfh-gkve"],"explanation":"Parks property record with acquisition date for Park."},"geometry":{"type":"Point","coordinates":[-73.986891,40.701179]}},{"type":"Feature","id":"nyc_parks_property_169466","properties":{"city_id":"nyc","event_id":"nyc_parks_property_169466","title":"Parks property acquisition: Brooklyn Heights Promenade","year":1947,"effective_date":"1947-05-14","date_precision":"day","category":"environment","lens":"green_space","confidence":"documented","source_ids":["enfh-gkve"],"explanation":"Parks property record with acquisition date for Brooklyn Heights Promenade."},"geometry":{"type":"Point","coordinates":[-73.99623,40.699629]}},{"type":"Feature","id":"nyc_parks_property_169484","properties":{"city_id":"nyc","event_id":"nyc_parks_property_169484","title":"Parks property acquisition: Susan Smith McKinney Steward Park","year":1947,"effective_date":"1947-07-29","date_precision":"day","category":"environment","lens":"green_space","confidence":"documented","source_ids":["enfh-gkve"],"explanation":"Parks property record with acquisition date for Susan Smith McKinney Steward Park."},"geometry":{"type":"Point","coordinates":[-73.985977,40.700989]}},{"type":"Feature","id":"nyc_parks_property_169485","properties":{"city_id":"nyc","event_id":"nyc_parks_property_169485","title":"Parks property acquisition: Maritcha R. Lyons Park","year":1947,"effective_date":"1947-07-29","date_precision":"day","category":"environment","lens":"green_space","confidence":"documented","source_ids":["enfh-gkve"],"explanation":"Parks property record with acquisition date for Maritcha R. Lyons Park."},"geometry":{"type":"Point","coordinates":[-73.986314,40.700807]}},{"type":"Feature","id":"nyc_parks_property_169518","properties":{"city_id":"nyc","event_id":"nyc_parks_property_169518","title":"Parks property acquisition: Brooklyn Heights Promenade","year":1947,"effective_date":"1947-05-14","date_precision":"day","category":"environment","lens":"green_space","confidence":"documented","source_ids":["enfh-gkve"],"explanation":"Parks property record with acquisition date for Brooklyn Heights Promenade."},"geometry":{"type":"Point","coordinates":[-73.996564,40.698843]}},{"type":"Feature","id":"nyc_parks_property_169662","properties":{"city_id":"nyc","event_id":"nyc_parks_property_169662","title":"Parks property acquisition: Andries Playground","year":1947,"effective_date":"1947-05-25","date_precision":"day","category":"environment","lens":"green_space","confidence":"documented","source_ids":["enfh-gkve"],"explanation":"Parks property record with acquisition date for Andries Playground."},"geometry":{"type":"Point","coordinates":[-73.946594,40.622851]}},{"type":"Feature","id":"nyc_parks_property_169695","properties":{"city_id":"nyc","event_id":"nyc_parks_property_169695","title":"Parks property acquisition: Lot","year":1947,"effective_date":"1947-08-13","date_precision":"day","category":"environment","lens":"green_space","confidence":"documented","source_ids":["enfh-gkve"],"explanation":"Parks property record with acquisition date for Lot."},"geometry":{"type":"Point","coordinates":[-73.989075,40.699991]}},{"type":"Feature","id":"nyc_parks_property_169740","properties":{"city_id":"nyc","event_id":"nyc_parks_property_169740","title":"Parks property acquisition: Brooklyn Heights Promenade","year":1947,"effective_date":"1947-05-14","date_precision":"day","category":"environment","lens":"green_space","confidence":"documented","source_ids":["enfh-gkve"],"explanation":"Parks property record with acquisition date for Brooklyn Heights Promenade."},"geometry":{"type":"Point","coordinates":[-73.998733,40.694381]}},{"type":"Feature","id":"nyc_parks_property_169779","properties":{"city_id":"nyc","event_id":"nyc_parks_property_169779","title":"Parks property acquisition: Triangle","year":1947,"effective_date":"1947-05-29","date_precision":"day","category":"environment","lens":"green_space","confidence":"documented","source_ids":["enfh-gkve"],"explanation":"Parks property record with acquisition date for Triangle."},"geometry":{"type":"Point","coordinates":[-73.916711,40.616599]}},{"type":"Feature","id":"nyc_parks_property_169920","properties":{"city_id":"nyc","event_id":"nyc_parks_property_169920","title":"Parks property acquisition: Fresh Meadows Park","year":1947,"effective_date":"1947-05-24","date_precision":"day","category":"environment","lens":"green_space","confidence":"documented","source_ids":["enfh-gkve"],"explanation":"Parks property record with acquisition date for Fresh Meadows Park."},"geometry":{"type":"Point","coordinates":[-73.785447,40.740643]}},{"type":"Feature","id":"nyc_parks_property_169940","properties":{"city_id":"nyc","event_id":"nyc_parks_property_169940","title":"Parks property acquisition: Anchorage Plaza","year":1947,"effective_date":"1947-07-29","date_precision":"day","category":"environment","lens":"green_space","confidence":"documented","source_ids":["enfh-gkve"],"explanation":"Parks property record with acquisition date for Anchorage Plaza."},"geometry":{"type":"Point","coordinates":[-73.992142,40.702149]}},{"type":"Feature","id":"nyc_parks_property_170351","properties":{"city_id":"nyc","event_id":"nyc_parks_property_170351","title":"Parks property acquisition: Markham Playground","year":1947,"effective_date":"1947-12-30","date_precision":"day","category":"environment","lens":"green_space","confidence":"documented","source_ids":["enfh-gkve"],"explanation":"Parks property record with acquisition date for Markham Playground."},"geometry":{"type":"Point","coordinates":[-74.145933,40.623321]}},{"type":"Feature","id":"nyc_parks_property_170372","properties":{"city_id":"nyc","event_id":"nyc_parks_property_170372","title":"Parks property acquisition: Dr. Green Playground","year":1947,"effective_date":"1947-03-13","date_precision":"day","category":"environment","lens":"green_space","confidence":"documented","source_ids":["enfh-gkve"],"explanation":"Parks property record with acquisition date for Dr. Green Playground."},"geometry":{"type":"Point","coordinates":[-73.907159,40.66716]}},{"type":"Feature","id":"nyc_parks_property_170375","properties":{"city_id":"nyc","event_id":"nyc_parks_property_170375","title":"Parks property acquisition: P.S. 125 Playground","year":1947,"effective_date":"1947-03-13","date_precision":"day","category":"environment","lens":"green_space","confidence":"documented","source_ids":["enfh-gkve"],"explanation":"Parks property record with acquisition date for P.S. 125 Playground."},"geometry":{"type":"Point","coordinates":[-73.909136,40.665151]}},{"type":"Feature","id":"nyc_parks_property_170376","properties":{"city_id":"nyc","event_id":"nyc_parks_property_170376","title":"Parks property acquisition: John Hancock Playground","year":1947,"effective_date":"1947-10-03","date_precision":"day","category":"environment","lens":"green_space","confidence":"documented","source_ids":["enfh-gkve"],"explanation":"Parks property record with acquisition date for John Hancock Playground."},"geometry":{"type":"Point","coordinates":[-73.95466,40.682317]}},{"type":"Feature","id":"nyc_parks_property_170388","properties":{"city_id":"nyc","event_id":"nyc_parks_property_170388","title":"Parks property acquisition: Dimattina Playground","year":1947,"effective_date":"1947-05-14","date_precision":"day","category":"environment","lens":"green_space","confidence":"documented","source_ids":["enfh-gkve"],"explanation":"Parks property record with acquisition date for Dimattina Playground."},"geometry":{"type":"Point","coordinates":[-74.002123,40.680615]}},{"type":"Feature","id":"nyc_parks_property_170389","properties":{"city_id":"nyc","event_id":"nyc_parks_property_170389","title":"Parks property acquisition: Brooklyn Heights Promenade","year":1947,"effective_date":"1947-05-14","date_precision":"day","category":"environment","lens":"green_space","confidence":"documented","source_ids":["enfh-gkve"],"explanation":"Parks property record with acquisition date for Brooklyn Heights Promenade."},"geometry":{"type":"Point","coordinates":[-73.997892,40.696037]}},{"type":"Feature","id":"nyc_parks_property_170390","properties":{"city_id":"nyc","event_id":"nyc_parks_property_170390","title":"Parks property acquisition: Brooklyn Heights Promenade","year":1947,"effective_date":"1947-05-14","date_precision":"day","category":"environment","lens":"green_space","confidence":"documented","source_ids":["enfh-gkve"],"explanation":"Parks property record with acquisition date for Brooklyn Heights Promenade."},"geometry":{"type":"Point","coordinates":[-73.997737,40.695729]}},{"type":"Feature","id":"nyc_parks_property_170391","properties":{"city_id":"nyc","event_id":"nyc_parks_property_170391","title":"Parks property acquisition: Brooklyn Heights Promenade","year":1947,"effective_date":"1947-05-14","date_precision":"day","category":"environment","lens":"green_space","confidence":"documented","source_ids":["enfh-gkve"],"explanation":"Parks property record with acquisition date for Brooklyn Heights Promenade."},"geometry":{"type":"Point","coordinates":[-73.997167,40.697624]}},{"type":"Feature","id":"nyc_parks_property_170524","properties":{"city_id":"nyc","event_id":"nyc_parks_property_170524","title":"Parks property acquisition: Brooklyn Heights Promenade","year":1947,"effective_date":"1947-05-14","date_precision":"day","category":"environment","lens":"green_space","confidence":"documented","source_ids":["enfh-gkve"],"explanation":"Parks property record with acquisition date for Brooklyn Heights Promenade."},"geometry":{"type":"Point","coordinates":[-73.996279,40.699098]}},{"type":"Feature","id":"nyc_parks_property_170536","properties":{"city_id":"nyc","event_id":"nyc_parks_property_170536","title":"Parks property acquisition: Linden Park","year":1947,"effective_date":"1947-04-24","date_precision":"day","category":"environment","lens":"green_space","confidence":"documented","source_ids":["enfh-gkve"],"explanation":"Parks property record with acquisition date for Linden Park."},"geometry":{"type":"Point","coordinates":[-73.886494,40.65921]}},{"type":"Feature","id":"nyc_parks_property_170555","properties":{"city_id":"nyc","event_id":"nyc_parks_property_170555","title":"Parks property acquisition: Marx Brothers Playground","year":1947,"effective_date":"1947-05-05","date_precision":"day","category":"environment","lens":"green_space","confidence":"documented","source_ids":["enfh-gkve"],"explanation":"Parks property record with acquisition date for Marx Brothers Playground."},"geometry":{"type":"Point","coordinates":[-73.946033,40.784341]}},{"type":"Feature","id":"nyc_parks_property_170566","properties":{"city_id":"nyc","event_id":"nyc_parks_property_170566","title":"Parks property acquisition: Alice Kornegay Triangle","year":1947,"effective_date":"1947-01-16","date_precision":"day","category":"environment","lens":"green_space","confidence":"documented","source_ids":["enfh-gkve"],"explanation":"Parks property record with acquisition date for Alice Kornegay Triangle."},"geometry":{"type":"Point","coordinates":[-73.934978,40.806277]}},{"type":"Feature","id":"nyc_parks_property_170567","properties":{"city_id":"nyc","event_id":"nyc_parks_property_170567","title":"Parks property acquisition: Park","year":1947,"effective_date":"1947-01-16","date_precision":"day","category":"environment","lens":"green_space","confidence":"documented","source_ids":["enfh-gkve"],"explanation":"Parks property record with acquisition date for Park."},"geometry":{"type":"Point","coordinates":[-73.935269,40.807021]}},{"type":"Feature","id":"nyc_parks_property_170791","properties":{"city_id":"nyc","event_id":"nyc_parks_property_170791","title":"Parks property acquisition: Peter Detmold Park","year":1947,"effective_date":"1947-07-02","date_precision":"day","category":"environment","lens":"green_space","confidence":"documented","source_ids":["enfh-gkve"],"explanation":"Parks property record with acquisition date for Peter Detmold Park."},"geometry":{"type":"Point","coordinates":[-73.963915,40.753195]}},{"type":"Feature","id":"nyc_parks_property_170985","properties":{"city_id":"nyc","event_id":"nyc_parks_property_170985","title":"Parks property acquisition: Dimattina Playground","year":1947,"effective_date":"1947-05-14","date_precision":"day","category":"environment","lens":"green_space","confidence":"documented","source_ids":["enfh-gkve"],"explanation":"Parks property record with acquisition date for Dimattina Playground."},"geometry":{"type":"Point","coordinates":[-74.002634,40.679508]}},{"type":"Feature","id":"nyc_parks_property_170992","properties":{"city_id":"nyc","event_id":"nyc_parks_property_170992","title":"Parks property acquisition: Harlem River Park","year":1947,"effective_date":"1947-01-16","date_precision":"day","category":"environment","lens":"green_space","confidence":"documented","source_ids":["enfh-gkve"],"explanation":"Parks property record with acquisition date for Harlem River Park."},"geometry":{"type":"Point","coordinates":[-73.934654,40.806427]}},{"type":"Feature","id":"nyc_parks_property_171127","properties":{"city_id":"nyc","event_id":"nyc_parks_property_171127","title":"Parks property acquisition: Trinity Park","year":1947,"effective_date":"1947-08-13","date_precision":"day","category":"environment","lens":"green_space","confidence":"documented","source_ids":["enfh-gkve"],"explanation":"Parks property record with acquisition date for Trinity Park."},"geometry":{"type":"Point","coordinates":[-73.984,40.699215]}},{"type":"Feature","id":"nyc_parks_property_171128","properties":{"city_id":"nyc","event_id":"nyc_parks_property_171128","title":"Parks property acquisition: Bridge Park 3","year":1947,"effective_date":"1947-08-13","date_precision":"day","category":"environment","lens":"green_space","confidence":"documented","source_ids":["enfh-gkve"],"explanation":"Parks property record with acquisition date for Bridge Park 3."},"geometry":{"type":"Point","coordinates":[-73.985201,40.700191]}},{"type":"Feature","id":"nyc_parks_property_171150","properties":{"city_id":"nyc","event_id":"nyc_parks_property_171150","title":"Parks property acquisition: Rockaway Beach and Boardwalk","year":1947,"effective_date":"1947-01-30","date_precision":"day","category":"environment","lens":"green_space","confidence":"documented","source_ids":["enfh-gkve"],"explanation":"Parks property record with acquisition date for Rockaway Beach and Boardwalk."},"geometry":{"type":"Point","coordinates":[-73.772563,40.59068]}}]}
