{"type":"FeatureCollection","schema_version":"1.0.0","city_id":"nyc","year":1967,"features":[{"type":"Feature","id":"nyc_lpc_historic_district_lp-00225","properties":{"city_id":"nyc","event_id":"nyc_lpc_historic_district_lp-00225","title":"Historic district designated: MacDougal-Sullivan Gardens Historic District","short_description":"LPC historic district record LP-00225; status DESIGNATED; public hearing 5/10/1966.","year":1967,"effective_date":"1967-08-02","date_precision":"day","category":"built_environment","lens":"built_environment","confidence":"documented","source_ids":["skyk-mpzq"],"explanation":"LPC historic district designation record for MacDougal-Sullivan Gardens Historic District."},"geometry":{"type":"Point","coordinates":[-74.001338,40.728463]}},{"type":"Feature","id":"nyc_lpc_historic_district_lp-00322","properties":{"city_id":"nyc","event_id":"nyc_lpc_historic_district_lp-00322","title":"Historic district designated: St. Nicholas Historic District","short_description":"LPC historic district record LP-00322; status DESIGNATED; public hearing 7/12/1966.","year":1967,"effective_date":"1967-03-16","date_precision":"day","category":"built_environment","lens":"built_environment","confidence":"documented","source_ids":["skyk-mpzq"],"explanation":"LPC historic district designation record for St. Nicholas Historic District."},"geometry":{"type":"Point","coordinates":[-73.943467,40.818081]}},{"type":"Feature","id":"nyc_lpc_historic_district_lp-00536","properties":{"city_id":"nyc","event_id":"nyc_lpc_historic_district_lp-00536","title":"Historic district designated: Treadwell Farm Historic District","short_description":"LPC historic district record LP-00536; status DESIGNATED; public hearing 12/27/1966.","year":1967,"effective_date":"1967-12-13","date_precision":"day","category":"built_environment","lens":"built_environment","confidence":"documented","source_ids":["skyk-mpzq"],"explanation":"LPC historic district designation record for Treadwell Farm Historic District."},"geometry":{"type":"Point","coordinates":[-73.964201,40.762751]}},{"type":"Feature","id":"nyc_lpc_individual_landmark_1","properties":{"city_id":"nyc","event_id":"nyc_lpc_individual_landmark_1","title":"Individual landmark designated: Decker Farmhouse","short_description":"LPC individual landmark site LP-00369; status Designated; type Individual Landmark; alternate name not stated.","year":1967,"effective_date":"1967-12-13","date_precision":"day","category":"built_environment","lens":"built_environment","confidence":"documented","source_ids":["buis-pvji"],"explanation":"LPC designation record for Decker Farmhouse; designation date is taken from the source desdate field."},"geometry":{"type":"Point","coordinates":[-74.153612,40.582797]}},{"type":"Feature","id":"nyc_lpc_individual_landmark_1020","properties":{"city_id":"nyc","event_id":"nyc_lpc_individual_landmark_1020","title":"Individual landmark designated: Watch Tower","short_description":"LPC individual landmark site LP-00313; status Designated; type Individual Landmark; alternate name not stated.","year":1967,"effective_date":"1967-07-12","date_precision":"day","category":"built_environment","lens":"built_environment","confidence":"documented","source_ids":["buis-pvji"],"explanation":"LPC designation record for Watch Tower; designation date is taken from the source desdate field."},"geometry":{"type":"Point","coordinates":[-73.943585,40.804106]}},{"type":"Feature","id":"nyc_lpc_individual_landmark_1070","properties":{"city_id":"nyc","event_id":"nyc_lpc_individual_landmark_1070","title":"Individual landmark designated: High Bridge Water Tower","short_description":"LPC individual landmark site LP-00319; status Designated; type Individual Landmark; alternate name not stated.","year":1967,"effective_date":"1967-07-12","date_precision":"day","category":"built_environment","lens":"built_environment","confidence":"documented","source_ids":["buis-pvji"],"explanation":"LPC designation record for High Bridge Water Tower; designation date is taken from the source desdate field."},"geometry":{"type":"Point","coordinates":[-73.932622,40.842546]}},{"type":"Feature","id":"nyc_lpc_individual_landmark_1084","properties":{"city_id":"nyc","event_id":"nyc_lpc_individual_landmark_1084","title":"Individual landmark designated: Paul J. Rainey Memorial Gates, New York Zoological Park","short_description":"LPC individual landmark site LP-00108; status Designated; type Individual Landmark; alternate name not stated.","year":1967,"effective_date":"1967-01-11","date_precision":"day","category":"built_environment","lens":"built_environment","confidence":"documented","source_ids":["buis-pvji"],"explanation":"LPC designation record for Paul J. Rainey Memorial Gates, New York Zoological Park; designation date is taken from the source desdate field."},"geometry":{"type":"Point","coordinates":[-73.877478,40.854992]}},{"type":"Feature","id":"nyc_lpc_individual_landmark_1096","properties":{"city_id":"nyc","event_id":"nyc_lpc_individual_landmark_1096","title":"Individual landmark designated: Alexander Hamilton House, the Grange, Amendment to Landmark Site","short_description":"LPC individual landmark site LP-00317; status Designated; type Individual Landmark; alternate name now the Hamilton Grange National Monument.","year":1967,"effective_date":"1967-08-02","date_precision":"day","category":"built_environment","lens":"built_environment","confidence":"documented","source_ids":["buis-pvji"],"explanation":"LPC designation record for Alexander Hamilton House, the Grange, Amendment to Landmark Site; designation date is taken from the source desdate field."},"geometry":{"type":"Point","coordinates":[-73.947269,40.821393]}},{"type":"Feature","id":"nyc_lpc_individual_landmark_1129","properties":{"city_id":"nyc","event_id":"nyc_lpc_individual_landmark_1129","title":"Individual landmark designated: Whitehall Ferry Terminal","short_description":"LPC individual landmark site LP-00547; status Designated; type Individual Landmark; alternate name now the Battery Maritime Building.","year":1967,"effective_date":"1967-05-25","date_precision":"day","category":"built_environment","lens":"built_environment","confidence":"documented","source_ids":["buis-pvji"],"explanation":"LPC designation record for Whitehall Ferry Terminal; designation date is taken from the source desdate field."},"geometry":{"type":"Point","coordinates":[-74.011662,40.700978]}},{"type":"Feature","id":"nyc_lpc_individual_landmark_1141","properties":{"city_id":"nyc","event_id":"nyc_lpc_individual_landmark_1141","title":"Individual landmark designated: Brooklyn Bridge","short_description":"LPC individual landmark site LP-00098; status Designated; type Individual Landmark; alternate name not stated.","year":1967,"effective_date":"1967-08-24","date_precision":"day","category":"built_environment","lens":"built_environment","confidence":"documented","source_ids":["buis-pvji"],"explanation":"LPC designation record for Brooklyn Bridge; designation date is taken from the source desdate field."},"geometry":{"type":"Point","coordinates":[-73.997574,40.706714]}},{"type":"Feature","id":"nyc_lpc_individual_landmark_1144","properties":{"city_id":"nyc","event_id":"nyc_lpc_individual_landmark_1144","title":"Individual landmark designated: Christ Church","short_description":"LPC individual landmark site LP-00126; status Designated; type Individual Landmark; alternate name not stated.","year":1967,"effective_date":"1967-01-11","date_precision":"day","category":"built_environment","lens":"built_environment","confidence":"documented","source_ids":["buis-pvji"],"explanation":"LPC designation record for Christ Church; designation date is taken from the source desdate field."},"geometry":{"type":"Point","coordinates":[-73.906363,40.89918]}},{"type":"Feature","id":"nyc_lpc_individual_landmark_1163","properties":{"city_id":"nyc","event_id":"nyc_lpc_individual_landmark_1163","title":"Individual landmark designated: Harvard Club of New York City","short_description":"LPC individual landmark site LP-00259; status Designated; type Individual Landmark; alternate name not stated.","year":1967,"effective_date":"1967-01-11","date_precision":"day","category":"built_environment","lens":"built_environment","confidence":"documented","source_ids":["buis-pvji"],"explanation":"LPC designation record for Harvard Club of New York City; designation date is taken from the source desdate field."},"geometry":{"type":"Point","coordinates":[-73.981161,40.755666]}},{"type":"Feature","id":"nyc_lpc_individual_landmark_1167","properties":{"city_id":"nyc","event_id":"nyc_lpc_individual_landmark_1167","title":"Individual landmark designated: Carnegie Hall","short_description":"LPC individual landmark site LP-00278; status Designated; type Individual Landmark; alternate name not stated.","year":1967,"effective_date":"1967-06-20","date_precision":"day","category":"built_environment","lens":"built_environment","confidence":"documented","source_ids":["buis-pvji"],"explanation":"LPC designation record for Carnegie Hall; designation date is taken from the source desdate field."},"geometry":{"type":"Point","coordinates":[-73.979815,40.764997]}},{"type":"Feature","id":"nyc_lpc_individual_landmark_1168","properties":{"city_id":"nyc","event_id":"nyc_lpc_individual_landmark_1168","title":"Individual landmark designated: American Museum of Natural History","short_description":"LPC individual landmark site LP-00282; status Designated; type Individual Landmark; alternate name not stated.","year":1967,"effective_date":"1967-08-24","date_precision":"day","category":"built_environment","lens":"built_environment","confidence":"documented","source_ids":["buis-pvji"],"explanation":"LPC designation record for American Museum of Natural History; designation date is taken from the source desdate field."},"geometry":{"type":"Point","coordinates":[-73.974389,40.780974]}},{"type":"Feature","id":"nyc_lpc_individual_landmark_1171","properties":{"city_id":"nyc","event_id":"nyc_lpc_individual_landmark_1171","title":"Individual landmark designated: The Arsenal","short_description":"LPC individual landmark site LP-00312; status Designated; type Individual Landmark; alternate name now the Administration Building of the New York City Department of Parks and Recreation.","year":1967,"effective_date":"1967-10-12","date_precision":"day","category":"built_environment","lens":"built_environment","confidence":"documented","source_ids":["buis-pvji"],"explanation":"LPC designation record for The Arsenal; designation date is taken from the source desdate field."},"geometry":{"type":"Point","coordinates":[-73.97131,40.767629]}},{"type":"Feature","id":"nyc_lpc_individual_landmark_1173","properties":{"city_id":"nyc","event_id":"nyc_lpc_individual_landmark_1173","title":"Individual landmark designated: 69 Delafield Place House","short_description":"LPC individual landmark site LP-00338; status Designated; type Individual Landmark; alternate name also known as the Samuel MacKenzie Elliot House.","year":1967,"effective_date":"1967-04-12","date_precision":"day","category":"built_environment","lens":"built_environment","confidence":"documented","source_ids":["buis-pvji"],"explanation":"LPC designation record for 69 Delafield Place House; designation date is taken from the source desdate field."},"geometry":{"type":"Point","coordinates":[-74.109653,40.644168]}},{"type":"Feature","id":"nyc_lpc_individual_landmark_1178","properties":{"city_id":"nyc","event_id":"nyc_lpc_individual_landmark_1178","title":"Individual landmark designated: Ernest Flagg House: Stone Court","short_description":"LPC individual landmark site LP-00357; status Designated; type Individual Landmark; alternate name now the Scalabrini Fathers of Saint Charles and the Copperflagg Residential Development.","year":1967,"effective_date":"1967-04-12","date_precision":"day","category":"built_environment","lens":"built_environment","confidence":"documented","source_ids":["buis-pvji"],"explanation":"LPC designation record for Ernest Flagg House: Stone Court; designation date is taken from the source desdate field."},"geometry":{"type":"Point","coordinates":[-74.106225,40.587125]}},{"type":"Feature","id":"nyc_lpc_individual_landmark_1179","properties":{"city_id":"nyc","event_id":"nyc_lpc_individual_landmark_1179","title":"Individual landmark designated: New Dorp Light","short_description":"LPC individual landmark site LP-00361; status Amended; type Individual Landmark; alternate name not stated.","year":1967,"effective_date":"1967-11-15","date_precision":"day","category":"built_environment","lens":"built_environment","confidence":"documented","source_ids":["buis-pvji"],"explanation":"LPC designation record for New Dorp Light; designation date is taken from the source desdate field."},"geometry":{"type":"Point","coordinates":[-74.120104,40.580806]}},{"type":"Feature","id":"nyc_lpc_individual_landmark_1182","properties":{"city_id":"nyc","event_id":"nyc_lpc_individual_landmark_1182","title":"Individual landmark designated: Fort Richmond","short_description":"LPC individual landmark site LP-00379; status Designated; type Individual Landmark; alternate name now Battery Weed.","year":1967,"effective_date":"1967-10-12","date_precision":"day","category":"built_environment","lens":"built_environment","confidence":"documented","source_ids":["buis-pvji"],"explanation":"LPC designation record for Fort Richmond; designation date is taken from the source desdate field."},"geometry":{"type":"Point","coordinates":[-74.054318,40.605468]}},{"type":"Feature","id":"nyc_lpc_individual_landmark_1184","properties":{"city_id":"nyc","event_id":"nyc_lpc_individual_landmark_1184","title":"Individual landmark designated: Joseph H. Seguine House","short_description":"LPC individual landmark site LP-00389; status Designated; type Individual Landmark; alternate name not stated.","year":1967,"effective_date":"1967-05-25","date_precision":"day","category":"built_environment","lens":"built_environment","confidence":"documented","source_ids":["buis-pvji"],"explanation":"LPC designation record for Joseph H. Seguine House; designation date is taken from the source desdate field."},"geometry":{"type":"Point","coordinates":[-74.19759,40.515201]}},{"type":"Feature","id":"nyc_lpc_individual_landmark_1186","properties":{"city_id":"nyc","event_id":"nyc_lpc_individual_landmark_1186","title":"Individual landmark designated: Metropolitan Museum of Art","short_description":"LPC individual landmark site LP-00410; status Designated; type Individual Landmark; alternate name not stated.","year":1967,"effective_date":"1967-06-09","date_precision":"day","category":"built_environment","lens":"built_environment","confidence":"documented","source_ids":["buis-pvji"],"explanation":"LPC designation record for Metropolitan Museum of Art; designation date is taken from the source desdate field."},"geometry":{"type":"Point","coordinates":[-73.963503,40.779485]}},{"type":"Feature","id":"nyc_lpc_individual_landmark_1187","properties":{"city_id":"nyc","event_id":"nyc_lpc_individual_landmark_1187","title":"Individual landmark designated: Church of Saint Vincent Ferrer Complex","short_description":"LPC individual landmark site LP-00416; status Designated; type Individual Landmark; alternate name not stated.","year":1967,"effective_date":"1967-02-28","date_precision":"day","category":"built_environment","lens":"built_environment","confidence":"documented","source_ids":["buis-pvji"],"explanation":"LPC designation record for Church of Saint Vincent Ferrer Complex; designation date is taken from the source desdate field."},"geometry":{"type":"Point","coordinates":[-73.964727,40.766177]}},{"type":"Feature","id":"nyc_lpc_individual_landmark_1190","properties":{"city_id":"nyc","event_id":"nyc_lpc_individual_landmark_1190","title":"Individual landmark designated: Church of the Transfiguration","short_description":"LPC individual landmark site LP-00470; status Amended; type Individual Landmark; alternate name also known as the Little Church around the Corner.","year":1967,"effective_date":"1967-05-25","date_precision":"day","category":"built_environment","lens":"built_environment","confidence":"documented","source_ids":["buis-pvji"],"explanation":"LPC designation record for Church of the Transfiguration; designation date is taken from the source desdate field."},"geometry":{"type":"Point","coordinates":[-73.985898,40.745214]}},{"type":"Feature","id":"nyc_lpc_individual_landmark_1191","properties":{"city_id":"nyc","event_id":"nyc_lpc_individual_landmark_1191","title":"Individual landmark designated: Grace Episcopal Church and Graveyard","short_description":"LPC individual landmark site LP-00487; status Designated; type Individual Landmark; alternate name not stated.","year":1967,"effective_date":"1967-05-25","date_precision":"day","category":"built_environment","lens":"built_environment","confidence":"documented","source_ids":["buis-pvji"],"explanation":"LPC designation record for Grace Episcopal Church and Graveyard; designation date is taken from the source desdate field."},"geometry":{"type":"Point","coordinates":[-73.801339,40.704107]}},{"type":"Feature","id":"nyc_lpc_individual_landmark_1192","properties":{"city_id":"nyc","event_id":"nyc_lpc_individual_landmark_1192","title":"Individual landmark designated: Castle Williams","short_description":"LPC individual landmark site LP-00542; status Designated; type Individual Landmark; alternate name not stated.","year":1967,"effective_date":"1967-09-19","date_precision":"day","category":"built_environment","lens":"built_environment","confidence":"documented","source_ids":["buis-pvji"],"explanation":"LPC designation record for Castle Williams; designation date is taken from the source desdate field."},"geometry":{"type":"Point","coordinates":[-74.019375,40.692845]}},{"type":"Feature","id":"nyc_lpc_individual_landmark_1193","properties":{"city_id":"nyc","event_id":"nyc_lpc_individual_landmark_1193","title":"Individual landmark designated: Fort Jay","short_description":"LPC individual landmark site LP-00543; status Designated; type Individual Landmark; alternate name designated as Fort Jay.","year":1967,"effective_date":"1967-09-19","date_precision":"day","category":"built_environment","lens":"built_environment","confidence":"documented","source_ids":["buis-pvji"],"explanation":"LPC designation record for Fort Jay; designation date is taken from the source desdate field."},"geometry":{"type":"Point","coordinates":[-74.015977,40.691542]}},{"type":"Feature","id":"nyc_lpc_individual_landmark_1194","properties":{"city_id":"nyc","event_id":"nyc_lpc_individual_landmark_1194","title":"Individual landmark designated: Post Hospital","short_description":"LPC individual landmark site LP-00544; status Designated; type Individual Landmark; alternate name designated as the Block House.","year":1967,"effective_date":"1967-09-19","date_precision":"day","category":"built_environment","lens":"built_environment","confidence":"documented","source_ids":["buis-pvji"],"explanation":"LPC designation record for Post Hospital; designation date is taken from the source desdate field."},"geometry":{"type":"Point","coordinates":[-74.013825,40.68893]}},{"type":"Feature","id":"nyc_lpc_individual_landmark_1195","properties":{"city_id":"nyc","event_id":"nyc_lpc_individual_landmark_1195","title":"Individual landmark designated: Commanding Officer's Quarters","short_description":"LPC individual landmark site LP-00546; status Designated; type Individual Landmark; alternate name not stated.","year":1967,"effective_date":"1967-09-19","date_precision":"day","category":"built_environment","lens":"built_environment","confidence":"documented","source_ids":["buis-pvji"],"explanation":"LPC designation record for Commanding Officer's Quarters; designation date is taken from the source desdate field."},"geometry":{"type":"Point","coordinates":[-74.013155,40.69032]}},{"type":"Feature","id":"nyc_lpc_individual_landmark_1196","properties":{"city_id":"nyc","event_id":"nyc_lpc_individual_landmark_1196","title":"Individual landmark designated: Governor's House","short_description":"LPC individual landmark site LP-00545; status Designated; type Individual Landmark; alternate name originally a guardhouse.","year":1967,"effective_date":"1967-09-19","date_precision":"day","category":"built_environment","lens":"built_environment","confidence":"documented","source_ids":["buis-pvji"],"explanation":"LPC designation record for Governor's House; designation date is taken from the source desdate field."},"geometry":{"type":"Point","coordinates":[-74.013031,40.690944]}},{"type":"Feature","id":"nyc_lpc_individual_landmark_1206","properties":{"city_id":"nyc","event_id":"nyc_lpc_individual_landmark_1206","title":"Individual landmark designated: Union Theological Seminary","short_description":"LPC individual landmark site LP-00595; status Designated; type Individual Landmark; alternate name encompassing Brown Memorial Tower, James Tower, and James Memorial Chapel.","year":1967,"effective_date":"1967-11-15","date_precision":"day","category":"built_environment","lens":"built_environment","confidence":"documented","source_ids":["buis-pvji"],"explanation":"LPC designation record for Union Theological Seminary; designation date is taken from the source desdate field."},"geometry":{"type":"Point","coordinates":[-73.962371,40.811274]}},{"type":"Feature","id":"nyc_lpc_individual_landmark_122","properties":{"city_id":"nyc","event_id":"nyc_lpc_individual_landmark_122","title":"Individual landmark designated: Saint George's Church","short_description":"LPC individual landmark site LP-00244; status Designated; type Individual Landmark; alternate name not stated.","year":1967,"effective_date":"1967-06-20","date_precision":"day","category":"built_environment","lens":"built_environment","confidence":"documented","source_ids":["buis-pvji"],"explanation":"LPC designation record for Saint George's Church; designation date is taken from the source desdate field."},"geometry":{"type":"Point","coordinates":[-73.985026,40.734472]}},{"type":"Feature","id":"nyc_lpc_individual_landmark_125","properties":{"city_id":"nyc","event_id":"nyc_lpc_individual_landmark_125","title":"Individual landmark designated: West End Collegiate Church and Collegiate School","short_description":"LPC individual landmark site LP-00287; status Designated; type Individual Landmark; alternate name not stated.","year":1967,"effective_date":"1967-01-11","date_precision":"day","category":"built_environment","lens":"built_environment","confidence":"documented","source_ids":["buis-pvji"],"explanation":"LPC designation record for West End Collegiate Church and Collegiate School; designation date is taken from the source desdate field."},"geometry":{"type":"Point","coordinates":[-73.981416,40.783046]}},{"type":"Feature","id":"nyc_lpc_individual_landmark_13","properties":{"city_id":"nyc","event_id":"nyc_lpc_individual_landmark_13","title":"Individual landmark designated: Saint Andrew's Church","short_description":"LPC individual landmark site LP-00399; status Designated; type Individual Landmark; alternate name not stated.","year":1967,"effective_date":"1967-11-15","date_precision":"day","category":"built_environment","lens":"built_environment","confidence":"documented","source_ids":["buis-pvji"],"explanation":"LPC designation record for Saint Andrew's Church; designation date is taken from the source desdate field."},"geometry":{"type":"Point","coordinates":[-74.146918,40.573019]}},{"type":"Feature","id":"nyc_lpc_individual_landmark_1343","properties":{"city_id":"nyc","event_id":"nyc_lpc_individual_landmark_1343","title":"Individual landmark designated: Pierre Billiou House","short_description":"LPC individual landmark site LP-00380; status Designated; type Individual Landmark; alternate name also known as the Billiou-Stillwell-Perine House.","year":1967,"effective_date":"1967-02-28","date_precision":"day","category":"built_environment","lens":"built_environment","confidence":"documented","source_ids":["buis-pvji"],"explanation":"LPC designation record for Pierre Billiou House; designation date is taken from the source desdate field."},"geometry":{"type":"Point","coordinates":[-74.100019,40.593342]}},{"type":"Feature","id":"nyc_lpc_individual_landmark_22","properties":{"city_id":"nyc","event_id":"nyc_lpc_individual_landmark_22","title":"Individual landmark designated: Julia Gardiner Tyler House","short_description":"LPC individual landmark site LP-00344; status Designated; type Individual Landmark; alternate name originally the Elizabeth Racey House, also known as the Gardiner-Tyler House.","year":1967,"effective_date":"1967-04-12","date_precision":"day","category":"built_environment","lens":"built_environment","confidence":"documented","source_ids":["buis-pvji"],"explanation":"LPC designation record for Julia Gardiner Tyler House; designation date is taken from the source desdate field."},"geometry":{"type":"Point","coordinates":[-74.11219,40.623598]}},{"type":"Feature","id":"nyc_lpc_individual_landmark_27","properties":{"city_id":"nyc","event_id":"nyc_lpc_individual_landmark_27","title":"Individual landmark designated: Cornelius Cruser House","short_description":"LPC individual landmark site LP-00341; status Designated; type Individual Landmark; alternate name also known as the Kreuzer-Pelton House.","year":1967,"effective_date":"1967-08-24","date_precision":"day","category":"built_environment","lens":"built_environment","confidence":"documented","source_ids":["buis-pvji"],"explanation":"LPC designation record for Cornelius Cruser House; designation date is taken from the source desdate field."},"geometry":{"type":"Point","coordinates":[-74.11217,40.643718]}},{"type":"Feature","id":"nyc_lpc_individual_landmark_31","properties":{"city_id":"nyc","event_id":"nyc_lpc_individual_landmark_31","title":"Individual landmark designated: Tysen-Neville House","short_description":"LPC individual landmark site LP-00334; status Designated; type Individual Landmark; alternate name also known as the Neville House and the Old Stone Jug.","year":1967,"effective_date":"1967-11-15","date_precision":"day","category":"built_environment","lens":"built_environment","confidence":"documented","source_ids":["buis-pvji"],"explanation":"LPC designation record for Tysen-Neville House; designation date is taken from the source desdate field."},"geometry":{"type":"Point","coordinates":[-74.099123,40.644486]}},{"type":"Feature","id":"nyc_lpc_individual_landmark_336","properties":{"city_id":"nyc","event_id":"nyc_lpc_individual_landmark_336","title":"Individual landmark designated: Marble Collegiate Church","short_description":"LPC individual landmark site LP-00234; status Designated; type Individual Landmark; alternate name not stated.","year":1967,"effective_date":"1967-01-11","date_precision":"day","category":"built_environment","lens":"built_environment","confidence":"documented","source_ids":["buis-pvji"],"explanation":"LPC designation record for Marble Collegiate Church; designation date is taken from the source desdate field."},"geometry":{"type":"Point","coordinates":[-73.987027,40.745663]}},{"type":"Feature","id":"nyc_lpc_individual_landmark_37","properties":{"city_id":"nyc","event_id":"nyc_lpc_individual_landmark_37","title":"Individual landmark designated: Garibaldi-Meucci Museum","short_description":"LPC individual landmark site LP-00377; status Designated; type Individual Landmark; alternate name not stated.","year":1967,"effective_date":"1967-05-25","date_precision":"day","category":"built_environment","lens":"built_environment","confidence":"documented","source_ids":["buis-pvji"],"explanation":"LPC designation record for Garibaldi-Meucci Museum; designation date is taken from the source desdate field."},"geometry":{"type":"Point","coordinates":[-74.073758,40.615215]}},{"type":"Feature","id":"nyc_lpc_individual_landmark_379","properties":{"city_id":"nyc","event_id":"nyc_lpc_individual_landmark_379","title":"Individual landmark designated: New York Public Library, Astor, Lenox and Tilden Foundations","short_description":"LPC individual landmark site LP-00246; status Designated; type Individual Landmark; alternate name not stated.","year":1967,"effective_date":"1967-01-11","date_precision":"day","category":"built_environment","lens":"built_environment","confidence":"documented","source_ids":["buis-pvji"],"explanation":"LPC designation record for New York Public Library, Astor, Lenox and Tilden Foundations; designation date is taken from the source desdate field."},"geometry":{"type":"Point","coordinates":[-73.982498,40.753159]}},{"type":"Feature","id":"nyc_lpc_individual_landmark_380","properties":{"city_id":"nyc","event_id":"nyc_lpc_individual_landmark_380","title":"Individual landmark designated: Rectory of the Church of the Transfiguration","short_description":"LPC individual landmark site LP-00471; status Designated; type Individual Landmark; alternate name also known as the Little Church around the Corner.","year":1967,"effective_date":"1967-05-25","date_precision":"day","category":"built_environment","lens":"built_environment","confidence":"documented","source_ids":["buis-pvji"],"explanation":"LPC designation record for Rectory of the Church of the Transfiguration; designation date is taken from the source desdate field."},"geometry":{"type":"Point","coordinates":[-73.986176,40.745312]}},{"type":"Feature","id":"nyc_lpc_individual_landmark_4","properties":{"city_id":"nyc","event_id":"nyc_lpc_individual_landmark_4","title":"Individual landmark designated: Reverend David Moore House","short_description":"LPC individual landmark site LP-00366; status Designated; type Individual Landmark; alternate name also known as the Moore-McMillen House.","year":1967,"effective_date":"1967-08-24","date_precision":"day","category":"built_environment","lens":"built_environment","confidence":"documented","source_ids":["buis-pvji"],"explanation":"LPC designation record for Reverend David Moore House; designation date is taken from the source desdate field."},"geometry":{"type":"Point","coordinates":[-74.138697,40.573196]}},{"type":"Feature","id":"nyc_lpc_individual_landmark_45","properties":{"city_id":"nyc","event_id":"nyc_lpc_individual_landmark_45","title":"Individual landmark designated: Woodrow United Methodist Church","short_description":"LPC individual landmark site LP-00385; status Designated; type Individual Landmark; alternate name not stated.","year":1967,"effective_date":"1967-11-15","date_precision":"day","category":"built_environment","lens":"built_environment","confidence":"documented","source_ids":["buis-pvji"],"explanation":"LPC designation record for Woodrow United Methodist Church; designation date is taken from the source desdate field."},"geometry":{"type":"Point","coordinates":[-74.201264,40.543136]}},{"type":"Feature","id":"nyc_lpc_individual_landmark_454","properties":{"city_id":"nyc","event_id":"nyc_lpc_individual_landmark_454","title":"Individual landmark designated: Ogden Codman House","short_description":"LPC individual landmark site LP-00593; status Designated; type Individual Landmark; alternate name now Manhattan Country School.","year":1967,"effective_date":"1967-05-25","date_precision":"day","category":"built_environment","lens":"built_environment","confidence":"documented","source_ids":["buis-pvji"],"explanation":"LPC designation record for Ogden Codman House; designation date is taken from the source desdate field."},"geometry":{"type":"Point","coordinates":[-73.954868,40.78789]}},{"type":"Feature","id":"nyc_lpc_individual_landmark_455","properties":{"city_id":"nyc","event_id":"nyc_lpc_individual_landmark_455","title":"Individual landmark designated: University Club","short_description":"LPC individual landmark site LP-00263; status Designated; type Individual Landmark; alternate name not stated.","year":1967,"effective_date":"1967-01-11","date_precision":"day","category":"built_environment","lens":"built_environment","confidence":"documented","source_ids":["buis-pvji"],"explanation":"LPC designation record for University Club; designation date is taken from the source desdate field."},"geometry":{"type":"Point","coordinates":[-73.975661,40.761607]}},{"type":"Feature","id":"nyc_lpc_individual_landmark_465","properties":{"city_id":"nyc","event_id":"nyc_lpc_individual_landmark_465","title":"Individual landmark designated: Eglise de Notre Dame","short_description":"LPC individual landmark site LP-00301; status Designated; type Individual Landmark; alternate name not stated.","year":1967,"effective_date":"1967-01-24","date_precision":"day","category":"built_environment","lens":"built_environment","confidence":"documented","source_ids":["buis-pvji"],"explanation":"LPC designation record for Eglise de Notre Dame; designation date is taken from the source desdate field."},"geometry":{"type":"Point","coordinates":[-73.960477,40.805191]}},{"type":"Feature","id":"nyc_lpc_individual_landmark_472","properties":{"city_id":"nyc","event_id":"nyc_lpc_individual_landmark_472","title":"Individual landmark designated: New York Public Library, Yorkville Branch","short_description":"LPC individual landmark site LP-00425; status Designated; type Individual Landmark; alternate name not stated.","year":1967,"effective_date":"1967-01-24","date_precision":"day","category":"built_environment","lens":"built_environment","confidence":"documented","source_ids":["buis-pvji"],"explanation":"LPC designation record for New York Public Library, Yorkville Branch; designation date is taken from the source desdate field."},"geometry":{"type":"Point","coordinates":[-73.956404,40.773594]}},{"type":"Feature","id":"nyc_lpc_individual_landmark_482","properties":{"city_id":"nyc","event_id":"nyc_lpc_individual_landmark_482","title":"Individual landmark designated: Bond Street Savings Bank","short_description":"LPC individual landmark site LP-00192; status Designated; type Individual Landmark; alternate name now the Bouwerie Lane Theatre.","year":1967,"effective_date":"1967-01-11","date_precision":"day","category":"built_environment","lens":"built_environment","confidence":"documented","source_ids":["buis-pvji"],"explanation":"LPC designation record for Bond Street Savings Bank; designation date is taken from the source desdate field."},"geometry":{"type":"Point","coordinates":[-73.992332,40.725903]}},{"type":"Feature","id":"nyc_lpc_individual_landmark_490","properties":{"city_id":"nyc","event_id":"nyc_lpc_individual_landmark_490","title":"Individual landmark designated: Church of the Holy Trinity and Saint Christopher House","short_description":"LPC individual landmark site LP-00446; status Designated; type Individual Landmark; alternate name not stated.","year":1967,"effective_date":"1967-02-15","date_precision":"day","category":"built_environment","lens":"built_environment","confidence":"documented","source_ids":["buis-pvji"],"explanation":"LPC designation record for Church of the Holy Trinity and Saint Christopher House; designation date is taken from the source desdate field."},"geometry":{"type":"Point","coordinates":[-73.949582,40.778331]}},{"type":"Feature","id":"nyc_lpc_individual_landmark_497","properties":{"city_id":"nyc","event_id":"nyc_lpc_individual_landmark_497","title":"Individual landmark designated: Saint Andrew's Church","short_description":"LPC individual landmark site LP-00294; status Designated; type Individual Landmark; alternate name not stated.","year":1967,"effective_date":"1967-04-12","date_precision":"day","category":"built_environment","lens":"built_environment","confidence":"documented","source_ids":["buis-pvji"],"explanation":"LPC designation record for Saint Andrew's Church; designation date is taken from the source desdate field."},"geometry":{"type":"Point","coordinates":[-73.940656,40.807757]}},{"type":"Feature","id":"nyc_lpc_individual_landmark_5","properties":{"city_id":"nyc","event_id":"nyc_lpc_individual_landmark_5","title":"Individual landmark designated: 752 Delafield Avenue","short_description":"LPC individual landmark site LP-00342; status Designated; type Individual Landmark; alternate name also known as the Scott-Edwards House.","year":1967,"effective_date":"1967-08-24","date_precision":"day","category":"built_environment","lens":"built_environment","confidence":"documented","source_ids":["buis-pvji"],"explanation":"LPC designation record for 752 Delafield Avenue; designation date is taken from the source desdate field."},"geometry":{"type":"Point","coordinates":[-74.123488,40.628821]}},{"type":"Feature","id":"nyc_lpc_individual_landmark_515","properties":{"city_id":"nyc","event_id":"nyc_lpc_individual_landmark_515","title":"Individual landmark designated: Mount Vernon Hotel Museum","short_description":"LPC individual landmark site LP-00426; status Designated; type Individual Landmark; alternate name designated as the Abigail Adams Smith House.","year":1967,"effective_date":"1967-01-24","date_precision":"day","category":"built_environment","lens":"built_environment","confidence":"documented","source_ids":["buis-pvji"],"explanation":"LPC designation record for Mount Vernon Hotel Museum; designation date is taken from the source desdate field."},"geometry":{"type":"Point","coordinates":[-73.959676,40.760587]}},{"type":"Feature","id":"nyc_lpc_individual_landmark_517","properties":{"city_id":"nyc","event_id":"nyc_lpc_individual_landmark_517","title":"Individual landmark designated: Harlem Courthouse","short_description":"LPC individual landmark site LP-00297; status Designated; type Individual Landmark; alternate name not stated.","year":1967,"effective_date":"1967-08-02","date_precision":"day","category":"built_environment","lens":"built_environment","confidence":"documented","source_ids":["buis-pvji"],"explanation":"LPC designation record for Harlem Courthouse; designation date is taken from the source desdate field."},"geometry":{"type":"Point","coordinates":[-73.93842,40.801196]}},{"type":"Feature","id":"nyc_lpc_individual_landmark_52","properties":{"city_id":"nyc","event_id":"nyc_lpc_individual_landmark_52","title":"Individual landmark designated: Frederick Law Olmsted House","short_description":"LPC individual landmark site LP-00384; status Designated; type Individual Landmark; alternate name also known as the Poillon House.","year":1967,"effective_date":"1967-02-28","date_precision":"day","category":"built_environment","lens":"built_environment","confidence":"documented","source_ids":["buis-pvji"],"explanation":"LPC designation record for Frederick Law Olmsted House; designation date is taken from the source desdate field."},"geometry":{"type":"Point","coordinates":[-74.158079,40.531988]}},{"type":"Feature","id":"nyc_lpc_individual_landmark_53","properties":{"city_id":"nyc","event_id":"nyc_lpc_individual_landmark_53","title":"Individual landmark designated: Conference House","short_description":"LPC individual landmark site LP-00393; status Designated; type Individual Landmark; alternate name also known as Bentley Manor, the Christopher Billopp House.","year":1967,"effective_date":"1967-02-28","date_precision":"day","category":"built_environment","lens":"built_environment","confidence":"documented","source_ids":["buis-pvji"],"explanation":"LPC designation record for Conference House; designation date is taken from the source desdate field."},"geometry":{"type":"Point","coordinates":[-74.253975,40.502806]}},{"type":"Feature","id":"nyc_lpc_individual_landmark_537","properties":{"city_id":"nyc","event_id":"nyc_lpc_individual_landmark_537","title":"Individual landmark designated: Clarence and Anne Douglass Dillon House","short_description":"LPC individual landmark site LP-00443; status Designated; type Individual Landmark; alternate name also known as the 124 East 80th Street House.","year":1967,"effective_date":"1967-01-24","date_precision":"day","category":"built_environment","lens":"built_environment","confidence":"documented","source_ids":["buis-pvji"],"explanation":"LPC designation record for Clarence and Anne Douglass Dillon House; designation date is taken from the source desdate field."},"geometry":{"type":"Point","coordinates":[-73.959177,40.775721]}},{"type":"Feature","id":"nyc_lpc_individual_landmark_539","properties":{"city_id":"nyc","event_id":"nyc_lpc_individual_landmark_539","title":"Individual landmark designated: Museum of the City of New York","short_description":"LPC individual landmark site LP-00448; status Designated; type Individual Landmark; alternate name not stated.","year":1967,"effective_date":"1967-01-24","date_precision":"day","category":"built_environment","lens":"built_environment","confidence":"documented","source_ids":["buis-pvji"],"explanation":"LPC designation record for Museum of the City of New York; designation date is taken from the source desdate field."},"geometry":{"type":"Point","coordinates":[-73.951831,40.792537]}},{"type":"Feature","id":"nyc_lpc_individual_landmark_581","properties":{"city_id":"nyc","event_id":"nyc_lpc_individual_landmark_581","title":"Individual landmark designated: Edward S. and Mary Stillman Harkness House","short_description":"LPC individual landmark site LP-00415; status Designated; type Individual Landmark; alternate name now the Commonwealth Fund.","year":1967,"effective_date":"1967-01-24","date_precision":"day","category":"built_environment","lens":"built_environment","confidence":"documented","source_ids":["buis-pvji"],"explanation":"LPC designation record for Edward S. and Mary Stillman Harkness House; designation date is taken from the source desdate field."},"geometry":{"type":"Point","coordinates":[-73.965179,40.774382]}},{"type":"Feature","id":"nyc_lpc_individual_landmark_589","properties":{"city_id":"nyc","event_id":"nyc_lpc_individual_landmark_589","title":"Individual landmark designated: 311 East 58th Street House","short_description":"LPC individual landmark site LP-00583; status Designated; type Individual Landmark; alternate name not stated.","year":1967,"effective_date":"1967-05-25","date_precision":"day","category":"built_environment","lens":"built_environment","confidence":"documented","source_ids":["buis-pvji"],"explanation":"LPC designation record for 311 East 58th Street House; designation date is taken from the source desdate field."},"geometry":{"type":"Point","coordinates":[-73.964124,40.759979]}},{"type":"Feature","id":"nyc_lpc_individual_landmark_602","properties":{"city_id":"nyc","event_id":"nyc_lpc_individual_landmark_602","title":"Individual landmark designated: Century Association Clubhouse","short_description":"LPC individual landmark site LP-00257; status Designated; type Individual Landmark; alternate name not stated.","year":1967,"effective_date":"1967-01-11","date_precision":"day","category":"built_environment","lens":"built_environment","confidence":"documented","source_ids":["buis-pvji"],"explanation":"LPC designation record for Century Association Clubhouse; designation date is taken from the source desdate field."},"geometry":{"type":"Point","coordinates":[-73.980879,40.754628]}},{"type":"Feature","id":"nyc_lpc_individual_landmark_614","properties":{"city_id":"nyc","event_id":"nyc_lpc_individual_landmark_614","title":"Individual landmark designated: Dyckman House","short_description":"LPC individual landmark site LP-00309; status Designated; type Individual Landmark; alternate name now the Dyckman Farmhouse Musem.","year":1967,"effective_date":"1967-07-12","date_precision":"day","category":"built_environment","lens":"built_environment","confidence":"documented","source_ids":["buis-pvji"],"explanation":"LPC designation record for Dyckman House; designation date is taken from the source desdate field."},"geometry":{"type":"Point","coordinates":[-73.922841,40.867499]}},{"type":"Feature","id":"nyc_lpc_individual_landmark_623","properties":{"city_id":"nyc","event_id":"nyc_lpc_individual_landmark_623","title":"Individual landmark designated: Parsonage of the Church of the Holy Trinity","short_description":"LPC individual landmark site LP-00447; status Designated; type Individual Landmark; alternate name not stated.","year":1967,"effective_date":"1967-02-15","date_precision":"day","category":"built_environment","lens":"built_environment","confidence":"documented","source_ids":["buis-pvji"],"explanation":"LPC designation record for Parsonage of the Church of the Holy Trinity; designation date is taken from the source desdate field."},"geometry":{"type":"Point","coordinates":[-73.949254,40.77837]}},{"type":"Feature","id":"nyc_lpc_individual_landmark_627","properties":{"city_id":"nyc","event_id":"nyc_lpc_individual_landmark_627","title":"Individual landmark designated: William H. and Ada S. Moore House","short_description":"LPC individual landmark site LP-00273; status Designated; type Individual Landmark; alternate name not stated.","year":1967,"effective_date":"1967-01-11","date_precision":"day","category":"built_environment","lens":"built_environment","confidence":"documented","source_ids":["buis-pvji"],"explanation":"LPC designation record for William H. and Ada S. Moore House; designation date is taken from the source desdate field."},"geometry":{"type":"Point","coordinates":[-73.974893,40.760613]}},{"type":"Feature","id":"nyc_lpc_individual_landmark_640","properties":{"city_id":"nyc","event_id":"nyc_lpc_individual_landmark_640","title":"Individual landmark designated: Vincent and Helen Astor House","short_description":"LPC individual landmark site LP-00442; status Designated; type Individual Landmark; alternate name now the Junior League of the City of New York.","year":1967,"effective_date":"1967-04-12","date_precision":"day","category":"built_environment","lens":"built_environment","confidence":"documented","source_ids":["buis-pvji"],"explanation":"LPC designation record for Vincent and Helen Astor House; designation date is taken from the source desdate field."},"geometry":{"type":"Point","coordinates":[-73.959058,40.775671]}},{"type":"Feature","id":"nyc_lpc_individual_landmark_661","properties":{"city_id":"nyc","event_id":"nyc_lpc_individual_landmark_661","title":"Individual landmark designated: New York Public Library, 115th Street Branch","short_description":"LPC individual landmark site LP-00298; status Designated; type Individual Landmark; alternate name not stated.","year":1967,"effective_date":"1967-07-12","date_precision":"day","category":"built_environment","lens":"built_environment","confidence":"documented","source_ids":["buis-pvji"],"explanation":"LPC designation record for New York Public Library, 115th Street Branch; designation date is taken from the source desdate field."},"geometry":{"type":"Point","coordinates":[-73.953498,40.80305]}},{"type":"Feature","id":"nyc_lpc_individual_landmark_666","properties":{"city_id":"nyc","event_id":"nyc_lpc_individual_landmark_666","title":"Individual landmark designated: Rectory of the Eglise de Notre Dame","short_description":"LPC individual landmark site LP-00300; status Designated; type Individual Landmark; alternate name not stated.","year":1967,"effective_date":"1967-01-24","date_precision":"day","category":"built_environment","lens":"built_environment","confidence":"documented","source_ids":["buis-pvji"],"explanation":"LPC designation record for Rectory of the Eglise de Notre Dame; designation date is taken from the source desdate field."},"geometry":{"type":"Point","coordinates":[-73.960674,40.805261]}},{"type":"Feature","id":"nyc_lpc_individual_landmark_668","properties":{"city_id":"nyc","event_id":"nyc_lpc_individual_landmark_668","title":"Individual landmark designated: Roger and Mary Philipse Morris House, Mount Morris","short_description":"LPC individual landmark site LP-00308; status Designated; type Individual Landmark; alternate name also known as the Morris-Jumel Mansion.","year":1967,"effective_date":"1967-07-12","date_precision":"day","category":"built_environment","lens":"built_environment","confidence":"documented","source_ids":["buis-pvji"],"explanation":"LPC designation record for Roger and Mary Philipse Morris House, Mount Morris; designation date is taken from the source desdate field."},"geometry":{"type":"Point","coordinates":[-73.938325,40.834351]}},{"type":"Feature","id":"nyc_lpc_individual_landmark_670","properties":{"city_id":"nyc","event_id":"nyc_lpc_individual_landmark_670","title":"Individual landmark designated: 152 East 38th Street House","short_description":"LPC individual landmark site LP-00579; status Designated; type Individual Landmark; alternate name not stated.","year":1967,"effective_date":"1967-05-25","date_precision":"day","category":"built_environment","lens":"built_environment","confidence":"documented","source_ids":["buis-pvji"],"explanation":"LPC designation record for 152 East 38th Street House; designation date is taken from the source desdate field."},"geometry":{"type":"Point","coordinates":[-73.977225,40.748302]}},{"type":"Feature","id":"nyc_lpc_individual_landmark_681","properties":{"city_id":"nyc","event_id":"nyc_lpc_individual_landmark_681","title":"Individual landmark designated: Saint Bartholomew's Church and Community House","short_description":"LPC individual landmark site LP-00275; status Designated; type Individual Landmark; alternate name not stated.","year":1967,"effective_date":"1967-03-16","date_precision":"day","category":"built_environment","lens":"built_environment","confidence":"documented","source_ids":["buis-pvji"],"explanation":"LPC designation record for Saint Bartholomew's Church and Community House; designation date is taken from the source desdate field."},"geometry":{"type":"Point","coordinates":[-73.972964,40.757208]}},{"type":"Feature","id":"nyc_lpc_individual_landmark_70","properties":{"city_id":"nyc","event_id":"nyc_lpc_individual_landmark_70","title":"Individual landmark designated: Benjamin T. Pike House","short_description":"LPC individual landmark site LP-00632; status Designated; type Individual Landmark; alternate name designated as Steinway House.","year":1967,"effective_date":"1967-02-15","date_precision":"day","category":"built_environment","lens":"built_environment","confidence":"documented","source_ids":["buis-pvji"],"explanation":"LPC designation record for Benjamin T. Pike House; designation date is taken from the source desdate field."},"geometry":{"type":"Point","coordinates":[-73.897,40.778735]}},{"type":"Feature","id":"nyc_lpc_individual_landmark_710","properties":{"city_id":"nyc","event_id":"nyc_lpc_individual_landmark_710","title":"Individual landmark designated: Seventh Regiment Armory","short_description":"LPC individual landmark site LP-00417; status Designated; type Individual Landmark; alternate name not stated.","year":1967,"effective_date":"1967-06-09","date_precision":"day","category":"built_environment","lens":"built_environment","confidence":"documented","source_ids":["buis-pvji"],"explanation":"LPC designation record for Seventh Regiment Armory; designation date is taken from the source desdate field."},"geometry":{"type":"Point","coordinates":[-73.965351,40.767239]}},{"type":"Feature","id":"nyc_lpc_individual_landmark_773","properties":{"city_id":"nyc","event_id":"nyc_lpc_individual_landmark_773","title":"Individual landmark designated: Lewis Spencer and Emily Coster Morris House","short_description":"LPC individual landmark site LP-00445; status Designated; type Individual Landmark; alternate name also known as the 116 East 80th Street House.","year":1967,"effective_date":"1967-01-24","date_precision":"day","category":"built_environment","lens":"built_environment","confidence":"documented","source_ids":["buis-pvji"],"explanation":"LPC designation record for Lewis Spencer and Emily Coster Morris House; designation date is taken from the source desdate field."},"geometry":{"type":"Point","coordinates":[-73.959405,40.775816]}},{"type":"Feature","id":"nyc_lpc_individual_landmark_783","properties":{"city_id":"nyc","event_id":"nyc_lpc_individual_landmark_783","title":"Individual landmark designated: Grand Central Terminal","short_description":"LPC individual landmark site LP-00266; status Designated; type Individual Landmark; alternate name not stated.","year":1967,"effective_date":"1967-08-02","date_precision":"day","category":"built_environment","lens":"built_environment","confidence":"documented","source_ids":["buis-pvji"],"explanation":"LPC designation record for Grand Central Terminal; designation date is taken from the source desdate field."},"geometry":{"type":"Point","coordinates":[-73.97694,40.752634]}},{"type":"Feature","id":"nyc_lpc_individual_landmark_786","properties":{"city_id":"nyc","event_id":"nyc_lpc_individual_landmark_786","title":"Individual landmark designated: John S. and Catharine C. Rogers House","short_description":"LPC individual landmark site LP-00427; status Designated; type Individual Landmark; alternate name now the New York Society Library.","year":1967,"effective_date":"1967-02-15","date_precision":"day","category":"built_environment","lens":"built_environment","confidence":"documented","source_ids":["buis-pvji"],"explanation":"LPC designation record for John S. and Catharine C. Rogers House; designation date is taken from the source desdate field."},"geometry":{"type":"Point","coordinates":[-73.961413,40.77638]}},{"type":"Feature","id":"nyc_lpc_individual_landmark_92","properties":{"city_id":"nyc","event_id":"nyc_lpc_individual_landmark_92","title":"Individual landmark designated: Lawrence Graveyard","short_description":"LPC individual landmark site LP-00630; status Designated; type Individual Landmark; alternate name not stated.","year":1967,"effective_date":"1967-08-02","date_precision":"day","category":"built_environment","lens":"built_environment","confidence":"documented","source_ids":["buis-pvji"],"explanation":"LPC designation record for Lawrence Graveyard; designation date is taken from the source desdate field."},"geometry":{"type":"Point","coordinates":[-73.766879,40.763287]}},{"type":"Feature","id":"nyc_lpc_individual_landmark_948","properties":{"city_id":"nyc","event_id":"nyc_lpc_individual_landmark_948","title":"Individual landmark designated: Saint Ann's Church and Graveyard","short_description":"LPC individual landmark site LP-00101; status Designated; type Individual Landmark; alternate name not stated.","year":1967,"effective_date":"1967-06-09","date_precision":"day","category":"built_environment","lens":"built_environment","confidence":"documented","source_ids":["buis-pvji"],"explanation":"LPC designation record for Saint Ann's Church and Graveyard; designation date is taken from the source desdate field."},"geometry":{"type":"Point","coordinates":[-73.917599,40.808477]}},{"type":"Feature","id":"nyc_lpc_individual_landmark_951","properties":{"city_id":"nyc","event_id":"nyc_lpc_individual_landmark_951","title":"Individual landmark designated: Old West Farms Soldiers' Cemetery","short_description":"LPC individual landmark site LP-00624; status Designated; type Individual Landmark; alternate name not stated.","year":1967,"effective_date":"1967-08-02","date_precision":"day","category":"built_environment","lens":"built_environment","confidence":"documented","source_ids":["buis-pvji"],"explanation":"LPC designation record for Old West Farms Soldiers' Cemetery; designation date is taken from the source desdate field."},"geometry":{"type":"Point","coordinates":[-73.879157,40.843771]}},{"type":"Feature","id":"nyc_parks_property_169030","properties":{"city_id":"nyc","event_id":"nyc_parks_property_169030","title":"Parks property acquisition: Park","short_description":"NYC Parks property record for Park; type Undeveloped; acres 0.022; waterfront=False.","year":1967,"effective_date":"1967-06-21","date_precision":"day","category":"environment","lens":"green_space","confidence":"documented","source_ids":["enfh-gkve"],"explanation":"Parks property record with acquisition date for Park."},"geometry":{"type":"Point","coordinates":[-73.916511,40.834078]}},{"type":"Feature","id":"nyc_parks_property_169034","properties":{"city_id":"nyc","event_id":"nyc_parks_property_169034","title":"Parks property acquisition: Park","short_description":"NYC Parks property record for Park; type Undeveloped; acres 0.013; waterfront=False.","year":1967,"effective_date":"1967-06-21","date_precision":"day","category":"environment","lens":"green_space","confidence":"documented","source_ids":["enfh-gkve"],"explanation":"Parks property record with acquisition date for Park."},"geometry":{"type":"Point","coordinates":[-73.91261,40.838307]}},{"type":"Feature","id":"nyc_parks_property_169621","properties":{"city_id":"nyc","event_id":"nyc_parks_property_169621","title":"Parks property acquisition: Vernon Mall","short_description":"NYC Parks property record for Vernon Mall; type Mall; acres 0.135; waterfront=False.","year":1967,"effective_date":"1967-07-27","date_precision":"day","category":"environment","lens":"green_space","confidence":"documented","source_ids":["enfh-gkve"],"explanation":"Parks property record with acquisition date for Vernon Mall."},"geometry":{"type":"Point","coordinates":[-73.954166,40.742309]}},{"type":"Feature","id":"nyc_parks_property_170327","properties":{"city_id":"nyc","event_id":"nyc_parks_property_170327","title":"Parks property acquisition: Boerum Park","short_description":"NYC Parks property record for Boerum Park; type Jointly Operated Playground; acres 0.918; waterfront=False.","year":1967,"effective_date":"1967-11-15","date_precision":"day","category":"environment","lens":"green_space","confidence":"documented","source_ids":["enfh-gkve"],"explanation":"Parks property record with acquisition date for Boerum Park."},"geometry":{"type":"Point","coordinates":[-73.990227,40.684678]}},{"type":"Feature","id":"nyc_parks_property_170472","properties":{"city_id":"nyc","event_id":"nyc_parks_property_170472","title":"Parks property acquisition: Curtis Playground","short_description":"NYC Parks property record for Curtis Playground; type Playground; acres 1.003; waterfront=False.","year":1967,"effective_date":"1967-08-14","date_precision":"day","category":"environment","lens":"green_space","confidence":"documented","source_ids":["enfh-gkve"],"explanation":"Parks property record with acquisition date for Curtis Playground."},"geometry":{"type":"Point","coordinates":[-73.917328,40.64088]}},{"type":"Feature","id":"nyc_parks_property_170637","properties":{"city_id":"nyc","event_id":"nyc_parks_property_170637","title":"Parks property acquisition: Chelsea Recreation Center","short_description":"NYC Parks property record for Chelsea Recreation Center; type Buildings/Institutions; acres 0.385; waterfront=False.","year":1967,"effective_date":"1967-12-01","date_precision":"day","category":"environment","lens":"green_space","confidence":"documented","source_ids":["enfh-gkve"],"explanation":"Parks property record with acquisition date for Chelsea Recreation Center."},"geometry":{"type":"Point","coordinates":[-74.002245,40.748247]}},{"type":"Feature","id":"nyc_parks_property_170646","properties":{"city_id":"nyc","event_id":"nyc_parks_property_170646","title":"Parks property acquisition: Playground Eighty Nine LXXXIX","short_description":"NYC Parks property record for Playground Eighty Nine LXXXIX; type Jointly Operated Playground; acres 0.402; waterfront=False.","year":1967,"effective_date":"1967-04-06","date_precision":"day","category":"environment","lens":"green_space","confidence":"documented","source_ids":["enfh-gkve"],"explanation":"Parks property record with acquisition date for Playground Eighty Nine LXXXIX."},"geometry":{"type":"Point","coordinates":[-73.971942,40.788551]}},{"type":"Feature","id":"nyc_parks_property_171148","properties":{"city_id":"nyc","event_id":"nyc_parks_property_171148","title":"Parks property acquisition: Meredith Woods","short_description":"NYC Parks property record for Meredith Woods; type Nature Area; acres 37.064; waterfront=False.","year":1967,"effective_date":"1967-07-17","date_precision":"day","category":"environment","lens":"green_space","confidence":"documented","source_ids":["enfh-gkve"],"explanation":"Parks property record with acquisition date for Meredith Woods."},"geometry":{"type":"Point","coordinates":[-74.215976,40.547781]}},{"type":"Feature","id":"nyc_parks_property_171181","properties":{"city_id":"nyc","event_id":"nyc_parks_property_171181","title":"Parks property acquisition: Hook Creek Park","short_description":"NYC Parks property record for Hook Creek Park; type Nature Area; acres 111.163; waterfront=True.","year":1967,"effective_date":"1967-10-18","date_precision":"day","category":"environment","lens":"green_space","confidence":"documented","source_ids":["enfh-gkve"],"explanation":"Parks property record with acquisition date for Hook Creek Park."},"geometry":{"type":"Point","coordinates":[-73.743688,40.648031]}}]}
