{"type":"FeatureCollection","schema_version":"1.0.0","city_id":"nyc","year":1846,"features":[{"type":"Feature","id":"nyc_parks_property_170890","properties":{"city_id":"nyc","event_id":"nyc_parks_property_170890","title":"Parks property acquisition: Herald Square","short_description":"NYC Parks property record for Herald Square; type Triangle/Plaza; acres 0.21; waterfront=False.","year":1846,"effective_date":"1846-10-19","date_precision":"day","category":"environment","lens":"green_space","confidence":"documented","source_ids":["enfh-gkve"],"explanation":"Parks property record with acquisition date for Herald Square."},"geometry":{"type":"Point","coordinates":[-73.987704,40.750202]}},{"type":"Feature","id":"nyc_parks_property_170891","properties":{"city_id":"nyc","event_id":"nyc_parks_property_170891","title":"Parks property acquisition: Greeley Square Park","short_description":"NYC Parks property record for Greeley Square Park; type Triangle/Plaza; acres 0.144; waterfront=False.","year":1846,"effective_date":"1846-10-19","date_precision":"day","category":"environment","lens":"green_space","confidence":"documented","source_ids":["enfh-gkve"],"explanation":"Parks property record with acquisition date for Greeley Square Park."},"geometry":{"type":"Point","coordinates":[-73.988307,40.74856]}}]}
