{"type":"FeatureCollection","schema_version":"1.0.0","city_id":"nyc","year":1914,"features":[{"type":"Feature","id":"nyc_parks_property_169584","properties":{"city_id":"nyc","event_id":"nyc_parks_property_169584","title":"Parks property acquisition: The Olde Towne of Flushing Burial Ground","short_description":"NYC Parks property record for The Olde Towne of Flushing Burial Ground; type Neighborhood Park; acres 3.474; waterfront=False.","year":1914,"effective_date":"1914-12-02","date_precision":"day","category":"environment","lens":"green_space","confidence":"documented","source_ids":["enfh-gkve"],"explanation":"Parks property record with acquisition date for The Olde Towne of Flushing Burial Ground."},"geometry":{"type":"Point","coordinates":[-73.802233,40.755167]}},{"type":"Feature","id":"nyc_parks_property_169638","properties":{"city_id":"nyc","event_id":"nyc_parks_property_169638","title":"Parks property acquisition: Columbus Square","short_description":"NYC Parks property record for Columbus Square; type Triangle/Plaza; acres 0.1; waterfront=False.","year":1914,"effective_date":"1914-02-11","date_precision":"day","category":"transport","lens":"traffic","confidence":"documented","source_ids":["enfh-gkve"],"explanation":"Parks property record with acquisition date for Columbus Square."},"geometry":{"type":"Point","coordinates":[-73.917446,40.770027]}},{"type":"Feature","id":"nyc_parks_property_169847","properties":{"city_id":"nyc","event_id":"nyc_parks_property_169847","title":"Parks property acquisition: Sobel Playground","short_description":"NYC Parks property record for Sobel Playground; type Playground; acres 0.135; waterfront=False.","year":1914,"effective_date":"1914-05-06","date_precision":"day","category":"environment","lens":"green_space","confidence":"documented","source_ids":["enfh-gkve"],"explanation":"Parks property record with acquisition date for Sobel Playground."},"geometry":{"type":"Point","coordinates":[-73.961473,40.707328]}},{"type":"Feature","id":"nyc_parks_property_170034","properties":{"city_id":"nyc","event_id":"nyc_parks_property_170034","title":"Parks property acquisition: Grant Gore","short_description":"NYC Parks property record for Grant Gore; type Triangle/Plaza; acres 0.019; waterfront=False.","year":1914,"effective_date":"1914-12-28","date_precision":"day","category":"environment","lens":"green_space","confidence":"documented","source_ids":["enfh-gkve"],"explanation":"Parks property record with acquisition date for Grant Gore."},"geometry":{"type":"Point","coordinates":[-73.952805,40.676465]}},{"type":"Feature","id":"nyc_parks_property_170371","properties":{"city_id":"nyc","event_id":"nyc_parks_property_170371","title":"Parks property acquisition: Baisley Pond Park","short_description":"NYC Parks property record for Baisley Pond Park; type Community Park; acres 109.609; waterfront=False.","year":1914,"effective_date":"1914-07-19","date_precision":"day","category":"environment","lens":"green_space","confidence":"documented","source_ids":["enfh-gkve"],"explanation":"Parks property record with acquisition date for Baisley Pond Park."},"geometry":{"type":"Point","coordinates":[-73.786223,40.677864]}},{"type":"Feature","id":"nyc_parks_property_170837","properties":{"city_id":"nyc","event_id":"nyc_parks_property_170837","title":"Parks property acquisition: St. Catherine's Park","short_description":"NYC Parks property record for St. Catherine's Park; type Neighborhood Park; acres 1.383; waterfront=False.","year":1914,"effective_date":"1914-06-25","date_precision":"day","category":"environment","lens":"green_space","confidence":"documented","source_ids":["enfh-gkve"],"explanation":"Parks property record with acquisition date for St. Catherine's Park."},"geometry":{"type":"Point","coordinates":[-73.958661,40.765105]}},{"type":"Feature","id":"nyc_parks_property_171154","properties":{"city_id":"nyc","event_id":"nyc_parks_property_171154","title":"Parks property acquisition: Archie Spigner Park","short_description":"NYC Parks property record for Archie Spigner Park; type Community Park; acres 10.79; waterfront=False.","year":1914,"effective_date":"1914-07-29","date_precision":"day","category":"environment","lens":"green_space","confidence":"documented","source_ids":["enfh-gkve"],"explanation":"Parks property record with acquisition date for Archie Spigner Park."},"geometry":{"type":"Point","coordinates":[-73.779677,40.693386]}}]}
