{"type":"FeatureCollection","schema_version":"1.0.0","city_id":"nyc","year":1954,"features":[{"type":"Feature","id":"nyc_parks_property_169102","properties":{"city_id":"nyc","event_id":"nyc_parks_property_169102","title":"Parks property acquisition: Turtle Playground","year":1954,"effective_date":"1954-08-30","date_precision":"day","category":"environment","lens":"green_space","confidence":"documented","source_ids":["enfh-gkve"],"explanation":"Parks property record with acquisition date for Turtle Playground."},"geometry":{"type":"Point","coordinates":[-73.827382,40.742115]}},{"type":"Feature","id":"nyc_parks_property_169378","properties":{"city_id":"nyc","event_id":"nyc_parks_property_169378","title":"Parks property acquisition: Cedar Grove Playground","year":1954,"effective_date":"1954-04-30","date_precision":"day","category":"environment","lens":"green_space","confidence":"documented","source_ids":["enfh-gkve"],"explanation":"Parks property record with acquisition date for Cedar Grove Playground."},"geometry":{"type":"Point","coordinates":[-73.824428,40.736224]}},{"type":"Feature","id":"nyc_parks_property_169383","properties":{"city_id":"nyc","event_id":"nyc_parks_property_169383","title":"Parks property acquisition: Riverbend Playground","year":1954,"effective_date":"1954-11-20","date_precision":"day","category":"environment","lens":"green_space","confidence":"documented","source_ids":["enfh-gkve"],"explanation":"Parks property record with acquisition date for Riverbend Playground."},"geometry":{"type":"Point","coordinates":[-73.905669,40.872095]}},{"type":"Feature","id":"nyc_parks_property_169578","properties":{"city_id":"nyc","event_id":"nyc_parks_property_169578","title":"Parks property acquisition: Park","year":1954,"effective_date":"1954-08-30","date_precision":"day","category":"environment","lens":"green_space","confidence":"documented","source_ids":["enfh-gkve"],"explanation":"Parks property record with acquisition date for Park."},"geometry":{"type":"Point","coordinates":[-73.738584,40.757876]}},{"type":"Feature","id":"nyc_parks_property_169579","properties":{"city_id":"nyc","event_id":"nyc_parks_property_169579","title":"Parks property acquisition: Park","year":1954,"effective_date":"1954-08-30","date_precision":"day","category":"environment","lens":"green_space","confidence":"documented","source_ids":["enfh-gkve"],"explanation":"Parks property record with acquisition date for Park."},"geometry":{"type":"Point","coordinates":[-73.737065,40.758812]}},{"type":"Feature","id":"nyc_parks_property_169580","properties":{"city_id":"nyc","event_id":"nyc_parks_property_169580","title":"Parks property acquisition: Park","year":1954,"effective_date":"1954-08-30","date_precision":"day","category":"environment","lens":"green_space","confidence":"documented","source_ids":["enfh-gkve"],"explanation":"Parks property record with acquisition date for Park."},"geometry":{"type":"Point","coordinates":[-73.735603,40.759659]}},{"type":"Feature","id":"nyc_parks_property_169605","properties":{"city_id":"nyc","event_id":"nyc_parks_property_169605","title":"Parks property acquisition: Nassau Mall","year":1954,"effective_date":"1954-08-30","date_precision":"day","category":"environment","lens":"green_space","confidence":"documented","source_ids":["enfh-gkve"],"explanation":"Parks property record with acquisition date for Nassau Mall."},"geometry":{"type":"Point","coordinates":[-73.724871,40.764696]}},{"type":"Feature","id":"nyc_parks_property_169606","properties":{"city_id":"nyc","event_id":"nyc_parks_property_169606","title":"Parks property acquisition: Nassau Mall South","year":1954,"effective_date":"1954-08-30","date_precision":"day","category":"environment","lens":"green_space","confidence":"documented","source_ids":["enfh-gkve"],"explanation":"Parks property record with acquisition date for Nassau Mall South."},"geometry":{"type":"Point","coordinates":[-73.726108,40.763151]}},{"type":"Feature","id":"nyc_parks_property_169820","properties":{"city_id":"nyc","event_id":"nyc_parks_property_169820","title":"Parks property acquisition: Castle Hill Playground","year":1954,"effective_date":"1954-03-11","date_precision":"day","category":"environment","lens":"green_space","confidence":"documented","source_ids":["enfh-gkve"],"explanation":"Parks property record with acquisition date for Castle Hill Playground."},"geometry":{"type":"Point","coordinates":[-73.853265,40.839279]}},{"type":"Feature","id":"nyc_parks_property_169857","properties":{"city_id":"nyc","event_id":"nyc_parks_property_169857","title":"Parks property acquisition: Great Kills Veterans Playground","year":1954,"effective_date":"1954-03-11","date_precision":"day","category":"environment","lens":"green_space","confidence":"documented","source_ids":["enfh-gkve"],"explanation":"Parks property record with acquisition date for Great Kills Veterans Playground."},"geometry":{"type":"Point","coordinates":[-74.151907,40.547021]}},{"type":"Feature","id":"nyc_parks_property_169878","properties":{"city_id":"nyc","event_id":"nyc_parks_property_169878","title":"Parks property acquisition: Park","year":1954,"effective_date":"1954-08-30","date_precision":"day","category":"environment","lens":"green_space","confidence":"documented","source_ids":["enfh-gkve"],"explanation":"Parks property record with acquisition date for Park."},"geometry":{"type":"Point","coordinates":[-73.867899,40.733909]}},{"type":"Feature","id":"nyc_parks_property_169935","properties":{"city_id":"nyc","event_id":"nyc_parks_property_169935","title":"Parks property acquisition: Barrier Playground","year":1954,"effective_date":"1954-08-30","date_precision":"day","category":"environment","lens":"green_space","confidence":"documented","source_ids":["enfh-gkve"],"explanation":"Parks property record with acquisition date for Barrier Playground."},"geometry":{"type":"Point","coordinates":[-73.854936,40.736324]}},{"type":"Feature","id":"nyc_parks_property_169936","properties":{"city_id":"nyc","event_id":"nyc_parks_property_169936","title":"Parks property acquisition: Freedom Square Playground","year":1954,"effective_date":"1954-11-23","date_precision":"day","category":"environment","lens":"green_space","confidence":"documented","source_ids":["enfh-gkve"],"explanation":"Parks property record with acquisition date for Freedom Square Playground."},"geometry":{"type":"Point","coordinates":[-73.820262,40.723264]}},{"type":"Feature","id":"nyc_parks_property_169966","properties":{"city_id":"nyc","event_id":"nyc_parks_property_169966","title":"Parks property acquisition: Park","year":1954,"effective_date":"1954-08-30","date_precision":"day","category":"environment","lens":"green_space","confidence":"documented","source_ids":["enfh-gkve"],"explanation":"Parks property record with acquisition date for Park."},"geometry":{"type":"Point","coordinates":[-73.86583,40.734097]}},{"type":"Feature","id":"nyc_parks_property_169974","properties":{"city_id":"nyc","event_id":"nyc_parks_property_169974","title":"Parks property acquisition: Park","year":1954,"effective_date":"1954-12-31","date_precision":"day","category":"environment","lens":"green_space","confidence":"documented","source_ids":["enfh-gkve"],"explanation":"Parks property record with acquisition date for Park."},"geometry":{"type":"Point","coordinates":[-73.883306,40.839357]}},{"type":"Feature","id":"nyc_parks_property_170045","properties":{"city_id":"nyc","event_id":"nyc_parks_property_170045","title":"Parks property acquisition: Matthews Muliner Playground","year":1954,"effective_date":"1954-07-20","date_precision":"day","category":"environment","lens":"green_space","confidence":"documented","source_ids":["enfh-gkve"],"explanation":"Parks property record with acquisition date for Matthews Muliner Playground."},"geometry":{"type":"Point","coordinates":[-73.861443,40.846934]}},{"type":"Feature","id":"nyc_parks_property_170052","properties":{"city_id":"nyc","event_id":"nyc_parks_property_170052","title":"Parks property acquisition: Moore Homestead Playground","year":1954,"effective_date":"1954-01-14","date_precision":"day","category":"environment","lens":"green_space","confidence":"documented","source_ids":["enfh-gkve"],"explanation":"Parks property record with acquisition date for Moore Homestead Playground."},"geometry":{"type":"Point","coordinates":[-73.882132,40.742114]}},{"type":"Feature","id":"nyc_parks_property_170266","properties":{"city_id":"nyc","event_id":"nyc_parks_property_170266","title":"Parks property acquisition: Louis Pasteur Park","year":1954,"effective_date":"1954-01-26","date_precision":"day","category":"environment","lens":"green_space","confidence":"documented","source_ids":["enfh-gkve"],"explanation":"Parks property record with acquisition date for Louis Pasteur Park."},"geometry":{"type":"Point","coordinates":[-73.735189,40.76211]}},{"type":"Feature","id":"nyc_parks_property_170281","properties":{"city_id":"nyc","event_id":"nyc_parks_property_170281","title":"Parks property acquisition: Locust Manor Playground","year":1954,"effective_date":"1954-05-21","date_precision":"day","category":"environment","lens":"green_space","confidence":"documented","source_ids":["enfh-gkve"],"explanation":"Parks property record with acquisition date for Locust Manor Playground."},"geometry":{"type":"Point","coordinates":[-73.756429,40.686045]}},{"type":"Feature","id":"nyc_parks_property_170300","properties":{"city_id":"nyc","event_id":"nyc_parks_property_170300","title":"Parks property acquisition: Willets Point Playground","year":1954,"effective_date":"1954-06-21","date_precision":"day","category":"environment","lens":"green_space","confidence":"documented","source_ids":["enfh-gkve"],"explanation":"Parks property record with acquisition date for Willets Point Playground."},"geometry":{"type":"Point","coordinates":[-73.796396,40.783685]}},{"type":"Feature","id":"nyc_parks_property_170301","properties":{"city_id":"nyc","event_id":"nyc_parks_property_170301","title":"Parks property acquisition: Playground Sixty Two LXII","year":1954,"effective_date":"1954-05-25","date_precision":"day","category":"environment","lens":"green_space","confidence":"documented","source_ids":["enfh-gkve"],"explanation":"Parks property record with acquisition date for Playground Sixty Two LXII."},"geometry":{"type":"Point","coordinates":[-73.852851,40.736252]}},{"type":"Feature","id":"nyc_parks_property_170418","properties":{"city_id":"nyc","event_id":"nyc_parks_property_170418","title":"Parks property acquisition: Roebling Playground","year":1954,"effective_date":"1954-05-27","date_precision":"day","category":"environment","lens":"green_space","confidence":"documented","source_ids":["enfh-gkve"],"explanation":"Parks property record with acquisition date for Roebling Playground."},"geometry":{"type":"Point","coordinates":[-73.961696,40.706258]}},{"type":"Feature","id":"nyc_parks_property_170419","properties":{"city_id":"nyc","event_id":"nyc_parks_property_170419","title":"Parks property acquisition: Rainbow Playground","year":1954,"effective_date":"1954-03-25","date_precision":"day","category":"environment","lens":"green_space","confidence":"documented","source_ids":["enfh-gkve"],"explanation":"Parks property record with acquisition date for Rainbow Playground."},"geometry":{"type":"Point","coordinates":[-74.010981,40.640551]}},{"type":"Feature","id":"nyc_parks_property_170422","properties":{"city_id":"nyc","event_id":"nyc_parks_property_170422","title":"Parks property acquisition: Railroad Playground","year":1954,"effective_date":"1954-09-22","date_precision":"day","category":"transport","lens":"traffic","confidence":"documented","source_ids":["enfh-gkve"],"explanation":"Parks property record with acquisition date for Railroad Playground."},"geometry":{"type":"Point","coordinates":[-73.914545,40.649716]}},{"type":"Feature","id":"nyc_parks_property_170593","properties":{"city_id":"nyc","event_id":"nyc_parks_property_170593","title":"Parks property acquisition: DeSalvio Playground","year":1954,"effective_date":"1954-10-28","date_precision":"day","category":"environment","lens":"green_space","confidence":"documented","source_ids":["enfh-gkve"],"explanation":"Parks property record with acquisition date for DeSalvio Playground."},"geometry":{"type":"Point","coordinates":[-73.996097,40.721618]}},{"type":"Feature","id":"nyc_parks_property_170608","properties":{"city_id":"nyc","event_id":"nyc_parks_property_170608","title":"Parks property acquisition: Real Good Playground","year":1954,"effective_date":"1954-08-30","date_precision":"day","category":"environment","lens":"green_space","confidence":"documented","source_ids":["enfh-gkve"],"explanation":"Parks property record with acquisition date for Real Good Playground."},"geometry":{"type":"Point","coordinates":[-73.857133,40.735584]}},{"type":"Feature","id":"nyc_parks_property_170614","properties":{"city_id":"nyc","event_id":"nyc_parks_property_170614","title":"Parks property acquisition: Augustus St. Gaudens Playground","year":1954,"effective_date":"1954-02-27","date_precision":"day","category":"environment","lens":"green_space","confidence":"documented","source_ids":["enfh-gkve"],"explanation":"Parks property record with acquisition date for Augustus St. Gaudens Playground."},"geometry":{"type":"Point","coordinates":[-73.982046,40.735541]}},{"type":"Feature","id":"nyc_parks_property_170803","properties":{"city_id":"nyc","event_id":"nyc_parks_property_170803","title":"Parks property acquisition: Agnes Haywood Playground","year":1954,"effective_date":"1954-05-05","date_precision":"day","category":"environment","lens":"green_space","confidence":"documented","source_ids":["enfh-gkve"],"explanation":"Parks property record with acquisition date for Agnes Haywood Playground."},"geometry":{"type":"Point","coordinates":[-73.861884,40.880312]}},{"type":"Feature","id":"nyc_parks_property_170943","properties":{"city_id":"nyc","event_id":"nyc_parks_property_170943","title":"Parks property acquisition: Brownsville Playground","year":1954,"effective_date":"1954-11-26","date_precision":"day","category":"environment","lens":"green_space","confidence":"documented","source_ids":["enfh-gkve"],"explanation":"Parks property record with acquisition date for Brownsville Playground."},"geometry":{"type":"Point","coordinates":[-73.902773,40.656245]}},{"type":"Feature","id":"nyc_parks_property_171014","properties":{"city_id":"nyc","event_id":"nyc_parks_property_171014","title":"Parks property acquisition: Clove's Tail","year":1954,"effective_date":"1954-05-03","date_precision":"day","category":"environment","lens":"green_space","confidence":"documented","source_ids":["enfh-gkve"],"explanation":"Parks property record with acquisition date for Clove's Tail."},"geometry":{"type":"Point","coordinates":[-74.113759,40.612828]}},{"type":"Feature","id":"nyc_parks_property_171065","properties":{"city_id":"nyc","event_id":"nyc_parks_property_171065","title":"Parks property acquisition: John Golden Park","year":1954,"effective_date":"1954-11-17","date_precision":"day","category":"environment","lens":"green_space","confidence":"documented","source_ids":["enfh-gkve"],"explanation":"Parks property record with acquisition date for John Golden Park."},"geometry":{"type":"Point","coordinates":[-73.768142,40.77373]}},{"type":"Feature","id":"nyc_parks_property_171184","properties":{"city_id":"nyc","event_id":"nyc_parks_property_171184","title":"Parks property acquisition: Jamaica Bay Park","year":1954,"effective_date":"1954-01-14","date_precision":"day","category":"environment","lens":"green_space","confidence":"documented","source_ids":["enfh-gkve"],"explanation":"Parks property record with acquisition date for Jamaica Bay Park."},"geometry":{"type":"Point","coordinates":[-73.765496,40.612506]}}]}
