{"type":"FeatureCollection","schema_version":"1.0.0","city_id":"nyc","year":1869,"features":[{"type":"Feature","id":"nyc_parks_property_169192","properties":{"city_id":"nyc","event_id":"nyc_parks_property_169192","title":"Parks property acquisition: Bartel-Pritchard Square","year":1869,"effective_date":"1869-04-13","date_precision":"day","category":"environment","lens":"green_space","confidence":"documented","source_ids":["enfh-gkve"],"explanation":"Parks property record with acquisition date for Bartel-Pritchard Square."},"geometry":{"type":"Point","coordinates":[-73.979845,40.661015]}},{"type":"Feature","id":"nyc_parks_property_169309","properties":{"city_id":"nyc","event_id":"nyc_parks_property_169309","title":"Parks property acquisition: Bryant Park","year":1869,"effective_date":"1869-04-27","date_precision":"day","category":"environment","lens":"green_space","confidence":"documented","source_ids":["enfh-gkve"],"explanation":"Parks property record with acquisition date for Bryant Park."},"geometry":{"type":"Point","coordinates":[-73.98303,40.753421]}},{"type":"Feature","id":"nyc_parks_property_171092","properties":{"city_id":"nyc","event_id":"nyc_parks_property_171092","title":"Parks property acquisition: Ocean Parkway Malls","year":1869,"effective_date":"1869-05-11","date_precision":"day","category":"environment","lens":"green_space","confidence":"documented","source_ids":["enfh-gkve"],"explanation":"Parks property record with acquisition date for Ocean Parkway Malls."},"geometry":{"type":"Point","coordinates":[-73.969289,40.606839]}}]}
