{"type":"FeatureCollection","schema_version":"1.0.0","city_id":"nyc","year":2021,"features":[{"type":"Feature","id":"nyc-milestone-2021-gowanus-neighborhood-rezoning-adopted-21","properties":{"city_id":"nyc","event_id":"nyc-milestone-2021-gowanus-neighborhood-rezoning-adopted-21","title":"Gowanus Neighborhood Rezoning adopted","year":2021,"effective_date":"2021","date_precision":"year","category":"environment","lens":"green_space","confidence":"documented","source_ids":["64uk-42ks","f888-ni5f","new-003-bytes-of-the-big-apple-archived-pluto-mappluto-releases"],"explanation":"Canal-area rezoning, remediation, mixed-use development"},"geometry":{"type":"Point","coordinates":[-74.154544,40.5788]}}]}
