{"type":"FeatureCollection","schema_version":"1.0.0","city_id":"nyc","year":1946,"features":[{"type":"Feature","id":"nyc_parks_property_169118","properties":{"city_id":"nyc","event_id":"nyc_parks_property_169118","title":"Parks property acquisition: Classon Triangle","year":1946,"effective_date":"1946-05-14","date_precision":"day","category":"environment","lens":"green_space","confidence":"documented","source_ids":["enfh-gkve"],"explanation":"Parks property record with acquisition date for Classon Triangle."},"geometry":{"type":"Point","coordinates":[-73.961139,40.699211]}},{"type":"Feature","id":"nyc_parks_property_169119","properties":{"city_id":"nyc","event_id":"nyc_parks_property_169119","title":"Parks property acquisition: Penn Triangle","year":1946,"effective_date":"1946-05-14","date_precision":"day","category":"environment","lens":"green_space","confidence":"documented","source_ids":["enfh-gkve"],"explanation":"Parks property record with acquisition date for Penn Triangle."},"geometry":{"type":"Point","coordinates":[-73.960855,40.700757]}},{"type":"Feature","id":"nyc_parks_property_169121","properties":{"city_id":"nyc","event_id":"nyc_parks_property_169121","title":"Parks property acquisition: Badame Sessa Triangle","year":1946,"effective_date":"1946-05-14","date_precision":"day","category":"environment","lens":"green_space","confidence":"documented","source_ids":["enfh-gkve"],"explanation":"Parks property record with acquisition date for Badame Sessa Triangle."},"geometry":{"type":"Point","coordinates":[-73.948483,40.717148]}},{"type":"Feature","id":"nyc_parks_property_169366","properties":{"city_id":"nyc","event_id":"nyc_parks_property_169366","title":"Parks property acquisition: Golconda Playground","year":1946,"effective_date":"1946-05-01","date_precision":"day","category":"environment","lens":"green_space","confidence":"documented","source_ids":["enfh-gkve"],"explanation":"Parks property record with acquisition date for Golconda Playground."},"geometry":{"type":"Point","coordinates":[-73.982302,40.697855]}},{"type":"Feature","id":"nyc_parks_property_169457","properties":{"city_id":"nyc","event_id":"nyc_parks_property_169457","title":"Parks property acquisition: Holy Cow Playground","year":1946,"effective_date":"1946-10-10","date_precision":"day","category":"environment","lens":"green_space","confidence":"documented","source_ids":["enfh-gkve"],"explanation":"Parks property record with acquisition date for Holy Cow Playground."},"geometry":{"type":"Point","coordinates":[-73.777505,40.741714]}},{"type":"Feature","id":"nyc_parks_property_169464","properties":{"city_id":"nyc","event_id":"nyc_parks_property_169464","title":"Parks property acquisition: Brooklyn Heights Promenade","year":1946,"effective_date":"1946-05-01","date_precision":"day","category":"environment","lens":"green_space","confidence":"documented","source_ids":["enfh-gkve"],"explanation":"Parks property record with acquisition date for Brooklyn Heights Promenade."},"geometry":{"type":"Point","coordinates":[-73.997367,40.697351]}},{"type":"Feature","id":"nyc_parks_property_169465","properties":{"city_id":"nyc","event_id":"nyc_parks_property_169465","title":"Parks property acquisition: Fruit Street Sitting Area","year":1946,"effective_date":"1946-05-01","date_precision":"day","category":"environment","lens":"green_space","confidence":"documented","source_ids":["enfh-gkve"],"explanation":"Parks property record with acquisition date for Fruit Street Sitting Area."},"geometry":{"type":"Point","coordinates":[-73.995949,40.70008]}},{"type":"Feature","id":"nyc_parks_property_169769","properties":{"city_id":"nyc","event_id":"nyc_parks_property_169769","title":"Parks property acquisition: Macri Triangle","year":1946,"effective_date":"1946-05-14","date_precision":"day","category":"environment","lens":"green_space","confidence":"documented","source_ids":["enfh-gkve"],"explanation":"Parks property record with acquisition date for Macri Triangle."},"geometry":{"type":"Point","coordinates":[-73.952122,40.714312]}},{"type":"Feature","id":"nyc_parks_property_169819","properties":{"city_id":"nyc","event_id":"nyc_parks_property_169819","title":"Parks property acquisition: Caserta Playground","year":1946,"effective_date":"1946-01-09","date_precision":"day","category":"environment","lens":"green_space","confidence":"documented","source_ids":["enfh-gkve"],"explanation":"Parks property record with acquisition date for Caserta Playground."},"geometry":{"type":"Point","coordinates":[-73.853925,40.837309]}},{"type":"Feature","id":"nyc_parks_property_169915","properties":{"city_id":"nyc","event_id":"nyc_parks_property_169915","title":"Parks property acquisition: Norelli-Hargreaves Playground","year":1946,"effective_date":"1946-03-06","date_precision":"day","category":"environment","lens":"green_space","confidence":"documented","source_ids":["enfh-gkve"],"explanation":"Parks property record with acquisition date for Norelli-Hargreaves Playground."},"geometry":{"type":"Point","coordinates":[-73.808735,40.690282]}},{"type":"Feature","id":"nyc_parks_property_169916","properties":{"city_id":"nyc","event_id":"nyc_parks_property_169916","title":"Parks property acquisition: Foch Sitting Area","year":1946,"effective_date":"1946-03-06","date_precision":"day","category":"environment","lens":"green_space","confidence":"documented","source_ids":["enfh-gkve"],"explanation":"Parks property record with acquisition date for Foch Sitting Area."},"geometry":{"type":"Point","coordinates":[-73.802369,40.677692]}},{"type":"Feature","id":"nyc_parks_property_169917","properties":{"city_id":"nyc","event_id":"nyc_parks_property_169917","title":"Parks property acquisition: Playground One Forty","year":1946,"effective_date":"1946-03-06","date_precision":"day","category":"environment","lens":"green_space","confidence":"documented","source_ids":["enfh-gkve"],"explanation":"Parks property record with acquisition date for Playground One Forty."},"geometry":{"type":"Point","coordinates":[-73.801061,40.675116]}},{"type":"Feature","id":"nyc_parks_property_170033","properties":{"city_id":"nyc","event_id":"nyc_parks_property_170033","title":"Parks property acquisition: Father Giorgio Triangle","year":1946,"effective_date":"1946-05-14","date_precision":"day","category":"environment","lens":"green_space","confidence":"documented","source_ids":["enfh-gkve"],"explanation":"Parks property record with acquisition date for Father Giorgio Triangle."},"geometry":{"type":"Point","coordinates":[-73.949904,40.716258]}},{"type":"Feature","id":"nyc_parks_property_170138","properties":{"city_id":"nyc","event_id":"nyc_parks_property_170138","title":"Parks property acquisition: Virginia Playground","year":1946,"effective_date":"1946-01-31","date_precision":"day","category":"environment","lens":"green_space","confidence":"documented","source_ids":["enfh-gkve"],"explanation":"Parks property record with acquisition date for Virginia Playground."},"geometry":{"type":"Point","coordinates":[-73.862214,40.834169]}},{"type":"Feature","id":"nyc_parks_property_170139","properties":{"city_id":"nyc","event_id":"nyc_parks_property_170139","title":"Parks property acquisition: Virginia Park","year":1946,"effective_date":"1946-01-31","date_precision":"day","category":"environment","lens":"green_space","confidence":"documented","source_ids":["enfh-gkve"],"explanation":"Parks property record with acquisition date for Virginia Park."},"geometry":{"type":"Point","coordinates":[-73.861984,40.833555]}},{"type":"Feature","id":"nyc_parks_property_170140","properties":{"city_id":"nyc","event_id":"nyc_parks_property_170140","title":"Parks property acquisition: Chief Dennis L. Devlin Park","year":1946,"effective_date":"1946-01-31","date_precision":"day","category":"environment","lens":"green_space","confidence":"documented","source_ids":["enfh-gkve"],"explanation":"Parks property record with acquisition date for Chief Dennis L. Devlin Park."},"geometry":{"type":"Point","coordinates":[-73.854585,40.832009]}},{"type":"Feature","id":"nyc_parks_property_170141","properties":{"city_id":"nyc","event_id":"nyc_parks_property_170141","title":"Parks property acquisition: Havemeyer Playground","year":1946,"effective_date":"1946-01-31","date_precision":"day","category":"environment","lens":"green_space","confidence":"documented","source_ids":["enfh-gkve"],"explanation":"Parks property record with acquisition date for Havemeyer Playground."},"geometry":{"type":"Point","coordinates":[-73.847738,40.829895]}},{"type":"Feature","id":"nyc_parks_property_170142","properties":{"city_id":"nyc","event_id":"nyc_parks_property_170142","title":"Parks property acquisition: Wood Park","year":1946,"effective_date":"1946-01-31","date_precision":"day","category":"environment","lens":"green_space","confidence":"documented","source_ids":["enfh-gkve"],"explanation":"Parks property record with acquisition date for Wood Park."},"geometry":{"type":"Point","coordinates":[-73.865311,40.835161]}},{"type":"Feature","id":"nyc_parks_property_170143","properties":{"city_id":"nyc","event_id":"nyc_parks_property_170143","title":"Parks property acquisition: Park","year":1946,"effective_date":"1946-01-31","date_precision":"day","category":"environment","lens":"green_space","confidence":"documented","source_ids":["enfh-gkve"],"explanation":"Parks property record with acquisition date for Park."},"geometry":{"type":"Point","coordinates":[-73.865502,40.834302]}},{"type":"Feature","id":"nyc_parks_property_170144","properties":{"city_id":"nyc","event_id":"nyc_parks_property_170144","title":"Parks property acquisition: St. Lawrence Triangle","year":1946,"effective_date":"1946-01-31","date_precision":"day","category":"environment","lens":"green_space","confidence":"documented","source_ids":["enfh-gkve"],"explanation":"Parks property record with acquisition date for St. Lawrence Triangle."},"geometry":{"type":"Point","coordinates":[-73.867715,40.834964]}},{"type":"Feature","id":"nyc_parks_property_170147","properties":{"city_id":"nyc","event_id":"nyc_parks_property_170147","title":"Parks property acquisition: Boone Slope","year":1946,"effective_date":"1946-01-31","date_precision":"day","category":"environment","lens":"green_space","confidence":"documented","source_ids":["enfh-gkve"],"explanation":"Parks property record with acquisition date for Boone Slope."},"geometry":{"type":"Point","coordinates":[-73.88238,40.837185]}},{"type":"Feature","id":"nyc_parks_property_170148","properties":{"city_id":"nyc","event_id":"nyc_parks_property_170148","title":"Parks property acquisition: Park","year":1946,"effective_date":"1946-01-31","date_precision":"day","category":"environment","lens":"green_space","confidence":"documented","source_ids":["enfh-gkve"],"explanation":"Parks property record with acquisition date for Park."},"geometry":{"type":"Point","coordinates":[-73.878661,40.837596]}},{"type":"Feature","id":"nyc_parks_property_170181","properties":{"city_id":"nyc","event_id":"nyc_parks_property_170181","title":"Parks property acquisition: P.O. Serrano Playground","year":1946,"effective_date":"1946-12-12","date_precision":"day","category":"environment","lens":"green_space","confidence":"documented","source_ids":["enfh-gkve"],"explanation":"Parks property record with acquisition date for P.O. Serrano Playground."},"geometry":{"type":"Point","coordinates":[-73.850875,40.823419]}},{"type":"Feature","id":"nyc_parks_property_170280","properties":{"city_id":"nyc","event_id":"nyc_parks_property_170280","title":"Parks property acquisition: Bellerose Playground","year":1946,"effective_date":"1946-10-23","date_precision":"day","category":"environment","lens":"green_space","confidence":"documented","source_ids":["enfh-gkve"],"explanation":"Parks property record with acquisition date for Bellerose Playground."},"geometry":{"type":"Point","coordinates":[-73.717851,40.732739]}},{"type":"Feature","id":"nyc_parks_property_170392","properties":{"city_id":"nyc","event_id":"nyc_parks_property_170392","title":"Parks property acquisition: Harry Chapin Playground","year":1946,"effective_date":"1946-05-01","date_precision":"day","category":"environment","lens":"green_space","confidence":"documented","source_ids":["enfh-gkve"],"explanation":"Parks property record with acquisition date for Harry Chapin Playground."},"geometry":{"type":"Point","coordinates":[-73.994923,40.700608]}},{"type":"Feature","id":"nyc_parks_property_170398","properties":{"city_id":"nyc","event_id":"nyc_parks_property_170398","title":"Parks property acquisition: Squibb Park","year":1946,"effective_date":"1946-05-01","date_precision":"day","category":"environment","lens":"green_space","confidence":"documented","source_ids":["enfh-gkve"],"explanation":"Parks property record with acquisition date for Squibb Park."},"geometry":{"type":"Point","coordinates":[-73.995426,40.700816]}},{"type":"Feature","id":"nyc_parks_property_170400","properties":{"city_id":"nyc","event_id":"nyc_parks_property_170400","title":"Parks property acquisition: Dutch Kills Playground","year":1946,"effective_date":"1946-03-28","date_precision":"day","category":"environment","lens":"green_space","confidence":"documented","source_ids":["enfh-gkve"],"explanation":"Parks property record with acquisition date for Dutch Kills Playground."},"geometry":{"type":"Point","coordinates":[-73.933167,40.757422]}},{"type":"Feature","id":"nyc_parks_property_170406","properties":{"city_id":"nyc","event_id":"nyc_parks_property_170406","title":"Parks property acquisition: Nicholas Naquan Heyward Jr. Park","year":1946,"effective_date":"1946-07-09","date_precision":"day","category":"environment","lens":"green_space","confidence":"documented","source_ids":["enfh-gkve"],"explanation":"Parks property record with acquisition date for Nicholas Naquan Heyward Jr. Park."},"geometry":{"type":"Point","coordinates":[-73.98779,40.68451]}},{"type":"Feature","id":"nyc_parks_property_170528","properties":{"city_id":"nyc","event_id":"nyc_parks_property_170528","title":"Parks property acquisition: Hillside Dog Park","year":1946,"effective_date":"1946-05-01","date_precision":"day","category":"environment","lens":"green_space","confidence":"documented","source_ids":["enfh-gkve"],"explanation":"Parks property record with acquisition date for Hillside Dog Park."},"geometry":{"type":"Point","coordinates":[-73.994243,40.701236]}},{"type":"Feature","id":"nyc_parks_property_170564","properties":{"city_id":"nyc","event_id":"nyc_parks_property_170564","title":"Parks property acquisition: Moore Playground","year":1946,"effective_date":"1946-09-24","date_precision":"day","category":"environment","lens":"green_space","confidence":"documented","source_ids":["enfh-gkve"],"explanation":"Parks property record with acquisition date for Moore Playground."},"geometry":{"type":"Point","coordinates":[-73.938403,40.809405]}},{"type":"Feature","id":"nyc_parks_property_170598","properties":{"city_id":"nyc","event_id":"nyc_parks_property_170598","title":"Parks property acquisition: St. Michael's Playground","year":1946,"effective_date":"1946-12-20","date_precision":"day","category":"environment","lens":"green_space","confidence":"documented","source_ids":["enfh-gkve"],"explanation":"Parks property record with acquisition date for St. Michael's Playground."},"geometry":{"type":"Point","coordinates":[-73.900206,40.758743]}},{"type":"Feature","id":"nyc_parks_property_170602","properties":{"city_id":"nyc","event_id":"nyc_parks_property_170602","title":"Parks property acquisition: Park","year":1946,"effective_date":"1946-03-06","date_precision":"day","category":"environment","lens":"green_space","confidence":"documented","source_ids":["enfh-gkve"],"explanation":"Parks property record with acquisition date for Park."},"geometry":{"type":"Point","coordinates":[-73.816169,40.70324]}},{"type":"Feature","id":"nyc_parks_property_170755","properties":{"city_id":"nyc","event_id":"nyc_parks_property_170755","title":"Parks property acquisition: Lentol Garden","year":1946,"effective_date":"1946-05-14","date_precision":"day","category":"environment","lens":"green_space","confidence":"documented","source_ids":["enfh-gkve"],"explanation":"Parks property record with acquisition date for Lentol Garden."},"geometry":{"type":"Point","coordinates":[-73.945124,40.720258]}},{"type":"Feature","id":"nyc_parks_property_170789","properties":{"city_id":"nyc","event_id":"nyc_parks_property_170789","title":"Parks property acquisition: Stanley Isaacs Playground","year":1946,"effective_date":"1946-03-26","date_precision":"day","category":"environment","lens":"green_space","confidence":"documented","source_ids":["enfh-gkve"],"explanation":"Parks property record with acquisition date for Stanley Isaacs Playground."},"geometry":{"type":"Point","coordinates":[-73.944324,40.783008]}},{"type":"Feature","id":"nyc_parks_property_170942","properties":{"city_id":"nyc","event_id":"nyc_parks_property_170942","title":"Parks property acquisition: Ciccarone Park","year":1946,"effective_date":"1946-07-31","date_precision":"day","category":"environment","lens":"green_space","confidence":"documented","source_ids":["enfh-gkve"],"explanation":"Parks property record with acquisition date for Ciccarone Park."},"geometry":{"type":"Point","coordinates":[-73.886612,40.855986]}},{"type":"Feature","id":"nyc_parks_property_171008","properties":{"city_id":"nyc","event_id":"nyc_parks_property_171008","title":"Parks property acquisition: Dr. Charles R. Drew Park","year":1946,"effective_date":"1946-03-06","date_precision":"day","category":"environment","lens":"green_space","confidence":"documented","source_ids":["enfh-gkve"],"explanation":"Parks property record with acquisition date for Dr. Charles R. Drew Park."},"geometry":{"type":"Point","coordinates":[-73.802801,40.680612]}},{"type":"Feature","id":"nyc_parks_property_171050","properties":{"city_id":"nyc","event_id":"nyc_parks_property_171050","title":"Parks property acquisition: Kissena Corridor Park","year":1946,"effective_date":"1946-10-10","date_precision":"day","category":"environment","lens":"green_space","confidence":"documented","source_ids":["enfh-gkve"],"explanation":"Parks property record with acquisition date for Kissena Corridor Park."},"geometry":{"type":"Point","coordinates":[-73.779983,40.741448]}}]}
