{"type":"FeatureCollection","schema_version":"1.0.0","city_id":"nyc","year":1924,"features":[{"type":"Feature","id":"nyc_parks_property_169170","properties":{"city_id":"nyc","event_id":"nyc_parks_property_169170","title":"Parks property acquisition: Jacob Riis Triangle","year":1924,"effective_date":"1924-01-01","date_precision":"day","category":"environment","lens":"green_space","confidence":"documented","source_ids":["enfh-gkve"],"explanation":"Parks property record with acquisition date for Jacob Riis Triangle."},"geometry":{"type":"Point","coordinates":[-73.834933,40.701982]}},{"type":"Feature","id":"nyc_parks_property_169322","properties":{"city_id":"nyc","event_id":"nyc_parks_property_169322","title":"Parks property acquisition: Rev. T. Wendell Foster Park and Recreation Center","year":1924,"effective_date":"1924-08-08","date_precision":"day","category":"environment","lens":"green_space","confidence":"documented","source_ids":["enfh-gkve"],"explanation":"Parks property record with acquisition date for Rev. T. Wendell Foster Park and Recreation Center."},"geometry":{"type":"Point","coordinates":[-73.923852,40.833399]}},{"type":"Feature","id":"nyc_parks_property_169506","properties":{"city_id":"nyc","event_id":"nyc_parks_property_169506","title":"Parks property acquisition: Seth Low Playground/ Bealin Square","year":1924,"effective_date":"1924-12-08","date_precision":"day","category":"environment","lens":"green_space","confidence":"documented","source_ids":["enfh-gkve"],"explanation":"Parks property record with acquisition date for Seth Low Playground/ Bealin Square."},"geometry":{"type":"Point","coordinates":[-73.987167,40.607685]}},{"type":"Feature","id":"nyc_parks_property_169586","properties":{"city_id":"nyc","event_id":"nyc_parks_property_169586","title":"Parks property acquisition: Crocheron Park","year":1924,"effective_date":"1924-09-17","date_precision":"day","category":"environment","lens":"green_space","confidence":"documented","source_ids":["enfh-gkve"],"explanation":"Parks property record with acquisition date for Crocheron Park."},"geometry":{"type":"Point","coordinates":[-73.766958,40.771054]}},{"type":"Feature","id":"nyc_parks_property_169639","properties":{"city_id":"nyc","event_id":"nyc_parks_property_169639","title":"Parks property acquisition: Van Voorhees Playground","year":1924,"effective_date":"1924-05-15","date_precision":"day","category":"environment","lens":"green_space","confidence":"documented","source_ids":["enfh-gkve"],"explanation":"Parks property record with acquisition date for Van Voorhees Playground."},"geometry":{"type":"Point","coordinates":[-73.999268,40.69027]}},{"type":"Feature","id":"nyc_parks_property_169722","properties":{"city_id":"nyc","event_id":"nyc_parks_property_169722","title":"Parks property acquisition: William F Moore Park","year":1924,"effective_date":"1924-07-18","date_precision":"day","category":"environment","lens":"green_space","confidence":"documented","source_ids":["enfh-gkve"],"explanation":"Parks property record with acquisition date for William F Moore Park."},"geometry":{"type":"Point","coordinates":[-73.855426,40.743704]}},{"type":"Feature","id":"nyc_parks_property_169742","properties":{"city_id":"nyc","event_id":"nyc_parks_property_169742","title":"Parks property acquisition: Dunningham Triangle","year":1924,"effective_date":"1924-09-10","date_precision":"day","category":"environment","lens":"green_space","confidence":"documented","source_ids":["enfh-gkve"],"explanation":"Parks property record with acquisition date for Dunningham Triangle."},"geometry":{"type":"Point","coordinates":[-73.883592,40.746343]}},{"type":"Feature","id":"nyc_parks_property_169758","properties":{"city_id":"nyc","event_id":"nyc_parks_property_169758","title":"Parks property acquisition: Metro Triangle","year":1924,"effective_date":"1924-01-01","date_precision":"day","category":"environment","lens":"green_space","confidence":"documented","source_ids":["enfh-gkve"],"explanation":"Parks property record with acquisition date for Metro Triangle."},"geometry":{"type":"Point","coordinates":[-73.826224,40.704413]}},{"type":"Feature","id":"nyc_parks_property_169852","properties":{"city_id":"nyc","event_id":"nyc_parks_property_169852","title":"Parks property acquisition: Sledge Playground","year":1924,"effective_date":"1924-04-03","date_precision":"day","category":"environment","lens":"green_space","confidence":"documented","source_ids":["enfh-gkve"],"explanation":"Parks property record with acquisition date for Sledge Playground."},"geometry":{"type":"Point","coordinates":[-73.897819,40.638218]}},{"type":"Feature","id":"nyc_parks_property_169893","properties":{"city_id":"nyc","event_id":"nyc_parks_property_169893","title":"Parks property acquisition: Proctor-Hopson Circle","year":1924,"effective_date":"1924-09-30","date_precision":"day","category":"environment","lens":"green_space","confidence":"documented","source_ids":["enfh-gkve"],"explanation":"Parks property record with acquisition date for Proctor-Hopson Circle."},"geometry":{"type":"Point","coordinates":[-73.786251,40.697881]}},{"type":"Feature","id":"nyc_parks_property_169896","properties":{"city_id":"nyc","event_id":"nyc_parks_property_169896","title":"Parks property acquisition: Nine Heroes Plaza","year":1924,"effective_date":"1924-10-01","date_precision":"day","category":"environment","lens":"green_space","confidence":"documented","source_ids":["enfh-gkve"],"explanation":"Parks property record with acquisition date for Nine Heroes Plaza."},"geometry":{"type":"Point","coordinates":[-73.889104,40.745536]}},{"type":"Feature","id":"nyc_parks_property_169901","properties":{"city_id":"nyc","event_id":"nyc_parks_property_169901","title":"Parks property acquisition: Pigeon Paradise","year":1924,"effective_date":"1924-10-01","date_precision":"day","category":"environment","lens":"green_space","confidence":"documented","source_ids":["enfh-gkve"],"explanation":"Parks property record with acquisition date for Pigeon Paradise."},"geometry":{"type":"Point","coordinates":[-73.896573,40.748637]}},{"type":"Feature","id":"nyc_parks_property_169902","properties":{"city_id":"nyc","event_id":"nyc_parks_property_169902","title":"Parks property acquisition: General Hart Playground","year":1924,"effective_date":"1924-10-01","date_precision":"day","category":"environment","lens":"green_space","confidence":"documented","source_ids":["enfh-gkve"],"explanation":"Parks property record with acquisition date for General Hart Playground."},"geometry":{"type":"Point","coordinates":[-73.897244,40.74869]}},{"type":"Feature","id":"nyc_parks_property_169970","properties":{"city_id":"nyc","event_id":"nyc_parks_property_169970","title":"Parks property acquisition: Joyce Kilmer Park","year":1924,"effective_date":"1924-03-28","date_precision":"day","category":"environment","lens":"green_space","confidence":"documented","source_ids":["enfh-gkve"],"explanation":"Parks property record with acquisition date for Joyce Kilmer Park."},"geometry":{"type":"Point","coordinates":[-73.922889,40.827443]}},{"type":"Feature","id":"nyc_parks_property_170182","properties":{"city_id":"nyc","event_id":"nyc_parks_property_170182","title":"Parks property acquisition: Kelly Park Playground","year":1924,"effective_date":"1924-06-12","date_precision":"day","category":"environment","lens":"green_space","confidence":"documented","source_ids":["enfh-gkve"],"explanation":"Parks property record with acquisition date for Kelly Park Playground."},"geometry":{"type":"Point","coordinates":[-73.957583,40.604185]}},{"type":"Feature","id":"nyc_parks_property_170185","properties":{"city_id":"nyc","event_id":"nyc_parks_property_170185","title":"Parks property acquisition: Ennis Playground","year":1924,"effective_date":"1924-04-03","date_precision":"day","category":"environment","lens":"green_space","confidence":"documented","source_ids":["enfh-gkve"],"explanation":"Parks property record with acquisition date for Ennis Playground."},"geometry":{"type":"Point","coordinates":[-73.993851,40.670671]}},{"type":"Feature","id":"nyc_parks_property_170186","properties":{"city_id":"nyc","event_id":"nyc_parks_property_170186","title":"Parks property acquisition: Martin Luther Playground","year":1924,"effective_date":"1924-05-15","date_precision":"day","category":"environment","lens":"green_space","confidence":"documented","source_ids":["enfh-gkve"],"explanation":"Parks property record with acquisition date for Martin Luther Playground."},"geometry":{"type":"Point","coordinates":[-74.019643,40.645794]}},{"type":"Feature","id":"nyc_parks_property_170259","properties":{"city_id":"nyc","event_id":"nyc_parks_property_170259","title":"Parks property acquisition: Kissena Park","year":1924,"effective_date":"1924-08-19","date_precision":"day","category":"environment","lens":"green_space","confidence":"documented","source_ids":["enfh-gkve"],"explanation":"Parks property record with acquisition date for Kissena Park."},"geometry":{"type":"Point","coordinates":[-73.803007,40.745196]}},{"type":"Feature","id":"nyc_parks_property_170531","properties":{"city_id":"nyc","event_id":"nyc_parks_property_170531","title":"Parks property acquisition: Sgt. William Dougherty Playground","year":1924,"effective_date":"1924-04-03","date_precision":"day","category":"environment","lens":"green_space","confidence":"documented","source_ids":["enfh-gkve"],"explanation":"Parks property record with acquisition date for Sgt. William Dougherty Playground."},"geometry":{"type":"Point","coordinates":[-73.937166,40.72365]}},{"type":"Feature","id":"nyc_parks_property_170841","properties":{"city_id":"nyc","event_id":"nyc_parks_property_170841","title":"Parks property acquisition: Sophie Irene Loeb","year":1924,"effective_date":"1924-10-30","date_precision":"day","category":"environment","lens":"green_space","confidence":"documented","source_ids":["enfh-gkve"],"explanation":"Parks property record with acquisition date for Sophie Irene Loeb."},"geometry":{"type":"Point","coordinates":[-73.994347,40.713411]}},{"type":"Feature","id":"nyc_parks_property_170896","properties":{"city_id":"nyc","event_id":"nyc_parks_property_170896","title":"Parks property acquisition: Downing Street Playground","year":1924,"effective_date":"1924-04-03","date_precision":"day","category":"environment","lens":"green_space","confidence":"documented","source_ids":["enfh-gkve"],"explanation":"Parks property record with acquisition date for Downing Street Playground."},"geometry":{"type":"Point","coordinates":[-74.002785,40.72988]}},{"type":"Feature","id":"nyc_parks_property_170922","properties":{"city_id":"nyc","event_id":"nyc_parks_property_170922","title":"Parks property acquisition: Rita Ley Triangle","year":1924,"effective_date":"1924-04-19","date_precision":"day","category":"environment","lens":"green_space","confidence":"documented","source_ids":["enfh-gkve"],"explanation":"Parks property record with acquisition date for Rita Ley Triangle."},"geometry":{"type":"Point","coordinates":[-73.873122,40.899125]}}]}
