{"type":"FeatureCollection","schema_version":"1.0.0","city_id":"nyc","year":1845,"features":[{"type":"Feature","id":"nyc_parks_property_169812","properties":{"city_id":"nyc","event_id":"nyc_parks_property_169812","title":"Parks property acquisition: Cuyler Gore Park","year":1845,"effective_date":"1845-06-28","date_precision":"day","category":"environment","lens":"green_space","confidence":"documented","source_ids":["enfh-gkve"],"explanation":"Parks property record with acquisition date for Cuyler Gore Park."},"geometry":{"type":"Point","coordinates":[-73.971834,40.685733]}}]}
