{"type":"FeatureCollection","schema_version":"1.0.0","city_id":"nyc","year":1988,"features":[{"type":"Feature","id":"nyc_lpc_historic_district_lp-01554","properties":{"city_id":"nyc","event_id":"nyc_lpc_historic_district_lp-01554","title":"Historic district designated: Cobble Hill Historic District Extension","year":1988,"effective_date":"1988-06-07","date_precision":"day","category":"built_environment","lens":"built_environment","confidence":"documented","source_ids":["skyk-mpzq"],"explanation":"LPC historic district designation record for Cobble Hill Historic District Extension."},"geometry":{"type":"Point","coordinates":[-73.997222,40.68931]}},{"type":"Feature","id":"nyc_lpc_historic_district_lp-01559","properties":{"city_id":"nyc","event_id":"nyc_lpc_historic_district_lp-01559","title":"Historic district designated: Gramercy Park Historic District Extension","year":1988,"effective_date":"1988-07-12","date_precision":"day","category":"built_environment","lens":"built_environment","confidence":"documented","source_ids":["skyk-mpzq"],"explanation":"LPC historic district designation record for Gramercy Park Historic District Extension."},"geometry":{"type":"Point","coordinates":[-73.984986,40.737568]}},{"type":"Feature","id":"nyc_lpc_historic_district_lp-01579","properties":{"city_id":"nyc","event_id":"nyc_lpc_historic_district_lp-01579","title":"Historic district designated: Tudor City Historic District","year":1988,"effective_date":"1988-05-17","date_precision":"day","category":"built_environment","lens":"built_environment","confidence":"documented","source_ids":["skyk-mpzq"],"explanation":"LPC historic district designation record for Tudor City Historic District."},"geometry":{"type":"Point","coordinates":[-73.971202,40.748665]}},{"type":"Feature","id":"nyc_lpc_individual_landmark_1125","properties":{"city_id":"nyc","event_id":"nyc_lpc_individual_landmark_1125","title":"Individual landmark designated: The Cyclone","year":1988,"effective_date":"1988-07-12","date_precision":"day","category":"built_environment","lens":"built_environment","confidence":"documented","source_ids":["buis-pvji"],"explanation":"LPC designation record for The Cyclone; designation date is taken from the source desdate field."},"geometry":{"type":"Point","coordinates":[-73.977762,40.57441]}},{"type":"Feature","id":"nyc_lpc_individual_landmark_124","properties":{"city_id":"nyc","event_id":"nyc_lpc_individual_landmark_124","title":"Individual landmark designated: Germania Life Insurance Company Building","year":1988,"effective_date":"1988-09-06","date_precision":"day","category":"built_environment","lens":"built_environment","confidence":"documented","source_ids":["buis-pvji"],"explanation":"LPC designation record for Germania Life Insurance Company Building; designation date is taken from the source desdate field."},"geometry":{"type":"Point","coordinates":[-73.98851,40.736592]}},{"type":"Feature","id":"nyc_lpc_individual_landmark_1268","properties":{"city_id":"nyc","event_id":"nyc_lpc_individual_landmark_1268","title":"Individual landmark designated: Bush Tower","year":1988,"effective_date":"1988-10-18","date_precision":"day","category":"built_environment","lens":"built_environment","confidence":"documented","source_ids":["buis-pvji"],"explanation":"LPC designation record for Bush Tower; designation date is taken from the source desdate field."},"geometry":{"type":"Point","coordinates":[-73.98564,40.75503]}},{"type":"Feature","id":"nyc_lpc_individual_landmark_1269","properties":{"city_id":"nyc","event_id":"nyc_lpc_individual_landmark_1269","title":"Individual landmark designated: Northfield Township District School 6","year":1988,"effective_date":"1988-03-22","date_precision":"day","category":"built_environment","lens":"built_environment","confidence":"documented","source_ids":["buis-pvji"],"explanation":"LPC designation record for Northfield Township District School 6; designation date is taken from the source desdate field."},"geometry":{"type":"Point","coordinates":[-74.131948,40.636384]}},{"type":"Feature","id":"nyc_lpc_individual_landmark_162","properties":{"city_id":"nyc","event_id":"nyc_lpc_individual_landmark_162","title":"Individual landmark designated: Everett Building","year":1988,"effective_date":"1988-09-06","date_precision":"day","category":"built_environment","lens":"built_environment","confidence":"documented","source_ids":["buis-pvji"],"explanation":"LPC designation record for Everett Building; designation date is taken from the source desdate field."},"geometry":{"type":"Point","coordinates":[-73.989135,40.736995]}},{"type":"Feature","id":"nyc_lpc_individual_landmark_169","properties":{"city_id":"nyc","event_id":"nyc_lpc_individual_landmark_169","title":"Individual landmark designated: Bank of the Metropolis","year":1988,"effective_date":"1988-07-12","date_precision":"day","category":"built_environment","lens":"built_environment","confidence":"documented","source_ids":["buis-pvji"],"explanation":"LPC designation record for Bank of the Metropolis; designation date is taken from the source desdate field."},"geometry":{"type":"Point","coordinates":[-73.991126,40.736935]}},{"type":"Feature","id":"nyc_lpc_individual_landmark_180","properties":{"city_id":"nyc","event_id":"nyc_lpc_individual_landmark_180","title":"Individual landmark designated: Union Building","year":1988,"effective_date":"1988-07-12","date_precision":"day","category":"built_environment","lens":"built_environment","confidence":"documented","source_ids":["buis-pvji"],"explanation":"LPC designation record for Union Building; designation date is taken from the source desdate field."},"geometry":{"type":"Point","coordinates":[-73.990909,40.736845]}},{"type":"Feature","id":"nyc_lpc_individual_landmark_207","properties":{"city_id":"nyc","event_id":"nyc_lpc_individual_landmark_207","title":"Individual landmark designated: United States Realty Building","year":1988,"effective_date":"1988-06-07","date_precision":"day","category":"built_environment","lens":"built_environment","confidence":"documented","source_ids":["buis-pvji"],"explanation":"LPC designation record for United States Realty Building; designation date is taken from the source desdate field."},"geometry":{"type":"Point","coordinates":[-74.011373,40.708914]}},{"type":"Feature","id":"nyc_lpc_individual_landmark_225","properties":{"city_id":"nyc","event_id":"nyc_lpc_individual_landmark_225","title":"Individual landmark designated: Rodin Studios","year":1988,"effective_date":"1988-02-16","date_precision":"day","category":"built_environment","lens":"built_environment","confidence":"documented","source_ids":["buis-pvji"],"explanation":"LPC designation record for Rodin Studios; designation date is taken from the source desdate field."},"geometry":{"type":"Point","coordinates":[-73.980593,40.765377]}},{"type":"Feature","id":"nyc_lpc_individual_landmark_252","properties":{"city_id":"nyc","event_id":"nyc_lpc_individual_landmark_252","title":"Individual landmark designated: Hearst Magazine Building","year":1988,"effective_date":"1988-02-16","date_precision":"day","category":"built_environment","lens":"built_environment","confidence":"documented","source_ids":["buis-pvji"],"explanation":"LPC designation record for Hearst Magazine Building; designation date is taken from the source desdate field."},"geometry":{"type":"Point","coordinates":[-73.983713,40.766536]}},{"type":"Feature","id":"nyc_lpc_individual_landmark_305","properties":{"city_id":"nyc","event_id":"nyc_lpc_individual_landmark_305","title":"Individual landmark designated: New York Savings Bank","year":1988,"effective_date":"1988-06-08","date_precision":"day","category":"built_environment","lens":"built_environment","confidence":"documented","source_ids":["buis-pvji"],"explanation":"LPC designation record for New York Savings Bank; designation date is taken from the source desdate field."},"geometry":{"type":"Point","coordinates":[-74.002693,40.740124]}},{"type":"Feature","id":"nyc_lpc_individual_landmark_313","properties":{"city_id":"nyc","event_id":"nyc_lpc_individual_landmark_313","title":"Individual landmark designated: Paramount Building","year":1988,"effective_date":"1988-11-01","date_precision":"day","category":"built_environment","lens":"built_environment","confidence":"documented","source_ids":["buis-pvji"],"explanation":"LPC designation record for Paramount Building; designation date is taken from the source desdate field."},"geometry":{"type":"Point","coordinates":[-73.986813,40.757202]}},{"type":"Feature","id":"nyc_lpc_individual_landmark_334","properties":{"city_id":"nyc","event_id":"nyc_lpc_individual_landmark_334","title":"Individual landmark designated: Trinity Building","year":1988,"effective_date":"1988-06-07","date_precision":"day","category":"built_environment","lens":"built_environment","confidence":"documented","source_ids":["buis-pvji"],"explanation":"LPC designation record for Trinity Building; designation date is taken from the source desdate field."},"geometry":{"type":"Point","coordinates":[-74.01156,40.708657]}},{"type":"Feature","id":"nyc_lpc_individual_landmark_347","properties":{"city_id":"nyc","event_id":"nyc_lpc_individual_landmark_347","title":"Individual landmark designated: General Society of Mechanics and Tradesmen","year":1988,"effective_date":"1988-10-18","date_precision":"day","category":"built_environment","lens":"built_environment","confidence":"documented","source_ids":["buis-pvji"],"explanation":"LPC designation record for General Society of Mechanics and Tradesmen; designation date is taken from the source desdate field."},"geometry":{"type":"Point","coordinates":[-73.981299,40.755106]}},{"type":"Feature","id":"nyc_lpc_individual_landmark_357","properties":{"city_id":"nyc","event_id":"nyc_lpc_individual_landmark_357","title":"Individual landmark designated: Lincoln Building","year":1988,"effective_date":"1988-07-12","date_precision":"day","category":"built_environment","lens":"built_environment","confidence":"documented","source_ids":["buis-pvji"],"explanation":"LPC designation record for Lincoln Building; designation date is taken from the source desdate field."},"geometry":{"type":"Point","coordinates":[-73.991825,40.735497]}},{"type":"Feature","id":"nyc_lpc_individual_landmark_381","properties":{"city_id":"nyc","event_id":"nyc_lpc_individual_landmark_381","title":"Individual landmark designated: Knickerbocker Hotel","year":1988,"effective_date":"1988-10-18","date_precision":"day","category":"built_environment","lens":"built_environment","confidence":"documented","source_ids":["buis-pvji"],"explanation":"LPC designation record for Knickerbocker Hotel; designation date is taken from the source desdate field."},"geometry":{"type":"Point","coordinates":[-73.985997,40.755182]}},{"type":"Feature","id":"nyc_lpc_individual_landmark_390","properties":{"city_id":"nyc","event_id":"nyc_lpc_individual_landmark_390","title":"Individual landmark designated: Bryant Park Studios","year":1988,"effective_date":"1988-12-13","date_precision":"day","category":"built_environment","lens":"built_environment","confidence":"documented","source_ids":["buis-pvji"],"explanation":"LPC designation record for Bryant Park Studios; designation date is taken from the source desdate field."},"geometry":{"type":"Point","coordinates":[-73.984797,40.753285]}},{"type":"Feature","id":"nyc_lpc_individual_landmark_406","properties":{"city_id":"nyc","event_id":"nyc_lpc_individual_landmark_406","title":"Individual landmark designated: Tiffany & Co. Building","year":1988,"effective_date":"1988-02-16","date_precision":"day","category":"built_environment","lens":"built_environment","confidence":"documented","source_ids":["buis-pvji"],"explanation":"LPC designation record for Tiffany & Co. Building; designation date is taken from the source desdate field."},"geometry":{"type":"Point","coordinates":[-73.982871,40.749935]}},{"type":"Feature","id":"nyc_lpc_individual_landmark_434","properties":{"city_id":"nyc","event_id":"nyc_lpc_individual_landmark_434","title":"Individual landmark designated: Hollywood Theater","year":1988,"effective_date":"1988-01-05","date_precision":"day","category":"built_environment","lens":"built_environment","confidence":"documented","source_ids":["buis-pvji"],"explanation":"LPC designation record for Hollywood Theater; designation date is taken from the source desdate field."},"geometry":{"type":"Point","coordinates":[-73.984204,40.762736]}},{"type":"Feature","id":"nyc_lpc_individual_landmark_435","properties":{"city_id":"nyc","event_id":"nyc_lpc_individual_landmark_435","title":"Individual landmark designated: Gainsborough Studios","year":1988,"effective_date":"1988-02-16","date_precision":"day","category":"built_environment","lens":"built_environment","confidence":"documented","source_ids":["buis-pvji"],"explanation":"LPC designation record for Gainsborough Studios; designation date is taken from the source desdate field."},"geometry":{"type":"Point","coordinates":[-73.980467,40.767155]}},{"type":"Feature","id":"nyc_lpc_individual_landmark_449","properties":{"city_id":"nyc","event_id":"nyc_lpc_individual_landmark_449","title":"Individual landmark designated: 160 East 92nd Street House","year":1988,"effective_date":"1988-06-07","date_precision":"day","category":"built_environment","lens":"built_environment","confidence":"documented","source_ids":["buis-pvji"],"explanation":"LPC designation record for 160 East 92nd Street House; designation date is taken from the source desdate field."},"geometry":{"type":"Point","coordinates":[-73.952179,40.782794]}},{"type":"Feature","id":"nyc_lpc_individual_landmark_461","properties":{"city_id":"nyc","event_id":"nyc_lpc_individual_landmark_461","title":"Individual landmark designated: Beaux-Arts Institute of Design","year":1988,"effective_date":"1988-08-23","date_precision":"day","category":"built_environment","lens":"built_environment","confidence":"documented","source_ids":["buis-pvji"],"explanation":"LPC designation record for Beaux-Arts Institute of Design; designation date is taken from the source desdate field."},"geometry":{"type":"Point","coordinates":[-73.970852,40.750732]}},{"type":"Feature","id":"nyc_lpc_individual_landmark_566","properties":{"city_id":"nyc","event_id":"nyc_lpc_individual_landmark_566","title":"Individual landmark designated: St. Regis Hotel","year":1988,"effective_date":"1988-11-01","date_precision":"day","category":"built_environment","lens":"built_environment","confidence":"documented","source_ids":["buis-pvji"],"explanation":"LPC designation record for St. Regis Hotel; designation date is taken from the source desdate field."},"geometry":{"type":"Point","coordinates":[-73.974488,40.76122]}},{"type":"Feature","id":"nyc_lpc_individual_landmark_609","properties":{"city_id":"nyc","event_id":"nyc_lpc_individual_landmark_609","title":"Individual landmark designated: Condict Store","year":1988,"effective_date":"1988-03-22","date_precision":"day","category":"built_environment","lens":"built_environment","confidence":"documented","source_ids":["buis-pvji"],"explanation":"LPC designation record for Condict Store; designation date is taken from the source desdate field."},"geometry":{"type":"Point","coordinates":[-74.003967,40.718157]}},{"type":"Feature","id":"nyc_lpc_individual_landmark_660","properties":{"city_id":"nyc","event_id":"nyc_lpc_individual_landmark_660","title":"Individual landmark designated: Majestic Apartments","year":1988,"effective_date":"1988-03-08","date_precision":"day","category":"built_environment","lens":"built_environment","confidence":"documented","source_ids":["buis-pvji"],"explanation":"LPC designation record for Majestic Apartments; designation date is taken from the source desdate field."},"geometry":{"type":"Point","coordinates":[-73.97685,40.77607]}},{"type":"Feature","id":"nyc_lpc_individual_landmark_703","properties":{"city_id":"nyc","event_id":"nyc_lpc_individual_landmark_703","title":"Individual landmark designated: John B. and Isabella Leech House","year":1988,"effective_date":"1988-08-02","date_precision":"day","category":"built_environment","lens":"built_environment","confidence":"documented","source_ids":["buis-pvji"],"explanation":"LPC designation record for John B. and Isabella Leech House; designation date is taken from the source desdate field."},"geometry":{"type":"Point","coordinates":[-73.97793,40.788161]}},{"type":"Feature","id":"nyc_lpc_individual_landmark_726","properties":{"city_id":"nyc","event_id":"nyc_lpc_individual_landmark_726","title":"Individual landmark designated: New York County National Bank","year":1988,"effective_date":"1988-06-07","date_precision":"day","category":"built_environment","lens":"built_environment","confidence":"documented","source_ids":["buis-pvji"],"explanation":"LPC designation record for New York County National Bank; designation date is taken from the source desdate field."},"geometry":{"type":"Point","coordinates":[-74.002965,40.739638]}},{"type":"Feature","id":"nyc_lpc_individual_landmark_74","properties":{"city_id":"nyc","event_id":"nyc_lpc_individual_landmark_74","title":"Individual landmark designated: Louis Armstrong House","year":1988,"effective_date":"1988-12-13","date_precision":"day","category":"built_environment","lens":"built_environment","confidence":"documented","source_ids":["buis-pvji"],"explanation":"LPC designation record for Louis Armstrong House; designation date is taken from the source desdate field."},"geometry":{"type":"Point","coordinates":[-73.861594,40.754557]}},{"type":"Feature","id":"nyc_lpc_individual_landmark_859","properties":{"city_id":"nyc","event_id":"nyc_lpc_individual_landmark_859","title":"Individual landmark designated: Howard E. and Jessie Jones House","year":1988,"effective_date":"1988-03-08","date_precision":"day","category":"built_environment","lens":"built_environment","confidence":"documented","source_ids":["buis-pvji"],"explanation":"LPC designation record for Howard E. and Jessie Jones House; designation date is taken from the source desdate field."},"geometry":{"type":"Point","coordinates":[-74.038442,40.627984]}},{"type":"Feature","id":"nyc_parks_property_169370","properties":{"city_id":"nyc","event_id":"nyc_parks_property_169370","title":"Parks property acquisition: Osborn Playground","year":1988,"effective_date":"1988-07-26","date_precision":"day","category":"environment","lens":"green_space","confidence":"documented","source_ids":["enfh-gkve"],"explanation":"Parks property record with acquisition date for Osborn Playground."},"geometry":{"type":"Point","coordinates":[-73.905729,40.655726]}},{"type":"Feature","id":"nyc_parks_property_170076","properties":{"city_id":"nyc","event_id":"nyc_parks_property_170076","title":"Parks property acquisition: Dubos Point Wildlife Sanctuary","year":1988,"effective_date":"1988-10-05","date_precision":"day","category":"environment","lens":"green_space","confidence":"documented","source_ids":["enfh-gkve"],"explanation":"Parks property record with acquisition date for Dubos Point Wildlife Sanctuary."},"geometry":{"type":"Point","coordinates":[-73.794274,40.599937]}},{"type":"Feature","id":"nyc_parks_property_170993","properties":{"city_id":"nyc","event_id":"nyc_parks_property_170993","title":"Parks property acquisition: Pelham Bay Little League","year":1988,"effective_date":"1988-05-16","date_precision":"day","category":"environment","lens":"green_space","confidence":"documented","source_ids":["enfh-gkve"],"explanation":"Parks property record with acquisition date for Pelham Bay Little League."},"geometry":{"type":"Point","coordinates":[-73.839237,40.841552]}},{"type":"Feature","id":"nyc_parks_property_171020","properties":{"city_id":"nyc","event_id":"nyc_parks_property_171020","title":"Parks property acquisition: College Point Park","year":1988,"effective_date":"1988-01-08","date_precision":"day","category":"environment","lens":"green_space","confidence":"documented","source_ids":["enfh-gkve"],"explanation":"Parks property record with acquisition date for College Point Park."},"geometry":{"type":"Point","coordinates":[-73.84643,40.785571]}}]}
