{"type":"FeatureCollection","schema_version":"1.0.0","city_id":"nyc","year":1978,"features":[{"type":"Feature","id":"nyc_lpc_historic_district_lp-00973","properties":{"city_id":"nyc","event_id":"nyc_lpc_historic_district_lp-00973","title":"Historic district designated: Fort Greene Historic District","year":1978,"effective_date":"1978-09-26","date_precision":"day","category":"built_environment","lens":"built_environment","confidence":"documented","source_ids":["skyk-mpzq"],"explanation":"LPC historic district designation record for Fort Greene Historic District."},"geometry":{"type":"Point","coordinates":[-73.972849,40.688662]}},{"type":"Feature","id":"nyc_lpc_historic_district_lp-00989","properties":{"city_id":"nyc","event_id":"nyc_lpc_historic_district_lp-00989","title":"Historic district designated: Albemarle-Kenmore Terraces Historic District","year":1978,"effective_date":"1978-07-11","date_precision":"day","category":"built_environment","lens":"built_environment","confidence":"documented","source_ids":["skyk-mpzq"],"explanation":"LPC historic district designation record for Albemarle-Kenmore Terraces Historic District."},"geometry":{"type":"Point","coordinates":[-73.959324,40.648897]}},{"type":"Feature","id":"nyc_lpc_historic_district_lp-00994","properties":{"city_id":"nyc","event_id":"nyc_lpc_historic_district_lp-00994","title":"Historic district designated: Fraunces Tavern Block Historic District","year":1978,"effective_date":"1978-11-14","date_precision":"day","category":"built_environment","lens":"built_environment","confidence":"documented","source_ids":["skyk-mpzq"],"explanation":"LPC historic district designation record for Fraunces Tavern Block Historic District."},"geometry":{"type":"Point","coordinates":[-74.011018,40.703345]}},{"type":"Feature","id":"nyc_lpc_historic_district_lp-01003","properties":{"city_id":"nyc","event_id":"nyc_lpc_historic_district_lp-01003","title":"Historic district designated: Brooklyn Academy of Music Historic District","year":1978,"effective_date":"1978-09-26","date_precision":"day","category":"built_environment","lens":"built_environment","confidence":"documented","source_ids":["skyk-mpzq"],"explanation":"LPC historic district designation record for Brooklyn Academy of Music Historic District."},"geometry":{"type":"Point","coordinates":[-73.976478,40.686126]}},{"type":"Feature","id":"nyc_lpc_individual_landmark_1076","properties":{"city_id":"nyc","event_id":"nyc_lpc_individual_landmark_1076","title":"Individual landmark designated: Robert and Marie Lorillard Bartow House, expanded site","year":1978,"effective_date":"1978-01-10","date_precision":"day","category":"built_environment","lens":"built_environment","confidence":"documented","source_ids":["buis-pvji"],"explanation":"LPC designation record for Robert and Marie Lorillard Bartow House, expanded site; designation date is taken from the source desdate field."},"geometry":{"type":"Point","coordinates":[-73.803527,40.870566]}},{"type":"Feature","id":"nyc_lpc_individual_landmark_123","properties":{"city_id":"nyc","event_id":"nyc_lpc_individual_landmark_123","title":"Individual landmark designated: New York City Police Headquarters","year":1978,"effective_date":"1978-09-26","date_precision":"day","category":"built_environment","lens":"built_environment","confidence":"documented","source_ids":["buis-pvji"],"explanation":"LPC designation record for New York City Police Headquarters; designation date is taken from the source desdate field."},"geometry":{"type":"Point","coordinates":[-73.997782,40.720312]}},{"type":"Feature","id":"nyc_lpc_individual_landmark_1234","properties":{"city_id":"nyc","event_id":"nyc_lpc_individual_landmark_1234","title":"Individual landmark designated: Famous Players-Lasky Studio","year":1978,"effective_date":"1978-03-14","date_precision":"day","category":"built_environment","lens":"built_environment","confidence":"documented","source_ids":["buis-pvji"],"explanation":"LPC designation record for Famous Players-Lasky Studio; designation date is taken from the source desdate field."},"geometry":{"type":"Point","coordinates":[-73.924598,40.757047]}},{"type":"Feature","id":"nyc_lpc_individual_landmark_126","properties":{"city_id":"nyc","event_id":"nyc_lpc_individual_landmark_126","title":"Individual landmark designated: Town Hall","year":1978,"effective_date":"1978-11-28","date_precision":"day","category":"built_environment","lens":"built_environment","confidence":"documented","source_ids":["buis-pvji"],"explanation":"LPC designation record for Town Hall; designation date is taken from the source desdate field."},"geometry":{"type":"Point","coordinates":[-73.984357,40.756133]}},{"type":"Feature","id":"nyc_lpc_individual_landmark_157","properties":{"city_id":"nyc","event_id":"nyc_lpc_individual_landmark_157","title":"Individual landmark designated: Andrew Norwood House","year":1978,"effective_date":"1978-05-09","date_precision":"day","category":"built_environment","lens":"built_environment","confidence":"documented","source_ids":["buis-pvji"],"explanation":"LPC designation record for Andrew Norwood House; designation date is taken from the source desdate field."},"geometry":{"type":"Point","coordinates":[-74.001197,40.739557]}},{"type":"Feature","id":"nyc_lpc_individual_landmark_198","properties":{"city_id":"nyc","event_id":"nyc_lpc_individual_landmark_198","title":"Individual landmark designated: Fleming Smith Warehouse","year":1978,"effective_date":"1978-03-14","date_precision":"day","category":"built_environment","lens":"built_environment","confidence":"documented","source_ids":["buis-pvji"],"explanation":"LPC designation record for Fleming Smith Warehouse; designation date is taken from the source desdate field."},"geometry":{"type":"Point","coordinates":[-74.0099,40.723979]}},{"type":"Feature","id":"nyc_lpc_individual_landmark_215","properties":{"city_id":"nyc","event_id":"nyc_lpc_individual_landmark_215","title":"Individual landmark designated: David S. Brown Store","year":1978,"effective_date":"1978-11-14","date_precision":"day","category":"built_environment","lens":"built_environment","confidence":"documented","source_ids":["buis-pvji"],"explanation":"LPC designation record for David S. Brown Store; designation date is taken from the source desdate field."},"geometry":{"type":"Point","coordinates":[-74.005551,40.715848]}},{"type":"Feature","id":"nyc_lpc_individual_landmark_40","properties":{"city_id":"nyc","event_id":"nyc_lpc_individual_landmark_40","title":"Individual landmark designated: Caleb T. Ward Mansion","year":1978,"effective_date":"1978-08-22","date_precision":"day","category":"built_environment","lens":"built_environment","confidence":"documented","source_ids":["buis-pvji"],"explanation":"LPC designation record for Caleb T. Ward Mansion; designation date is taken from the source desdate field."},"geometry":{"type":"Point","coordinates":[-74.081275,40.632415]}},{"type":"Feature","id":"nyc_lpc_individual_landmark_453","properties":{"city_id":"nyc","event_id":"nyc_lpc_individual_landmark_453","title":"Individual landmark designated: 216 East 78th Street House","year":1978,"effective_date":"1978-05-09","date_precision":"day","category":"built_environment","lens":"built_environment","confidence":"documented","source_ids":["buis-pvji"],"explanation":"LPC designation record for 216 East 78th Street House; designation date is taken from the source desdate field."},"geometry":{"type":"Point","coordinates":[-73.957186,40.773128]}},{"type":"Feature","id":"nyc_lpc_individual_landmark_527","properties":{"city_id":"nyc","event_id":"nyc_lpc_individual_landmark_527","title":"Individual landmark designated: 218 East 78th Street House","year":1978,"effective_date":"1978-05-09","date_precision":"day","category":"built_environment","lens":"built_environment","confidence":"documented","source_ids":["buis-pvji"],"explanation":"LPC designation record for 218 East 78th Street House; designation date is taken from the source desdate field."},"geometry":{"type":"Point","coordinates":[-73.957167,40.773087]}},{"type":"Feature","id":"nyc_lpc_individual_landmark_533","properties":{"city_id":"nyc","event_id":"nyc_lpc_individual_landmark_533","title":"Individual landmark designated: Casa Italiana","year":1978,"effective_date":"1978-03-28","date_precision":"day","category":"built_environment","lens":"built_environment","confidence":"documented","source_ids":["buis-pvji"],"explanation":"LPC designation record for Casa Italiana; designation date is taken from the source desdate field."},"geometry":{"type":"Point","coordinates":[-73.96021,40.80756]}},{"type":"Feature","id":"nyc_lpc_individual_landmark_548","properties":{"city_id":"nyc","event_id":"nyc_lpc_individual_landmark_548","title":"Individual landmark designated: 214 East 78th Street House","year":1978,"effective_date":"1978-05-09","date_precision":"day","category":"built_environment","lens":"built_environment","confidence":"documented","source_ids":["buis-pvji"],"explanation":"LPC designation record for 214 East 78th Street House; designation date is taken from the source desdate field."},"geometry":{"type":"Point","coordinates":[-73.957229,40.773146]}},{"type":"Feature","id":"nyc_lpc_individual_landmark_559","properties":{"city_id":"nyc","event_id":"nyc_lpc_individual_landmark_559","title":"Individual landmark designated: 212 East 78th Street House","year":1978,"effective_date":"1978-05-09","date_precision":"day","category":"built_environment","lens":"built_environment","confidence":"documented","source_ids":["buis-pvji"],"explanation":"LPC designation record for 212 East 78th Street House; designation date is taken from the source desdate field."},"geometry":{"type":"Point","coordinates":[-73.957271,40.773164]}},{"type":"Feature","id":"nyc_lpc_individual_landmark_673","properties":{"city_id":"nyc","event_id":"nyc_lpc_individual_landmark_673","title":"Individual landmark designated: Civic Club","year":1978,"effective_date":"1978-03-28","date_precision":"day","category":"built_environment","lens":"built_environment","confidence":"documented","source_ids":["buis-pvji"],"explanation":"LPC designation record for Civic Club; designation date is taken from the source desdate field."},"geometry":{"type":"Point","coordinates":[-73.976114,40.745208]}},{"type":"Feature","id":"nyc_lpc_individual_landmark_750","properties":{"city_id":"nyc","event_id":"nyc_lpc_individual_landmark_750","title":"Individual landmark designated: Chanin Building","year":1978,"effective_date":"1978-11-14","date_precision":"day","category":"built_environment","lens":"built_environment","confidence":"documented","source_ids":["buis-pvji"],"explanation":"LPC designation record for Chanin Building; designation date is taken from the source desdate field."},"geometry":{"type":"Point","coordinates":[-73.976796,40.751251]}},{"type":"Feature","id":"nyc_lpc_individual_landmark_777","properties":{"city_id":"nyc","event_id":"nyc_lpc_individual_landmark_777","title":"Individual landmark designated: 208 East 78th Street House","year":1978,"effective_date":"1978-05-09","date_precision":"day","category":"built_environment","lens":"built_environment","confidence":"documented","source_ids":["buis-pvji"],"explanation":"LPC designation record for 208 East 78th Street House; designation date is taken from the source desdate field."},"geometry":{"type":"Point","coordinates":[-73.957356,40.7732]}},{"type":"Feature","id":"nyc_lpc_individual_landmark_790","properties":{"city_id":"nyc","event_id":"nyc_lpc_individual_landmark_790","title":"Individual landmark designated: 210 East 78th Street House","year":1978,"effective_date":"1978-05-09","date_precision":"day","category":"built_environment","lens":"built_environment","confidence":"documented","source_ids":["buis-pvji"],"explanation":"LPC designation record for 210 East 78th Street House; designation date is taken from the source desdate field."},"geometry":{"type":"Point","coordinates":[-73.957313,40.773181]}},{"type":"Feature","id":"nyc_lpc_individual_landmark_794","properties":{"city_id":"nyc","event_id":"nyc_lpc_individual_landmark_794","title":"Individual landmark designated: Chrysler Building","year":1978,"effective_date":"1978-09-12","date_precision":"day","category":"built_environment","lens":"built_environment","confidence":"documented","source_ids":["buis-pvji"],"explanation":"LPC designation record for Chrysler Building; designation date is taken from the source desdate field."},"geometry":{"type":"Point","coordinates":[-73.975106,40.751592]}},{"type":"Feature","id":"nyc_lpc_individual_landmark_837","properties":{"city_id":"nyc","event_id":"nyc_lpc_individual_landmark_837","title":"Individual landmark designated: William B. Cronyn House","year":1978,"effective_date":"1978-07-11","date_precision":"day","category":"built_environment","lens":"built_environment","confidence":"documented","source_ids":["buis-pvji"],"explanation":"LPC designation record for William B. Cronyn House; designation date is taken from the source desdate field."},"geometry":{"type":"Point","coordinates":[-73.987357,40.67]}},{"type":"Feature","id":"nyc_lpc_individual_landmark_891","properties":{"city_id":"nyc","event_id":"nyc_lpc_individual_landmark_891","title":"Individual landmark designated: Public School 9","year":1978,"effective_date":"1978-01-10","date_precision":"day","category":"built_environment","lens":"built_environment","confidence":"documented","source_ids":["buis-pvji"],"explanation":"LPC designation record for Public School 9; designation date is taken from the source desdate field."},"geometry":{"type":"Point","coordinates":[-73.969829,40.676354]}},{"type":"Feature","id":"nyc_lpc_individual_landmark_892","properties":{"city_id":"nyc","event_id":"nyc_lpc_individual_landmark_892","title":"Individual landmark designated: Public School 9 Annex","year":1978,"effective_date":"1978-01-10","date_precision":"day","category":"built_environment","lens":"built_environment","confidence":"documented","source_ids":["buis-pvji"],"explanation":"LPC designation record for Public School 9 Annex; designation date is taken from the source desdate field."},"geometry":{"type":"Point","coordinates":[-73.968825,40.676156]}},{"type":"Feature","id":"nyc_lpc_individual_landmark_971","properties":{"city_id":"nyc","event_id":"nyc_lpc_individual_landmark_971","title":"Individual landmark designated: Public School 15","year":1978,"effective_date":"1978-01-10","date_precision":"day","category":"built_environment","lens":"built_environment","confidence":"documented","source_ids":["buis-pvji"],"explanation":"LPC designation record for Public School 15; designation date is taken from the source desdate field."},"geometry":{"type":"Point","coordinates":[-73.830606,40.890976]}}]}
