{"type":"FeatureCollection","schema_version":"1.0.0","city_id":"nyc","year":1972,"features":[{"type":"Feature","id":"nyc_lpc_individual_landmark_424","properties":{"city_id":"nyc","event_id":"nyc_lpc_individual_landmark_424","title":"Individual landmark designated: Ansonia Hotel","short_description":"LPC individual landmark site LP-00285; status Designated; type Individual Landmark; alternate name not stated.","year":1972,"effective_date":"1972-03-14","date_precision":"day","category":"built_environment","lens":"built_environment","confidence":"documented","source_ids":["buis-pvji"],"explanation":"LPC designation record for Ansonia Hotel; designation date is taken from the source desdate field."},"geometry":{"type":"Point","coordinates":[-73.98238,40.780183]}},{"type":"Feature","id":"nyc_lpc_individual_landmark_545","properties":{"city_id":"nyc","event_id":"nyc_lpc_individual_landmark_545","title":"Individual landmark designated: William Goadby and Florence Baker House","short_description":"LPC individual landmark site LP-00437; status Designated; type Individual Landmark; alternate name now the Spence School.","year":1972,"effective_date":"1972-03-14","date_precision":"day","category":"built_environment","lens":"built_environment","confidence":"documented","source_ids":["buis-pvji"],"explanation":"LPC designation record for William Goadby and Florence Baker House; designation date is taken from the source desdate field."},"geometry":{"type":"Point","coordinates":[-73.955257,40.784879]}},{"type":"Feature","id":"nyc_parks_property_170313","properties":{"city_id":"nyc","event_id":"nyc_parks_property_170313","title":"Parks property acquisition: Sean's Place","short_description":"NYC Parks property record for Sean's Place; type Neighborhood Park; acres 0.582; waterfront=False.","year":1972,"effective_date":"1972-10-12","date_precision":"day","category":"environment","lens":"green_space","confidence":"documented","source_ids":["enfh-gkve"],"explanation":"Parks property record with acquisition date for Sean's Place."},"geometry":{"type":"Point","coordinates":[-73.918209,40.760732]}},{"type":"Feature","id":"nyc_parks_property_170404","properties":{"city_id":"nyc","event_id":"nyc_parks_property_170404","title":"Parks property acquisition: Yankee Stadium Garages/Lots","short_description":"NYC Parks property record for Yankee Stadium Garages/Lots; type Lot; acres 11.414; waterfront=False.","year":1972,"effective_date":"1972-12-29","date_precision":"day","category":"environment","lens":"green_space","confidence":"documented","source_ids":["enfh-gkve"],"explanation":"Parks property record with acquisition date for Yankee Stadium Garages/Lots."},"geometry":{"type":"Point","coordinates":[-73.927162,40.82553]}},{"type":"Feature","id":"nyc_parks_property_170578","properties":{"city_id":"nyc","event_id":"nyc_parks_property_170578","title":"Parks property acquisition: Lott Park","short_description":"NYC Parks property record for Lott Park; type Triangle/Plaza; acres 0.06; waterfront=False.","year":1972,"effective_date":"1972-08-14","date_precision":"day","category":"environment","lens":"green_space","confidence":"documented","source_ids":["enfh-gkve"],"explanation":"Parks property record with acquisition date for Lott Park."},"geometry":{"type":"Point","coordinates":[-73.95408,40.648148]}},{"type":"Feature","id":"nyc_parks_property_170742","properties":{"city_id":"nyc","event_id":"nyc_parks_property_170742","title":"Parks property acquisition: Snug Harbor Cultural Center","short_description":"NYC Parks property record for Snug Harbor Cultural Center; type Historic House Park; acres 83.3; waterfront=True.","year":1972,"effective_date":"1972-09-22","date_precision":"day","category":"environment","lens":"green_space","confidence":"documented","source_ids":["enfh-gkve"],"explanation":"Parks property record with acquisition date for Snug Harbor Cultural Center."},"geometry":{"type":"Point","coordinates":[-74.10313,40.644863]}},{"type":"Feature","id":"nyc_parks_property_170941","properties":{"city_id":"nyc","event_id":"nyc_parks_property_170941","title":"Parks property acquisition: Joan Of Arc Park","short_description":"NYC Parks property record for Joan Of Arc Park; type Neighborhood Park; acres 1.578; waterfront=False.","year":1972,"effective_date":"1972-08-02","date_precision":"day","category":"environment","lens":"green_space","confidence":"documented","source_ids":["enfh-gkve"],"explanation":"Parks property record with acquisition date for Joan Of Arc Park."},"geometry":{"type":"Point","coordinates":[-73.976441,40.794287]}},{"type":"Feature","id":"nyc_parks_property_171060","properties":{"city_id":"nyc","event_id":"nyc_parks_property_171060","title":"Parks property acquisition: Deere Park","short_description":"NYC Parks property record for Deere Park; type Nature Area; acres 39.13085296; waterfront=False.","year":1972,"effective_date":"1972-02-09","date_precision":"day","category":"environment","lens":"green_space","confidence":"documented","source_ids":["enfh-gkve"],"explanation":"Parks property record with acquisition date for Deere Park."},"geometry":{"type":"Point","coordinates":[-74.110595,40.605397]}}]}
