{"type":"FeatureCollection","schema_version":"1.0.0","city_id":"nyc","year":1896,"features":[{"type":"Feature","id":"nyc_parks_property_169074","properties":{"city_id":"nyc","event_id":"nyc_parks_property_169074","title":"Parks property acquisition: A Philip Randolph Square","subtitle":"Manhattan / 1896-06-18 / Documented / Parks Properties","details":"Parks property record with acquisition date for A Philip Randolph Square.","year":1896,"effective_date":"1896-06-18","date_precision":"day","short_description":"NYC Parks property record for A Philip Randolph Square; type Triangle/Plaza; acres 0.074; waterfront=False.","category":"environment","lens":"green_space","confidence":"documented","source_ids":["enfh-gkve"],"affected_area_label":"Manhattan","explanation":"Parks property record with acquisition date for A Philip Randolph Square."},"geometry":{"type":"Point","coordinates":[-73.952459,40.803824]}},{"type":"Feature","id":"nyc_parks_property_169502","properties":{"city_id":"nyc","event_id":"nyc_parks_property_169502","title":"Parks property acquisition: O'Brien Oval","subtitle":"Bronx / 1896-03-10 / Documented / Parks Properties","details":"Parks property record with acquisition date for O'Brien Oval.","year":1896,"effective_date":"1896-03-10","date_precision":"day","short_description":"NYC Parks property record for O'Brien Oval; type Triangle/Plaza; acres 0.232; waterfront=False.","category":"environment","lens":"green_space","confidence":"documented","source_ids":["enfh-gkve"],"affected_area_label":"Bronx","explanation":"Parks property record with acquisition date for O'Brien Oval."},"geometry":{"type":"Point","coordinates":[-73.9013,40.847856]}},{"type":"Feature","id":"nyc_parks_property_169630","properties":{"city_id":"nyc","event_id":"nyc_parks_property_169630","title":"Parks property acquisition: Rose Hill Park","subtitle":"Bronx / 1896-06-20 / Documented / Parks Properties","details":"Parks property record with acquisition date for Rose Hill Park.","year":1896,"effective_date":"1896-06-20","date_precision":"day","short_description":"NYC Parks property record for Rose Hill Park; type Triangle/Plaza; acres 0.745; waterfront=False.","category":"environment","lens":"green_space","confidence":"documented","source_ids":["enfh-gkve"],"affected_area_label":"Bronx","explanation":"Parks property record with acquisition date for Rose Hill Park."},"geometry":{"type":"Point","coordinates":[-73.890621,40.861856]}},{"type":"Feature","id":"nyc_parks_property_169863","properties":{"city_id":"nyc","event_id":"nyc_parks_property_169863","title":"Parks property acquisition: Zion Triangle","subtitle":"Brooklyn / 1896-01-01 / Documented / Parks Properties","details":"Parks property record with acquisition date for Zion Triangle.","year":1896,"effective_date":"1896-01-01","date_precision":"day","short_description":"NYC Parks property record for Zion Triangle; type Triangle/Plaza; acres 0.213; waterfront=False.","category":"environment","lens":"green_space","confidence":"documented","source_ids":["enfh-gkve"],"affected_area_label":"Brooklyn","explanation":"Parks property record with acquisition date for Zion Triangle."},"geometry":{"type":"Point","coordinates":[-73.918681,40.668668]}},{"type":"Feature","id":"nyc_parks_property_169953","properties":{"city_id":"nyc","event_id":"nyc_parks_property_169953","title":"Parks property acquisition: Orient Grove","subtitle":"Brooklyn / 1896-07-31 / Documented / Parks Properties","details":"Parks property record with acquisition date for Orient Grove.","year":1896,"effective_date":"1896-07-31","date_precision":"day","short_description":"NYC Parks property record for Orient Grove; type Garden; acres 0.149; waterfront=False.","category":"environment","lens":"green_space","confidence":"documented","source_ids":["enfh-gkve"],"affected_area_label":"Brooklyn","explanation":"Parks property record with acquisition date for Orient Grove."},"geometry":{"type":"Point","coordinates":[-73.940243,40.71482]}},{"type":"Feature","id":"nyc_parks_property_170107","properties":{"city_id":"nyc","event_id":"nyc_parks_property_170107","title":"Parks property acquisition: Sakura Park","subtitle":"Manhattan / 1896-12-21 / Documented / Parks Properties","details":"Parks property record with acquisition date for Sakura Park.","year":1896,"effective_date":"1896-12-21","date_precision":"day","short_description":"NYC Parks property record for Sakura Park; type Neighborhood Park; acres 2.067; waterfront=False.","category":"environment","lens":"green_space","confidence":"documented","source_ids":["enfh-gkve"],"affected_area_label":"Manhattan","explanation":"Parks property record with acquisition date for Sakura Park."},"geometry":{"type":"Point","coordinates":[-73.962073,40.813067]}},{"type":"Feature","id":"nyc_parks_property_170123","properties":{"city_id":"nyc","event_id":"nyc_parks_property_170123","title":"Parks property acquisition: Railroad Park","subtitle":"Bronx / 1896-08-18 / Documented / Parks Properties","details":"Parks property record with acquisition date for Railroad Park.","year":1896,"effective_date":"1896-08-18","date_precision":"day","short_description":"NYC Parks property record for Railroad Park; type Neighborhood Park; acres 0.732; waterfront=False.","category":"environment","lens":"green_space","confidence":"documented","source_ids":["enfh-gkve"],"affected_area_label":"Bronx","explanation":"Parks property record with acquisition date for Railroad Park."},"geometry":{"type":"Point","coordinates":[-73.915269,40.825142]}},{"type":"Feature","id":"nyc_parks_property_170723","properties":{"city_id":"nyc","event_id":"nyc_parks_property_170723","title":"Parks property acquisition: Martin Luther King Jr. Playground","subtitle":"Brooklyn / 1896-06-22 / Documented / Parks Properties","details":"Parks property record with acquisition date for Martin Luther King Jr. Playground.","year":1896,"effective_date":"1896-06-22","date_precision":"day","short_description":"NYC Parks property record for Martin Luther King Jr. Playground; type Playground; acres 2.29; waterfront=False.","category":"environment","lens":"green_space","confidence":"documented","source_ids":["enfh-gkve"],"affected_area_label":"Brooklyn","explanation":"Parks property record with acquisition date for Martin Luther King Jr. Playground."},"geometry":{"type":"Point","coordinates":[-73.890322,40.667563]}},{"type":"Feature","id":"nyc_parks_property_170917","properties":{"city_id":"nyc","event_id":"nyc_parks_property_170917","title":"Parks property acquisition: Poe Park","subtitle":"Bronx / 1896-10-02 / Documented / Parks Properties","details":"Parks property record with acquisition date for Poe Park.","year":1896,"effective_date":"1896-10-02","date_precision":"day","short_description":"NYC Parks property record for Poe Park; type Playground; acres 2.331; waterfront=False.","category":"environment","lens":"green_space","confidence":"documented","source_ids":["enfh-gkve"],"affected_area_label":"Bronx","explanation":"Parks property record with acquisition date for Poe Park."},"geometry":{"type":"Point","coordinates":[-73.894199,40.865335]}},{"type":"Feature","id":"nyc_parks_property_171049","properties":{"city_id":"nyc","event_id":"nyc_parks_property_171049","title":"Parks property acquisition: Fort Washington Park","subtitle":"Manhattan / 1896-08-07 / Documented / Parks Properties","details":"Parks property record with acquisition date for Fort Washington Park.","year":1896,"effective_date":"1896-08-07","date_precision":"day","short_description":"NYC Parks property record for Fort Washington Park; type Community Park; acres 184.143; waterfront=True.","category":"environment","lens":"green_space","confidence":"documented","source_ids":["enfh-gkve"],"affected_area_label":"Manhattan","explanation":"Parks property record with acquisition date for Fort Washington Park."},"geometry":{"type":"Point","coordinates":[-73.943574,40.847782]}}]}
