{"type":"FeatureCollection","schema_version":"1.0.0","city_id":"nyc","year":1893,"features":[{"type":"Feature","id":"nyc_parks_property_169033","properties":{"city_id":"nyc","event_id":"nyc_parks_property_169033","title":"Parks property acquisition: Brigadier General Charles Young Triangle","year":1893,"effective_date":"1893-11-01","date_precision":"day","category":"environment","lens":"green_space","confidence":"documented","source_ids":["enfh-gkve"],"explanation":"Parks property record with acquisition date for Brigadier General Charles Young Triangle."},"geometry":{"type":"Point","coordinates":[-73.935568,40.827269]}},{"type":"Feature","id":"nyc_parks_property_169467","properties":{"city_id":"nyc","event_id":"nyc_parks_property_169467","title":"Parks property acquisition: Percy E. Sutton Playground","year":1893,"effective_date":"1893-11-01","date_precision":"day","category":"environment","lens":"green_space","confidence":"documented","source_ids":["enfh-gkve"],"explanation":"Parks property record with acquisition date for Percy E. Sutton Playground."},"geometry":{"type":"Point","coordinates":[-73.934938,40.826588]}},{"type":"Feature","id":"nyc_parks_property_170124","properties":{"city_id":"nyc","event_id":"nyc_parks_property_170124","title":"Parks property acquisition: Bryant Triangle","year":1893,"effective_date":"1893-01-15","date_precision":"day","category":"environment","lens":"green_space","confidence":"documented","source_ids":["enfh-gkve"],"explanation":"Parks property record with acquisition date for Bryant Triangle."},"geometry":{"type":"Point","coordinates":[-73.888527,40.826628]}},{"type":"Feature","id":"nyc_parks_property_170328","properties":{"city_id":"nyc","event_id":"nyc_parks_property_170328","title":"Parks property acquisition: Corlears Hook Park","year":1893,"effective_date":"1893-07-17","date_precision":"day","category":"environment","lens":"green_space","confidence":"documented","source_ids":["enfh-gkve"],"explanation":"Parks property record with acquisition date for Corlears Hook Park."},"geometry":{"type":"Point","coordinates":[-73.979019,40.711653]}},{"type":"Feature","id":"nyc_parks_property_170945","properties":{"city_id":"nyc","event_id":"nyc_parks_property_170945","title":"Parks property acquisition: Brooklyn Museum","year":1893,"effective_date":"1893-12-23","date_precision":"day","category":"environment","lens":"green_space","confidence":"documented","source_ids":["enfh-gkve"],"explanation":"Parks property record with acquisition date for Brooklyn Museum."},"geometry":{"type":"Point","coordinates":[-73.963482,40.671059]}}]}
