{"type":"FeatureCollection","schema_version":"1.0.0","city_id":"nyc","year":1839,"map_feature_count":3,"withheld_geometry_event_count":0,"features":[{"type":"Feature","id":"nyc_parks_property_170861","properties":{"city_id":"nyc","event_id":"nyc_parks_property_170861","title":"Parks property acquisition: Theodore Roosevelt Park","subtitle":"Manhattan / 1839-03-11 / Documented / Parks Properties","details":"Parks property record with acquisition date for Theodore Roosevelt Park.","year":1839,"effective_date":"1839-03-11","date_precision":"day","short_description":"NYC Parks property record for Theodore Roosevelt Park; type Buildings/Institutions; acres 17.581; waterfront=False.","category":"environment","lens":"green_space","confidence":"documented","source_ids":["enfh-gkve"],"affected_area_label":"Manhattan","explanation":"Parks property record with acquisition date for Theodore Roosevelt Park."},"geometry":{"type":"Point","coordinates":[-73.973969,40.781019]}},{"type":"Feature","id":"nyc_parks_property_170863","properties":{"city_id":"nyc","event_id":"nyc_parks_property_170863","title":"Parks property acquisition: Marcus Garvey Park","subtitle":"Manhattan / 1839-09-04 / Documented / Parks Properties","details":"Parks property record with acquisition date for Marcus Garvey Park.","year":1839,"effective_date":"1839-09-04","date_precision":"day","short_description":"NYC Parks property record for Marcus Garvey Park; type Community Park; acres 20.165; waterfront=False.","category":"environment","lens":"green_space","confidence":"documented","source_ids":["enfh-gkve"],"affected_area_label":"Manhattan","explanation":"Parks property record with acquisition date for Marcus Garvey Park."},"geometry":{"type":"Point","coordinates":[-73.944118,40.80437]}},{"type":"Feature","id":"nyc_parks_property_170918","properties":{"city_id":"nyc","event_id":"nyc_parks_property_170918","title":"Parks property acquisition: Carmansville Playground","subtitle":"Manhattan / 1839-01-22 / Documented / Parks Properties","details":"Parks property record with acquisition date for Carmansville Playground.","year":1839,"effective_date":"1839-01-22","date_precision":"day","short_description":"NYC Parks property record for Carmansville Playground; type Playground; acres 0.573; waterfront=False.","category":"environment","lens":"green_space","confidence":"documented","source_ids":["enfh-gkve"],"affected_area_label":"Manhattan","explanation":"Parks property record with acquisition date for Carmansville Playground."},"geometry":{"type":"Point","coordinates":[-73.944171,40.82915]}}]}
