{"type":"FeatureCollection","schema_version":"1.0.0","city_id":"nyc","year":1981,"features":[{"type":"Feature","id":"nyc_lpc_historic_district_lp-01051","properties":{"city_id":"nyc","event_id":"nyc_lpc_historic_district_lp-01051","title":"Historic district designated: Upper East Side Historic District","subtitle":"Manhattan / 1981-05-19 / Documented / Historic Districts","details":"LPC historic district designation record for Upper East Side Historic District.","year":1981,"effective_date":"1981-05-19","date_precision":"day","short_description":"LPC historic district record LP-01051; status DESIGNATED; public hearing 6/19/1979.","category":"built_environment","lens":"built_environment","confidence":"documented","source_ids":["skyk-mpzq"],"affected_area_label":"Manhattan","explanation":"LPC historic district designation record for Upper East Side Historic District."},"geometry":{"type":"Point","coordinates":[-73.966318,40.768822]}},{"type":"Feature","id":"nyc_lpc_historic_district_lp-01088","properties":{"city_id":"nyc","event_id":"nyc_lpc_historic_district_lp-01088","title":"Historic district designated: Chelsea Historic District Extension","subtitle":"Manhattan / 1981-02-03 / Documented / Historic Districts","details":"LPC historic district designation record for Chelsea Historic District Extension.","year":1981,"effective_date":"1981-02-03","date_precision":"day","short_description":"LPC historic district record LP-01088; status DESIGNATED; public hearing 7/12/1979.","category":"built_environment","lens":"built_environment","confidence":"documented","source_ids":["skyk-mpzq"],"affected_area_label":"Manhattan","explanation":"LPC historic district designation record for Chelsea Historic District Extension."},"geometry":{"type":"Point","coordinates":[-74.002209,40.746253]}},{"type":"Feature","id":"nyc_lpc_historic_district_lp-01236","properties":{"city_id":"nyc","event_id":"nyc_lpc_historic_district_lp-01236","title":"Historic district designated: Ditmas Park Historic District","subtitle":"Brooklyn / 1981-07-28 / Documented / Historic Districts","details":"LPC historic district designation record for Ditmas Park Historic District.","year":1981,"effective_date":"1981-07-28","date_precision":"day","short_description":"LPC historic district record LP-01236; status DESIGNATED; public hearing 2/10/1981.","category":"built_environment","lens":"built_environment","confidence":"documented","source_ids":["skyk-mpzq"],"affected_area_label":"Brooklyn","explanation":"LPC historic district designation record for Ditmas Park Historic District."},"geometry":{"type":"Point","coordinates":[-73.96048,40.638767]}},{"type":"Feature","id":"nyc_lpc_historic_district_lp-02017","properties":{"city_id":"nyc","event_id":"nyc_lpc_historic_district_lp-02017","title":"Historic district designated: Clinton Hill Historic District","subtitle":"Brooklyn / 1981-11-10 / Documented / Historic Districts","details":"LPC historic district designation record for Clinton Hill Historic District.","year":1981,"effective_date":"1981-11-10","date_precision":"day","short_description":"LPC historic district record LP-02017; status DESIGNATED; public hearing 10/9/1979.","category":"built_environment","lens":"built_environment","confidence":"documented","source_ids":["skyk-mpzq"],"affected_area_label":"Brooklyn","explanation":"LPC historic district designation record for Clinton Hill Historic District."},"geometry":{"type":"Point","coordinates":[-73.965541,40.687647]}},{"type":"Feature","id":"nyc_lpc_individual_landmark_1063","properties":{"city_id":"nyc","event_id":"nyc_lpc_individual_landmark_1063","title":"Individual landmark designated: Saint Mary's Episcopal Church","subtitle":"Brooklyn / 1981-10-27 / Documented / Individual Landmark Sites","details":"LPC designation record for Saint Mary's Episcopal Church; designation date is taken from the source desdate field.","year":1981,"effective_date":"1981-10-27","date_precision":"day","short_description":"LPC individual landmark site LP-02013; status Designated; type Individual Landmark; alternate name not stated.","category":"built_environment","lens":"built_environment","confidence":"documented","source_ids":["buis-pvji"],"affected_area_label":"Brooklyn","explanation":"LPC designation record for Saint Mary's Episcopal Church; designation date is taken from the source desdate field."},"geometry":{"type":"Point","coordinates":[-73.961099,40.692821]}},{"type":"Feature","id":"nyc_lpc_individual_landmark_108","properties":{"city_id":"nyc","event_id":"nyc_lpc_individual_landmark_108","title":"Individual landmark designated: J. Kurtz & Sons Store","subtitle":"Queens / 1981-11-24 / Documented / Individual Landmark Sites","details":"LPC designation record for J. Kurtz & Sons Store; designation date is taken from the source desdate field.","year":1981,"effective_date":"1981-11-24","date_precision":"day","short_description":"LPC individual landmark site LP-01132; status Designated; type Individual Landmark; alternate name not stated.","category":"built_environment","lens":"built_environment","confidence":"documented","source_ids":["buis-pvji"],"affected_area_label":"Queens","explanation":"LPC designation record for J. Kurtz & Sons Store; designation date is taken from the source desdate field."},"geometry":{"type":"Point","coordinates":[-73.796986,40.704248]}},{"type":"Feature","id":"nyc_lpc_individual_landmark_1089","properties":{"city_id":"nyc","event_id":"nyc_lpc_individual_landmark_1089","title":"Individual landmark designated: Alumni House","subtitle":"Bronx / 1981-02-03 / Documented / Individual Landmark Sites","details":"LPC designation record for Alumni House; designation date is taken from the source desdate field.","year":1981,"effective_date":"1981-02-03","date_precision":"day","short_description":"LPC individual landmark site LP-01084; status Designated; type Individual Landmark; alternate name not stated.","category":"built_environment","lens":"built_environment","confidence":"documented","source_ids":["buis-pvji"],"affected_area_label":"Bronx","explanation":"LPC designation record for Alumni House; designation date is taken from the source desdate field."},"geometry":{"type":"Point","coordinates":[-73.887445,40.863502]}},{"type":"Feature","id":"nyc_lpc_individual_landmark_1130","properties":{"city_id":"nyc","event_id":"nyc_lpc_individual_landmark_1130","title":"Individual landmark designated: City College","subtitle":"Manhattan / 1981-05-26 / Documented / Individual Landmark Sites","details":"LPC designation record for City College; designation date is taken from the source desdate field.","year":1981,"effective_date":"1981-05-26","date_precision":"day","short_description":"LPC individual landmark site LP-01036; status Designated; type Individual Landmark; alternate name now City College North Campus, City University of New Yory.","category":"built_environment","lens":"built_environment","confidence":"documented","source_ids":["buis-pvji"],"affected_area_label":"Manhattan","explanation":"LPC designation record for City College; designation date is taken from the source desdate field."},"geometry":{"type":"Point","coordinates":[-73.948966,40.82118]}},{"type":"Feature","id":"nyc_lpc_individual_landmark_1148","properties":{"city_id":"nyc","event_id":"nyc_lpc_individual_landmark_1148","title":"Individual landmark designated: College of Mount St. Vincent, Cottage and Stable","subtitle":"Bronx / 1981-07-28 / Documented / Individual Landmark Sites","details":"LPC designation record for College of Mount St. Vincent, Cottage and Stable; designation date is taken from the source desdate field.","year":1981,"effective_date":"1981-07-28","date_precision":"day","short_description":"LPC individual landmark site LP-01085; status Designated; type Individual Landmark; alternate name not stated.","category":"built_environment","lens":"built_environment","confidence":"documented","source_ids":["buis-pvji"],"affected_area_label":"Bronx","explanation":"LPC designation record for College of Mount St. Vincent, Cottage and Stable; designation date is taken from the source desdate field."},"geometry":{"type":"Point","coordinates":[-73.905394,40.912078]}},{"type":"Feature","id":"nyc_lpc_individual_landmark_1236","properties":{"city_id":"nyc","event_id":"nyc_lpc_individual_landmark_1236","title":"Individual landmark designated: Croton Aqueduct, 135th Street Gatehouse","subtitle":"Manhattan / 1981-03-23 / Documented / Individual Landmark Sites","details":"LPC designation record for Croton Aqueduct, 135th Street Gatehouse; designation date is taken from the source desdate field.","year":1981,"effective_date":"1981-03-23","date_precision":"day","short_description":"LPC individual landmark site LP-01035; status Designated; type Individual Landmark; alternate name not stated.","category":"built_environment","lens":"built_environment","confidence":"documented","source_ids":["buis-pvji"],"affected_area_label":"Manhattan","explanation":"LPC designation record for Croton Aqueduct, 135th Street Gatehouse; designation date is taken from the source desdate field."},"geometry":{"type":"Point","coordinates":[-73.951471,40.8184]}},{"type":"Feature","id":"nyc_lpc_individual_landmark_1240","properties":{"city_id":"nyc","event_id":"nyc_lpc_individual_landmark_1240","title":"Individual landmark designated: Interborough Rapid Transit System, Manhattan Valley Viaduct","subtitle":"Manhattan / 1981-11-24 / Documented / Individual Landmark Sites","details":"LPC designation record for Interborough Rapid Transit System, Manhattan Valley Viaduct; designation date is taken from the source desdate field.","year":1981,"effective_date":"1981-11-24","date_precision":"day","short_description":"LPC individual landmark site LP-01094; status Designated; type Individual Landmark; alternate name not stated.","category":"built_environment","lens":"built_environment","confidence":"documented","source_ids":["buis-pvji"],"affected_area_label":"Manhattan","explanation":"LPC designation record for Interborough Rapid Transit System, Manhattan Valley Viaduct; designation date is taken from the source desdate field."},"geometry":{"type":"Point","coordinates":[-73.957913,40.8162]}},{"type":"Feature","id":"nyc_lpc_individual_landmark_1243","properties":{"city_id":"nyc","event_id":"nyc_lpc_individual_landmark_1243","title":"Individual landmark designated: Felix and Frieda S. Warburg House","subtitle":"Manhattan / 1981-11-24 / Documented / Individual Landmark Sites","details":"LPC designation record for Felix and Frieda S. Warburg House; designation date is taken from the source desdate field.","year":1981,"effective_date":"1981-11-24","date_precision":"day","short_description":"LPC individual landmark site LP-01116; status Designated; type Individual Landmark; alternate name now the Jewish Museum.","category":"built_environment","lens":"built_environment","confidence":"documented","source_ids":["buis-pvji"],"affected_area_label":"Manhattan","explanation":"LPC designation record for Felix and Frieda S. Warburg House; designation date is taken from the source desdate field."},"geometry":{"type":"Point","coordinates":[-73.957304,40.78537]}},{"type":"Feature","id":"nyc_lpc_individual_landmark_1244","properties":{"city_id":"nyc","event_id":"nyc_lpc_individual_landmark_1244","title":"Individual landmark designated: 62 West 130th Street House","subtitle":"Manhattan / 1981-08-11 / Documented / Individual Landmark Sites","details":"LPC designation record for 62 West 130th Street House; designation date is taken from the source desdate field.","year":1981,"effective_date":"1981-08-11","date_precision":"day","short_description":"LPC individual landmark site LP-01164; status Designated; type Individual Landmark; alternate name part of Astor Row.","category":"built_environment","lens":"built_environment","confidence":"documented","source_ids":["buis-pvji"],"affected_area_label":"Manhattan","explanation":"LPC designation record for 62 West 130th Street House; designation date is taken from the source desdate field."},"geometry":{"type":"Point","coordinates":[-73.942772,40.810516]}},{"type":"Feature","id":"nyc_lpc_individual_landmark_1289","properties":{"city_id":"nyc","event_id":"nyc_lpc_individual_landmark_1289","title":"Individual landmark designated: Friends Meeting House","subtitle":"Brooklyn / 1981-10-27 / Documented / Individual Landmark Sites","details":"LPC designation record for Friends Meeting House; designation date is taken from the source desdate field.","year":1981,"effective_date":"1981-10-27","date_precision":"day","short_description":"LPC individual landmark site LP-02005; status Designated; type Individual Landmark; alternate name not stated.","category":"built_environment","lens":"built_environment","confidence":"documented","source_ids":["buis-pvji"],"affected_area_label":"Brooklyn","explanation":"LPC designation record for Friends Meeting House; designation date is taken from the source desdate field."},"geometry":{"type":"Point","coordinates":[-73.989454,40.690031]}},{"type":"Feature","id":"nyc_lpc_individual_landmark_1290","properties":{"city_id":"nyc","event_id":"nyc_lpc_individual_landmark_1290","title":"Individual landmark designated: Pratt Institute: Main Building Complex","subtitle":"Brooklyn / 1981-12-22 / Documented / Individual Landmark Sites","details":"LPC designation record for Pratt Institute: Main Building Complex; designation date is taken from the source desdate field.","year":1981,"effective_date":"1981-12-22","date_precision":"day","short_description":"LPC individual landmark site LP-02010; status Designated; type Individual Landmark; alternate name not stated.","category":"built_environment","lens":"built_environment","confidence":"documented","source_ids":["buis-pvji"],"affected_area_label":"Brooklyn","explanation":"LPC designation record for Pratt Institute: Main Building Complex; designation date is taken from the source desdate field."},"geometry":{"type":"Point","coordinates":[-73.96423,40.691242]}},{"type":"Feature","id":"nyc_lpc_individual_landmark_1291","properties":{"city_id":"nyc","event_id":"nyc_lpc_individual_landmark_1291","title":"Individual landmark designated: Pratt Institute Library","subtitle":"Brooklyn / 1981-12-22 / Documented / Individual Landmark Sites","details":"LPC designation record for Pratt Institute Library; designation date is taken from the source desdate field.","year":1981,"effective_date":"1981-12-22","date_precision":"day","short_description":"LPC individual landmark site LP-02011; status Designated; type Individual Landmark; alternate name not stated.","category":"built_environment","lens":"built_environment","confidence":"documented","source_ids":["buis-pvji"],"affected_area_label":"Brooklyn","explanation":"LPC designation record for Pratt Institute Library; designation date is taken from the source desdate field."},"geometry":{"type":"Point","coordinates":[-73.965003,40.690851]}},{"type":"Feature","id":"nyc_lpc_individual_landmark_1470","properties":{"city_id":"nyc","event_id":"nyc_lpc_individual_landmark_1470","title":"Individual landmark designated: Sidewalk Clock, 1501 Third Avenue","subtitle":"NYC / 1981-08-25 / Documented / Individual Landmark Sites","details":"LPC designation record for Sidewalk Clock, 1501 Third Avenue; designation date is taken from the source desdate field.","year":1981,"effective_date":"1981-08-25","date_precision":"day","short_description":"LPC individual landmark site LP-01169; status Designated; type Individual Landmark; alternate name not stated.","category":"built_environment","lens":"built_environment","confidence":"documented","source_ids":["buis-pvji"],"affected_area_label":"NYC","explanation":"LPC designation record for Sidewalk Clock, 1501 Third Avenue; designation date is taken from the source desdate field."},"geometry":{"type":"Point","coordinates":[-73.954527,40.77786]}},{"type":"Feature","id":"nyc_lpc_individual_landmark_1471","properties":{"city_id":"nyc","event_id":"nyc_lpc_individual_landmark_1471","title":"Individual landmark designated: Sidewalk Clock, 783 Fifth Avenue","subtitle":"Manhattan / 1981-08-25 / Documented / Individual Landmark Sites","details":"LPC designation record for Sidewalk Clock, 783 Fifth Avenue; designation date is taken from the source desdate field.","year":1981,"effective_date":"1981-08-25","date_precision":"day","short_description":"LPC individual landmark site LP-01170; status Designated; type Individual Landmark; alternate name not stated.","category":"built_environment","lens":"built_environment","confidence":"documented","source_ids":["buis-pvji"],"affected_area_label":"Manhattan","explanation":"LPC designation record for Sidewalk Clock, 783 Fifth Avenue; designation date is taken from the source desdate field."},"geometry":{"type":"Point","coordinates":[-73.972815,40.764357]}},{"type":"Feature","id":"nyc_lpc_individual_landmark_1472","properties":{"city_id":"nyc","event_id":"nyc_lpc_individual_landmark_1472","title":"Individual landmark designated: Sidewalk Clock, 522 Fifth Avenue","subtitle":"Manhattan / 1981-08-25 / Documented / Individual Landmark Sites","details":"LPC designation record for Sidewalk Clock, 522 Fifth Avenue; designation date is taken from the source desdate field.","year":1981,"effective_date":"1981-08-25","date_precision":"day","short_description":"LPC individual landmark site LP-01171; status Designated; type Individual Landmark; alternate name not stated.","category":"built_environment","lens":"built_environment","confidence":"documented","source_ids":["buis-pvji"],"affected_area_label":"Manhattan","explanation":"LPC designation record for Sidewalk Clock, 522 Fifth Avenue; designation date is taken from the source desdate field."},"geometry":{"type":"Point","coordinates":[-73.980139,40.754692]}},{"type":"Feature","id":"nyc_lpc_individual_landmark_1473","properties":{"city_id":"nyc","event_id":"nyc_lpc_individual_landmark_1473","title":"Individual landmark designated: Sidewalk Clock, 200 Fifth Avenue","subtitle":"Manhattan / 1981-08-25 / Documented / Individual Landmark Sites","details":"LPC designation record for Sidewalk Clock, 200 Fifth Avenue; designation date is taken from the source desdate field.","year":1981,"effective_date":"1981-08-25","date_precision":"day","short_description":"LPC individual landmark site LP-01172; status Designated; type Individual Landmark; alternate name not stated.","category":"built_environment","lens":"built_environment","confidence":"documented","source_ids":["buis-pvji"],"affected_area_label":"Manhattan","explanation":"LPC designation record for Sidewalk Clock, 200 Fifth Avenue; designation date is taken from the source desdate field."},"geometry":{"type":"Point","coordinates":[-73.989375,40.741963]}},{"type":"Feature","id":"nyc_lpc_individual_landmark_1474","properties":{"city_id":"nyc","event_id":"nyc_lpc_individual_landmark_1474","title":"Individual landmark designated: Sidewalk Clock, 753 Manhattan Avenue — Brooklyn","subtitle":"Brooklyn / 1981-08-25 / Documented / Individual Landmark Sites","details":"LPC designation record for Sidewalk Clock, 753 Manhattan Avenue; designation date is taken from the source desdate field.","year":1981,"effective_date":"1981-08-25","date_precision":"day","short_description":"LPC individual landmark site LP-01173; status Proposed; type Individual Landmark; alternate name not stated.","category":"built_environment","lens":"built_environment","confidence":"documented","source_ids":["buis-pvji"],"affected_area_label":"Brooklyn","explanation":"LPC designation record for Sidewalk Clock, 753 Manhattan Avenue; designation date is taken from the source desdate field."},"geometry":{"type":"Point","coordinates":[-73.952275,40.726231]}},{"type":"Feature","id":"nyc_lpc_individual_landmark_1475","properties":{"city_id":"nyc","event_id":"nyc_lpc_individual_landmark_1475","title":"Individual landmark designated: Sidewalk Clock, 753 Manhattan Avenue — Brooklyn · 1475","subtitle":"Brooklyn / 1981-08-25 / Documented / Individual Landmark Sites","details":"LPC designation record for Sidewalk Clock, 753 Manhattan Avenue; designation date is taken from the source desdate field.","year":1981,"effective_date":"1981-08-25","date_precision":"day","short_description":"LPC individual landmark site LP-01173; status Moved; type Individual Landmark; alternate name not stated.","category":"built_environment","lens":"built_environment","confidence":"documented","source_ids":["buis-pvji"],"affected_area_label":"Brooklyn","explanation":"LPC designation record for Sidewalk Clock, 753 Manhattan Avenue; designation date is taken from the source desdate field."},"geometry":{"type":"Point","coordinates":[-73.952509,40.726659]}},{"type":"Feature","id":"nyc_lpc_individual_landmark_1476","properties":{"city_id":"nyc","event_id":"nyc_lpc_individual_landmark_1476","title":"Individual landmark designated: Sidewalk Clock, 30-78 Steinway Street","subtitle":"Queens / 1981-08-25 / Documented / Individual Landmark Sites","details":"LPC designation record for Sidewalk Clock, 30-78 Steinway Street; designation date is taken from the source desdate field.","year":1981,"effective_date":"1981-08-25","date_precision":"day","short_description":"LPC individual landmark site LP-01174; status Designated; type Individual Landmark; alternate name not stated.","category":"built_environment","lens":"built_environment","confidence":"documented","source_ids":["buis-pvji"],"affected_area_label":"Queens","explanation":"LPC designation record for Sidewalk Clock, 30-78 Steinway Street; designation date is taken from the source desdate field."},"geometry":{"type":"Point","coordinates":[-73.916672,40.761972]}},{"type":"Feature","id":"nyc_lpc_individual_landmark_1477","properties":{"city_id":"nyc","event_id":"nyc_lpc_individual_landmark_1477","title":"Individual landmark designated: Sidewalk Clock, 161-11 Jamaica Avenue — Queens","subtitle":"Queens / 1981-08-25 / Documented / Individual Landmark Sites","details":"LPC designation record for Sidewalk Clock, 161-11 Jamaica Avenue; designation date is taken from the source desdate field.","year":1981,"effective_date":"1981-08-25","date_precision":"day","short_description":"LPC individual landmark site LP-01176; status Proposed; type Individual Landmark; alternate name not stated.","category":"built_environment","lens":"built_environment","confidence":"documented","source_ids":["buis-pvji"],"affected_area_label":"Queens","explanation":"LPC designation record for Sidewalk Clock, 161-11 Jamaica Avenue; designation date is taken from the source desdate field."},"geometry":{"type":"Point","coordinates":[-73.797951,40.704109]}},{"type":"Feature","id":"nyc_lpc_individual_landmark_1478","properties":{"city_id":"nyc","event_id":"nyc_lpc_individual_landmark_1478","title":"Individual landmark designated: Sidewalk Clock, 161-11 Jamaica Avenue — Queens · 1478","subtitle":"Queens / 1981-08-25 / Documented / Individual Landmark Sites","details":"LPC designation record for Sidewalk Clock, 161-11 Jamaica Avenue; designation date is taken from the source desdate field.","year":1981,"effective_date":"1981-08-25","date_precision":"day","short_description":"LPC individual landmark site LP-01176; status Moved; type Individual Landmark; alternate name not stated.","category":"built_environment","lens":"built_environment","confidence":"documented","source_ids":["buis-pvji"],"affected_area_label":"Queens","explanation":"LPC designation record for Sidewalk Clock, 161-11 Jamaica Avenue; designation date is taken from the source desdate field."},"geometry":{"type":"Point","coordinates":[-73.798097,40.704272]}},{"type":"Feature","id":"nyc_lpc_individual_landmark_420","properties":{"city_id":"nyc","event_id":"nyc_lpc_individual_landmark_420","title":"Individual landmark designated: Empire State Building","subtitle":"Manhattan / 1981-05-19 / Documented / Individual Landmark Sites","details":"LPC designation record for Empire State Building; designation date is taken from the source desdate field.","year":1981,"effective_date":"1981-05-19","date_precision":"day","short_description":"LPC individual landmark site LP-02000; status Designated; type Individual Landmark; alternate name not stated.","category":"built_environment","lens":"built_environment","confidence":"documented","source_ids":["buis-pvji"],"affected_area_label":"Manhattan","explanation":"LPC designation record for Empire State Building; designation date is taken from the source desdate field."},"geometry":{"type":"Point","coordinates":[-73.986059,40.748563]}},{"type":"Feature","id":"nyc_lpc_individual_landmark_478","properties":{"city_id":"nyc","event_id":"nyc_lpc_individual_landmark_478","title":"Individual landmark designated: George and Sarah Rives House","subtitle":"Manhattan / 1981-05-19 / Documented / Individual Landmark Sites","details":"LPC designation record for George and Sarah Rives House; designation date is taken from the source desdate field.","year":1981,"effective_date":"1981-05-19","date_precision":"day","short_description":"LPC individual landmark site LP-01074; status Designated; type Individual Landmark; alternate name also known as the 67-69 East 79th Street House, now the Greek Consulate General.","category":"built_environment","lens":"built_environment","confidence":"documented","source_ids":["buis-pvji"],"affected_area_label":"Manhattan","explanation":"LPC designation record for George and Sarah Rives House; designation date is taken from the source desdate field."},"geometry":{"type":"Point","coordinates":[-73.961104,40.776279]}},{"type":"Feature","id":"nyc_lpc_individual_landmark_480","properties":{"city_id":"nyc","event_id":"nyc_lpc_individual_landmark_480","title":"Individual landmark designated: Metropolitan Baptist Church","subtitle":"Manhattan / 1981-02-03 / Documented / Individual Landmark Sites","details":"LPC designation record for Metropolitan Baptist Church; designation date is taken from the source desdate field.","year":1981,"effective_date":"1981-02-03","date_precision":"day","short_description":"LPC individual landmark site LP-01134; status Designated; type Individual Landmark; alternate name originally the New York Presbyterian Church.","category":"built_environment","lens":"built_environment","confidence":"documented","source_ids":["buis-pvji"],"affected_area_label":"Manhattan","explanation":"LPC designation record for Metropolitan Baptist Church; designation date is taken from the source desdate field."},"geometry":{"type":"Point","coordinates":[-73.946341,40.810944]}},{"type":"Feature","id":"nyc_lpc_individual_landmark_496","properties":{"city_id":"nyc","event_id":"nyc_lpc_individual_landmark_496","title":"Individual landmark designated: 56 West 130th Street House","subtitle":"Manhattan / 1981-08-11 / Documented / Individual Landmark Sites","details":"LPC designation record for 56 West 130th Street House; designation date is taken from the source desdate field.","year":1981,"effective_date":"1981-08-11","date_precision":"day","short_description":"LPC individual landmark site LP-01161; status Designated; type Individual Landmark; alternate name part of Astor Row.","category":"built_environment","lens":"built_environment","confidence":"documented","source_ids":["buis-pvji"],"affected_area_label":"Manhattan","explanation":"LPC designation record for 56 West 130th Street House; designation date is taken from the source desdate field."},"geometry":{"type":"Point","coordinates":[-73.942506,40.810443]}},{"type":"Feature","id":"nyc_lpc_individual_landmark_502","properties":{"city_id":"nyc","event_id":"nyc_lpc_individual_landmark_502","title":"Individual landmark designated: 12 West 130th Street House","subtitle":"Manhattan / 1981-08-11 / Documented / Individual Landmark Sites","details":"LPC designation record for 12 West 130th Street House; designation date is taken from the source desdate field.","year":1981,"effective_date":"1981-08-11","date_precision":"day","short_description":"LPC individual landmark site LP-01139; status Designated; type Individual Landmark; alternate name part of Astor Row.","category":"built_environment","lens":"built_environment","confidence":"documented","source_ids":["buis-pvji"],"affected_area_label":"Manhattan","explanation":"LPC designation record for 12 West 130th Street House; designation date is taken from the source desdate field."},"geometry":{"type":"Point","coordinates":[-73.940784,40.809686]}},{"type":"Feature","id":"nyc_lpc_individual_landmark_503","properties":{"city_id":"nyc","event_id":"nyc_lpc_individual_landmark_503","title":"Individual landmark designated: Saint Vincent Ferrer Priory and School","subtitle":"Manhattan / 1981-05-19 / Documented / Individual Landmark Sites","details":"LPC designation record for Saint Vincent Ferrer Priory and School; designation date is taken from the source desdate field.","year":1981,"effective_date":"1981-05-19","date_precision":"day","short_description":"LPC individual landmark site LP-01052; status Designated; type Individual Landmark; alternate name including the Holy Name Society Building.","category":"built_environment","lens":"built_environment","confidence":"documented","source_ids":["buis-pvji"],"affected_area_label":"Manhattan","explanation":"LPC designation record for Saint Vincent Ferrer Priory and School; designation date is taken from the source desdate field."},"geometry":{"type":"Point","coordinates":[-73.964602,40.766092]}},{"type":"Feature","id":"nyc_lpc_individual_landmark_520","properties":{"city_id":"nyc","event_id":"nyc_lpc_individual_landmark_520","title":"Individual landmark designated: 166 East 73rd Street Carriage House","subtitle":"Manhattan / 1981-05-12 / Documented / Individual Landmark Sites","details":"LPC designation record for 166 East 73rd Street Carriage House; designation date is taken from the source desdate field.","year":1981,"effective_date":"1981-05-12","date_precision":"day","short_description":"LPC individual landmark site LP-01229; status Designated; type Individual Landmark; alternate name not stated.","category":"built_environment","lens":"built_environment","confidence":"documented","source_ids":["buis-pvji"],"affected_area_label":"Manhattan","explanation":"LPC designation record for 166 East 73rd Street Carriage House; designation date is taken from the source desdate field."},"geometry":{"type":"Point","coordinates":[-73.961226,40.770686]}},{"type":"Feature","id":"nyc_lpc_individual_landmark_522","properties":{"city_id":"nyc","event_id":"nyc_lpc_individual_landmark_522","title":"Individual landmark designated: 52 West 130th Street House","subtitle":"Manhattan / 1981-08-11 / Documented / Individual Landmark Sites","details":"LPC designation record for 52 West 130th Street House; designation date is taken from the source desdate field.","year":1981,"effective_date":"1981-08-11","date_precision":"day","short_description":"LPC individual landmark site LP-01159; status Designated; type Individual Landmark; alternate name part of Astor Row.","category":"built_environment","lens":"built_environment","confidence":"documented","source_ids":["buis-pvji"],"affected_area_label":"Manhattan","explanation":"LPC designation record for 52 West 130th Street House; designation date is taken from the source desdate field."},"geometry":{"type":"Point","coordinates":[-73.942347,40.810376]}},{"type":"Feature","id":"nyc_lpc_individual_landmark_528","properties":{"city_id":"nyc","event_id":"nyc_lpc_individual_landmark_528","title":"Individual landmark designated: 24 West 130th Street House","subtitle":"Manhattan / 1981-08-11 / Documented / Individual Landmark Sites","details":"LPC designation record for 24 West 130th Street House; designation date is taken from the source desdate field.","year":1981,"effective_date":"1981-08-11","date_precision":"day","short_description":"LPC individual landmark site LP-01145; status Designated; type Individual Landmark; alternate name part of Astor Row.","category":"built_environment","lens":"built_environment","confidence":"documented","source_ids":["buis-pvji"],"affected_area_label":"Manhattan","explanation":"LPC designation record for 24 West 130th Street House; designation date is taken from the source desdate field."},"geometry":{"type":"Point","coordinates":[-73.941266,40.809888]}},{"type":"Feature","id":"nyc_lpc_individual_landmark_530","properties":{"city_id":"nyc","event_id":"nyc_lpc_individual_landmark_530","title":"Individual landmark designated: 54 West 130th Street House","subtitle":"Manhattan / 1981-08-11 / Documented / Individual Landmark Sites","details":"LPC designation record for 54 West 130th Street House; designation date is taken from the source desdate field.","year":1981,"effective_date":"1981-08-11","date_precision":"day","short_description":"LPC individual landmark site LP-01160; status Designated; type Individual Landmark; alternate name part of Astor Row.","category":"built_environment","lens":"built_environment","confidence":"documented","source_ids":["buis-pvji"],"affected_area_label":"Manhattan","explanation":"LPC designation record for 54 West 130th Street House; designation date is taken from the source desdate field."},"geometry":{"type":"Point","coordinates":[-73.942449,40.810387]}},{"type":"Feature","id":"nyc_lpc_individual_landmark_532","properties":{"city_id":"nyc","event_id":"nyc_lpc_individual_landmark_532","title":"Individual landmark designated: Saint Paul's Methodist Episcopal Church and Parish House","subtitle":"Manhattan / 1981-11-24 / Documented / Individual Landmark Sites","details":"LPC designation record for Saint Paul's Methodist Episcopal Church and Parish House; designation date is taken from the source desdate field.","year":1981,"effective_date":"1981-11-24","date_precision":"day","short_description":"LPC individual landmark site LP-01126; status Designated; type Individual Landmark; alternate name now the Church of Saint Paul and Saint Andrew.","category":"built_environment","lens":"built_environment","confidence":"documented","source_ids":["buis-pvji"],"affected_area_label":"Manhattan","explanation":"LPC designation record for Saint Paul's Methodist Episcopal Church and Parish House; designation date is taken from the source desdate field."},"geometry":{"type":"Point","coordinates":[-73.977215,40.788989]}},{"type":"Feature","id":"nyc_lpc_individual_landmark_554","properties":{"city_id":"nyc","event_id":"nyc_lpc_individual_landmark_554","title":"Individual landmark designated: Moses Allen and Alice Dunning Starr House","subtitle":"Manhattan / 1981-02-03 / Documented / Individual Landmark Sites","details":"LPC designation record for Moses Allen and Alice Dunning Starr House; designation date is taken from the source desdate field.","year":1981,"effective_date":"1981-02-03","date_precision":"day","short_description":"LPC individual landmark site LP-01101; status Designated; type Individual Landmark; alternate name now Petrola House, also known as the 5 West 54th Street House.","category":"built_environment","lens":"built_environment","confidence":"documented","source_ids":["buis-pvji"],"affected_area_label":"Manhattan","explanation":"LPC designation record for Moses Allen and Alice Dunning Starr House; designation date is taken from the source desdate field."},"geometry":{"type":"Point","coordinates":[-73.975951,40.761577]}},{"type":"Feature","id":"nyc_lpc_individual_landmark_555","properties":{"city_id":"nyc","event_id":"nyc_lpc_individual_landmark_555","title":"Individual landmark designated: Daily News Building","subtitle":"Manhattan / 1981-07-28 / Documented / Individual Landmark Sites","details":"LPC designation record for Daily News Building; designation date is taken from the source desdate field.","year":1981,"effective_date":"1981-07-28","date_precision":"day","short_description":"LPC individual landmark site LP-01049; status Designated; type Individual Landmark; alternate name not stated.","category":"built_environment","lens":"built_environment","confidence":"documented","source_ids":["buis-pvji"],"affected_area_label":"Manhattan","explanation":"LPC designation record for Daily News Building; designation date is taken from the source desdate field."},"geometry":{"type":"Point","coordinates":[-73.973327,40.74977]}},{"type":"Feature","id":"nyc_lpc_individual_landmark_562","properties":{"city_id":"nyc","event_id":"nyc_lpc_individual_landmark_562","title":"Individual landmark designated: Philip and Carrie Lehman House","subtitle":"Manhattan / 1981-02-03 / Documented / Individual Landmark Sites","details":"LPC designation record for Philip and Carrie Lehman House; designation date is taken from the source desdate field.","year":1981,"effective_date":"1981-02-03","date_precision":"day","short_description":"LPC individual landmark site LP-01102; status Designated; type Individual Landmark; alternate name also known as the 7 West 54th Street House.","category":"built_environment","lens":"built_environment","confidence":"documented","source_ids":["buis-pvji"],"affected_area_label":"Manhattan","explanation":"LPC designation record for Philip and Carrie Lehman House; designation date is taken from the source desdate field."},"geometry":{"type":"Point","coordinates":[-73.97605,40.761619]}},{"type":"Feature","id":"nyc_lpc_individual_landmark_569","properties":{"city_id":"nyc","event_id":"nyc_lpc_individual_landmark_569","title":"Individual landmark designated: 58 West 130th Street House","subtitle":"Manhattan / 1981-08-11 / Documented / Individual Landmark Sites","details":"LPC designation record for 58 West 130th Street House; designation date is taken from the source desdate field.","year":1981,"effective_date":"1981-08-11","date_precision":"day","short_description":"LPC individual landmark site LP-01162; status Designated; type Individual Landmark; alternate name part of Astor Row.","category":"built_environment","lens":"built_environment","confidence":"documented","source_ids":["buis-pvji"],"affected_area_label":"Manhattan","explanation":"LPC designation record for 58 West 130th Street House; designation date is taken from the source desdate field."},"geometry":{"type":"Point","coordinates":[-73.942585,40.810476]}},{"type":"Feature","id":"nyc_lpc_individual_landmark_571","properties":{"city_id":"nyc","event_id":"nyc_lpc_individual_landmark_571","title":"Individual landmark designated: 40 West 130th Street House","subtitle":"Manhattan / 1981-08-11 / Documented / Individual Landmark Sites","details":"LPC designation record for 40 West 130th Street House; designation date is taken from the source desdate field.","year":1981,"effective_date":"1981-08-11","date_precision":"day","short_description":"LPC individual landmark site LP-01153; status Designated; type Individual Landmark; alternate name part of Astor Row.","category":"built_environment","lens":"built_environment","confidence":"documented","source_ids":["buis-pvji"],"affected_area_label":"Manhattan","explanation":"LPC designation record for 40 West 130th Street House; designation date is taken from the source desdate field."},"geometry":{"type":"Point","coordinates":[-73.941875,40.810177]}},{"type":"Feature","id":"nyc_lpc_individual_landmark_584","properties":{"city_id":"nyc","event_id":"nyc_lpc_individual_landmark_584","title":"Individual landmark designated: 36 West 130th Street House","subtitle":"Manhattan / 1981-08-11 / Documented / Individual Landmark Sites","details":"LPC designation record for 36 West 130th Street House; designation date is taken from the source desdate field.","year":1981,"effective_date":"1981-08-11","date_precision":"day","short_description":"LPC individual landmark site LP-01151; status Designated; type Individual Landmark; alternate name part of Astor Row.","category":"built_environment","lens":"built_environment","confidence":"documented","source_ids":["buis-pvji"],"affected_area_label":"Manhattan","explanation":"LPC designation record for 36 West 130th Street House; designation date is taken from the source desdate field."},"geometry":{"type":"Point","coordinates":[-73.941714,40.810109]}},{"type":"Feature","id":"nyc_lpc_individual_landmark_616","properties":{"city_id":"nyc","event_id":"nyc_lpc_individual_landmark_616","title":"Individual landmark designated: 26 West 130th Street House","subtitle":"Manhattan / 1981-08-11 / Documented / Individual Landmark Sites","details":"LPC designation record for 26 West 130th Street House; designation date is taken from the source desdate field.","year":1981,"effective_date":"1981-08-11","date_precision":"day","short_description":"LPC individual landmark site LP-01146; status Designated; type Individual Landmark; alternate name part of Astor Row.","category":"built_environment","lens":"built_environment","confidence":"documented","source_ids":["buis-pvji"],"affected_area_label":"Manhattan","explanation":"LPC designation record for 26 West 130th Street House; designation date is taken from the source desdate field."},"geometry":{"type":"Point","coordinates":[-73.941341,40.80992]}},{"type":"Feature","id":"nyc_lpc_individual_landmark_622","properties":{"city_id":"nyc","event_id":"nyc_lpc_individual_landmark_622","title":"Individual landmark designated: 48 West 130th Street House","subtitle":"Manhattan / 1981-08-11 / Documented / Individual Landmark Sites","details":"LPC designation record for 48 West 130th Street House; designation date is taken from the source desdate field.","year":1981,"effective_date":"1981-08-11","date_precision":"day","short_description":"LPC individual landmark site LP-01157; status Designated; type Individual Landmark; alternate name part of Astor Row.","category":"built_environment","lens":"built_environment","confidence":"documented","source_ids":["buis-pvji"],"affected_area_label":"Manhattan","explanation":"LPC designation record for 48 West 130th Street House; designation date is taken from the source desdate field."},"geometry":{"type":"Point","coordinates":[-73.942189,40.810309]}},{"type":"Feature","id":"nyc_lpc_individual_landmark_624","properties":{"city_id":"nyc","event_id":"nyc_lpc_individual_landmark_624","title":"Individual landmark designated: Thatcher and Frances Adams House","subtitle":"Manhattan / 1981-05-19 / Documented / Individual Landmark Sites","details":"LPC designation record for Thatcher and Frances Adams House; designation date is taken from the source desdate field.","year":1981,"effective_date":"1981-05-19","date_precision":"day","short_description":"LPC individual landmark site LP-01073; status Designated; type Individual Landmark; alternate name also known as the 63 East 79th Street House.","category":"built_environment","lens":"built_environment","confidence":"documented","source_ids":["buis-pvji"],"affected_area_label":"Manhattan","explanation":"LPC designation record for Thatcher and Frances Adams House; designation date is taken from the source desdate field."},"geometry":{"type":"Point","coordinates":[-73.961223,40.7763]}},{"type":"Feature","id":"nyc_lpc_individual_landmark_625","properties":{"city_id":"nyc","event_id":"nyc_lpc_individual_landmark_625","title":"Individual landmark designated: 18 West 130th Street House","subtitle":"Manhattan / 1981-08-11 / Documented / Individual Landmark Sites","details":"LPC designation record for 18 West 130th Street House; designation date is taken from the source desdate field.","year":1981,"effective_date":"1981-08-11","date_precision":"day","short_description":"LPC individual landmark site LP-01142; status Designated; type Individual Landmark; alternate name part of Astor Row.","category":"built_environment","lens":"built_environment","confidence":"documented","source_ids":["buis-pvji"],"affected_area_label":"Manhattan","explanation":"LPC designation record for 18 West 130th Street House; designation date is taken from the source desdate field."},"geometry":{"type":"Point","coordinates":[-73.941023,40.809786]}},{"type":"Feature","id":"nyc_lpc_individual_landmark_630","properties":{"city_id":"nyc","event_id":"nyc_lpc_individual_landmark_630","title":"Individual landmark designated: New York Public Library, Schomburg Collection for Research in Black Culture","subtitle":"Manhattan / 1981-02-03 / Documented / Individual Landmark Sites","details":"LPC designation record for New York Public Library, Schomburg Collection for Research in Black Culture; designation date is taken from the source desdate field.","year":1981,"effective_date":"1981-02-03","date_precision":"day","short_description":"LPC individual landmark site LP-01133; status Designated; type Individual Landmark; alternate name originally 135th Street Branch.","category":"built_environment","lens":"built_environment","confidence":"documented","source_ids":["buis-pvji"],"affected_area_label":"Manhattan","explanation":"LPC designation record for New York Public Library, Schomburg Collection for Research in Black Culture; designation date is taken from the source desdate field."},"geometry":{"type":"Point","coordinates":[-73.941193,40.814759]}},{"type":"Feature","id":"nyc_lpc_individual_landmark_635","properties":{"city_id":"nyc","event_id":"nyc_lpc_individual_landmark_635","title":"Individual landmark designated: 38 West 130th Street House","subtitle":"Manhattan / 1981-08-11 / Documented / Individual Landmark Sites","details":"LPC designation record for 38 West 130th Street House; designation date is taken from the source desdate field.","year":1981,"effective_date":"1981-08-11","date_precision":"day","short_description":"LPC individual landmark site LP-01152; status Designated; type Individual Landmark; alternate name part of Astor Row.","category":"built_environment","lens":"built_environment","confidence":"documented","source_ids":["buis-pvji"],"affected_area_label":"Manhattan","explanation":"LPC designation record for 38 West 130th Street House; designation date is taken from the source desdate field."},"geometry":{"type":"Point","coordinates":[-73.941817,40.810121]}},{"type":"Feature","id":"nyc_lpc_individual_landmark_639","properties":{"city_id":"nyc","event_id":"nyc_lpc_individual_landmark_639","title":"Individual landmark designated: 22 West 130th Street House","subtitle":"Manhattan / 1981-08-11 / Documented / Individual Landmark Sites","details":"LPC designation record for 22 West 130th Street House; designation date is taken from the source desdate field.","year":1981,"effective_date":"1981-08-11","date_precision":"day","short_description":"LPC individual landmark site LP-01144; status Designated; type Individual Landmark; alternate name part of Astor Row.","category":"built_environment","lens":"built_environment","confidence":"documented","source_ids":["buis-pvji"],"affected_area_label":"Manhattan","explanation":"LPC designation record for 22 West 130th Street House; designation date is taken from the source desdate field."},"geometry":{"type":"Point","coordinates":[-73.941177,40.809851]}},{"type":"Feature","id":"nyc_lpc_individual_landmark_641","properties":{"city_id":"nyc","event_id":"nyc_lpc_individual_landmark_641","title":"Individual landmark designated: 10 West 130th Street House","subtitle":"Manhattan / 1981-08-11 / Documented / Individual Landmark Sites","details":"LPC designation record for 10 West 130th Street House; designation date is taken from the source desdate field.","year":1981,"effective_date":"1981-08-11","date_precision":"day","short_description":"LPC individual landmark site LP-01138; status Designated; type Individual Landmark; alternate name part of Astor Row.","category":"built_environment","lens":"built_environment","confidence":"documented","source_ids":["buis-pvji"],"affected_area_label":"Manhattan","explanation":"LPC designation record for 10 West 130th Street House; designation date is taken from the source desdate field."},"geometry":{"type":"Point","coordinates":[-73.940708,40.809653]}},{"type":"Feature","id":"nyc_lpc_individual_landmark_644","properties":{"city_id":"nyc","event_id":"nyc_lpc_individual_landmark_644","title":"Individual landmark designated: 20 West 130th Street House","subtitle":"Manhattan / 1981-08-11 / Documented / Individual Landmark Sites","details":"LPC designation record for 20 West 130th Street House; designation date is taken from the source desdate field.","year":1981,"effective_date":"1981-08-11","date_precision":"day","short_description":"LPC individual landmark site LP-01143; status Designated; type Individual Landmark; alternate name part of Astor Row.","category":"built_environment","lens":"built_environment","confidence":"documented","source_ids":["buis-pvji"],"affected_area_label":"Manhattan","explanation":"LPC designation record for 20 West 130th Street House; designation date is taken from the source desdate field."},"geometry":{"type":"Point","coordinates":[-73.941098,40.809818]}},{"type":"Feature","id":"nyc_lpc_individual_landmark_653","properties":{"city_id":"nyc","event_id":"nyc_lpc_individual_landmark_653","title":"Individual landmark designated: 8 West 130th Street House","subtitle":"Manhattan / 1981-08-11 / Documented / Individual Landmark Sites","details":"LPC designation record for 8 West 130th Street House; designation date is taken from the source desdate field.","year":1981,"effective_date":"1981-08-11","date_precision":"day","short_description":"LPC individual landmark site LP-01137; status Designated; type Individual Landmark; alternate name part of Astor Row.","category":"built_environment","lens":"built_environment","confidence":"documented","source_ids":["buis-pvji"],"affected_area_label":"Manhattan","explanation":"LPC designation record for 8 West 130th Street House; designation date is taken from the source desdate field."},"geometry":{"type":"Point","coordinates":[-73.940631,40.809621]}},{"type":"Feature","id":"nyc_lpc_individual_landmark_657","properties":{"city_id":"nyc","event_id":"nyc_lpc_individual_landmark_657","title":"Individual landmark designated: 15 West 54th Street House","subtitle":"Manhattan / 1981-02-03 / Documented / Individual Landmark Sites","details":"LPC designation record for 15 West 54th Street House; designation date is taken from the source desdate field.","year":1981,"effective_date":"1981-02-03","date_precision":"day","short_description":"LPC individual landmark site LP-01105; status Designated; type Individual Landmark; alternate name not stated.","category":"built_environment","lens":"built_environment","confidence":"documented","source_ids":["buis-pvji"],"affected_area_label":"Manhattan","explanation":"LPC designation record for 15 West 54th Street House; designation date is taken from the source desdate field."},"geometry":{"type":"Point","coordinates":[-73.976363,40.761728]}},{"type":"Feature","id":"nyc_lpc_individual_landmark_669","properties":{"city_id":"nyc","event_id":"nyc_lpc_individual_landmark_669","title":"Individual landmark designated: 34 West 130th Street House","subtitle":"Manhattan / 1981-08-11 / Documented / Individual Landmark Sites","details":"LPC designation record for 34 West 130th Street House; designation date is taken from the source desdate field.","year":1981,"effective_date":"1981-08-11","date_precision":"day","short_description":"LPC individual landmark site LP-01150; status Designated; type Individual Landmark; alternate name part of Astor Row.","category":"built_environment","lens":"built_environment","confidence":"documented","source_ids":["buis-pvji"],"affected_area_label":"Manhattan","explanation":"LPC designation record for 34 West 130th Street House; designation date is taken from the source desdate field."},"geometry":{"type":"Point","coordinates":[-73.941658,40.810054]}},{"type":"Feature","id":"nyc_lpc_individual_landmark_683","properties":{"city_id":"nyc","event_id":"nyc_lpc_individual_landmark_683","title":"Individual landmark designated: 30 West 130th Street House","subtitle":"Manhattan / 1981-08-11 / Documented / Individual Landmark Sites","details":"LPC designation record for 30 West 130th Street House; designation date is taken from the source desdate field.","year":1981,"effective_date":"1981-08-11","date_precision":"day","short_description":"LPC individual landmark site LP-01148; status Designated; type Individual Landmark; alternate name part of Astor Row.","category":"built_environment","lens":"built_environment","confidence":"documented","source_ids":["buis-pvji"],"affected_area_label":"Manhattan","explanation":"LPC designation record for 30 West 130th Street House; designation date is taken from the source desdate field."},"geometry":{"type":"Point","coordinates":[-73.941477,40.810009]}},{"type":"Feature","id":"nyc_lpc_individual_landmark_686","properties":{"city_id":"nyc","event_id":"nyc_lpc_individual_landmark_686","title":"Individual landmark designated: 28 West 130th Street House","subtitle":"Manhattan / 1981-08-11 / Documented / Individual Landmark Sites","details":"LPC designation record for 28 West 130th Street House; designation date is taken from the source desdate field.","year":1981,"effective_date":"1981-08-11","date_precision":"day","short_description":"LPC individual landmark site LP-01147; status Designated; type Individual Landmark; alternate name part of Astor Row.","category":"built_environment","lens":"built_environment","confidence":"documented","source_ids":["buis-pvji"],"affected_area_label":"Manhattan","explanation":"LPC designation record for 28 West 130th Street House; designation date is taken from the source desdate field."},"geometry":{"type":"Point","coordinates":[-73.941418,40.809953]}},{"type":"Feature","id":"nyc_lpc_individual_landmark_687","properties":{"city_id":"nyc","event_id":"nyc_lpc_individual_landmark_687","title":"Individual landmark designated: John H. and Caroline Iselin House","subtitle":"Manhattan / 1981-05-19 / Documented / Individual Landmark Sites","details":"LPC designation record for John H. and Caroline Iselin House; designation date is taken from the source desdate field.","year":1981,"effective_date":"1981-05-19","date_precision":"day","short_description":"LPC individual landmark site LP-01072; status Designated; type Individual Landmark; alternate name also known as the 59 East 79th Street House.","category":"built_environment","lens":"built_environment","confidence":"documented","source_ids":["buis-pvji"],"affected_area_label":"Manhattan","explanation":"LPC designation record for John H. and Caroline Iselin House; designation date is taken from the source desdate field."},"geometry":{"type":"Point","coordinates":[-73.961299,40.776332]}},{"type":"Feature","id":"nyc_lpc_individual_landmark_689","properties":{"city_id":"nyc","event_id":"nyc_lpc_individual_landmark_689","title":"Individual landmark designated: 50 West 130th Street House","subtitle":"Manhattan / 1981-08-11 / Documented / Individual Landmark Sites","details":"LPC designation record for 50 West 130th Street House; designation date is taken from the source desdate field.","year":1981,"effective_date":"1981-08-11","date_precision":"day","short_description":"LPC individual landmark site LP-01158; status Designated; type Individual Landmark; alternate name part of Astor Row.","category":"built_environment","lens":"built_environment","confidence":"documented","source_ids":["buis-pvji"],"affected_area_label":"Manhattan","explanation":"LPC designation record for 50 West 130th Street House; designation date is taken from the source desdate field."},"geometry":{"type":"Point","coordinates":[-73.942291,40.810321]}},{"type":"Feature","id":"nyc_lpc_individual_landmark_695","properties":{"city_id":"nyc","event_id":"nyc_lpc_individual_landmark_695","title":"Individual landmark designated: 16 West 130th Street House","subtitle":"Manhattan / 1981-08-11 / Documented / Individual Landmark Sites","details":"LPC designation record for 16 West 130th Street House; designation date is taken from the source desdate field.","year":1981,"effective_date":"1981-08-11","date_precision":"day","short_description":"LPC individual landmark site LP-01141; status Designated; type Individual Landmark; alternate name part of Astor Row.","category":"built_environment","lens":"built_environment","confidence":"documented","source_ids":["buis-pvji"],"affected_area_label":"Manhattan","explanation":"LPC designation record for 16 West 130th Street House; designation date is taken from the source desdate field."},"geometry":{"type":"Point","coordinates":[-73.940947,40.809754]}},{"type":"Feature","id":"nyc_lpc_individual_landmark_697","properties":{"city_id":"nyc","event_id":"nyc_lpc_individual_landmark_697","title":"Individual landmark designated: 14 West 130th Street House","subtitle":"Manhattan / 1981-08-11 / Documented / Individual Landmark Sites","details":"LPC designation record for 14 West 130th Street House; designation date is taken from the source desdate field.","year":1981,"effective_date":"1981-08-11","date_precision":"day","short_description":"LPC individual landmark site LP-01140; status Designated; type Individual Landmark; alternate name part of Astor Row.","category":"built_environment","lens":"built_environment","confidence":"documented","source_ids":["buis-pvji"],"affected_area_label":"Manhattan","explanation":"LPC designation record for 14 West 130th Street House; designation date is taken from the source desdate field."},"geometry":{"type":"Point","coordinates":[-73.940862,40.809718]}},{"type":"Feature","id":"nyc_lpc_individual_landmark_713","properties":{"city_id":"nyc","event_id":"nyc_lpc_individual_landmark_713","title":"Individual landmark designated: James J. and Josephine Goodwin Residence","subtitle":"Manhattan / 1981-02-03 / Documented / Individual Landmark Sites","details":"LPC designation record for James J. and Josephine Goodwin Residence; designation date is taken from the source desdate field.","year":1981,"effective_date":"1981-02-03","date_precision":"day","short_description":"LPC individual landmark site LP-01103; status Designated; type Individual Landmark; alternate name now U.S. Trust Company, also known as the 9-11 West 54th Street House.","category":"built_environment","lens":"built_environment","confidence":"documented","source_ids":["buis-pvji"],"affected_area_label":"Manhattan","explanation":"LPC designation record for James J. and Josephine Goodwin Residence; designation date is taken from the source desdate field."},"geometry":{"type":"Point","coordinates":[-73.976154,40.761679]}},{"type":"Feature","id":"nyc_lpc_individual_landmark_718","properties":{"city_id":"nyc","event_id":"nyc_lpc_individual_landmark_718","title":"Individual landmark designated: 42 West 130th Street House","subtitle":"Manhattan / 1981-08-11 / Documented / Individual Landmark Sites","details":"LPC designation record for 42 West 130th Street House; designation date is taken from the source desdate field.","year":1981,"effective_date":"1981-08-11","date_precision":"day","short_description":"LPC individual landmark site LP-01154; status Designated; type Individual Landmark; alternate name part of Astor Row.","category":"built_environment","lens":"built_environment","confidence":"documented","source_ids":["buis-pvji"],"affected_area_label":"Manhattan","explanation":"LPC designation record for 42 West 130th Street House; designation date is taken from the source desdate field."},"geometry":{"type":"Point","coordinates":[-73.941975,40.810187]}},{"type":"Feature","id":"nyc_lpc_individual_landmark_734","properties":{"city_id":"nyc","event_id":"nyc_lpc_individual_landmark_734","title":"Individual landmark designated: 46 West 130th Street House","subtitle":"Manhattan / 1981-08-11 / Documented / Individual Landmark Sites","details":"LPC designation record for 46 West 130th Street House; designation date is taken from the source desdate field.","year":1981,"effective_date":"1981-08-11","date_precision":"day","short_description":"LPC individual landmark site LP-01156; status Designated; type Individual Landmark; alternate name part of Astor Row.","category":"built_environment","lens":"built_environment","confidence":"documented","source_ids":["buis-pvji"],"affected_area_label":"Manhattan","explanation":"LPC designation record for 46 West 130th Street House; designation date is taken from the source desdate field."},"geometry":{"type":"Point","coordinates":[-73.942133,40.810254]}},{"type":"Feature","id":"nyc_lpc_individual_landmark_738","properties":{"city_id":"nyc","event_id":"nyc_lpc_individual_landmark_738","title":"Individual landmark designated: 44 West 130th Street House","subtitle":"Manhattan / 1981-08-11 / Documented / Individual Landmark Sites","details":"LPC designation record for 44 West 130th Street House; designation date is taken from the source desdate field.","year":1981,"effective_date":"1981-08-11","date_precision":"day","short_description":"LPC individual landmark site LP-01155; status Designated; type Individual Landmark; alternate name part of Astor Row.","category":"built_environment","lens":"built_environment","confidence":"documented","source_ids":["buis-pvji"],"affected_area_label":"Manhattan","explanation":"LPC designation record for 44 West 130th Street House; designation date is taken from the source desdate field."},"geometry":{"type":"Point","coordinates":[-73.942031,40.810243]}},{"type":"Feature","id":"nyc_lpc_individual_landmark_758","properties":{"city_id":"nyc","event_id":"nyc_lpc_individual_landmark_758","title":"Individual landmark designated: 60 West 130th Street House","subtitle":"Manhattan / 1981-08-11 / Documented / Individual Landmark Sites","details":"LPC designation record for 60 West 130th Street House; designation date is taken from the source desdate field.","year":1981,"effective_date":"1981-08-11","date_precision":"day","short_description":"LPC individual landmark site LP-01163; status Designated; type Individual Landmark; alternate name part of Astor Row.","category":"built_environment","lens":"built_environment","confidence":"documented","source_ids":["buis-pvji"],"affected_area_label":"Manhattan","explanation":"LPC designation record for 60 West 130th Street House; designation date is taken from the source desdate field."},"geometry":{"type":"Point","coordinates":[-73.942716,40.810468]}},{"type":"Feature","id":"nyc_lpc_individual_landmark_77","properties":{"city_id":"nyc","event_id":"nyc_lpc_individual_landmark_77","title":"Individual landmark designated: Remsen Cemetery","subtitle":"Queens / 1981-05-26 / Documented / Individual Landmark Sites","details":"LPC designation record for Remsen Cemetery; designation date is taken from the source desdate field.","year":1981,"effective_date":"1981-05-26","date_precision":"day","short_description":"LPC individual landmark site LP-01177; status Designated; type Individual Landmark; alternate name not stated.","category":"built_environment","lens":"built_environment","confidence":"documented","source_ids":["buis-pvji"],"affected_area_label":"Queens","explanation":"LPC designation record for Remsen Cemetery; designation date is taken from the source desdate field."},"geometry":{"type":"Point","coordinates":[-73.858456,40.712448]}},{"type":"Feature","id":"nyc_lpc_individual_landmark_781","properties":{"city_id":"nyc","event_id":"nyc_lpc_individual_landmark_781","title":"Individual landmark designated: Langston Hughes House","subtitle":"Manhattan / 1981-08-11 / Documented / Individual Landmark Sites","details":"LPC designation record for Langston Hughes House; designation date is taken from the source desdate field.","year":1981,"effective_date":"1981-08-11","date_precision":"day","short_description":"LPC individual landmark site LP-01135; status Designated; type Individual Landmark; alternate name not stated.","category":"built_environment","lens":"built_environment","confidence":"documented","source_ids":["buis-pvji"],"affected_area_label":"Manhattan","explanation":"LPC designation record for Langston Hughes House; designation date is taken from the source desdate field."},"geometry":{"type":"Point","coordinates":[-73.940563,40.807148]}},{"type":"Feature","id":"nyc_lpc_individual_landmark_804","properties":{"city_id":"nyc","event_id":"nyc_lpc_individual_landmark_804","title":"Individual landmark designated: 13 West 54th Street House","subtitle":"Manhattan / 1981-02-03 / Documented / Individual Landmark Sites","details":"LPC designation record for 13 West 54th Street House; designation date is taken from the source desdate field.","year":1981,"effective_date":"1981-02-03","date_precision":"day","short_description":"LPC individual landmark site LP-01104; status Designated; type Individual Landmark; alternate name not stated.","category":"built_environment","lens":"built_environment","confidence":"documented","source_ids":["buis-pvji"],"affected_area_label":"Manhattan","explanation":"LPC designation record for 13 West 54th Street House; designation date is taken from the source desdate field."},"geometry":{"type":"Point","coordinates":[-73.97627,40.761712]}},{"type":"Feature","id":"nyc_lpc_individual_landmark_809","properties":{"city_id":"nyc","event_id":"nyc_lpc_individual_landmark_809","title":"Individual landmark designated: 32 West 130th Street House","subtitle":"Manhattan / 1981-08-11 / Documented / Individual Landmark Sites","details":"LPC designation record for 32 West 130th Street House; designation date is taken from the source desdate field.","year":1981,"effective_date":"1981-08-11","date_precision":"day","short_description":"LPC individual landmark site LP-01149; status Designated; type Individual Landmark; alternate name part of Astor Row.","category":"built_environment","lens":"built_environment","confidence":"documented","source_ids":["buis-pvji"],"affected_area_label":"Manhattan","explanation":"LPC designation record for 32 West 130th Street House; designation date is taken from the source desdate field."},"geometry":{"type":"Point","coordinates":[-73.941569,40.810016]}},{"type":"Feature","id":"nyc_lpc_individual_landmark_844","properties":{"city_id":"nyc","event_id":"nyc_lpc_individual_landmark_844","title":"Individual landmark designated: First Free Congregational Church","subtitle":"Brooklyn / 1981-11-24 / Documented / Individual Landmark Sites","details":"LPC designation record for First Free Congregational Church; designation date is taken from the source desdate field.","year":1981,"effective_date":"1981-11-24","date_precision":"day","short_description":"LPC individual landmark site LP-02004; status Designated; type Individual Landmark; alternate name later the Bridge Street African Wesleyan Methodist Episcopal Church, now part of Polytechnic Institute of New York...","category":"built_environment","lens":"built_environment","confidence":"documented","source_ids":["buis-pvji"],"affected_area_label":"Brooklyn","explanation":"LPC designation record for First Free Congregational Church; designation date is taken from the source desdate field."},"geometry":{"type":"Point","coordinates":[-73.984846,40.694304]}},{"type":"Feature","id":"nyc_lpc_individual_landmark_870","properties":{"city_id":"nyc","event_id":"nyc_lpc_individual_landmark_870","title":"Individual landmark designated: Lincoln Club","subtitle":"Brooklyn / 1981-05-12 / Documented / Individual Landmark Sites","details":"LPC designation record for Lincoln Club; designation date is taken from the source desdate field.","year":1981,"effective_date":"1981-05-12","date_precision":"day","short_description":"LPC individual landmark site LP-02015; status Designated; type Individual Landmark; alternate name now Mechanics Temple, Independent Order of Mechanics of the Western Hemisphere.","category":"built_environment","lens":"built_environment","confidence":"documented","source_ids":["buis-pvji"],"affected_area_label":"Brooklyn","explanation":"LPC designation record for Lincoln Club; designation date is taken from the source desdate field."},"geometry":{"type":"Point","coordinates":[-73.959342,40.683267]}},{"type":"Feature","id":"nyc_lpc_individual_landmark_872","properties":{"city_id":"nyc","event_id":"nyc_lpc_individual_landmark_872","title":"Individual landmark designated: Pratt Row Houses","subtitle":"Brooklyn / 1981-12-22 / Documented / Individual Landmark Sites","details":"LPC designation record for Pratt Row Houses; designation date is taken from the source desdate field.","year":1981,"effective_date":"1981-12-22","date_precision":"day","short_description":"LPC individual landmark site LP-02012; status Designated; type Individual Landmark; alternate name not stated.","category":"built_environment","lens":"built_environment","confidence":"documented","source_ids":["buis-pvji"],"affected_area_label":"Brooklyn","explanation":"LPC designation record for Pratt Row Houses; designation date is taken from the source desdate field."},"geometry":{"type":"Point","coordinates":[-73.962074,40.692085]}},{"type":"Feature","id":"nyc_lpc_individual_landmark_884","properties":{"city_id":"nyc","event_id":"nyc_lpc_individual_landmark_884","title":"Individual landmark designated: Saint Luke's Episcopal Church","subtitle":"Brooklyn / 1981-05-12 / Documented / Individual Landmark Sites","details":"LPC designation record for Saint Luke's Episcopal Church; designation date is taken from the source desdate field.","year":1981,"effective_date":"1981-05-12","date_precision":"day","short_description":"LPC individual landmark site LP-02014; status Designated; type Individual Landmark; alternate name now the Church of Saint Luke and Saint Matthew.","category":"built_environment","lens":"built_environment","confidence":"documented","source_ids":["buis-pvji"],"affected_area_label":"Brooklyn","explanation":"LPC designation record for Saint Luke's Episcopal Church; designation date is taken from the source desdate field."},"geometry":{"type":"Point","coordinates":[-73.967238,40.682596]}},{"type":"Feature","id":"nyc_lpc_individual_landmark_886","properties":{"city_id":"nyc","event_id":"nyc_lpc_individual_landmark_886","title":"Individual landmark designated: Royal Castle Apartments","subtitle":"Brooklyn / 1981-12-22 / Documented / Individual Landmark Sites","details":"LPC designation record for Royal Castle Apartments; designation date is taken from the source desdate field.","year":1981,"effective_date":"1981-12-22","date_precision":"day","short_description":"LPC individual landmark site LP-02016; status Designated; type Individual Landmark; alternate name not stated.","category":"built_environment","lens":"built_environment","confidence":"documented","source_ids":["buis-pvji"],"affected_area_label":"Brooklyn","explanation":"LPC designation record for Royal Castle Apartments; designation date is taken from the source desdate field."},"geometry":{"type":"Point","coordinates":[-73.967355,40.684043]}},{"type":"Feature","id":"nyc_lpc_individual_landmark_898","properties":{"city_id":"nyc","event_id":"nyc_lpc_individual_landmark_898","title":"Individual landmark designated: Public School 71K","subtitle":"Brooklyn / 1981-02-03 / Documented / Individual Landmark Sites","details":"LPC designation record for Public School 71K; designation date is taken from the source desdate field.","year":1981,"effective_date":"1981-02-03","date_precision":"day","short_description":"LPC individual landmark site LP-02006; status Designated; type Individual Landmark; alternate name now the Beth Jacob School.","category":"built_environment","lens":"built_environment","confidence":"documented","source_ids":["buis-pvji"],"affected_area_label":"Brooklyn","explanation":"LPC designation record for Public School 71K; designation date is taken from the source desdate field."},"geometry":{"type":"Point","coordinates":[-73.956596,40.701804]}},{"type":"Feature","id":"nyc_lpc_individual_landmark_900","properties":{"city_id":"nyc","event_id":"nyc_lpc_individual_landmark_900","title":"Individual landmark designated: Public School 65K","subtitle":"Brooklyn / 1981-02-03 / Documented / Individual Landmark Sites","details":"LPC designation record for Public School 65K; designation date is taken from the source desdate field.","year":1981,"effective_date":"1981-02-03","date_precision":"day","short_description":"LPC individual landmark site LP-02007; status Designated; type Individual Landmark; alternate name not stated.","category":"built_environment","lens":"built_environment","confidence":"documented","source_ids":["buis-pvji"],"affected_area_label":"Brooklyn","explanation":"LPC designation record for Public School 65K; designation date is taken from the source desdate field."},"geometry":{"type":"Point","coordinates":[-73.877321,40.683373]}},{"type":"Feature","id":"nyc_lpc_individual_landmark_903","properties":{"city_id":"nyc","event_id":"nyc_lpc_individual_landmark_903","title":"Individual landmark designated: Public School 108","subtitle":"Brooklyn / 1981-02-03 / Documented / Individual Landmark Sites","details":"LPC designation record for Public School 108; designation date is taken from the source desdate field.","year":1981,"effective_date":"1981-02-03","date_precision":"day","short_description":"LPC individual landmark site LP-02008; status Designated; type Individual Landmark; alternate name not stated.","category":"built_environment","lens":"built_environment","confidence":"documented","source_ids":["buis-pvji"],"affected_area_label":"Brooklyn","explanation":"LPC designation record for Public School 108; designation date is taken from the source desdate field."},"geometry":{"type":"Point","coordinates":[-73.884462,40.681297]}},{"type":"Feature","id":"nyc_lpc_individual_landmark_926","properties":{"city_id":"nyc","event_id":"nyc_lpc_individual_landmark_926","title":"Individual landmark designated: New England Congregational Church","subtitle":"Brooklyn / 1981-11-24 / Documented / Individual Landmark Sites","details":"LPC designation record for New England Congregational Church; designation date is taken from the source desdate field.","year":1981,"effective_date":"1981-11-24","date_precision":"day","short_description":"LPC individual landmark site LP-02009; status Designated; type Individual Landmark; alternate name now Light of the World Church.","category":"built_environment","lens":"built_environment","confidence":"documented","source_ids":["buis-pvji"],"affected_area_label":"Brooklyn","explanation":"LPC designation record for New England Congregational Church; designation date is taken from the source desdate field."},"geometry":{"type":"Point","coordinates":[-73.961846,40.708773]}},{"type":"Feature","id":"nyc_lpc_individual_landmark_933","properties":{"city_id":"nyc","event_id":"nyc_lpc_individual_landmark_933","title":"Individual landmark designated: Peter S. Hoe House, Sunnyslope","subtitle":"Bronx / 1981-07-28 / Documented / Individual Landmark Sites","details":"LPC designation record for Peter S. Hoe House, Sunnyslope; designation date is taken from the source desdate field.","year":1981,"effective_date":"1981-07-28","date_precision":"day","short_description":"LPC individual landmark site LP-01079; status Designated; type Individual Landmark; alternate name later Temple Beth Elohim, now the Bright Temple A.M.E. Church.","category":"built_environment","lens":"built_environment","confidence":"documented","source_ids":["buis-pvji"],"affected_area_label":"Bronx","explanation":"LPC designation record for Peter S. Hoe House, Sunnyslope; designation date is taken from the source desdate field."},"geometry":{"type":"Point","coordinates":[-73.886778,40.817254]}},{"type":"Feature","id":"nyc_lpc_individual_landmark_941","properties":{"city_id":"nyc","event_id":"nyc_lpc_individual_landmark_941","title":"Individual landmark designated: Bronx Borough Courthouse","subtitle":"Bronx / 1981-07-28 / Documented / Individual Landmark Sites","details":"LPC designation record for Bronx Borough Courthouse; designation date is taken from the source desdate field.","year":1981,"effective_date":"1981-07-28","date_precision":"day","short_description":"LPC individual landmark site LP-01076; status Designated; type Individual Landmark; alternate name not stated.","category":"built_environment","lens":"built_environment","confidence":"documented","source_ids":["buis-pvji"],"affected_area_label":"Bronx","explanation":"LPC designation record for Bronx Borough Courthouse; designation date is taken from the source desdate field."},"geometry":{"type":"Point","coordinates":[-73.910133,40.822848]}},{"type":"Feature","id":"nyc_lpc_individual_landmark_944","properties":{"city_id":"nyc","event_id":"nyc_lpc_individual_landmark_944","title":"Individual landmark designated: Park Plaza Apartments","subtitle":"Bronx / 1981-05-12 / Documented / Individual Landmark Sites","details":"LPC designation record for Park Plaza Apartments; designation date is taken from the source desdate field.","year":1981,"effective_date":"1981-05-12","date_precision":"day","short_description":"LPC individual landmark site LP-01077; status Designated; type Individual Landmark; alternate name not stated.","category":"built_environment","lens":"built_environment","confidence":"documented","source_ids":["buis-pvji"],"affected_area_label":"Bronx","explanation":"LPC designation record for Park Plaza Apartments; designation date is taken from the source desdate field."},"geometry":{"type":"Point","coordinates":[-73.926799,40.831774]}},{"type":"Feature","id":"nyc_lpc_individual_landmark_950","properties":{"city_id":"nyc","event_id":"nyc_lpc_individual_landmark_950","title":"Individual landmark designated: Public School 91","subtitle":"Bronx / 1981-08-25 / Documented / Individual Landmark Sites","details":"LPC designation record for Public School 91; designation date is taken from the source desdate field.","year":1981,"effective_date":"1981-08-25","date_precision":"day","short_description":"LPC individual landmark site LP-01179; status Designated; type Individual Landmark; alternate name now Public School 11.","category":"built_environment","lens":"built_environment","confidence":"documented","source_ids":["buis-pvji"],"affected_area_label":"Bronx","explanation":"LPC designation record for Public School 91; designation date is taken from the source desdate field."},"geometry":{"type":"Point","coordinates":[-73.925876,40.839847]}},{"type":"Feature","id":"nyc_lpc_individual_landmark_972","properties":{"city_id":"nyc","event_id":"nyc_lpc_individual_landmark_972","title":"Individual landmark designated: Spaulding Estate Coachman's House","subtitle":"Bronx / 1981-07-28 / Documented / Individual Landmark Sites","details":"LPC designation record for Spaulding Estate Coachman's House; designation date is taken from the source desdate field.","year":1981,"effective_date":"1981-07-28","date_precision":"day","short_description":"LPC individual landmark site LP-01083; status Designated; type Individual Landmark; alternate name not stated.","category":"built_environment","lens":"built_environment","confidence":"documented","source_ids":["buis-pvji"],"affected_area_label":"Bronx","explanation":"LPC designation record for Spaulding Estate Coachman's House; designation date is taken from the source desdate field."},"geometry":{"type":"Point","coordinates":[-73.910637,40.898454]}},{"type":"Feature","id":"nyc_lpc_individual_landmark_973","properties":{"city_id":"nyc","event_id":"nyc_lpc_individual_landmark_973","title":"Individual landmark designated: 175 Belden Street House","subtitle":"Bronx / 1981-07-28 / Documented / Individual Landmark Sites","details":"LPC designation record for 175 Belden Street House; designation date is taken from the source desdate field.","year":1981,"effective_date":"1981-07-28","date_precision":"day","short_description":"LPC individual landmark site LP-01082; status Designated; type Individual Landmark; alternate name not stated.","category":"built_environment","lens":"built_environment","confidence":"documented","source_ids":["buis-pvji"],"affected_area_label":"Bronx","explanation":"LPC designation record for 175 Belden Street House; designation date is taken from the source desdate field."},"geometry":{"type":"Point","coordinates":[-73.781598,40.838651]}},{"type":"Feature","id":"nyc_lpc_individual_landmark_978","properties":{"city_id":"nyc","event_id":"nyc_lpc_individual_landmark_978","title":"Individual landmark designated: High Pumping Station","subtitle":"Bronx / 1981-07-28 / Documented / Individual Landmark Sites","details":"LPC designation record for High Pumping Station; designation date is taken from the source desdate field.","year":1981,"effective_date":"1981-07-28","date_precision":"day","short_description":"LPC individual landmark site LP-01080; status Designated; type Individual Landmark; alternate name not stated.","category":"built_environment","lens":"built_environment","confidence":"documented","source_ids":["buis-pvji"],"affected_area_label":"Bronx","explanation":"LPC designation record for High Pumping Station; designation date is taken from the source desdate field."},"geometry":{"type":"Point","coordinates":[-73.886604,40.878548]}},{"type":"Feature","id":"nyc_parks_property_169455","properties":{"city_id":"nyc","event_id":"nyc_parks_property_169455","title":"Parks property acquisition: Queens Farm Park","subtitle":"Queens / 1981-06-23 / Documented / Parks Properties","details":"Parks property record with acquisition date for Queens Farm Park.","year":1981,"effective_date":"1981-06-23","date_precision":"day","short_description":"NYC Parks property record for Queens Farm Park; type Managed Sites; acres 47.08; waterfront=False.","category":"environment","lens":"green_space","confidence":"documented","source_ids":["enfh-gkve"],"affected_area_label":"Queens","explanation":"Parks property record with acquisition date for Queens Farm Park."},"geometry":{"type":"Point","coordinates":[-73.721271,40.748402]}},{"type":"Feature","id":"nyc_parks_property_170482","properties":{"city_id":"nyc","event_id":"nyc_parks_property_170482","title":"Parks property acquisition: University Place","subtitle":"Brooklyn / 1981-04-05 / Documented / Parks Properties","details":"Parks property record with acquisition date for University Place.","year":1981,"effective_date":"1981-04-05","date_precision":"day","short_description":"NYC Parks property record for University Place; type Triangle/Plaza; acres 1.161; waterfront=False.","category":"environment","lens":"green_space","confidence":"documented","source_ids":["enfh-gkve"],"affected_area_label":"Brooklyn","explanation":"Parks property record with acquisition date for University Place."},"geometry":{"type":"Point","coordinates":[-73.981635,40.691081]}},{"type":"Feature","id":"nyc_parks_property_170650","properties":{"city_id":"nyc","event_id":"nyc_parks_property_170650","title":"Parks property acquisition: Septuagesimo UNO","subtitle":"Manhattan / 1981-05-26 / Documented / Parks Properties","details":"Parks property record with acquisition date for Septuagesimo UNO.","year":1981,"effective_date":"1981-05-26","date_precision":"day","short_description":"NYC Parks property record for Septuagesimo UNO; type Triangle/Plaza; acres 0.04; waterfront=False.","category":"environment","lens":"green_space","confidence":"documented","source_ids":["enfh-gkve"],"affected_area_label":"Manhattan","explanation":"Parks property record with acquisition date for Septuagesimo UNO."},"geometry":{"type":"Point","coordinates":[-73.984343,40.778617]}},{"type":"Feature","id":"nyc_parks_property_170850","properties":{"city_id":"nyc","event_id":"nyc_parks_property_170850","title":"Parks property acquisition: Jackie Robinson Park Playground","subtitle":"Brooklyn / 1981-05-19 / Documented / Parks Properties","details":"Parks property record with acquisition date for Jackie Robinson Park Playground.","year":1981,"effective_date":"1981-05-19","date_precision":"day","short_description":"NYC Parks property record for Jackie Robinson Park Playground; type Jointly Operated Playground; acres 1.774; waterfront=False.","category":"environment","lens":"green_space","confidence":"documented","source_ids":["enfh-gkve"],"affected_area_label":"Brooklyn","explanation":"Parks property record with acquisition date for Jackie Robinson Park Playground."},"geometry":{"type":"Point","coordinates":[-73.92808,40.6802]}},{"type":"Feature","id":"nyc_parks_property_170961","properties":{"city_id":"nyc","event_id":"nyc_parks_property_170961","title":"Parks property acquisition: Ambrosini Field","subtitle":"Bronx / 1981-05-05 / Documented / Parks Properties","details":"Parks property record with acquisition date for Ambrosini Field.","year":1981,"effective_date":"1981-05-05","date_precision":"day","short_description":"NYC Parks property record for Ambrosini Field; type Recreational Field/Courts; acres 6.1; waterfront=True.","category":"environment","lens":"green_space","confidence":"documented","source_ids":["enfh-gkve"],"affected_area_label":"Bronx","explanation":"Parks property record with acquisition date for Ambrosini Field."},"geometry":{"type":"Point","coordinates":[-73.783751,40.844215]}},{"type":"Feature","id":"nyc_parks_property_170987","properties":{"city_id":"nyc","event_id":"nyc_parks_property_170987","title":"Parks property acquisition: Floyd Patterson Ballfields","subtitle":"Brooklyn / 1981-06-24 / Documented / Parks Properties","details":"Parks property record with acquisition date for Floyd Patterson Ballfields.","year":1981,"effective_date":"1981-06-24","date_precision":"day","short_description":"NYC Parks property record for Floyd Patterson Ballfields; type Recreational Field/Courts; acres 2.3; waterfront=False.","category":"environment","lens":"green_space","confidence":"documented","source_ids":["enfh-gkve"],"affected_area_label":"Brooklyn","explanation":"Parks property record with acquisition date for Floyd Patterson Ballfields."},"geometry":{"type":"Point","coordinates":[-73.90398,40.660752]}}],"map_feature_count":91,"withheld_geometry_event_count":0}
