{"type":"FeatureCollection","schema_version":"1.0.0","city_id":"nyc","year":1887,"features":[{"type":"Feature","id":"nyc_parks_property_170825","properties":{"city_id":"nyc","event_id":"nyc_parks_property_170825","title":"Parks property acquisition: Verdi Square","year":1887,"effective_date":"1887-11-14","date_precision":"day","category":"environment","lens":"green_space","confidence":"documented","source_ids":["enfh-gkve"],"explanation":"Parks property record with acquisition date for Verdi Square."},"geometry":{"type":"Point","coordinates":[-73.98143,40.779244]}}]}
