{"type":"FeatureCollection","schema_version":"1.0.0","city_id":"nyc","year":1953,"features":[{"type":"Feature","id":"nyc_parks_property_169134","properties":{"city_id":"nyc","event_id":"nyc_parks_property_169134","title":"Parks property acquisition: Butterfly Gardens","year":1953,"effective_date":"1953-07-22","date_precision":"day","category":"environment","lens":"green_space","confidence":"documented","source_ids":["enfh-gkve"],"explanation":"Parks property record with acquisition date for Butterfly Gardens."},"geometry":{"type":"Point","coordinates":[-73.986584,40.660216]}},{"type":"Feature","id":"nyc_parks_property_169154","properties":{"city_id":"nyc","event_id":"nyc_parks_property_169154","title":"Parks property acquisition: Marlboro Playground","year":1953,"effective_date":"1953-10-31","date_precision":"day","category":"environment","lens":"green_space","confidence":"documented","source_ids":["enfh-gkve"],"explanation":"Parks property record with acquisition date for Marlboro Playground."},"geometry":{"type":"Point","coordinates":[-73.980736,40.591169]}},{"type":"Feature","id":"nyc_parks_property_169182","properties":{"city_id":"nyc","event_id":"nyc_parks_property_169182","title":"Parks property acquisition: Nautilus Playground","year":1953,"effective_date":"1953-05-14","date_precision":"day","category":"environment","lens":"green_space","confidence":"documented","source_ids":["enfh-gkve"],"explanation":"Parks property record with acquisition date for Nautilus Playground."},"geometry":{"type":"Point","coordinates":[-73.99622,40.571724]}},{"type":"Feature","id":"nyc_parks_property_169380","properties":{"city_id":"nyc","event_id":"nyc_parks_property_169380","title":"Parks property acquisition: Naples Playground","year":1953,"effective_date":"1953-02-19","date_precision":"day","category":"environment","lens":"green_space","confidence":"documented","source_ids":["enfh-gkve"],"explanation":"Parks property record with acquisition date for Naples Playground."},"geometry":{"type":"Point","coordinates":[-74.09003,40.602178]}},{"type":"Feature","id":"nyc_parks_property_169730","properties":{"city_id":"nyc","event_id":"nyc_parks_property_169730","title":"Parks property acquisition: Park","year":1953,"effective_date":"1953-12-29","date_precision":"day","category":"environment","lens":"green_space","confidence":"documented","source_ids":["enfh-gkve"],"explanation":"Parks property record with acquisition date for Park."},"geometry":{"type":"Point","coordinates":[-73.874985,40.731013]}},{"type":"Feature","id":"nyc_parks_property_169731","properties":{"city_id":"nyc","event_id":"nyc_parks_property_169731","title":"Parks property acquisition: Hoffman Park","year":1953,"effective_date":"1953-06-01","date_precision":"day","category":"environment","lens":"green_space","confidence":"documented","source_ids":["enfh-gkve"],"explanation":"Parks property record with acquisition date for Hoffman Park."},"geometry":{"type":"Point","coordinates":[-73.872039,40.732699]}},{"type":"Feature","id":"nyc_parks_property_169782","properties":{"city_id":"nyc","event_id":"nyc_parks_property_169782","title":"Parks property acquisition: Park","year":1953,"effective_date":"1953-07-22","date_precision":"day","category":"environment","lens":"green_space","confidence":"documented","source_ids":["enfh-gkve"],"explanation":"Parks property record with acquisition date for Park."},"geometry":{"type":"Point","coordinates":[-73.988526,40.661641]}},{"type":"Feature","id":"nyc_parks_property_169783","properties":{"city_id":"nyc","event_id":"nyc_parks_property_169783","title":"Parks property acquisition: Detective Joseph Mayrose Park","year":1953,"effective_date":"1953-07-22","date_precision":"day","category":"environment","lens":"green_space","confidence":"documented","source_ids":["enfh-gkve"],"explanation":"Parks property record with acquisition date for Detective Joseph Mayrose Park."},"geometry":{"type":"Point","coordinates":[-73.987919,40.661889]}},{"type":"Feature","id":"nyc_parks_property_169858","properties":{"city_id":"nyc","event_id":"nyc_parks_property_169858","title":"Parks property acquisition: Park","year":1953,"effective_date":"1953-01-17","date_precision":"day","category":"environment","lens":"green_space","confidence":"documented","source_ids":["enfh-gkve"],"explanation":"Parks property record with acquisition date for Park."},"geometry":{"type":"Point","coordinates":[-74.113168,40.611864]}},{"type":"Feature","id":"nyc_parks_property_169859","properties":{"city_id":"nyc","event_id":"nyc_parks_property_169859","title":"Parks property acquisition: Park","year":1953,"effective_date":"1953-01-17","date_precision":"day","category":"environment","lens":"green_space","confidence":"documented","source_ids":["enfh-gkve"],"explanation":"Parks property record with acquisition date for Park."},"geometry":{"type":"Point","coordinates":[-74.113729,40.610312]}},{"type":"Feature","id":"nyc_parks_property_169860","properties":{"city_id":"nyc","event_id":"nyc_parks_property_169860","title":"Parks property acquisition: Bradys Pond Park","year":1953,"effective_date":"1953-01-17","date_precision":"day","category":"environment","lens":"green_space","confidence":"documented","source_ids":["enfh-gkve"],"explanation":"Parks property record with acquisition date for Bradys Pond Park."},"geometry":{"type":"Point","coordinates":[-74.078969,40.605163]}},{"type":"Feature","id":"nyc_parks_property_169866","properties":{"city_id":"nyc","event_id":"nyc_parks_property_169866","title":"Parks property acquisition: Park","year":1953,"effective_date":"1953-12-29","date_precision":"day","category":"environment","lens":"green_space","confidence":"documented","source_ids":["enfh-gkve"],"explanation":"Parks property record with acquisition date for Park."},"geometry":{"type":"Point","coordinates":[-73.876352,40.729862]}},{"type":"Feature","id":"nyc_parks_property_169868","properties":{"city_id":"nyc","event_id":"nyc_parks_property_169868","title":"Parks property acquisition: Park","year":1953,"effective_date":"1953-12-29","date_precision":"day","category":"environment","lens":"green_space","confidence":"documented","source_ids":["enfh-gkve"],"explanation":"Parks property record with acquisition date for Park."},"geometry":{"type":"Point","coordinates":[-73.87496,40.730382]}},{"type":"Feature","id":"nyc_parks_property_169869","properties":{"city_id":"nyc","event_id":"nyc_parks_property_169869","title":"Parks property acquisition: Park","year":1953,"effective_date":"1953-12-29","date_precision":"day","category":"environment","lens":"green_space","confidence":"documented","source_ids":["enfh-gkve"],"explanation":"Parks property record with acquisition date for Park."},"geometry":{"type":"Point","coordinates":[-73.879253,40.728737]}},{"type":"Feature","id":"nyc_parks_property_169934","properties":{"city_id":"nyc","event_id":"nyc_parks_property_169934","title":"Parks property acquisition: Strippoli Square","year":1953,"effective_date":"1953-05-14","date_precision":"day","category":"environment","lens":"green_space","confidence":"documented","source_ids":["enfh-gkve"],"explanation":"Parks property record with acquisition date for Strippoli Square."},"geometry":{"type":"Point","coordinates":[-73.907553,40.757193]}},{"type":"Feature","id":"nyc_parks_property_170051","properties":{"city_id":"nyc","event_id":"nyc_parks_property_170051","title":"Parks property acquisition: Crowley Playground","year":1953,"effective_date":"1953-12-29","date_precision":"day","category":"environment","lens":"green_space","confidence":"documented","source_ids":["enfh-gkve"],"explanation":"Parks property record with acquisition date for Crowley Playground."},"geometry":{"type":"Point","coordinates":[-73.879042,40.729816]}},{"type":"Feature","id":"nyc_parks_property_170053","properties":{"city_id":"nyc","event_id":"nyc_parks_property_170053","title":"Parks property acquisition: Peter Chahales Park","year":1953,"effective_date":"1953-12-29","date_precision":"day","category":"environment","lens":"green_space","confidence":"documented","source_ids":["enfh-gkve"],"explanation":"Parks property record with acquisition date for Peter Chahales Park."},"geometry":{"type":"Point","coordinates":[-73.894284,40.72487]}},{"type":"Feature","id":"nyc_parks_property_170063","properties":{"city_id":"nyc","event_id":"nyc_parks_property_170063","title":"Parks property acquisition: Park","year":1953,"effective_date":"1953-12-29","date_precision":"day","category":"environment","lens":"green_space","confidence":"documented","source_ids":["enfh-gkve"],"explanation":"Parks property record with acquisition date for Park."},"geometry":{"type":"Point","coordinates":[-73.876896,40.731058]}},{"type":"Feature","id":"nyc_parks_property_170065","properties":{"city_id":"nyc","event_id":"nyc_parks_property_170065","title":"Parks property acquisition: Hull Triangle","year":1953,"effective_date":"1953-12-29","date_precision":"day","category":"environment","lens":"green_space","confidence":"documented","source_ids":["enfh-gkve"],"explanation":"Parks property record with acquisition date for Hull Triangle."},"geometry":{"type":"Point","coordinates":[-73.901472,40.725424]}},{"type":"Feature","id":"nyc_parks_property_170067","properties":{"city_id":"nyc","event_id":"nyc_parks_property_170067","title":"Parks property acquisition: Park","year":1953,"effective_date":"1953-06-02","date_precision":"day","category":"environment","lens":"green_space","confidence":"documented","source_ids":["enfh-gkve"],"explanation":"Parks property record with acquisition date for Park."},"geometry":{"type":"Point","coordinates":[-73.917964,40.730948]}},{"type":"Feature","id":"nyc_parks_property_170068","properties":{"city_id":"nyc","event_id":"nyc_parks_property_170068","title":"Parks property acquisition: Technical Sergeant Thomas J. Davey Triangle","year":1953,"effective_date":"1953-12-29","date_precision":"day","category":"environment","lens":"green_space","confidence":"documented","source_ids":["enfh-gkve"],"explanation":"Parks property record with acquisition date for Technical Sergeant Thomas J. Davey Triangle."},"geometry":{"type":"Point","coordinates":[-73.900588,40.726385]}},{"type":"Feature","id":"nyc_parks_property_170101","properties":{"city_id":"nyc","event_id":"nyc_parks_property_170101","title":"Parks property acquisition: Park","year":1953,"effective_date":"1953-05-14","date_precision":"day","category":"environment","lens":"green_space","confidence":"documented","source_ids":["enfh-gkve"],"explanation":"Parks property record with acquisition date for Park."},"geometry":{"type":"Point","coordinates":[-73.885451,40.840312]}},{"type":"Feature","id":"nyc_parks_property_170102","properties":{"city_id":"nyc","event_id":"nyc_parks_property_170102","title":"Parks property acquisition: Park","year":1953,"effective_date":"1953-05-14","date_precision":"day","category":"environment","lens":"green_space","confidence":"documented","source_ids":["enfh-gkve"],"explanation":"Parks property record with acquisition date for Park."},"geometry":{"type":"Point","coordinates":[-73.887092,40.841222]}},{"type":"Feature","id":"nyc_parks_property_170154","properties":{"city_id":"nyc","event_id":"nyc_parks_property_170154","title":"Parks property acquisition: Fairmount Playground","year":1953,"effective_date":"1953-05-14","date_precision":"day","category":"environment","lens":"green_space","confidence":"documented","source_ids":["enfh-gkve"],"explanation":"Parks property record with acquisition date for Fairmount Playground."},"geometry":{"type":"Point","coordinates":[-73.889576,40.842741]}},{"type":"Feature","id":"nyc_parks_property_170155","properties":{"city_id":"nyc","event_id":"nyc_parks_property_170155","title":"Parks property acquisition: Park","year":1953,"effective_date":"1953-05-14","date_precision":"day","category":"environment","lens":"green_space","confidence":"documented","source_ids":["enfh-gkve"],"explanation":"Parks property record with acquisition date for Park."},"geometry":{"type":"Point","coordinates":[-73.888721,40.842177]}},{"type":"Feature","id":"nyc_parks_property_170156","properties":{"city_id":"nyc","event_id":"nyc_parks_property_170156","title":"Parks property acquisition: Admiral Farragut Playground","year":1953,"effective_date":"1953-05-14","date_precision":"day","category":"environment","lens":"green_space","confidence":"documented","source_ids":["enfh-gkve"],"explanation":"Parks property record with acquisition date for Admiral Farragut Playground."},"geometry":{"type":"Point","coordinates":[-73.891909,40.843225]}},{"type":"Feature","id":"nyc_parks_property_170178","properties":{"city_id":"nyc","event_id":"nyc_parks_property_170178","title":"Parks property acquisition: Louis C. Moser Playground","year":1953,"effective_date":"1953-12-01","date_precision":"day","category":"environment","lens":"green_space","confidence":"documented","source_ids":["enfh-gkve"],"explanation":"Parks property record with acquisition date for Louis C. Moser Playground."},"geometry":{"type":"Point","coordinates":[-73.892159,40.763019]}},{"type":"Feature","id":"nyc_parks_property_170350","properties":{"city_id":"nyc","event_id":"nyc_parks_property_170350","title":"Parks property acquisition: Sports Park","year":1953,"effective_date":"1953-01-17","date_precision":"day","category":"environment","lens":"green_space","confidence":"documented","source_ids":["enfh-gkve"],"explanation":"Parks property record with acquisition date for Sports Park."},"geometry":{"type":"Point","coordinates":[-74.119024,40.609736]}},{"type":"Feature","id":"nyc_parks_property_170415","properties":{"city_id":"nyc","event_id":"nyc_parks_property_170415","title":"Parks property acquisition: Howard Playground","year":1953,"effective_date":"1953-02-02","date_precision":"day","category":"environment","lens":"green_space","confidence":"documented","source_ids":["enfh-gkve"],"explanation":"Parks property record with acquisition date for Howard Playground."},"geometry":{"type":"Point","coordinates":[-73.908193,40.671744]}},{"type":"Feature","id":"nyc_parks_property_170417","properties":{"city_id":"nyc","event_id":"nyc_parks_property_170417","title":"Parks property acquisition: Sumner Playground","year":1953,"effective_date":"1953-10-08","date_precision":"day","category":"environment","lens":"green_space","confidence":"documented","source_ids":["enfh-gkve"],"explanation":"Parks property record with acquisition date for Sumner Playground."},"geometry":{"type":"Point","coordinates":[-73.942975,40.69735]}},{"type":"Feature","id":"nyc_parks_property_170421","properties":{"city_id":"nyc","event_id":"nyc_parks_property_170421","title":"Parks property acquisition: Winthrop Playground","year":1953,"effective_date":"1953-12-03","date_precision":"day","category":"environment","lens":"green_space","confidence":"documented","source_ids":["enfh-gkve"],"explanation":"Parks property record with acquisition date for Winthrop Playground."},"geometry":{"type":"Point","coordinates":[-73.954722,40.656378]}},{"type":"Feature","id":"nyc_parks_property_170443","properties":{"city_id":"nyc","event_id":"nyc_parks_property_170443","title":"Parks property acquisition: Yak Playground","year":1953,"effective_date":"1953-02-19","date_precision":"day","category":"environment","lens":"green_space","confidence":"documented","source_ids":["enfh-gkve"],"explanation":"Parks property record with acquisition date for Yak Playground."},"geometry":{"type":"Point","coordinates":[-73.93611,40.592396]}},{"type":"Feature","id":"nyc_parks_property_170541","properties":{"city_id":"nyc","event_id":"nyc_parks_property_170541","title":"Parks property acquisition: Sankofa Park","year":1953,"effective_date":"1953-06-25","date_precision":"day","category":"environment","lens":"green_space","confidence":"documented","source_ids":["enfh-gkve"],"explanation":"Parks property record with acquisition date for Sankofa Park."},"geometry":{"type":"Point","coordinates":[-73.886067,40.665563]}},{"type":"Feature","id":"nyc_parks_property_170568","properties":{"city_id":"nyc","event_id":"nyc_parks_property_170568","title":"Parks property acquisition: St. Nicholas Playground South","year":1953,"effective_date":"1953-10-22","date_precision":"day","category":"environment","lens":"green_space","confidence":"documented","source_ids":["enfh-gkve"],"explanation":"Parks property record with acquisition date for St. Nicholas Playground South."},"geometry":{"type":"Point","coordinates":[-73.947239,40.811156]}},{"type":"Feature","id":"nyc_parks_property_170569","properties":{"city_id":"nyc","event_id":"nyc_parks_property_170569","title":"Parks property acquisition: Langston Hughes Playground","year":1953,"effective_date":"1953-10-22","date_precision":"day","category":"environment","lens":"green_space","confidence":"documented","source_ids":["enfh-gkve"],"explanation":"Parks property record with acquisition date for Langston Hughes Playground."},"geometry":{"type":"Point","coordinates":[-73.946648,40.812135]}},{"type":"Feature","id":"nyc_parks_property_170585","properties":{"city_id":"nyc","event_id":"nyc_parks_property_170585","title":"Parks property acquisition: Cherry Tree Park","year":1953,"effective_date":"1953-02-26","date_precision":"day","category":"environment","lens":"green_space","confidence":"documented","source_ids":["enfh-gkve"],"explanation":"Parks property record with acquisition date for Cherry Tree Park."},"geometry":{"type":"Point","coordinates":[-73.947177,40.787163]}},{"type":"Feature","id":"nyc_parks_property_170609","properties":{"city_id":"nyc","event_id":"nyc_parks_property_170609","title":"Parks property acquisition: Haggerty Park","year":1953,"effective_date":"1953-06-03","date_precision":"day","category":"environment","lens":"green_space","confidence":"documented","source_ids":["enfh-gkve"],"explanation":"Parks property record with acquisition date for Haggerty Park."},"geometry":{"type":"Point","coordinates":[-73.756896,40.712973]}},{"type":"Feature","id":"nyc_parks_property_170784","properties":{"city_id":"nyc","event_id":"nyc_parks_property_170784","title":"Parks property acquisition: Minetta Playground","year":1953,"effective_date":"1953-08-27","date_precision":"day","category":"environment","lens":"green_space","confidence":"documented","source_ids":["enfh-gkve"],"explanation":"Parks property record with acquisition date for Minetta Playground."},"geometry":{"type":"Point","coordinates":[-74.001264,40.730697]}},{"type":"Feature","id":"nyc_parks_property_170867","properties":{"city_id":"nyc","event_id":"nyc_parks_property_170867","title":"Parks property acquisition: Prospect Playground","year":1953,"effective_date":"1953-05-14","date_precision":"day","category":"environment","lens":"green_space","confidence":"documented","source_ids":["enfh-gkve"],"explanation":"Parks property record with acquisition date for Prospect Playground."},"geometry":{"type":"Point","coordinates":[-73.890592,40.843277]}},{"type":"Feature","id":"nyc_parks_property_170963","properties":{"city_id":"nyc","event_id":"nyc_parks_property_170963","title":"Parks property acquisition: Poseidon Playground","year":1953,"effective_date":"1953-05-15","date_precision":"day","category":"environment","lens":"green_space","confidence":"documented","source_ids":["enfh-gkve"],"explanation":"Parks property record with acquisition date for Poseidon Playground."},"geometry":{"type":"Point","coordinates":[-73.991973,40.572314]}},{"type":"Feature","id":"nyc_parks_property_171015","properties":{"city_id":"nyc","event_id":"nyc_parks_property_171015","title":"Parks property acquisition: Father Macris Park","year":1953,"effective_date":"1953-01-17","date_precision":"day","category":"environment","lens":"green_space","confidence":"documented","source_ids":["enfh-gkve"],"explanation":"Parks property record with acquisition date for Father Macris Park."},"geometry":{"type":"Point","coordinates":[-74.161341,40.616765]}},{"type":"Feature","id":"nyc_parks_property_171037","properties":{"city_id":"nyc","event_id":"nyc_parks_property_171037","title":"Parks property acquisition: Dunbar Playground","year":1953,"effective_date":"1953-08-17","date_precision":"day","category":"environment","lens":"green_space","confidence":"documented","source_ids":["enfh-gkve"],"explanation":"Parks property record with acquisition date for Dunbar Playground."},"geometry":{"type":"Point","coordinates":[-73.906316,40.82298]}},{"type":"Feature","id":"nyc_parks_property_171056","properties":{"city_id":"nyc","event_id":"nyc_parks_property_171056","title":"Parks property acquisition: Mill Rock Park","year":1953,"effective_date":"1953-10-08","date_precision":"day","category":"environment","lens":"green_space","confidence":"documented","source_ids":["enfh-gkve"],"explanation":"Parks property record with acquisition date for Mill Rock Park."},"geometry":{"type":"Point","coordinates":[-73.938792,40.780165]}},{"type":"Feature","id":"nyc_parks_property_171151","properties":{"city_id":"nyc","event_id":"nyc_parks_property_171151","title":"Parks property acquisition: Tucker Place","year":1953,"effective_date":"1953-03-26","date_precision":"day","category":"environment","lens":"green_space","confidence":"documented","source_ids":["enfh-gkve"],"explanation":"Parks property record with acquisition date for Tucker Place."},"geometry":{"type":"Point","coordinates":[-73.941361,40.583422]}}]}
