{"type":"FeatureCollection","schema_version":"1.0.0","city_id":"nyc","year":1875,"features":[{"type":"Feature","id":"nyc_parks_property_169753","properties":{"city_id":"nyc","event_id":"nyc_parks_property_169753","title":"Parks property acquisition: Daniel Carter Beard Mall","short_description":"NYC Parks property record for Daniel Carter Beard Mall; type Triangle/Plaza; acres 0.658; waterfront=False.","year":1875,"effective_date":"1875-10-05","date_precision":"day","category":"environment","lens":"green_space","confidence":"documented","source_ids":["enfh-gkve"],"explanation":"Parks property record with acquisition date for Daniel Carter Beard Mall."},"geometry":{"type":"Point","coordinates":[-73.830819,40.763237]}},{"type":"Feature","id":"nyc_parks_property_169906","properties":{"city_id":"nyc","event_id":"nyc_parks_property_169906","title":"Parks property acquisition: Flushing Greens","short_description":"NYC Parks property record for Flushing Greens; type Triangle/Plaza; acres 0.421; waterfront=False.","year":1875,"effective_date":"1875-10-05","date_precision":"day","category":"environment","lens":"green_space","confidence":"documented","source_ids":["enfh-gkve"],"explanation":"Parks property record with acquisition date for Flushing Greens."},"geometry":{"type":"Point","coordinates":[-73.829387,40.763606]}}]}
