{"type":"FeatureCollection","schema_version":"1.0.0","city_id":"nyc","year":2001,"map_feature_count":39,"withheld_geometry_event_count":0,"features":[{"type":"Feature","id":"nyc_lpc_historic_district_lp-02097","properties":{"city_id":"nyc","event_id":"nyc_lpc_historic_district_lp-02097","title":"Historic district designated: Madison Square North Historic District","subtitle":"Manhattan / 2001-06-26 / Documented / Historic Districts","details":"LPC historic district designation record for Madison Square North Historic District.","year":2001,"effective_date":"2001-06-26","date_precision":"day","short_description":"LPC historic district record LP-02097; status DESIGNATED; public hearing 5/29/2001.","category":"built_environment","lens":"built_environment","confidence":"documented","source_ids":["skyk-mpzq"],"affected_area_label":"Manhattan","explanation":"LPC historic district designation record for Madison Square North Historic District."},"geometry":{"type":"Point","coordinates":[-73.988167,40.744132]}},{"type":"Feature","id":"nyc_lpc_historic_district_lp-02103","properties":{"city_id":"nyc","event_id":"nyc_lpc_historic_district_lp-02103","title":"Historic district designated: Hamilton Heights/Sugar Hill Historic District Extension","subtitle":"Manhattan / 2001-10-23 / Documented / Historic Districts","details":"LPC historic district designation record for Hamilton Heights/Sugar Hill Historic District Extension.","year":2001,"effective_date":"2001-10-23","date_precision":"day","short_description":"LPC historic district record LP-02103; status DESIGNATED; public hearing 10/16/2001.","category":"built_environment","lens":"built_environment","confidence":"documented","source_ids":["skyk-mpzq"],"affected_area_label":"Manhattan","explanation":"LPC historic district designation record for Hamilton Heights/Sugar Hill Historic District Extension."},"geometry":{"type":"Point","coordinates":[-73.942745,40.827181]}},{"type":"Feature","id":"nyc_lpc_historic_district_lp-02104","properties":{"city_id":"nyc","event_id":"nyc_lpc_historic_district_lp-02104","title":"Historic district designated: Hamilton Heights/Sugar Hill Northeast Historic District","subtitle":"Manhattan / 2001-10-23 / Documented / Historic Districts","details":"LPC historic district designation record for Hamilton Heights/Sugar Hill Northeast Historic District.","year":2001,"effective_date":"2001-10-23","date_precision":"day","short_description":"LPC historic district record LP-02104; status DESIGNATED; public hearing 10/16/2001.","category":"built_environment","lens":"built_environment","confidence":"documented","source_ids":["skyk-mpzq"],"affected_area_label":"Manhattan","explanation":"LPC historic district designation record for Hamilton Heights/Sugar Hill Northeast Historic District."},"geometry":{"type":"Point","coordinates":[-73.940635,40.828942]}},{"type":"Feature","id":"nyc_lpc_individual_landmark_103","properties":{"city_id":"nyc","event_id":"nyc_lpc_individual_landmark_103","title":"Individual landmark designated: Suffolk Title and Guarantee Company Build","subtitle":"Queens / 2001-03-06 / Documented / Individual Landmark Sites","details":"LPC designation record for Suffolk Title and Guarantee Company Build; designation date is taken from the source desdate field.","year":2001,"effective_date":"2001-03-06","date_precision":"day","short_description":"LPC individual landmark site LP-02088; status Designated; type Individual Landmark; alternate name not stated.","category":"built_environment","lens":"built_environment","confidence":"documented","source_ids":["buis-pvji"],"affected_area_label":"Queens","explanation":"LPC designation record for Suffolk Title and Guarantee Company Build; designation date is taken from the source desdate field."},"geometry":{"type":"Point","coordinates":[-73.799586,40.705175]}},{"type":"Feature","id":"nyc_lpc_individual_landmark_11","properties":{"city_id":"nyc","event_id":"nyc_lpc_individual_landmark_11","title":"Individual landmark designated: Staten Island Family Courthouse","subtitle":"Staten Island / 2001-01-30 / Documented / Individual Landmark Sites","details":"LPC designation record for Staten Island Family Courthouse; designation date is taken from the source desdate field.","year":2001,"effective_date":"2001-01-30","date_precision":"day","short_description":"LPC individual landmark site LP-02057; status Designated; type Individual Landmark; alternate name originally Staten Island Children's Courthouse.","category":"built_environment","lens":"built_environment","confidence":"documented","source_ids":["buis-pvji"],"affected_area_label":"Staten Island","explanation":"LPC designation record for Staten Island Family Courthouse; designation date is taken from the source desdate field."},"geometry":{"type":"Point","coordinates":[-74.077772,40.645013]}},{"type":"Feature","id":"nyc_lpc_individual_landmark_1112","properties":{"city_id":"nyc","event_id":"nyc_lpc_individual_landmark_1112","title":"Individual landmark designated: Edwards-Barton House","subtitle":"Staten Island / 2001-06-26 / Documented / Individual Landmark Sites","details":"LPC designation record for Edwards-Barton House; designation date is taken from the source desdate field.","year":2001,"effective_date":"2001-06-26","date_precision":"day","short_description":"LPC individual landmark site LP-02093; status Designated; type Individual Landmark; alternate name not stated.","category":"built_environment","lens":"built_environment","confidence":"documented","source_ids":["buis-pvji"],"affected_area_label":"Staten Island","explanation":"LPC designation record for Edwards-Barton House; designation date is taken from the source desdate field."},"geometry":{"type":"Point","coordinates":[-74.146152,40.571449]}},{"type":"Feature","id":"nyc_lpc_individual_landmark_127","properties":{"city_id":"nyc","event_id":"nyc_lpc_individual_landmark_127","title":"Individual landmark designated: New York Public Library, Muhlenberg Branch","subtitle":"Manhattan / 2001-01-30 / Documented / Individual Landmark Sites","details":"LPC designation record for New York Public Library, Muhlenberg Branch; designation date is taken from the source desdate field.","year":2001,"effective_date":"2001-01-30","date_precision":"day","short_description":"LPC individual landmark site LP-02060; status Designated; type Individual Landmark; alternate name not stated.","category":"built_environment","lens":"built_environment","confidence":"documented","source_ids":["buis-pvji"],"affected_area_label":"Manhattan","explanation":"LPC designation record for New York Public Library, Muhlenberg Branch; designation date is taken from the source desdate field."},"geometry":{"type":"Point","coordinates":[-73.995887,40.744526]}},{"type":"Feature","id":"nyc_lpc_individual_landmark_128","properties":{"city_id":"nyc","event_id":"nyc_lpc_individual_landmark_128","title":"Individual landmark designated: Catholic Apostolic Church","subtitle":"Manhattan / 2001-02-27 / Documented / Individual Landmark Sites","details":"LPC designation record for Catholic Apostolic Church; designation date is taken from the source desdate field.","year":2001,"effective_date":"2001-02-27","date_precision":"day","short_description":"LPC individual landmark site LP-02077; status Designated; type Individual Landmark; alternate name now Church for All Nations.","category":"built_environment","lens":"built_environment","confidence":"documented","source_ids":["buis-pvji"],"affected_area_label":"Manhattan","explanation":"LPC designation record for Catholic Apostolic Church; designation date is taken from the source desdate field."},"geometry":{"type":"Point","coordinates":[-73.986287,40.768534]}},{"type":"Feature","id":"nyc_lpc_individual_landmark_1293","properties":{"city_id":"nyc","event_id":"nyc_lpc_individual_landmark_1293","title":"Individual landmark designated: 1 Wall Street Building","subtitle":"Manhattan / 2001-03-06 / Documented / Individual Landmark Sites","details":"LPC designation record for 1 Wall Street Building; designation date is taken from the source desdate field.","year":2001,"effective_date":"2001-03-06","date_precision":"day","short_description":"LPC individual landmark site LP-02029; status Designated; type Individual Landmark; alternate name now the Bank of New York.","category":"built_environment","lens":"built_environment","confidence":"documented","source_ids":["buis-pvji"],"affected_area_label":"Manhattan","explanation":"LPC designation record for 1 Wall Street Building; designation date is taken from the source desdate field."},"geometry":{"type":"Point","coordinates":[-74.011614,40.707435]}},{"type":"Feature","id":"nyc_lpc_individual_landmark_1299","properties":{"city_id":"nyc","event_id":"nyc_lpc_individual_landmark_1299","title":"Individual landmark designated: Louis A. and Laura Stirn House","subtitle":"Staten Island / 2001-01-30 / Documented / Individual Landmark Sites","details":"LPC designation record for Louis A. and Laura Stirn House; designation date is taken from the source desdate field.","year":2001,"effective_date":"2001-01-30","date_precision":"day","short_description":"LPC individual landmark site LP-02069; status Designated; type Individual Landmark; alternate name not stated.","category":"built_environment","lens":"built_environment","confidence":"documented","source_ids":["buis-pvji"],"affected_area_label":"Staten Island","explanation":"LPC designation record for Louis A. and Laura Stirn House; designation date is taken from the source desdate field."},"geometry":{"type":"Point","coordinates":[-74.088237,40.628597]}},{"type":"Feature","id":"nyc_lpc_individual_landmark_1301","properties":{"city_id":"nyc","event_id":"nyc_lpc_individual_landmark_1301","title":"Individual landmark designated: Benevolent and Protective Order of Elks, Lodge Number 878","subtitle":"Queens / 2001-08-14 / Documented / Individual Landmark Sites","details":"LPC designation record for Benevolent and Protective Order of Elks, Lodge Number 878; designation date is taken from the source desdate field.","year":2001,"effective_date":"2001-08-14","date_precision":"day","short_description":"LPC individual landmark site LP-02086; status Designated; type Individual Landmark; alternate name not stated.","category":"built_environment","lens":"built_environment","confidence":"documented","source_ids":["buis-pvji"],"affected_area_label":"Queens","explanation":"LPC designation record for Benevolent and Protective Order of Elks, Lodge Number 878; designation date is taken from the source desdate field."},"geometry":{"type":"Point","coordinates":[-73.881148,40.736946]}},{"type":"Feature","id":"nyc_lpc_individual_landmark_1303","properties":{"city_id":"nyc","event_id":"nyc_lpc_individual_landmark_1303","title":"Individual landmark designated: New York Times Building","subtitle":"Manhattan / 2001-04-24 / Documented / Individual Landmark Sites","details":"LPC designation record for New York Times Building; designation date is taken from the source desdate field.","year":2001,"effective_date":"2001-04-24","date_precision":"day","short_description":"LPC individual landmark site LP-02091; status Designated; type Individual Landmark; alternate name originally the Times Annex.","category":"built_environment","lens":"built_environment","confidence":"documented","source_ids":["buis-pvji"],"affected_area_label":"Manhattan","explanation":"LPC designation record for New York Times Building; designation date is taken from the source desdate field."},"geometry":{"type":"Point","coordinates":[-73.987761,40.757461]}},{"type":"Feature","id":"nyc_lpc_individual_landmark_1304","properties":{"city_id":"nyc","event_id":"nyc_lpc_individual_landmark_1304","title":"Individual landmark designated: Steinway Hall","subtitle":"Manhattan / 2001-11-13 / Documented / Individual Landmark Sites","details":"LPC designation record for Steinway Hall; designation date is taken from the source desdate field.","year":2001,"effective_date":"2001-11-13","date_precision":"day","short_description":"LPC individual landmark site LP-02100; status Designated; type Individual Landmark; alternate name not stated.","category":"built_environment","lens":"built_environment","confidence":"documented","source_ids":["buis-pvji"],"affected_area_label":"Manhattan","explanation":"LPC designation record for Steinway Hall; designation date is taken from the source desdate field."},"geometry":{"type":"Point","coordinates":[-73.977618,40.764935]}},{"type":"Feature","id":"nyc_lpc_individual_landmark_143","properties":{"city_id":"nyc","event_id":"nyc_lpc_individual_landmark_143","title":"Individual landmark designated: New York Public Library, Chatham Square Branch","subtitle":"Manhattan / 2001-11-13 / Documented / Individual Landmark Sites","details":"LPC designation record for New York Public Library, Chatham Square Branch; designation date is taken from the source desdate field.","year":2001,"effective_date":"2001-11-13","date_precision":"day","short_description":"LPC individual landmark site LP-02098; status Designated; type Individual Landmark; alternate name not stated.","category":"built_environment","lens":"built_environment","confidence":"documented","source_ids":["buis-pvji"],"affected_area_label":"Manhattan","explanation":"LPC designation record for New York Public Library, Chatham Square Branch; designation date is taken from the source desdate field."},"geometry":{"type":"Point","coordinates":[-73.996469,40.713287]}},{"type":"Feature","id":"nyc_lpc_individual_landmark_153","properties":{"city_id":"nyc","event_id":"nyc_lpc_individual_landmark_153","title":"Individual landmark designated: German-American Shooting Society Clubhouse","subtitle":"Manhattan / 2001-06-26 / Documented / Individual Landmark Sites","details":"LPC designation record for German-American Shooting Society Clubhouse; designation date is taken from the source desdate field.","year":2001,"effective_date":"2001-06-26","date_precision":"day","short_description":"LPC individual landmark site LP-02094; status Designated; type Individual Landmark; alternate name not stated.","category":"built_environment","lens":"built_environment","confidence":"documented","source_ids":["buis-pvji"],"affected_area_label":"Manhattan","explanation":"LPC designation record for German-American Shooting Society Clubhouse; designation date is taken from the source desdate field."},"geometry":{"type":"Point","coordinates":[-73.989279,40.729034]}},{"type":"Feature","id":"nyc_lpc_individual_landmark_195","properties":{"city_id":"nyc","event_id":"nyc_lpc_individual_landmark_195","title":"Individual landmark designated: 94-100 Lafayette Street Building","subtitle":"Manhattan / 2001-12-18 / Documented / Individual Landmark Sites","details":"LPC designation record for 94-100 Lafayette Street Building; designation date is taken from the source desdate field.","year":2001,"effective_date":"2001-12-18","date_precision":"day","short_description":"LPC individual landmark site LP-02107; status Designated; type Individual Landmark; alternate name now called the Avildsen Building.","category":"built_environment","lens":"built_environment","confidence":"documented","source_ids":["buis-pvji"],"affected_area_label":"Manhattan","explanation":"LPC designation record for 94-100 Lafayette Street Building; designation date is taken from the source desdate field."},"geometry":{"type":"Point","coordinates":[-74.001541,40.717787]}},{"type":"Feature","id":"nyc_lpc_individual_landmark_21","properties":{"city_id":"nyc","event_id":"nyc_lpc_individual_landmark_21","title":"Individual landmark designated: August and Augusta Schoverling House","subtitle":"Staten Island / 2001-01-30 / Documented / Individual Landmark Sites","details":"LPC designation record for August and Augusta Schoverling House; designation date is taken from the source desdate field.","year":2001,"effective_date":"2001-01-30","date_precision":"day","short_description":"LPC individual landmark site LP-02073; status Designated; type Individual Landmark; alternate name not stated.","category":"built_environment","lens":"built_environment","confidence":"documented","source_ids":["buis-pvji"],"affected_area_label":"Staten Island","explanation":"LPC designation record for August and Augusta Schoverling House; designation date is taken from the source desdate field."},"geometry":{"type":"Point","coordinates":[-74.082213,40.639638]}},{"type":"Feature","id":"nyc_lpc_individual_landmark_282","properties":{"city_id":"nyc","event_id":"nyc_lpc_individual_landmark_282","title":"Individual landmark designated: 130 West 30th Street Building","subtitle":"Manhattan / 2001-11-13 / Documented / Individual Landmark Sites","details":"LPC designation record for 130 West 30th Street Building; designation date is taken from the source desdate field.","year":2001,"effective_date":"2001-11-13","date_precision":"day","short_description":"LPC individual landmark site LP-02101; status Designated; type Individual Landmark; alternate name not stated.","category":"built_environment","lens":"built_environment","confidence":"documented","source_ids":["buis-pvji"],"affected_area_label":"Manhattan","explanation":"LPC designation record for 130 West 30th Street Building; designation date is taken from the source desdate field."},"geometry":{"type":"Point","coordinates":[-73.991144,40.747675]}},{"type":"Feature","id":"nyc_lpc_individual_landmark_649","properties":{"city_id":"nyc","event_id":"nyc_lpc_individual_landmark_649","title":"Individual landmark designated: William and Helen Ziegler, Jr. House","subtitle":"Manhattan / 2001-05-01 / Documented / Individual Landmark Sites","details":"LPC designation record for William and Helen Ziegler, Jr. House; designation date is taken from the source desdate field.","year":2001,"effective_date":"2001-05-01","date_precision":"day","short_description":"LPC individual landmark site LP-02084; status Designated; type Individual Landmark; alternate name not stated.","category":"built_environment","lens":"built_environment","confidence":"documented","source_ids":["buis-pvji"],"affected_area_label":"Manhattan","explanation":"LPC designation record for William and Helen Ziegler, Jr. House; designation date is taken from the source desdate field."},"geometry":{"type":"Point","coordinates":[-73.971037,40.759765]}},{"type":"Feature","id":"nyc_lpc_individual_landmark_743","properties":{"city_id":"nyc","event_id":"nyc_lpc_individual_landmark_743","title":"Individual landmark designated: Mary Hale Cunningham House","subtitle":"Manhattan / 2001-05-01 / Documented / Individual Landmark Sites","details":"LPC designation record for Mary Hale Cunningham House; designation date is taken from the source desdate field.","year":2001,"effective_date":"2001-05-01","date_precision":"day","short_description":"LPC individual landmark site LP-02085; status Designated; type Individual Landmark; alternate name not stated.","category":"built_environment","lens":"built_environment","confidence":"documented","source_ids":["buis-pvji"],"affected_area_label":"Manhattan","explanation":"LPC designation record for Mary Hale Cunningham House; designation date is taken from the source desdate field."},"geometry":{"type":"Point","coordinates":[-73.970808,40.759691]}},{"type":"Feature","id":"nyc_lpc_individual_landmark_754","properties":{"city_id":"nyc","event_id":"nyc_lpc_individual_landmark_754","title":"Individual landmark designated: Aberdeen Hotel","subtitle":"Manhattan / 2001-01-30 / Documented / Individual Landmark Sites","details":"LPC designation record for Aberdeen Hotel; designation date is taken from the source desdate field.","year":2001,"effective_date":"2001-01-30","date_precision":"day","short_description":"LPC individual landmark site LP-02076; status Designated; type Individual Landmark; alternate name not stated.","category":"built_environment","lens":"built_environment","confidence":"documented","source_ids":["buis-pvji"],"affected_area_label":"Manhattan","explanation":"LPC designation record for Aberdeen Hotel; designation date is taken from the source desdate field."},"geometry":{"type":"Point","coordinates":[-73.986465,40.747855]}},{"type":"Feature","id":"nyc_lpc_individual_landmark_772","properties":{"city_id":"nyc","event_id":"nyc_lpc_individual_landmark_772","title":"Individual landmark designated: Fire Engine Company No. 67","subtitle":"Manhattan / 2001-02-27 / Documented / Individual Landmark Sites","details":"LPC designation record for Fire Engine Company No. 67; designation date is taken from the source desdate field.","year":2001,"effective_date":"2001-02-27","date_precision":"day","short_description":"LPC individual landmark site LP-02050; status Designated; type Individual Landmark; alternate name not stated.","category":"built_environment","lens":"built_environment","confidence":"documented","source_ids":["buis-pvji"],"affected_area_label":"Manhattan","explanation":"LPC designation record for Fire Engine Company No. 67; designation date is taken from the source desdate field."},"geometry":{"type":"Point","coordinates":[-73.937184,40.841292]}},{"type":"Feature","id":"nyc_lpc_individual_landmark_834","properties":{"city_id":"nyc","event_id":"nyc_lpc_individual_landmark_834","title":"Individual landmark designated: Brooklyn Clay Retort and Fire Brick Works Storehouse","subtitle":"Brooklyn / 2001-12-18 / Documented / Individual Landmark Sites","details":"LPC designation record for Brooklyn Clay Retort and Fire Brick Works Storehouse; designation date is taken from the source desdate field.","year":2001,"effective_date":"2001-12-18","date_precision":"day","short_description":"LPC individual landmark site LP-02108; status Designated; type Individual Landmark; alternate name not stated.","category":"built_environment","lens":"built_environment","confidence":"documented","source_ids":["buis-pvji"],"affected_area_label":"Brooklyn","explanation":"LPC designation record for Brooklyn Clay Retort and Fire Brick Works Storehouse; designation date is taken from the source desdate field."},"geometry":{"type":"Point","coordinates":[-74.01329,40.675167]}},{"type":"Feature","id":"nyc_lpc_individual_landmark_836","properties":{"city_id":"nyc","event_id":"nyc_lpc_individual_landmark_836","title":"Individual landmark designated: Sunset Park Court House","subtitle":"Brooklyn / 2001-06-26 / Documented / Individual Landmark Sites","details":"LPC designation record for Sunset Park Court House; designation date is taken from the source desdate field.","year":2001,"effective_date":"2001-06-26","date_precision":"day","short_description":"LPC individual landmark site LP-02096; status Designated; type Individual Landmark; alternate name not stated.","category":"built_environment","lens":"built_environment","confidence":"documented","source_ids":["buis-pvji"],"affected_area_label":"Brooklyn","explanation":"LPC designation record for Sunset Park Court House; designation date is taken from the source desdate field."},"geometry":{"type":"Point","coordinates":[-74.007811,40.650491]}},{"type":"Feature","id":"nyc_lpc_individual_landmark_851","properties":{"city_id":"nyc","event_id":"nyc_lpc_individual_landmark_851","title":"Individual landmark designated: Duffield Street Houses","subtitle":"Brooklyn / 2001-04-24 / Documented / Individual Landmark Sites","details":"LPC designation record for Duffield Street Houses; designation date is taken from the source desdate field.","year":2001,"effective_date":"2001-04-24","date_precision":"day","short_description":"LPC individual landmark site LP-02089; status Designated; type Individual Landmark; alternate name not stated.","category":"built_environment","lens":"built_environment","confidence":"documented","source_ids":["buis-pvji"],"affected_area_label":"Brooklyn","explanation":"LPC designation record for Duffield Street Houses; designation date is taken from the source desdate field."},"geometry":{"type":"Point","coordinates":[-73.984555,40.692807]}},{"type":"Feature","id":"nyc_lpc_individual_landmark_857","properties":{"city_id":"nyc","event_id":"nyc_lpc_individual_landmark_857","title":"Individual landmark designated: Magen David Synagogue","subtitle":"Brooklyn / 2001-04-24 / Documented / Individual Landmark Sites","details":"LPC designation record for Magen David Synagogue; designation date is taken from the source desdate field.","year":2001,"effective_date":"2001-04-24","date_precision":"day","short_description":"LPC individual landmark site LP-02090; status Designated; type Individual Landmark; alternate name not stated.","category":"built_environment","lens":"built_environment","confidence":"documented","source_ids":["buis-pvji"],"affected_area_label":"Brooklyn","explanation":"LPC designation record for Magen David Synagogue; designation date is taken from the source desdate field."},"geometry":{"type":"Point","coordinates":[-73.986206,40.615212]}},{"type":"Feature","id":"nyc_lpc_individual_landmark_871","properties":{"city_id":"nyc","event_id":"nyc_lpc_individual_landmark_871","title":"Individual landmark designated: Lefferts-Laidlaw House","subtitle":"Brooklyn / 2001-11-13 / Documented / Individual Landmark Sites","details":"LPC designation record for Lefferts-Laidlaw House; designation date is taken from the source desdate field.","year":2001,"effective_date":"2001-11-13","date_precision":"day","short_description":"LPC individual landmark site LP-02099; status Designated; type Individual Landmark; alternate name not stated.","category":"built_environment","lens":"built_environment","confidence":"documented","source_ids":["buis-pvji"],"affected_area_label":"Brooklyn","explanation":"LPC designation record for Lefferts-Laidlaw House; designation date is taken from the source desdate field."},"geometry":{"type":"Point","coordinates":[-73.969358,40.693824]}},{"type":"Feature","id":"nyc_parks_property_169427","properties":{"city_id":"nyc","event_id":"nyc_parks_property_169427","title":"Parks property acquisition: North Brother Island","subtitle":"Bronx / 2001-08-21 / Documented / Parks Properties","details":"Parks property record with acquisition date for North Brother Island.","year":2001,"effective_date":"2001-08-21","date_precision":"day","short_description":"NYC Parks property record for North Brother Island; type Nature Area; acres 30.395; waterfront=True.","category":"environment","lens":"green_space","confidence":"documented","source_ids":["enfh-gkve"],"affected_area_label":"Bronx","explanation":"Parks property record with acquisition date for North Brother Island."},"geometry":{"type":"Point","coordinates":[-73.897554,40.801698]}},{"type":"Feature","id":"nyc_parks_property_169452","properties":{"city_id":"nyc","event_id":"nyc_parks_property_169452","title":"Parks property acquisition: Barretto Point Park","subtitle":"Bronx / 2001-08-21 / Documented / Parks Properties","details":"Parks property record with acquisition date for Barretto Point Park.","year":2001,"effective_date":"2001-08-21","date_precision":"day","short_description":"NYC Parks property record for Barretto Point Park; type Neighborhood Park; acres 12.224; waterfront=True.","category":"environment","lens":"green_space","confidence":"documented","source_ids":["enfh-gkve"],"affected_area_label":"Bronx","explanation":"Parks property record with acquisition date for Barretto Point Park."},"geometry":{"type":"Point","coordinates":[-73.888315,40.805013]}},{"type":"Feature","id":"nyc_parks_property_169500","properties":{"city_id":"nyc","event_id":"nyc_parks_property_169500","title":"Parks property acquisition: Harding Park Beautification Project","subtitle":"Bronx / 2001-04-10 / Documented / Parks Properties","details":"Parks property record with acquisition date for Harding Park Beautification Project.","year":2001,"effective_date":"2001-04-10","date_precision":"day","short_description":"NYC Parks property record for Harding Park Beautification Project; type Garden; acres 1.16; waterfront=True.","category":"environment","lens":"green_space","confidence":"documented","source_ids":["enfh-gkve"],"affected_area_label":"Bronx","explanation":"Parks property record with acquisition date for Harding Park Beautification Project."},"geometry":{"type":"Point","coordinates":[-73.858274,40.807394]}},{"type":"Feature","id":"nyc_parks_property_169637","properties":{"city_id":"nyc","event_id":"nyc_parks_property_169637","title":"Parks property acquisition: Broad Channel Wetlands","subtitle":"Queens / 2001-11-27 / Documented / Parks Properties","details":"Parks property record with acquisition date for Broad Channel Wetlands.","year":2001,"effective_date":"2001-11-27","date_precision":"day","short_description":"NYC Parks property record for Broad Channel Wetlands; type Nature Area; acres 37.95; waterfront=True.","category":"environment","lens":"green_space","confidence":"documented","source_ids":["enfh-gkve"],"affected_area_label":"Queens","explanation":"Parks property record with acquisition date for Broad Channel Wetlands."},"geometry":{"type":"Point","coordinates":[-73.821351,40.611762]}},{"type":"Feature","id":"nyc_parks_property_169709","properties":{"city_id":"nyc","event_id":"nyc_parks_property_169709","title":"Parks property acquisition: Isle Of Meadows","subtitle":"Staten Island / 2001-08-23 / Documented / Parks Properties","details":"Parks property record with acquisition date for Isle Of Meadows.","year":2001,"effective_date":"2001-08-23","date_precision":"day","short_description":"NYC Parks property record for Isle Of Meadows; type Nature Area; acres 87.516; waterfront=True.","category":"environment","lens":"green_space","confidence":"documented","source_ids":["enfh-gkve"],"affected_area_label":"Staten Island","explanation":"Parks property record with acquisition date for Isle Of Meadows."},"geometry":{"type":"Point","coordinates":[-74.203684,40.575882]}},{"type":"Feature","id":"nyc_parks_property_169791","properties":{"city_id":"nyc","event_id":"nyc_parks_property_169791","title":"Parks property acquisition: Sugar Hill Garden","subtitle":"Manhattan / 2001-02-09 / Documented / Parks Properties","details":"Parks property record with acquisition date for Sugar Hill Garden.","year":2001,"effective_date":"2001-02-09","date_precision":"day","short_description":"NYC Parks property record for Sugar Hill Garden; type Garden; acres 0.069; waterfront=False.","category":"environment","lens":"green_space","confidence":"documented","source_ids":["enfh-gkve"],"affected_area_label":"Manhattan","explanation":"Parks property record with acquisition date for Sugar Hill Garden."},"geometry":{"type":"Point","coordinates":[-73.942248,40.826263]}},{"type":"Feature","id":"nyc_parks_property_169792","properties":{"city_id":"nyc","event_id":"nyc_parks_property_169792","title":"Parks property acquisition: Edgecombe Park","subtitle":"Manhattan / 2001-02-09 / Documented / Parks Properties","details":"Parks property record with acquisition date for Edgecombe Park.","year":2001,"effective_date":"2001-02-09","date_precision":"day","short_description":"NYC Parks property record for Edgecombe Park; type Garden; acres 0.112; waterfront=False.","category":"environment","lens":"green_space","confidence":"documented","source_ids":["enfh-gkve"],"affected_area_label":"Manhattan","explanation":"Parks property record with acquisition date for Edgecombe Park."},"geometry":{"type":"Point","coordinates":[-73.942068,40.826566]}},{"type":"Feature","id":"nyc_parks_property_170055","properties":{"city_id":"nyc","event_id":"nyc_parks_property_170055","title":"Parks property acquisition: South Brother Island","subtitle":"Bronx / 2001-08-21 / Documented / Parks Properties","details":"Parks property record with acquisition date for South Brother Island.","year":2001,"effective_date":"2001-08-21","date_precision":"day","short_description":"NYC Parks property record for South Brother Island; type Nature Area; acres 21.10936646; waterfront=True.","category":"environment","lens":"green_space","confidence":"documented","source_ids":["enfh-gkve"],"affected_area_label":"Bronx","explanation":"Parks property record with acquisition date for South Brother Island."},"geometry":{"type":"Point","coordinates":[-73.89752,40.796328]}},{"type":"Feature","id":"nyc_parks_property_170377","properties":{"city_id":"nyc","event_id":"nyc_parks_property_170377","title":"Parks property acquisition: Aesop Park","subtitle":"Staten Island / 2001-09-26 / Documented / Parks Properties","details":"Parks property record with acquisition date for Aesop Park.","year":2001,"effective_date":"2001-09-26","date_precision":"day","short_description":"NYC Parks property record for Aesop Park; type Jointly Operated Playground; acres 0.912; waterfront=False.","category":"environment","lens":"green_space","confidence":"documented","source_ids":["enfh-gkve"],"affected_area_label":"Staten Island","explanation":"Parks property record with acquisition date for Aesop Park."},"geometry":{"type":"Point","coordinates":[-74.229772,40.509552]}},{"type":"Feature","id":"nyc_parks_property_170746","properties":{"city_id":"nyc","event_id":"nyc_parks_property_170746","title":"Parks property acquisition: Riverside Park South","subtitle":"Manhattan / 2001-01-14 / Documented / Parks Properties","details":"Parks property record with acquisition date for Riverside Park South.","year":2001,"effective_date":"2001-01-14","date_precision":"day","short_description":"NYC Parks property record for Riverside Park South; type Community Park; acres 71.933; waterfront=True.","category":"environment","lens":"green_space","confidence":"documented","source_ids":["enfh-gkve"],"affected_area_label":"Manhattan","explanation":"Parks property record with acquisition date for Riverside Park South."},"geometry":{"type":"Point","coordinates":[-73.989777,40.777918]}},{"type":"Feature","id":"nyc_parks_property_171202","properties":{"city_id":"nyc","event_id":"nyc_parks_property_171202","title":"Parks property acquisition: American Veterans Memorial Pier","subtitle":"Brooklyn / 2001-11-09 / Documented / Parks Properties","details":"Parks property record with acquisition date for American Veterans Memorial Pier.","year":2001,"effective_date":"2001-11-09","date_precision":"day","short_description":"NYC Parks property record for American Veterans Memorial Pier; type Waterfront Facility; acres 3.169; waterfront=True.","category":"environment","lens":"green_space","confidence":"documented","source_ids":["enfh-gkve"],"affected_area_label":"Brooklyn","explanation":"Parks property record with acquisition date for American Veterans Memorial Pier."},"geometry":{"type":"Point","coordinates":[-74.037446,40.639545]}},{"type":"Feature","id":"nyc_parks_property_171207","properties":{"city_id":"nyc","event_id":"nyc_parks_property_171207","title":"Parks property acquisition: Brooklyn Bridge Park","subtitle":"Brooklyn / 2001-05-11 / Documented / Parks Properties","details":"Parks property record with acquisition date for Brooklyn Bridge Park.","year":2001,"effective_date":"2001-05-11","date_precision":"day","short_description":"NYC Parks property record for Brooklyn Bridge Park; type Community Park; acres 21.377; waterfront=True.","category":"environment","lens":"green_space","confidence":"documented","source_ids":["enfh-gkve"],"affected_area_label":"Brooklyn","explanation":"Parks property record with acquisition date for Brooklyn Bridge Park."},"geometry":{"type":"Point","coordinates":[-73.995851,40.700595]}}]}
