{"type":"FeatureCollection","schema_version":"1.0.0","city_id":"nyc","year":1920,"features":[{"type":"Feature","id":"nyc_parks_property_169743","properties":{"city_id":"nyc","event_id":"nyc_parks_property_169743","title":"Parks property acquisition: Fleetwood Triangle","year":1920,"effective_date":"1920-11-11","date_precision":"day","category":"environment","lens":"green_space","confidence":"documented","source_ids":["enfh-gkve"],"explanation":"Parks property record with acquisition date for Fleetwood Triangle."},"geometry":{"type":"Point","coordinates":[-73.86728,40.722704]}},{"type":"Feature","id":"nyc_parks_property_169830","properties":{"city_id":"nyc","event_id":"nyc_parks_property_169830","title":"Parks property acquisition: Hero Park","year":1920,"effective_date":"1920-05-26","date_precision":"day","category":"environment","lens":"green_space","confidence":"documented","source_ids":["enfh-gkve"],"explanation":"Parks property record with acquisition date for Hero Park."},"geometry":{"type":"Point","coordinates":[-74.088375,40.630156]}},{"type":"Feature","id":"nyc_parks_property_171163","properties":{"city_id":"nyc","event_id":"nyc_parks_property_171163","title":"Parks property acquisition: Marine Park","year":1920,"effective_date":"1920-01-03","date_precision":"day","category":"environment","lens":"green_space","confidence":"documented","source_ids":["enfh-gkve"],"explanation":"Parks property record with acquisition date for Marine Park."},"geometry":{"type":"Point","coordinates":[-73.913253,40.59052]}}]}
