{"type":"FeatureCollection","schema_version":"1.0.0","city_id":"nyc","year":1876,"features":[{"type":"Feature","id":"nyc_parks_property_169028","properties":{"city_id":"nyc","event_id":"nyc_parks_property_169028","title":"Parks property acquisition: Jackson Square","year":1876,"effective_date":"1876-05-04","date_precision":"day","category":"environment","lens":"green_space","confidence":"documented","source_ids":["enfh-gkve"],"explanation":"Parks property record with acquisition date for Jackson Square."},"geometry":{"type":"Point","coordinates":[-74.002853,40.738884]}},{"type":"Feature","id":"nyc_parks_property_171045","properties":{"city_id":"nyc","event_id":"nyc_parks_property_171045","title":"Parks property acquisition: Asser Levy Park","year":1876,"effective_date":"1876-02-07","date_precision":"day","category":"environment","lens":"green_space","confidence":"documented","source_ids":["enfh-gkve"],"explanation":"Parks property record with acquisition date for Asser Levy Park."},"geometry":{"type":"Point","coordinates":[-73.971709,40.57497]}},{"type":"Feature","id":"nyc_parks_property_171135","properties":{"city_id":"nyc","event_id":"nyc_parks_property_171135","title":"Parks property acquisition: Carl Schurz Park","year":1876,"effective_date":"1876-04-01","date_precision":"day","category":"environment","lens":"green_space","confidence":"documented","source_ids":["enfh-gkve"],"explanation":"Parks property record with acquisition date for Carl Schurz Park."},"geometry":{"type":"Point","coordinates":[-73.942755,40.775987]}},{"type":"Feature","id":"nyc_parks_property_171177","properties":{"city_id":"nyc","event_id":"nyc_parks_property_171177","title":"Parks property acquisition: Riverside Park","year":1876,"effective_date":"1876-06-02","date_precision":"day","category":"environment","lens":"green_space","confidence":"documented","source_ids":["enfh-gkve"],"explanation":"Parks property record with acquisition date for Riverside Park."},"geometry":{"type":"Point","coordinates":[-73.972472,40.801324]}}]}
