{"type":"FeatureCollection","schema_version":"1.0.0","city_id":"nyc","year":1925,"features":[{"type":"Feature","id":"nyc_parks_property_169331","properties":{"city_id":"nyc","event_id":"nyc_parks_property_169331","title":"Parks property acquisition: Hansborough Recreation Center","subtitle":"Manhattan / 1925-06-01 / Documented / Parks Properties","details":"Parks property record with acquisition date for Hansborough Recreation Center.","year":1925,"effective_date":"1925-06-01","date_precision":"day","short_description":"NYC Parks property record for Hansborough Recreation Center; type Buildings/Institutions; acres 0.29; waterfront=False.","category":"environment","lens":"green_space","confidence":"documented","source_ids":["enfh-gkve"],"affected_area_label":"Manhattan","explanation":"Parks property record with acquisition date for Hansborough Recreation Center."},"geometry":{"type":"Point","coordinates":[-73.939276,40.812787]}},{"type":"Feature","id":"nyc_parks_property_169728","properties":{"city_id":"nyc","event_id":"nyc_parks_property_169728","title":"Parks property acquisition: Linden Sitting Area","subtitle":"Brooklyn / 1925-11-13 / Documented / Parks Properties","details":"Parks property record with acquisition date for Linden Sitting Area.","year":1925,"effective_date":"1925-11-13","date_precision":"day","short_description":"NYC Parks property record for Linden Sitting Area; type Triangle/Plaza; acres 0.139; waterfront=False.","category":"environment","lens":"green_space","confidence":"documented","source_ids":["enfh-gkve"],"affected_area_label":"Brooklyn","explanation":"Parks property record with acquisition date for Linden Sitting Area."},"geometry":{"type":"Point","coordinates":[-73.918451,40.653996]}},{"type":"Feature","id":"nyc_parks_property_170125","properties":{"city_id":"nyc","event_id":"nyc_parks_property_170125","title":"Parks property acquisition: Lyons Square Playground","subtitle":"Bronx / 1925-06-12 / Documented / Parks Properties","details":"Parks property record with acquisition date for Lyons Square Playground.","year":1925,"effective_date":"1925-06-12","date_precision":"day","short_description":"NYC Parks property record for Lyons Square Playground; type Playground; acres 1.322; waterfront=False.","category":"environment","lens":"green_space","confidence":"documented","source_ids":["enfh-gkve"],"affected_area_label":"Bronx","explanation":"Parks property record with acquisition date for Lyons Square Playground."},"geometry":{"type":"Point","coordinates":[-73.88797,40.82275]}},{"type":"Feature","id":"nyc_parks_property_170262","properties":{"city_id":"nyc","event_id":"nyc_parks_property_170262","title":"Parks property acquisition: Bowne Park","subtitle":"Queens / 1925-06-01 / Documented / Parks Properties","details":"Parks property record with acquisition date for Bowne Park.","year":1925,"effective_date":"1925-06-01","date_precision":"day","short_description":"NYC Parks property record for Bowne Park; type Neighborhood Park; acres 11.788; waterfront=False.","category":"environment","lens":"green_space","confidence":"documented","source_ids":["enfh-gkve"],"affected_area_label":"Queens","explanation":"Parks property record with acquisition date for Bowne Park."},"geometry":{"type":"Point","coordinates":[-73.806857,40.770701]}},{"type":"Feature","id":"nyc_parks_property_170821","properties":{"city_id":"nyc","event_id":"nyc_parks_property_170821","title":"Parks property acquisition: J. Hood Wright Park","subtitle":"Manhattan / 1925-10-26 / Documented / Parks Properties","details":"Parks property record with acquisition date for J. Hood Wright Park.","year":1925,"effective_date":"1925-10-26","date_precision":"day","short_description":"NYC Parks property record for J. Hood Wright Park; type Neighborhood Park; acres 6.699; waterfront=False.","category":"environment","lens":"green_space","confidence":"documented","source_ids":["enfh-gkve"],"affected_area_label":"Manhattan","explanation":"Parks property record with acquisition date for J. Hood Wright Park."},"geometry":{"type":"Point","coordinates":[-73.942063,40.846638]}},{"type":"Feature","id":"nyc_parks_property_170912","properties":{"city_id":"nyc","event_id":"nyc_parks_property_170912","title":"Parks property acquisition: Margaret I. Carman Green - Weeping Beech","subtitle":"Queens / 1925-10-01 / Documented / Parks Properties","details":"Parks property record with acquisition date for Margaret I. Carman Green - Weeping Beech.","year":1925,"effective_date":"1925-10-01","date_precision":"day","short_description":"NYC Parks property record for Margaret I. Carman Green - Weeping Beech; type Playground; acres 2.6; waterfront=False.","category":"environment","lens":"green_space","confidence":"documented","source_ids":["enfh-gkve"],"affected_area_label":"Queens","explanation":"Parks property record with acquisition date for Margaret I. Carman Green - Weeping Beech."},"geometry":{"type":"Point","coordinates":[-73.824543,40.76338]}},{"type":"Feature","id":"nyc_parks_property_170923","properties":{"city_id":"nyc","event_id":"nyc_parks_property_170923","title":"Parks property acquisition: Bennett Park","subtitle":"Manhattan / 1925-07-18 / Documented / Parks Properties","details":"Parks property record with acquisition date for Bennett Park.","year":1925,"effective_date":"1925-07-18","date_precision":"day","short_description":"NYC Parks property record for Bennett Park; type Neighborhood Park; acres 1.8; waterfront=False.","category":"environment","lens":"green_space","confidence":"documented","source_ids":["enfh-gkve"],"affected_area_label":"Manhattan","explanation":"Parks property record with acquisition date for Bennett Park."},"geometry":{"type":"Point","coordinates":[-73.938076,40.852728]}},{"type":"Feature","id":"nyc_parks_property_171063","properties":{"city_id":"nyc","event_id":"nyc_parks_property_171063","title":"Parks property acquisition: Bronx River Parkway","subtitle":"Bronx / 1925-12-31 / Documented / Parks Properties","details":"Parks property record with acquisition date for Bronx River Parkway.","year":1925,"effective_date":"1925-12-31","date_precision":"day","short_description":"NYC Parks property record for Bronx River Parkway; type Parkway; acres 206.717; waterfront=True.","category":"environment","lens":"green_space","confidence":"documented","source_ids":["enfh-gkve"],"affected_area_label":"Bronx","explanation":"Parks property record with acquisition date for Bronx River Parkway."},"geometry":{"type":"Point","coordinates":[-73.869893,40.853049]}}]}
