{"type":"FeatureCollection","schema_version":"1.0.0","city_id":"nyc","year":1837,"features":[{"type":"Feature","id":"nyc_parks_property_169076","properties":{"city_id":"nyc","event_id":"nyc_parks_property_169076","title":"Parks property acquisition: Christopher Park","subtitle":"Manhattan / 1837-04-05 / Documented / Parks Properties","details":"Parks property record with acquisition date for Christopher Park.","year":1837,"effective_date":"1837-04-05","date_precision":"day","short_description":"NYC Parks property record for Christopher Park; type Triangle/Plaza; acres 0.186; waterfront=False.","category":"environment","lens":"green_space","confidence":"documented","source_ids":["enfh-gkve"],"affected_area_label":"Manhattan","explanation":"Parks property record with acquisition date for Christopher Park."},"geometry":{"type":"Point","coordinates":[-74.002332,40.733587]}}],"map_feature_count":1,"withheld_geometry_event_count":0}
