{"type":"FeatureCollection","schema_version":"1.0.0","city_id":"nyc","year":1969,"map_feature_count":66,"withheld_geometry_event_count":0,"features":[{"type":"Feature","id":"nyc_lpc_historic_district_lp-00250","properties":{"city_id":"nyc","event_id":"nyc_lpc_historic_district_lp-00250","title":"Historic district designated: St. Mark's Historic District","subtitle":"Manhattan / 1969-01-14 / Documented / Historic Districts","details":"LPC historic district designation record for St. Mark's Historic District.","year":1969,"effective_date":"1969-01-14","date_precision":"day","short_description":"LPC historic district record LP-00250; status DESIGNATED; public hearing 4/12/1966.","category":"built_environment","lens":"built_environment","confidence":"documented","source_ids":["skyk-mpzq"],"affected_area_label":"Manhattan","explanation":"LPC historic district designation record for St. Mark's Historic District."},"geometry":{"type":"Point","coordinates":[-73.987854,40.730253]}},{"type":"Feature","id":"nyc_lpc_historic_district_lp-00320","properties":{"city_id":"nyc","event_id":"nyc_lpc_historic_district_lp-00320","title":"Historic district designated: Cobble Hill Historic District","subtitle":"Brooklyn / 1969-12-30 / Documented / Historic Districts","details":"LPC historic district designation record for Cobble Hill Historic District.","year":1969,"effective_date":"1969-12-30","date_precision":"day","short_description":"LPC historic district record LP-00320; status DESIGNATED; public hearing <Null>.","category":"built_environment","lens":"built_environment","confidence":"documented","source_ids":["skyk-mpzq"],"affected_area_label":"Brooklyn","explanation":"LPC historic district designation record for Cobble Hill Historic District."},"geometry":{"type":"Point","coordinates":[-73.996308,40.68811]}},{"type":"Feature","id":"nyc_lpc_historic_district_lp-00451","properties":{"city_id":"nyc","event_id":"nyc_lpc_historic_district_lp-00451","title":"Historic district designated: Mott Haven Historic District","subtitle":"Bronx / 1969-07-29 / Documented / Historic Districts","details":"LPC historic district designation record for Mott Haven Historic District.","year":1969,"effective_date":"1969-07-29","date_precision":"day","short_description":"LPC historic district record LP-00451; status DESIGNATED; public hearing 11/22/1966.","category":"built_environment","lens":"built_environment","confidence":"documented","source_ids":["skyk-mpzq"],"affected_area_label":"Bronx","explanation":"LPC historic district designation record for Mott Haven Historic District."},"geometry":{"type":"Point","coordinates":[-73.92447,40.810791]}},{"type":"Feature","id":"nyc_lpc_historic_district_lp-00454","properties":{"city_id":"nyc","event_id":"nyc_lpc_historic_district_lp-00454","title":"Historic district designated: Henderson Place Historic District","subtitle":"Manhattan / 1969-02-11 / Documented / Historic Districts","details":"LPC historic district designation record for Henderson Place Historic District.","year":1969,"effective_date":"1969-02-11","date_precision":"day","short_description":"LPC historic district record LP-00454; status DESIGNATED; public hearing 11/22/1966; 12/27/1966.","category":"built_environment","lens":"built_environment","confidence":"documented","source_ids":["skyk-mpzq"],"affected_area_label":"Manhattan","explanation":"LPC historic district designation record for Henderson Place Historic District."},"geometry":{"type":"Point","coordinates":[-73.944818,40.775383]}},{"type":"Feature","id":"nyc_lpc_historic_district_lp-00489","properties":{"city_id":"nyc","event_id":"nyc_lpc_historic_district_lp-00489","title":"Historic district designated: Greenwich Village Historic District","subtitle":"Manhattan / 1969-04-29 / Documented / Historic Districts","details":"LPC historic district designation record for Greenwich Village Historic District.","year":1969,"effective_date":"1969-04-29","date_precision":"day","short_description":"LPC historic district record LP-00489; status DESIGNATED; public hearing 12/21/1966; 2/7/1967; 2/28/1967.","category":"built_environment","lens":"built_environment","confidence":"documented","source_ids":["skyk-mpzq"],"affected_area_label":"Manhattan","explanation":"LPC historic district designation record for Greenwich Village Historic District."},"geometry":{"type":"Point","coordinates":[-74.00151,40.734732]}},{"type":"Feature","id":"nyc_lpc_individual_landmark_1074","properties":{"city_id":"nyc","event_id":"nyc_lpc_individual_landmark_1074","title":"Individual landmark designated: Alice Austen House","subtitle":"Staten Island / 1969-05-13 / Documented / Individual Landmark Sites","details":"LPC designation record for Alice Austen House; designation date is taken from the source desdate field.","year":1969,"effective_date":"1969-05-13","date_precision":"day","short_description":"LPC individual landmark site LP-00371; status Designated; type Individual Landmark; alternate name not stated.","category":"built_environment","lens":"built_environment","confidence":"documented","source_ids":["buis-pvji"],"affected_area_label":"Staten Island","explanation":"LPC designation record for Alice Austen House; designation date is taken from the source desdate field."},"geometry":{"type":"Point","coordinates":[-74.062951,40.615323]}},{"type":"Feature","id":"nyc_lpc_individual_landmark_1097","properties":{"city_id":"nyc","event_id":"nyc_lpc_individual_landmark_1097","title":"Individual landmark designated: Parsonage","subtitle":"Staten Island / 1969-08-26 / Documented / Individual Landmark Sites","details":"LPC designation record for Parsonage; designation date is taken from the source desdate field.","year":1969,"effective_date":"1969-08-26","date_precision":"day","short_description":"LPC individual landmark site LP-00397-C; status Designated; type Individual Landmark; alternate name not stated.","category":"built_environment","lens":"built_environment","confidence":"documented","source_ids":["buis-pvji"],"affected_area_label":"Staten Island","explanation":"LPC designation record for Parsonage; designation date is taken from the source desdate field."},"geometry":{"type":"Point","coordinates":[-74.147268,40.570892]}},{"type":"Feature","id":"nyc_lpc_individual_landmark_1098","properties":{"city_id":"nyc","event_id":"nyc_lpc_individual_landmark_1098","title":"Individual landmark designated: Voorlezer's House","subtitle":"Staten Island / 1969-08-26 / Documented / Individual Landmark Sites","details":"LPC designation record for Voorlezer's House; designation date is taken from the source desdate field.","year":1969,"effective_date":"1969-08-26","date_precision":"day","short_description":"LPC individual landmark site LP-00397-A; status Designated; type Individual Landmark; alternate name not stated.","category":"built_environment","lens":"built_environment","confidence":"documented","source_ids":["buis-pvji"],"affected_area_label":"Staten Island","explanation":"LPC designation record for Voorlezer's House; designation date is taken from the source desdate field."},"geometry":{"type":"Point","coordinates":[-74.147494,40.571409]}},{"type":"Feature","id":"nyc_lpc_individual_landmark_1099","properties":{"city_id":"nyc","event_id":"nyc_lpc_individual_landmark_1099","title":"Individual landmark designated: Treasure House","subtitle":"Staten Island / 1969-08-26 / Documented / Individual Landmark Sites","details":"LPC designation record for Treasure House; designation date is taken from the source desdate field.","year":1969,"effective_date":"1969-08-26","date_precision":"day","short_description":"LPC individual landmark site LP-00397-B; status Designated; type Individual Landmark; alternate name not stated.","category":"built_environment","lens":"built_environment","confidence":"documented","source_ids":["buis-pvji"],"affected_area_label":"Staten Island","explanation":"LPC designation record for Treasure House; designation date is taken from the source desdate field."},"geometry":{"type":"Point","coordinates":[-74.147179,40.572041]}},{"type":"Feature","id":"nyc_lpc_individual_landmark_1100","properties":{"city_id":"nyc","event_id":"nyc_lpc_individual_landmark_1100","title":"Individual landmark designated: Historical Museum, Historic Richmond Town","subtitle":"Staten Island / 1969-08-26 / Documented / Individual Landmark Sites","details":"LPC designation record for Historical Museum, Historic Richmond Town; designation date is taken from the source desdate field.","year":1969,"effective_date":"1969-08-26","date_precision":"day","short_description":"LPC individual landmark site LP-00397-D; status Designated; type Individual Landmark; alternate name County Clerk's and Surrogate's Offices.","category":"built_environment","lens":"built_environment","confidence":"documented","source_ids":["buis-pvji"],"affected_area_label":"Staten Island","explanation":"LPC designation record for Historical Museum, Historic Richmond Town; designation date is taken from the source desdate field."},"geometry":{"type":"Point","coordinates":[-74.145971,40.571268]}},{"type":"Feature","id":"nyc_lpc_individual_landmark_1101","properties":{"city_id":"nyc","event_id":"nyc_lpc_individual_landmark_1101","title":"Individual landmark designated: Third County Courthouse","subtitle":"Staten Island / 1969-08-26 / Documented / Individual Landmark Sites","details":"LPC designation record for Third County Courthouse; designation date is taken from the source desdate field.","year":1969,"effective_date":"1969-08-26","date_precision":"day","short_description":"LPC individual landmark site LP-00397-E; status Designated; type Individual Landmark; alternate name now Visitors Center.","category":"built_environment","lens":"built_environment","confidence":"documented","source_ids":["buis-pvji"],"affected_area_label":"Staten Island","explanation":"LPC designation record for Third County Courthouse; designation date is taken from the source desdate field."},"geometry":{"type":"Point","coordinates":[-74.145636,40.570946]}},{"type":"Feature","id":"nyc_lpc_individual_landmark_1102","properties":{"city_id":"nyc","event_id":"nyc_lpc_individual_landmark_1102","title":"Individual landmark designated: Stephens-Black House","subtitle":"Staten Island / 1969-08-26 / Documented / Individual Landmark Sites","details":"LPC designation record for Stephens-Black House; designation date is taken from the source desdate field.","year":1969,"effective_date":"1969-08-26","date_precision":"day","short_description":"LPC individual landmark site LP-00397-F; status Designated; type Individual Landmark; alternate name not stated.","category":"built_environment","lens":"built_environment","confidence":"documented","source_ids":["buis-pvji"],"affected_area_label":"Staten Island","explanation":"LPC designation record for Stephens-Black House; designation date is taken from the source desdate field."},"geometry":{"type":"Point","coordinates":[-74.145536,40.571307]}},{"type":"Feature","id":"nyc_lpc_individual_landmark_1103","properties":{"city_id":"nyc","event_id":"nyc_lpc_individual_landmark_1103","title":"Individual landmark designated: Bennett House","subtitle":"Staten Island / 1969-08-26 / Documented / Individual Landmark Sites","details":"LPC designation record for Bennett House; designation date is taken from the source desdate field.","year":1969,"effective_date":"1969-08-26","date_precision":"day","short_description":"LPC individual landmark site LP-00397-G; status Designated; type Individual Landmark; alternate name not stated.","category":"built_environment","lens":"built_environment","confidence":"documented","source_ids":["buis-pvji"],"affected_area_label":"Staten Island","explanation":"LPC designation record for Bennett House; designation date is taken from the source desdate field."},"geometry":{"type":"Point","coordinates":[-74.14562,40.571768]}},{"type":"Feature","id":"nyc_lpc_individual_landmark_1104","properties":{"city_id":"nyc","event_id":"nyc_lpc_individual_landmark_1104","title":"Individual landmark designated: Rezeau-Van Pelt Cemetery","subtitle":"Staten Island / 1969-08-26 / Documented / Individual Landmark Sites","details":"LPC designation record for Rezeau-Van Pelt Cemetery; designation date is taken from the source desdate field.","year":1969,"effective_date":"1969-08-26","date_precision":"day","short_description":"LPC individual landmark site LP-00397-H; status Designated; type Individual Landmark; alternate name not stated.","category":"built_environment","lens":"built_environment","confidence":"documented","source_ids":["buis-pvji"],"affected_area_label":"Staten Island","explanation":"LPC designation record for Rezeau-Van Pelt Cemetery; designation date is taken from the source desdate field."},"geometry":{"type":"Point","coordinates":[-74.145998,40.570839]}},{"type":"Feature","id":"nyc_lpc_individual_landmark_1105","properties":{"city_id":"nyc","event_id":"nyc_lpc_individual_landmark_1105","title":"Individual landmark designated: Boehm-Frost House","subtitle":"Staten Island / 1969-08-26 / Documented / Individual Landmark Sites","details":"LPC designation record for Boehm-Frost House; designation date is taken from the source desdate field.","year":1969,"effective_date":"1969-08-26","date_precision":"day","short_description":"LPC individual landmark site LP-00397-I; status Designated; type Individual Landmark; alternate name now Boehm House.","category":"built_environment","lens":"built_environment","confidence":"documented","source_ids":["buis-pvji"],"affected_area_label":"Staten Island","explanation":"LPC designation record for Boehm-Frost House; designation date is taken from the source desdate field."},"geometry":{"type":"Point","coordinates":[-74.147313,40.571711]}},{"type":"Feature","id":"nyc_lpc_individual_landmark_1106","properties":{"city_id":"nyc","event_id":"nyc_lpc_individual_landmark_1106","title":"Individual landmark designated: Eltingville Store","subtitle":"Staten Island / 1969-08-26 / Documented / Individual Landmark Sites","details":"LPC designation record for Eltingville Store; designation date is taken from the source desdate field.","year":1969,"effective_date":"1969-08-26","date_precision":"day","short_description":"LPC individual landmark site LP-00397-J; status Designated; type Individual Landmark; alternate name now Print Shop, designated as Grocery Store.","category":"built_environment","lens":"built_environment","confidence":"documented","source_ids":["buis-pvji"],"affected_area_label":"Staten Island","explanation":"LPC designation record for Eltingville Store; designation date is taken from the source desdate field."},"geometry":{"type":"Point","coordinates":[-74.145594,40.571457]}},{"type":"Feature","id":"nyc_lpc_individual_landmark_1107","properties":{"city_id":"nyc","event_id":"nyc_lpc_individual_landmark_1107","title":"Individual landmark designated: Kruser-Finley House","subtitle":"Staten Island / 1969-08-26 / Documented / Individual Landmark Sites","details":"LPC designation record for Kruser-Finley House; designation date is taken from the source desdate field.","year":1969,"effective_date":"1969-08-26","date_precision":"day","short_description":"LPC individual landmark site LP-00397-K; status Designated; type Individual Landmark; alternate name not stated.","category":"built_environment","lens":"built_environment","confidence":"documented","source_ids":["buis-pvji"],"affected_area_label":"Staten Island","explanation":"LPC designation record for Kruser-Finley House; designation date is taken from the source desdate field."},"geometry":{"type":"Point","coordinates":[-74.146194,40.572163]}},{"type":"Feature","id":"nyc_lpc_individual_landmark_1108","properties":{"city_id":"nyc","event_id":"nyc_lpc_individual_landmark_1108","title":"Individual landmark designated: Basketmaker's House","subtitle":"Staten Island / 1969-08-26 / Documented / Individual Landmark Sites","details":"LPC designation record for Basketmaker's House; designation date is taken from the source desdate field.","year":1969,"effective_date":"1969-08-26","date_precision":"day","short_description":"LPC individual landmark site LP-00397-L; status Designated; type Individual Landmark; alternate name not stated.","category":"built_environment","lens":"built_environment","confidence":"documented","source_ids":["buis-pvji"],"affected_area_label":"Staten Island","explanation":"LPC designation record for Basketmaker's House; designation date is taken from the source desdate field."},"geometry":{"type":"Point","coordinates":[-74.145922,40.572164]}},{"type":"Feature","id":"nyc_lpc_individual_landmark_1109","properties":{"city_id":"nyc","event_id":"nyc_lpc_individual_landmark_1109","title":"Individual landmark designated: Guyon-Lake-Tysen House","subtitle":"Staten Island / 1969-08-26 / Documented / Individual Landmark Sites","details":"LPC designation record for Guyon-Lake-Tysen House; designation date is taken from the source desdate field.","year":1969,"effective_date":"1969-08-26","date_precision":"day","short_description":"LPC individual landmark site LP-00397-M; status Designated; type Individual Landmark; alternate name not stated.","category":"built_environment","lens":"built_environment","confidence":"documented","source_ids":["buis-pvji"],"affected_area_label":"Staten Island","explanation":"LPC designation record for Guyon-Lake-Tysen House; designation date is taken from the source desdate field."},"geometry":{"type":"Point","coordinates":[-74.145458,40.572053]}},{"type":"Feature","id":"nyc_lpc_individual_landmark_1111","properties":{"city_id":"nyc","event_id":"nyc_lpc_individual_landmark_1111","title":"Individual landmark designated: Christopher House — Staten Island","subtitle":"Staten Island / 1969-08-26 / Documented / Individual Landmark Sites","details":"LPC designation record for Christopher House; designation date is taken from the source desdate field.","year":1969,"effective_date":"1969-08-26","date_precision":"day","short_description":"LPC individual landmark site LP-00346; status Proposed; type Individual Landmark; alternate name not stated.","category":"built_environment","lens":"built_environment","confidence":"documented","source_ids":["buis-pvji"],"affected_area_label":"Staten Island","explanation":"LPC designation record for Christopher House; designation date is taken from the source desdate field."},"geometry":{"type":"Point","coordinates":[-74.147902,40.571928]}},{"type":"Feature","id":"nyc_lpc_individual_landmark_1153","properties":{"city_id":"nyc","event_id":"nyc_lpc_individual_landmark_1153","title":"Individual landmark designated: Russian Orthodox Cathedral of the Transfiguration of Our Lord","subtitle":"Brooklyn / 1969-11-19 / Documented / Individual Landmark Sites","details":"LPC designation record for Russian Orthodox Cathedral of the Transfiguration of Our Lord; designation date is taken from the source desdate field.","year":1969,"effective_date":"1969-11-19","date_precision":"day","short_description":"LPC individual landmark site LP-00162; status Designated; type Individual Landmark; alternate name not stated.","category":"built_environment","lens":"built_environment","confidence":"documented","source_ids":["buis-pvji"],"affected_area_label":"Brooklyn","explanation":"LPC designation record for Russian Orthodox Cathedral of the Transfiguration of Our Lord; designation date is taken from the source desdate field."},"geometry":{"type":"Point","coordinates":[-73.953403,40.719553]}},{"type":"Feature","id":"nyc_lpc_individual_landmark_1162","properties":{"city_id":"nyc","event_id":"nyc_lpc_individual_landmark_1162","title":"Individual landmark designated: Friends Meeting House and Seminary","subtitle":"Manhattan / 1969-12-09 / Documented / Individual Landmark Sites","details":"LPC designation record for Friends Meeting House and Seminary; designation date is taken from the source desdate field.","year":1969,"effective_date":"1969-12-09","date_precision":"day","short_description":"LPC individual landmark site LP-00241; status Designated; type Individual Landmark; alternate name not stated.","category":"built_environment","lens":"built_environment","confidence":"documented","source_ids":["buis-pvji"],"affected_area_label":"Manhattan","explanation":"LPC designation record for Friends Meeting House and Seminary; designation date is taken from the source desdate field."},"geometry":{"type":"Point","coordinates":[-73.985283,40.733835]}},{"type":"Feature","id":"nyc_lpc_individual_landmark_1164","properties":{"city_id":"nyc","event_id":"nyc_lpc_individual_landmark_1164","title":"Individual landmark designated: Plaza Hotel","subtitle":"Manhattan / 1969-12-09 / Documented / Individual Landmark Sites","details":"LPC designation record for Plaza Hotel; designation date is taken from the source desdate field.","year":1969,"effective_date":"1969-12-09","date_precision":"day","short_description":"LPC individual landmark site LP-00265; status Designated; type Individual Landmark; alternate name not stated.","category":"built_environment","lens":"built_environment","confidence":"documented","source_ids":["buis-pvji"],"affected_area_label":"Manhattan","explanation":"LPC designation record for Plaza Hotel; designation date is taken from the source desdate field."},"geometry":{"type":"Point","coordinates":[-73.974538,40.764466]}},{"type":"Feature","id":"nyc_lpc_individual_landmark_1174","properties":{"city_id":"nyc","event_id":"nyc_lpc_individual_landmark_1174","title":"Individual landmark designated: Christopher House — Staten Island · 1174","subtitle":"Staten Island / 1969-08-26 / Documented / Individual Landmark Sites","details":"LPC designation record for Christopher House; designation date is taken from the source desdate field.","year":1969,"effective_date":"1969-08-26","date_precision":"day","short_description":"LPC individual landmark site LP-00346; status Moved; type Individual Landmark; alternate name not stated.","category":"built_environment","lens":"built_environment","confidence":"documented","source_ids":["buis-pvji"],"affected_area_label":"Staten Island","explanation":"LPC designation record for Christopher House; designation date is taken from the source desdate field."},"geometry":{"type":"Point","coordinates":[-74.147134,40.606038]}},{"type":"Feature","id":"nyc_lpc_individual_landmark_1189","properties":{"city_id":"nyc","event_id":"nyc_lpc_individual_landmark_1189","title":"Individual landmark designated: Church of Saint Ignatius Loyola","subtitle":"Manhattan / 1969-03-04 / Documented / Individual Landmark Sites","details":"LPC designation record for Church of Saint Ignatius Loyola; designation date is taken from the source desdate field.","year":1969,"effective_date":"1969-03-04","date_precision":"day","short_description":"LPC individual landmark site LP-00431; status Designated; type Individual Landmark; alternate name not stated.","category":"built_environment","lens":"built_environment","confidence":"documented","source_ids":["buis-pvji"],"affected_area_label":"Manhattan","explanation":"LPC designation record for Church of Saint Ignatius Loyola; designation date is taken from the source desdate field."},"geometry":{"type":"Point","coordinates":[-73.958854,40.778915]}},{"type":"Feature","id":"nyc_lpc_individual_landmark_1197","properties":{"city_id":"nyc","event_id":"nyc_lpc_individual_landmark_1197","title":"Individual landmark designated: 41 Harrison Street House","subtitle":"Manhattan / 1969-05-13 / Documented / Individual Landmark Sites","details":"LPC designation record for 41 Harrison Street House; designation date is taken from the source desdate field.","year":1969,"effective_date":"1969-05-13","date_precision":"day","short_description":"LPC individual landmark site LP-00556; status Designated; type Individual Landmark; alternate name designated as the 331 Washington Street House (William B. Nichols House).","category":"built_environment","lens":"built_environment","confidence":"documented","source_ids":["buis-pvji"],"affected_area_label":"Manhattan","explanation":"LPC designation record for 41 Harrison Street House; designation date is taken from the source desdate field."},"geometry":{"type":"Point","coordinates":[-74.011026,40.718471]}},{"type":"Feature","id":"nyc_lpc_individual_landmark_1198","properties":{"city_id":"nyc","event_id":"nyc_lpc_individual_landmark_1198","title":"Individual landmark designated: 39 Harrison Street House","subtitle":"Manhattan / 1969-05-13 / Documented / Individual Landmark Sites","details":"LPC designation record for 39 Harrison Street House; designation date is taken from the source desdate field.","year":1969,"effective_date":"1969-05-13","date_precision":"day","short_description":"LPC individual landmark site LP-00555; status Designated; type Individual Landmark; alternate name designated as the 329 Washington Street House (Joseph Randolph House).","category":"built_environment","lens":"built_environment","confidence":"documented","source_ids":["buis-pvji"],"affected_area_label":"Manhattan","explanation":"LPC designation record for 39 Harrison Street House; designation date is taken from the source desdate field."},"geometry":{"type":"Point","coordinates":[-74.011003,40.718531]}},{"type":"Feature","id":"nyc_lpc_individual_landmark_1199","properties":{"city_id":"nyc","event_id":"nyc_lpc_individual_landmark_1199","title":"Individual landmark designated: 37 Harrison Street House","subtitle":"Manhattan / 1969-05-13 / Documented / Individual Landmark Sites","details":"LPC designation record for 37 Harrison Street House; designation date is taken from the source desdate field.","year":1969,"effective_date":"1969-05-13","date_precision":"day","short_description":"LPC individual landmark site LP-00554; status Designated; type Individual Landmark; alternate name designated as the 327 Washington Street House (Wilson Hunt House).","category":"built_environment","lens":"built_environment","confidence":"documented","source_ids":["buis-pvji"],"affected_area_label":"Manhattan","explanation":"LPC designation record for 37 Harrison Street House; designation date is taken from the source desdate field."},"geometry":{"type":"Point","coordinates":[-74.011001,40.718583]}},{"type":"Feature","id":"nyc_lpc_individual_landmark_1200","properties":{"city_id":"nyc","event_id":"nyc_lpc_individual_landmark_1200","title":"Individual landmark designated: 29 Harrison Street House","subtitle":"Manhattan / 1969-05-13 / Documented / Individual Landmark Sites","details":"LPC designation record for 29 Harrison Street House; designation date is taken from the source desdate field.","year":1969,"effective_date":"1969-05-13","date_precision":"day","short_description":"LPC individual landmark site LP-00557; status Designated; type Individual Landmark; alternate name also known as the Sarah R. Lambert House.","category":"built_environment","lens":"built_environment","confidence":"documented","source_ids":["buis-pvji"],"affected_area_label":"Manhattan","explanation":"LPC designation record for 29 Harrison Street House; designation date is taken from the source desdate field."},"geometry":{"type":"Point","coordinates":[-74.010883,40.718693]}},{"type":"Feature","id":"nyc_lpc_individual_landmark_1201","properties":{"city_id":"nyc","event_id":"nyc_lpc_individual_landmark_1201","title":"Individual landmark designated: 31 Harrison Street House","subtitle":"Manhattan / 1969-05-13 / Documented / Individual Landmark Sites","details":"LPC designation record for 31 Harrison Street House; designation date is taken from the source desdate field.","year":1969,"effective_date":"1969-05-13","date_precision":"day","short_description":"LPC individual landmark site LP-00558; status Designated; type Individual Landmark; alternate name also known as the Jacob Ruckle House.","category":"built_environment","lens":"built_environment","confidence":"documented","source_ids":["buis-pvji"],"affected_area_label":"Manhattan","explanation":"LPC designation record for 31 Harrison Street House; designation date is taken from the source desdate field."},"geometry":{"type":"Point","coordinates":[-74.010947,40.718701]}},{"type":"Feature","id":"nyc_lpc_individual_landmark_1202","properties":{"city_id":"nyc","event_id":"nyc_lpc_individual_landmark_1202","title":"Individual landmark designated: 33 Harrison Street House","subtitle":"Manhattan / 1969-05-13 / Documented / Individual Landmark Sites","details":"LPC designation record for 33 Harrison Street House; designation date is taken from the source desdate field.","year":1969,"effective_date":"1969-05-13","date_precision":"day","short_description":"LPC individual landmark site LP-00559; status Designated; type Individual Landmark; alternate name also known as the Ebenezer Miller House.","category":"built_environment","lens":"built_environment","confidence":"documented","source_ids":["buis-pvji"],"affected_area_label":"Manhattan","explanation":"LPC designation record for 33 Harrison Street House; designation date is taken from the source desdate field."},"geometry":{"type":"Point","coordinates":[-74.011019,40.718709]}},{"type":"Feature","id":"nyc_lpc_individual_landmark_1203","properties":{"city_id":"nyc","event_id":"nyc_lpc_individual_landmark_1203","title":"Individual landmark designated: 27A Harrison Street House","subtitle":"Manhattan / 1969-05-13 / Documented / Individual Landmark Sites","details":"LPC designation record for 27A Harrison Street House; designation date is taken from the source desdate field.","year":1969,"effective_date":"1969-05-13","date_precision":"day","short_description":"LPC individual landmark site LP-00551; status Proposed; type Individual Landmark; alternate name designated as the 315 Washington Street House.","category":"built_environment","lens":"built_environment","confidence":"documented","source_ids":["buis-pvji"],"affected_area_label":"Manhattan","explanation":"LPC designation record for 27A Harrison Street House; designation date is taken from the source desdate field."},"geometry":{"type":"Point","coordinates":[-74.010805,40.718699]}},{"type":"Feature","id":"nyc_lpc_individual_landmark_1204","properties":{"city_id":"nyc","event_id":"nyc_lpc_individual_landmark_1204","title":"Individual landmark designated: 27 Harrison Street House","subtitle":"Manhattan / 1969-05-13 / Documented / Individual Landmark Sites","details":"LPC designation record for 27 Harrison Street House; designation date is taken from the source desdate field.","year":1969,"effective_date":"1969-05-13","date_precision":"day","short_description":"LPC individual landmark site LP-00552; status Proposed; type Individual Landmark; alternate name designated as the 317 Washington Street House.","category":"built_environment","lens":"built_environment","confidence":"documented","source_ids":["buis-pvji"],"affected_area_label":"Manhattan","explanation":"LPC designation record for 27 Harrison Street House; designation date is taken from the source desdate field."},"geometry":{"type":"Point","coordinates":[-74.010708,40.718692]}},{"type":"Feature","id":"nyc_lpc_individual_landmark_1205","properties":{"city_id":"nyc","event_id":"nyc_lpc_individual_landmark_1205","title":"Individual landmark designated: 25 Harrison Street House","subtitle":"Manhattan / 1969-05-13 / Documented / Individual Landmark Sites","details":"LPC designation record for 25 Harrison Street House; designation date is taken from the source desdate field.","year":1969,"effective_date":"1969-05-13","date_precision":"day","short_description":"LPC individual landmark site LP-00553; status Proposed; type Individual Landmark; alternate name designated as the 314 Washington Street House (Jonas Wood House).","category":"built_environment","lens":"built_environment","confidence":"documented","source_ids":["buis-pvji"],"affected_area_label":"Manhattan","explanation":"LPC designation record for 25 Harrison Street House; designation date is taken from the source desdate field."},"geometry":{"type":"Point","coordinates":[-74.010639,40.718677]}},{"type":"Feature","id":"nyc_lpc_individual_landmark_172","properties":{"city_id":"nyc","event_id":"nyc_lpc_individual_landmark_172","title":"Individual landmark designated: New York City Marble Cemetery","subtitle":"Manhattan / 1969-03-04 / Documented / Individual Landmark Sites","details":"LPC designation record for New York City Marble Cemetery; designation date is taken from the source desdate field.","year":1969,"effective_date":"1969-03-04","date_precision":"day","short_description":"LPC individual landmark site LP-00464; status Designated; type Individual Landmark; alternate name not stated.","category":"built_environment","lens":"built_environment","confidence":"documented","source_ids":["buis-pvji"],"affected_area_label":"Manhattan","explanation":"LPC designation record for New York City Marble Cemetery; designation date is taken from the source desdate field."},"geometry":{"type":"Point","coordinates":[-73.988766,40.724615]}},{"type":"Feature","id":"nyc_lpc_individual_landmark_209","properties":{"city_id":"nyc","event_id":"nyc_lpc_individual_landmark_209","title":"Individual landmark designated: Metropolitan Savings Bank","subtitle":"Manhattan / 1969-11-19 / Documented / Individual Landmark Sites","details":"LPC designation record for Metropolitan Savings Bank; designation date is taken from the source desdate field.","year":1969,"effective_date":"1969-11-19","date_precision":"day","short_description":"LPC individual landmark site LP-00183; status Designated; type Individual Landmark; alternate name now the First Ukrainian Evangelical Pentecostal Church.","category":"built_environment","lens":"built_environment","confidence":"documented","source_ids":["buis-pvji"],"affected_area_label":"Manhattan","explanation":"LPC designation record for Metropolitan Savings Bank; designation date is taken from the source desdate field."},"geometry":{"type":"Point","coordinates":[-73.989973,40.728935]}},{"type":"Feature","id":"nyc_lpc_individual_landmark_216","properties":{"city_id":"nyc","event_id":"nyc_lpc_individual_landmark_216","title":"Individual landmark designated: New York Marble Cemetery","subtitle":"Manhattan / 1969-03-04 / Documented / Individual Landmark Sites","details":"LPC designation record for New York Marble Cemetery; designation date is taken from the source desdate field.","year":1969,"effective_date":"1969-03-04","date_precision":"day","short_description":"LPC individual landmark site LP-00466; status Designated; type Individual Landmark; alternate name not stated.","category":"built_environment","lens":"built_environment","confidence":"documented","source_ids":["buis-pvji"],"affected_area_label":"Manhattan","explanation":"LPC designation record for New York Marble Cemetery; designation date is taken from the source desdate field."},"geometry":{"type":"Point","coordinates":[-73.990919,40.725548]}},{"type":"Feature","id":"nyc_lpc_individual_landmark_285","properties":{"city_id":"nyc","event_id":"nyc_lpc_individual_landmark_285","title":"Individual landmark designated: 326 Spring Street House","subtitle":"Manhattan / 1969-11-19 / Documented / Individual Landmark Sites","details":"LPC designation record for 326 Spring Street House; designation date is taken from the source desdate field.","year":1969,"effective_date":"1969-11-19","date_precision":"day","short_description":"LPC individual landmark site LP-00568; status Designated; type Individual Landmark; alternate name designated as the James Brown House.","category":"built_environment","lens":"built_environment","confidence":"documented","source_ids":["buis-pvji"],"affected_area_label":"Manhattan","explanation":"LPC designation record for 326 Spring Street House; designation date is taken from the source desdate field."},"geometry":{"type":"Point","coordinates":[-74.009484,40.72586]}},{"type":"Feature","id":"nyc_lpc_individual_landmark_295","properties":{"city_id":"nyc","event_id":"nyc_lpc_individual_landmark_295","title":"Individual landmark designated: 20 Saint Mark's Place House","subtitle":"Manhattan / 1969-11-19 / Documented / Individual Landmark Sites","details":"LPC designation record for 20 Saint Mark's Place House; designation date is taken from the source desdate field.","year":1969,"effective_date":"1969-11-19","date_precision":"day","short_description":"LPC individual landmark site LP-00562; status Designated; type Individual Landmark; alternate name also known as the Daniel Leroy House.","category":"built_environment","lens":"built_environment","confidence":"documented","source_ids":["buis-pvji"],"affected_area_label":"Manhattan","explanation":"LPC designation record for 20 Saint Mark's Place House; designation date is taken from the source desdate field."},"geometry":{"type":"Point","coordinates":[-73.98895,40.728896]}},{"type":"Feature","id":"nyc_lpc_individual_landmark_467","properties":{"city_id":"nyc","event_id":"nyc_lpc_individual_landmark_467","title":"Individual landmark designated: 149 Mulberry Street House","subtitle":"Manhattan / 1969-02-11 / Documented / Individual Landmark Sites","details":"LPC designation record for 149 Mulberry Street House; designation date is taken from the source desdate field.","year":1969,"effective_date":"1969-02-11","date_precision":"day","short_description":"LPC individual landmark site LP-00563; status Designated; type Individual Landmark; alternate name designated as the Stephen Van Rensselaer House.","category":"built_environment","lens":"built_environment","confidence":"documented","source_ids":["buis-pvji"],"affected_area_label":"Manhattan","explanation":"LPC designation record for 149 Mulberry Street House; designation date is taken from the source desdate field."},"geometry":{"type":"Point","coordinates":[-73.997699,40.719105]}},{"type":"Feature","id":"nyc_lpc_individual_landmark_470","properties":{"city_id":"nyc","event_id":"nyc_lpc_individual_landmark_470","title":"Individual landmark designated: Saint Jean Baptiste Church","subtitle":"Manhattan / 1969-11-19 / Documented / Individual Landmark Sites","details":"LPC designation record for Saint Jean Baptiste Church; designation date is taken from the source desdate field.","year":1969,"effective_date":"1969-11-19","date_precision":"day","short_description":"LPC individual landmark site LP-00420; status Designated; type Individual Landmark; alternate name not stated.","category":"built_environment","lens":"built_environment","confidence":"documented","source_ids":["buis-pvji"],"affected_area_label":"Manhattan","explanation":"LPC designation record for Saint Jean Baptiste Church; designation date is taken from the source desdate field."},"geometry":{"type":"Point","coordinates":[-73.959978,40.772593]}},{"type":"Feature","id":"nyc_lpc_individual_landmark_484","properties":{"city_id":"nyc","event_id":"nyc_lpc_individual_landmark_484","title":"Individual landmark designated: Regis High School","subtitle":"Manhattan / 1969-11-19 / Documented / Individual Landmark Sites","details":"LPC designation record for Regis High School; designation date is taken from the source desdate field.","year":1969,"effective_date":"1969-11-19","date_precision":"day","short_description":"LPC individual landmark site LP-00433; status Designated; type Individual Landmark; alternate name not stated.","category":"built_environment","lens":"built_environment","confidence":"documented","source_ids":["buis-pvji"],"affected_area_label":"Manhattan","explanation":"LPC designation record for Regis High School; designation date is taken from the source desdate field."},"geometry":{"type":"Point","coordinates":[-73.958787,40.779568]}},{"type":"Feature","id":"nyc_lpc_individual_landmark_552","properties":{"city_id":"nyc","event_id":"nyc_lpc_individual_landmark_552","title":"Individual landmark designated: R. Livingston and Eleanor T. Beeckman House","subtitle":"Manhattan / 1969-01-14 / Documented / Individual Landmark Sites","details":"LPC designation record for R. Livingston and Eleanor T. Beeckman House; designation date is taken from the source desdate field.","year":1969,"effective_date":"1969-01-14","date_precision":"day","short_description":"LPC individual landmark site LP-00587; status Designated; type Individual Landmark; alternate name now the Permanent Mission of Serbia and Mentenegro to the United Nationas.","category":"built_environment","lens":"built_environment","confidence":"documented","source_ids":["buis-pvji"],"affected_area_label":"Manhattan","explanation":"LPC designation record for R. Livingston and Eleanor T. Beeckman House; designation date is taken from the source desdate field."},"geometry":{"type":"Point","coordinates":[-73.969183,40.768841]}},{"type":"Feature","id":"nyc_lpc_individual_landmark_572","properties":{"city_id":"nyc","event_id":"nyc_lpc_individual_landmark_572","title":"Individual landmark designated: Dakota Apartments","subtitle":"Manhattan / 1969-02-11 / Documented / Individual Landmark Sites","details":"LPC designation record for Dakota Apartments; designation date is taken from the source desdate field.","year":1969,"effective_date":"1969-02-11","date_precision":"day","short_description":"LPC individual landmark site LP-00280; status Designated; type Individual Landmark; alternate name not stated.","category":"built_environment","lens":"built_environment","confidence":"documented","source_ids":["buis-pvji"],"affected_area_label":"Manhattan","explanation":"LPC designation record for Dakota Apartments; designation date is taken from the source desdate field."},"geometry":{"type":"Point","coordinates":[-73.976253,40.776751]}},{"type":"Feature","id":"nyc_lpc_individual_landmark_597","properties":{"city_id":"nyc","event_id":"nyc_lpc_individual_landmark_597","title":"Individual landmark designated: Apthorp Apartments","subtitle":"Manhattan / 1969-09-09 / Documented / Individual Landmark Sites","details":"LPC designation record for Apthorp Apartments; designation date is taken from the source desdate field.","year":1969,"effective_date":"1969-09-09","date_precision":"day","short_description":"LPC individual landmark site LP-00288; status Designated; type Individual Landmark; alternate name not stated.","category":"built_environment","lens":"built_environment","confidence":"documented","source_ids":["buis-pvji"],"affected_area_label":"Manhattan","explanation":"LPC designation record for Apthorp Apartments; designation date is taken from the source desdate field."},"geometry":{"type":"Point","coordinates":[-73.980766,40.783765]}},{"type":"Feature","id":"nyc_lpc_individual_landmark_612","properties":{"city_id":"nyc","event_id":"nyc_lpc_individual_landmark_612","title":"Individual landmark designated: Irad Hawley House","subtitle":"Manhattan / 1969-09-09 / Documented / Individual Landmark Sites","details":"LPC designation record for Irad Hawley House; designation date is taken from the source desdate field.","year":1969,"effective_date":"1969-09-09","date_precision":"day","short_description":"LPC individual landmark site LP-00009; status Designated; type Individual Landmark; alternate name now the Salmagundi Club.","category":"built_environment","lens":"built_environment","confidence":"documented","source_ids":["buis-pvji"],"affected_area_label":"Manhattan","explanation":"LPC designation record for Irad Hawley House; designation date is taken from the source desdate field."},"geometry":{"type":"Point","coordinates":[-73.99439,40.73422]}},{"type":"Feature","id":"nyc_lpc_individual_landmark_636","properties":{"city_id":"nyc","event_id":"nyc_lpc_individual_landmark_636","title":"Individual landmark designated: George F. Baker, Jr. House","subtitle":"Manhattan / 1969-01-14 / Documented / Individual Landmark Sites","details":"LPC designation record for George F. Baker, Jr. House; designation date is taken from the source desdate field.","year":1969,"effective_date":"1969-01-14","date_precision":"day","short_description":"LPC individual landmark site LP-00438; status Designated; type Individual Landmark; alternate name now the Russian Orthodox Church Outside of Russia.","category":"built_environment","lens":"built_environment","confidence":"documented","source_ids":["buis-pvji"],"affected_area_label":"Manhattan","explanation":"LPC designation record for George F. Baker, Jr. House; designation date is taken from the source desdate field."},"geometry":{"type":"Point","coordinates":[-73.954162,40.784985]}},{"type":"Feature","id":"nyc_lpc_individual_landmark_736","properties":{"city_id":"nyc","event_id":"nyc_lpc_individual_landmark_736","title":"Individual landmark designated: 122 East 92nd Street House","subtitle":"Manhattan / 1969-11-19 / Documented / Individual Landmark Sites","details":"LPC designation record for 122 East 92nd Street House; designation date is taken from the source desdate field.","year":1969,"effective_date":"1969-11-19","date_precision":"day","short_description":"LPC individual landmark site LP-00589; status Designated; type Individual Landmark; alternate name not stated.","category":"built_environment","lens":"built_environment","confidence":"documented","source_ids":["buis-pvji"],"affected_area_label":"Manhattan","explanation":"LPC designation record for 122 East 92nd Street House; designation date is taken from the source desdate field."},"geometry":{"type":"Point","coordinates":[-73.953577,40.783392]}},{"type":"Feature","id":"nyc_lpc_individual_landmark_766","properties":{"city_id":"nyc","event_id":"nyc_lpc_individual_landmark_766","title":"Individual landmark designated: 120 East 92nd Street House","subtitle":"Manhattan / 1969-11-19 / Documented / Individual Landmark Sites","details":"LPC designation record for 120 East 92nd Street House; designation date is taken from the source desdate field.","year":1969,"effective_date":"1969-11-19","date_precision":"day","short_description":"LPC individual landmark site LP-00590; status Designated; type Individual Landmark; alternate name not stated.","category":"built_environment","lens":"built_environment","confidence":"documented","source_ids":["buis-pvji"],"affected_area_label":"Manhattan","explanation":"LPC designation record for 120 East 92nd Street House; designation date is taken from the source desdate field."},"geometry":{"type":"Point","coordinates":[-73.953659,40.783426]}},{"type":"Feature","id":"nyc_lpc_individual_landmark_801","properties":{"city_id":"nyc","event_id":"nyc_lpc_individual_landmark_801","title":"Individual landmark designated: 69 East 93rd Street Building","subtitle":"Manhattan / 1969-01-14 / Documented / Individual Landmark Sites","details":"LPC designation record for 69 East 93rd Street Building; designation date is taken from the source desdate field.","year":1969,"effective_date":"1969-01-14","date_precision":"day","short_description":"LPC individual landmark site LP-00439; status Designated; type Individual Landmark; alternate name not stated.","category":"built_environment","lens":"built_environment","confidence":"documented","source_ids":["buis-pvji"],"affected_area_label":"Manhattan","explanation":"LPC designation record for 69 East 93rd Street Building; designation date is taken from the source desdate field."},"geometry":{"type":"Point","coordinates":[-73.954414,40.785091]}},{"type":"Feature","id":"nyc_lpc_individual_landmark_9","properties":{"city_id":"nyc","event_id":"nyc_lpc_individual_landmark_9","title":"Individual landmark designated: 22 Pendleton Place House","subtitle":"Staten Island / 1969-03-04 / Documented / Individual Landmark Sites","details":"LPC designation record for 22 Pendleton Place House; designation date is taken from the source desdate field.","year":1969,"effective_date":"1969-03-04","date_precision":"day","short_description":"LPC individual landmark site LP-00332; status Designated; type Individual Landmark; alternate name also known as the W. S. Pendleton House.","category":"built_environment","lens":"built_environment","confidence":"documented","source_ids":["buis-pvji"],"affected_area_label":"Staten Island","explanation":"LPC designation record for 22 Pendleton Place House; designation date is taken from the source desdate field."},"geometry":{"type":"Point","coordinates":[-74.092517,40.641654]}},{"type":"Feature","id":"nyc_lpc_individual_landmark_913","properties":{"city_id":"nyc","event_id":"nyc_lpc_individual_landmark_913","title":"Individual landmark designated: Johannes Van Nuyse House","subtitle":"Brooklyn / 1969-02-11 / Documented / Individual Landmark Sites","details":"LPC designation record for Johannes Van Nuyse House; designation date is taken from the source desdate field.","year":1969,"effective_date":"1969-02-11","date_precision":"day","short_description":"LPC individual landmark site LP-00175; status Designated; type Individual Landmark; alternate name also known as the Van Nuyse-Magaw House.","category":"built_environment","lens":"built_environment","confidence":"documented","source_ids":["buis-pvji"],"affected_area_label":"Brooklyn","explanation":"LPC designation record for Johannes Van Nuyse House; designation date is taken from the source desdate field."},"geometry":{"type":"Point","coordinates":[-73.954246,40.626817]}},{"type":"Feature","id":"nyc_lpc_individual_landmark_916","properties":{"city_id":"nyc","event_id":"nyc_lpc_individual_landmark_916","title":"Individual landmark designated: Joost and Elzabeth Van Nuyse House","subtitle":"Brooklyn / 1969-11-19 / Documented / Individual Landmark Sites","details":"LPC designation record for Joost and Elzabeth Van Nuyse House; designation date is taken from the source desdate field.","year":1969,"effective_date":"1969-11-19","date_precision":"day","short_description":"LPC individual landmark site LP-00176; status Designated; type Individual Landmark; alternate name also known as the Coe House.","category":"built_environment","lens":"built_environment","confidence":"documented","source_ids":["buis-pvji"],"affected_area_label":"Brooklyn","explanation":"LPC designation record for Joost and Elzabeth Van Nuyse House; designation date is taken from the source desdate field."},"geometry":{"type":"Point","coordinates":[-73.943576,40.628093]}},{"type":"Feature","id":"nyc_parks_property_169129","properties":{"city_id":"nyc","event_id":"nyc_parks_property_169129","title":"Parks property acquisition: Aimee Triangle","subtitle":"Brooklyn / 1969-11-26 / Documented / Parks Properties","details":"Parks property record with acquisition date for Aimee Triangle.","year":1969,"effective_date":"1969-11-26","date_precision":"day","short_description":"NYC Parks property record for Aimee Triangle; type Triangle/Plaza; acres 0.11; waterfront=False.","category":"environment","lens":"green_space","confidence":"documented","source_ids":["enfh-gkve"],"affected_area_label":"Brooklyn","explanation":"Parks property record with acquisition date for Aimee Triangle."},"geometry":{"type":"Point","coordinates":[-73.944007,40.612988]}},{"type":"Feature","id":"nyc_parks_property_169509","properties":{"city_id":"nyc","event_id":"nyc_parks_property_169509","title":"Parks property acquisition: Wagner Houses Pool","subtitle":"Manhattan / 1969-03-13 / Documented / Parks Properties","details":"Parks property record with acquisition date for Wagner Houses Pool.","year":1969,"effective_date":"1969-03-13","date_precision":"day","short_description":"NYC Parks property record for Wagner Houses Pool; type Community Park; acres 1.64; waterfront=False.","category":"environment","lens":"green_space","confidence":"documented","source_ids":["enfh-gkve"],"affected_area_label":"Manhattan","explanation":"Parks property record with acquisition date for Wagner Houses Pool."},"geometry":{"type":"Point","coordinates":[-73.932491,40.801623]}},{"type":"Feature","id":"nyc_parks_property_169693","properties":{"city_id":"nyc","event_id":"nyc_parks_property_169693","title":"Parks property acquisition: Park","subtitle":"Bronx / 1969-10-09 / Documented / Parks Properties","details":"Parks property record with acquisition date for Park.","year":1969,"effective_date":"1969-10-09","date_precision":"day","short_description":"NYC Parks property record for Park; type Undeveloped; acres 0.042; waterfront=False.","category":"environment","lens":"green_space","confidence":"documented","source_ids":["enfh-gkve"],"affected_area_label":"Bronx","explanation":"Parks property record with acquisition date for Park."},"geometry":{"type":"Point","coordinates":[-73.843838,40.82903]}},{"type":"Feature","id":"nyc_parks_property_170311","properties":{"city_id":"nyc","event_id":"nyc_parks_property_170311","title":"Parks property acquisition: Spirit Playground","subtitle":"Queens / 1969-11-14 / Documented / Parks Properties","details":"Parks property record with acquisition date for Spirit Playground.","year":1969,"effective_date":"1969-11-14","date_precision":"day","short_description":"NYC Parks property record for Spirit Playground; type Jointly Operated Playground; acres 0.786; waterfront=False.","category":"environment","lens":"green_space","confidence":"documented","source_ids":["enfh-gkve"],"affected_area_label":"Queens","explanation":"Parks property record with acquisition date for Spirit Playground."},"geometry":{"type":"Point","coordinates":[-73.941325,40.761169]}},{"type":"Feature","id":"nyc_parks_property_170314","properties":{"city_id":"nyc","event_id":"nyc_parks_property_170314","title":"Parks property acquisition: Frank Golden Park","subtitle":"Queens / 1969-07-02 / Documented / Parks Properties","details":"Parks property record with acquisition date for Frank Golden Park.","year":1969,"effective_date":"1969-07-02","date_precision":"day","short_description":"NYC Parks property record for Frank Golden Park; type Neighborhood Park; acres 11.422; waterfront=False.","category":"environment","lens":"green_space","confidence":"documented","source_ids":["enfh-gkve"],"affected_area_label":"Queens","explanation":"Parks property record with acquisition date for Frank Golden Park."},"geometry":{"type":"Point","coordinates":[-73.83376,40.784859]}},{"type":"Feature","id":"nyc_parks_property_170316","properties":{"city_id":"nyc","event_id":"nyc_parks_property_170316","title":"Parks property acquisition: Fidler-Wyckoff House Park","subtitle":"Brooklyn / 1969-01-11 / Documented / Parks Properties","details":"Parks property record with acquisition date for Fidler-Wyckoff House Park.","year":1969,"effective_date":"1969-01-11","date_precision":"day","short_description":"NYC Parks property record for Fidler-Wyckoff House Park; type Historic House Park; acres 1.13; waterfront=False.","category":"environment","lens":"green_space","confidence":"documented","source_ids":["enfh-gkve"],"affected_area_label":"Brooklyn","explanation":"Parks property record with acquisition date for Fidler-Wyckoff House Park."},"geometry":{"type":"Point","coordinates":[-73.920602,40.644374]}},{"type":"Feature","id":"nyc_parks_property_170326","properties":{"city_id":"nyc","event_id":"nyc_parks_property_170326","title":"Parks property acquisition: The Cyclone","subtitle":"Brooklyn / 1969-11-19 / Documented / Parks Properties","details":"Parks property record with acquisition date for The Cyclone.","year":1969,"effective_date":"1969-11-19","date_precision":"day","short_description":"NYC Parks property record for The Cyclone; type Managed Sites; acres 1.17; waterfront=False.","category":"environment","lens":"green_space","confidence":"documented","source_ids":["enfh-gkve"],"affected_area_label":"Brooklyn","explanation":"Parks property record with acquisition date for The Cyclone."},"geometry":{"type":"Point","coordinates":[-73.977722,40.574198]}},{"type":"Feature","id":"nyc_parks_property_170364","properties":{"city_id":"nyc","event_id":"nyc_parks_property_170364","title":"Parks property acquisition: Lt. Lia Playground","subtitle":"Staten Island / 1969-08-05 / Documented / Parks Properties","details":"Parks property record with acquisition date for Lt. Lia Playground.","year":1969,"effective_date":"1969-08-05","date_precision":"day","short_description":"NYC Parks property record for Lt. Lia Playground; type Playground; acres 1.37; waterfront=False.","category":"environment","lens":"green_space","confidence":"documented","source_ids":["enfh-gkve"],"affected_area_label":"Staten Island","explanation":"Parks property record with acquisition date for Lt. Lia Playground."},"geometry":{"type":"Point","coordinates":[-74.079987,40.643653]}},{"type":"Feature","id":"nyc_parks_property_170747","properties":{"city_id":"nyc","event_id":"nyc_parks_property_170747","title":"Parks property acquisition: Steeplechase Park","subtitle":"Brooklyn / 1969-11-19 / Documented / Parks Properties","details":"Parks property record with acquisition date for Steeplechase Park.","year":1969,"effective_date":"1969-11-19","date_precision":"day","short_description":"NYC Parks property record for Steeplechase Park; type Community Park; acres 10.01; waterfront=True.","category":"environment","lens":"green_space","confidence":"documented","source_ids":["enfh-gkve"],"affected_area_label":"Brooklyn","explanation":"Parks property record with acquisition date for Steeplechase Park."},"geometry":{"type":"Point","coordinates":[-73.984546,40.573873]}},{"type":"Feature","id":"nyc_parks_property_170776","properties":{"city_id":"nyc","event_id":"nyc_parks_property_170776","title":"Parks property acquisition: Gustave Hartman Square","subtitle":"Manhattan / 1969-03-27 / Documented / Parks Properties","details":"Parks property record with acquisition date for Gustave Hartman Square.","year":1969,"effective_date":"1969-03-27","date_precision":"day","short_description":"NYC Parks property record for Gustave Hartman Square; type Triangle/Plaza; acres 0.095; waterfront=False.","category":"environment","lens":"green_space","confidence":"documented","source_ids":["enfh-gkve"],"affected_area_label":"Manhattan","explanation":"Parks property record with acquisition date for Gustave Hartman Square."},"geometry":{"type":"Point","coordinates":[-73.98067,40.720719]}},{"type":"Feature","id":"nyc_parks_property_170973","properties":{"city_id":"nyc","event_id":"nyc_parks_property_170973","title":"Parks property acquisition: Harlem RBI","subtitle":"Manhattan / 1969-01-31 / Documented / Parks Properties","details":"Parks property record with acquisition date for Harlem RBI.","year":1969,"effective_date":"1969-01-31","date_precision":"day","short_description":"NYC Parks property record for Harlem RBI; type Recreational Field/Courts; acres 0.9; waterfront=False.","category":"environment","lens":"green_space","confidence":"documented","source_ids":["enfh-gkve"],"affected_area_label":"Manhattan","explanation":"Parks property record with acquisition date for Harlem RBI."},"geometry":{"type":"Point","coordinates":[-73.943719,40.78664]}},{"type":"Feature","id":"nyc_parks_property_171012","properties":{"city_id":"nyc","event_id":"nyc_parks_property_171012","title":"Parks property acquisition: Samuel H. Young Park","subtitle":"Bronx / 1969-10-23 / Documented / Parks Properties","details":"Parks property record with acquisition date for Samuel H. Young Park.","year":1969,"effective_date":"1969-10-23","date_precision":"day","short_description":"NYC Parks property record for Samuel H. Young Park; type Recreational Field/Courts; acres 1.285; waterfront=False.","category":"environment","lens":"green_space","confidence":"documented","source_ids":["enfh-gkve"],"affected_area_label":"Bronx","explanation":"Parks property record with acquisition date for Samuel H. Young Park."},"geometry":{"type":"Point","coordinates":[-73.838525,40.842135]}},{"type":"Feature","id":"nyc_parks_property_171185","properties":{"city_id":"nyc","event_id":"nyc_parks_property_171185","title":"Parks property acquisition: Ralph Demarco Park","subtitle":"Queens / 1969-10-22 / Documented / Parks Properties","details":"Parks property record with acquisition date for Ralph Demarco Park.","year":1969,"effective_date":"1969-10-22","date_precision":"day","short_description":"NYC Parks property record for Ralph Demarco Park; type Neighborhood Park; acres 5.82; waterfront=True.","category":"environment","lens":"green_space","confidence":"documented","source_ids":["enfh-gkve"],"affected_area_label":"Queens","explanation":"Parks property record with acquisition date for Ralph Demarco Park."},"geometry":{"type":"Point","coordinates":[-73.91773,40.784066]}}]}
