{"type":"FeatureCollection","schema_version":"1.0.0","city_id":"nyc","year":1983,"features":[{"type":"Feature","id":"nyc_lpc_historic_district_lp-01286","properties":{"city_id":"nyc","event_id":"nyc_lpc_historic_district_lp-01286","title":"Historic district designated: Longwood Historic District Extension","year":1983,"effective_date":"1983-02-08","date_precision":"day","category":"built_environment","lens":"built_environment","confidence":"documented","source_ids":["skyk-mpzq"],"explanation":"LPC historic district designation record for Longwood Historic District Extension."},"geometry":{"type":"Point","coordinates":[-73.901055,40.818217]}},{"type":"Feature","id":"nyc_lpc_individual_landmark_1177","properties":{"city_id":"nyc","event_id":"nyc_lpc_individual_landmark_1177","title":"Individual landmark designated: Ernest Flagg House, Expanded Site","year":1983,"effective_date":"1983-06-28","date_precision":"day","category":"built_environment","lens":"built_environment","confidence":"documented","source_ids":["buis-pvji"],"explanation":"LPC designation record for Ernest Flagg House, Expanded Site; designation date is taken from the source desdate field."},"geometry":{"type":"Point","coordinates":[-74.106685,40.587808]}},{"type":"Feature","id":"nyc_lpc_individual_landmark_1249","properties":{"city_id":"nyc","event_id":"nyc_lpc_individual_landmark_1249","title":"Individual landmark designated: Street Plan of New Amsterdam and Colonial New York","year":1983,"effective_date":"1983-06-14","date_precision":"day","category":"built_environment","lens":"built_environment","confidence":"documented","source_ids":["buis-pvji"],"explanation":"LPC designation record for Street Plan of New Amsterdam and Colonial New York; designation date is taken from the source desdate field."},"geometry":{"type":"Point","coordinates":[-74.010953,40.705264]}},{"type":"Feature","id":"nyc_lpc_individual_landmark_278","properties":{"city_id":"nyc","event_id":"nyc_lpc_individual_landmark_278","title":"Individual landmark designated: Kent Automatic Parking Garage","year":1983,"effective_date":"1983-04-12","date_precision":"day","category":"built_environment","lens":"built_environment","confidence":"documented","source_ids":["buis-pvji"],"explanation":"LPC designation record for Kent Automatic Parking Garage; designation date is taken from the source desdate field."},"geometry":{"type":"Point","coordinates":[-73.983276,40.770505]}},{"type":"Feature","id":"nyc_lpc_individual_landmark_302","properties":{"city_id":"nyc","event_id":"nyc_lpc_individual_landmark_302","title":"Individual landmark designated: Woolworth Building","year":1983,"effective_date":"1983-04-12","date_precision":"day","category":"built_environment","lens":"built_environment","confidence":"documented","source_ids":["buis-pvji"],"explanation":"LPC designation record for Woolworth Building; designation date is taken from the source desdate field."},"geometry":{"type":"Point","coordinates":[-74.008455,40.712471]}},{"type":"Feature","id":"nyc_lpc_individual_landmark_318","properties":{"city_id":"nyc","event_id":"nyc_lpc_individual_landmark_318","title":"Individual landmark designated: Sixty-Ninth Regiment Armory","year":1983,"effective_date":"1983-04-12","date_precision":"day","category":"built_environment","lens":"built_environment","confidence":"documented","source_ids":["buis-pvji"],"explanation":"LPC designation record for Sixty-Ninth Regiment Armory; designation date is taken from the source desdate field."},"geometry":{"type":"Point","coordinates":[-73.984461,40.74142]}},{"type":"Feature","id":"nyc_lpc_individual_landmark_368","properties":{"city_id":"nyc","event_id":"nyc_lpc_individual_landmark_368","title":"Individual landmark designated: Puck Building","year":1983,"effective_date":"1983-04-12","date_precision":"day","category":"built_environment","lens":"built_environment","confidence":"documented","source_ids":["buis-pvji"],"explanation":"LPC designation record for Puck Building; designation date is taken from the source desdate field."},"geometry":{"type":"Point","coordinates":[-73.995316,40.724612]}},{"type":"Feature","id":"nyc_lpc_individual_landmark_621","properties":{"city_id":"nyc","event_id":"nyc_lpc_individual_landmark_621","title":"Individual landmark designated: Apollo Theater","year":1983,"effective_date":"1983-06-28","date_precision":"day","category":"built_environment","lens":"built_environment","confidence":"documented","source_ids":["buis-pvji"],"explanation":"LPC designation record for Apollo Theater; designation date is taken from the source desdate field."},"geometry":{"type":"Point","coordinates":[-73.949833,40.810114]}},{"type":"Feature","id":"nyc_lpc_individual_landmark_626","properties":{"city_id":"nyc","event_id":"nyc_lpc_individual_landmark_626","title":"Individual landmark designated: Association Residence for Respectable Aged Indigent Females","year":1983,"effective_date":"1983-04-12","date_precision":"day","category":"built_environment","lens":"built_environment","confidence":"documented","source_ids":["buis-pvji"],"explanation":"LPC designation record for Association Residence for Respectable Aged Indigent Females; designation date is taken from the source desdate field."},"geometry":{"type":"Point","coordinates":[-73.966258,40.798612]}},{"type":"Feature","id":"nyc_lpc_individual_landmark_698","properties":{"city_id":"nyc","event_id":"nyc_lpc_individual_landmark_698","title":"Individual landmark designated: Mecca Temple","year":1983,"effective_date":"1983-04-12","date_precision":"day","category":"built_environment","lens":"built_environment","confidence":"documented","source_ids":["buis-pvji"],"explanation":"LPC designation record for Mecca Temple; designation date is taken from the source desdate field."},"geometry":{"type":"Point","coordinates":[-73.97933,40.763971]}},{"type":"Feature","id":"nyc_lpc_individual_landmark_813","properties":{"city_id":"nyc","event_id":"nyc_lpc_individual_landmark_813","title":"Individual landmark designated: 18th Police Precinct Station House and Stable","year":1983,"effective_date":"1983-04-12","date_precision":"day","category":"built_environment","lens":"built_environment","confidence":"documented","source_ids":["buis-pvji"],"explanation":"LPC designation record for 18th Police Precinct Station House and Stable; designation date is taken from the source desdate field."},"geometry":{"type":"Point","coordinates":[-74.008977,40.650364]}},{"type":"Feature","id":"nyc_lpc_individual_landmark_893","properties":{"city_id":"nyc","event_id":"nyc_lpc_individual_landmark_893","title":"Individual landmark designated: Girls' High School","year":1983,"effective_date":"1983-06-28","date_precision":"day","category":"built_environment","lens":"built_environment","confidence":"documented","source_ids":["buis-pvji"],"explanation":"LPC designation record for Girls' High School; designation date is taken from the source desdate field."},"geometry":{"type":"Point","coordinates":[-73.948952,40.681535]}},{"type":"Feature","id":"nyc_lpc_individual_landmark_923","properties":{"city_id":"nyc","event_id":"nyc_lpc_individual_landmark_923","title":"Individual landmark designated: Astral Apartments","year":1983,"effective_date":"1983-06-28","date_precision":"day","category":"built_environment","lens":"built_environment","confidence":"documented","source_ids":["buis-pvji"],"explanation":"LPC designation record for Astral Apartments; designation date is taken from the source desdate field."},"geometry":{"type":"Point","coordinates":[-73.957456,40.731697]}},{"type":"Feature","id":"nyc_lpc_individual_landmark_928","properties":{"city_id":"nyc","event_id":"nyc_lpc_individual_landmark_928","title":"Individual landmark designated: Public School 34","year":1983,"effective_date":"1983-04-12","date_precision":"day","category":"built_environment","lens":"built_environment","confidence":"documented","source_ids":["buis-pvji"],"explanation":"LPC designation record for Public School 34; designation date is taken from the source desdate field."},"geometry":{"type":"Point","coordinates":[-73.94984,40.726411]}},{"type":"Feature","id":"nyc_parks_property_169130","properties":{"city_id":"nyc","event_id":"nyc_parks_property_169130","title":"Parks property acquisition: Forest Mall","year":1983,"effective_date":"1983-01-01","date_precision":"day","category":"environment","lens":"green_space","confidence":"documented","source_ids":["enfh-gkve"],"explanation":"Parks property record with acquisition date for Forest Mall."},"geometry":{"type":"Point","coordinates":[-74.091432,40.630974]}},{"type":"Feature","id":"nyc_parks_property_170881","properties":{"city_id":"nyc","event_id":"nyc_parks_property_170881","title":"Parks property acquisition: Lot","year":1983,"effective_date":"1983-08-17","date_precision":"day","category":"environment","lens":"green_space","confidence":"documented","source_ids":["enfh-gkve"],"explanation":"Parks property record with acquisition date for Lot."},"geometry":{"type":"Point","coordinates":[-73.923208,40.83117]}}]}
