{"type":"FeatureCollection","schema_version":"1.0.0","city_id":"nyc","year":1849,"map_feature_count":2,"withheld_geometry_event_count":0,"features":[{"type":"Feature","id":"nyc_parks_property_169099","properties":{"city_id":"nyc","event_id":"nyc_parks_property_169099","title":"Parks property acquisition: Sherman Square","subtitle":"Manhattan / 1849-03-31 / Documented / Parks Properties","details":"Parks property record with acquisition date for Sherman Square.","year":1849,"effective_date":"1849-03-31","date_precision":"day","short_description":"NYC Parks property record for Sherman Square; type Triangle/Plaza; acres 0.066; waterfront=False.","category":"environment","lens":"green_space","confidence":"documented","source_ids":["enfh-gkve"],"affected_area_label":"Manhattan","explanation":"Parks property record with acquisition date for Sherman Square."},"geometry":{"type":"Point","coordinates":[-73.982335,40.777364]}},{"type":"Feature","id":"nyc_parks_property_169972","properties":{"city_id":"nyc","event_id":"nyc_parks_property_169972","title":"Parks property acquisition: Flood Triangle","subtitle":"Bronx / 1849-03-31 / Documented / Parks Properties","details":"Parks property record with acquisition date for Flood Triangle.","year":1849,"effective_date":"1849-03-31","date_precision":"day","short_description":"NYC Parks property record for Flood Triangle; type Triangle/Plaza; acres 0.072; waterfront=False.","category":"environment","lens":"green_space","confidence":"documented","source_ids":["enfh-gkve"],"affected_area_label":"Bronx","explanation":"Parks property record with acquisition date for Flood Triangle."},"geometry":{"type":"Point","coordinates":[-73.89091,40.858308]}}]}
