{"type":"FeatureCollection","schema_version":"1.0.0","city_id":"nyc","year":1888,"features":[{"type":"Feature","id":"nyc_parks_property_169113","properties":{"city_id":"nyc","event_id":"nyc_parks_property_169113","title":"Parks property acquisition: Devanney Triangle","year":1888,"effective_date":"1888-02-01","date_precision":"day","category":"environment","lens":"green_space","confidence":"documented","source_ids":["enfh-gkve"],"explanation":"Parks property record with acquisition date for Devanney Triangle."},"geometry":{"type":"Point","coordinates":[-73.904612,40.852545]}},{"type":"Feature","id":"nyc_parks_property_169196","properties":{"city_id":"nyc","event_id":"nyc_parks_property_169196","title":"Parks property acquisition: Crotona Parkway Malls","year":1888,"effective_date":"1888-12-12","date_precision":"day","category":"environment","lens":"green_space","confidence":"documented","source_ids":["enfh-gkve"],"explanation":"Parks property record with acquisition date for Crotona Parkway Malls."},"geometry":{"type":"Point","coordinates":[-73.884925,40.843799]}},{"type":"Feature","id":"nyc_parks_property_169201","properties":{"city_id":"nyc","event_id":"nyc_parks_property_169201","title":"Parks property acquisition: Claremont Park","year":1888,"effective_date":"1888-12-12","date_precision":"day","category":"environment","lens":"green_space","confidence":"documented","source_ids":["enfh-gkve"],"explanation":"Parks property record with acquisition date for Claremont Park."},"geometry":{"type":"Point","coordinates":[-73.907483,40.839669]}},{"type":"Feature","id":"nyc_parks_property_169330","properties":{"city_id":"nyc","event_id":"nyc_parks_property_169330","title":"Parks property acquisition: Walter Gladwin Park","year":1888,"effective_date":"1888-12-08","date_precision":"day","category":"environment","lens":"green_space","confidence":"documented","source_ids":["enfh-gkve"],"explanation":"Parks property record with acquisition date for Walter Gladwin Park."},"geometry":{"type":"Point","coordinates":[-73.894543,40.846127]}},{"type":"Feature","id":"nyc_parks_property_169475","properties":{"city_id":"nyc","event_id":"nyc_parks_property_169475","title":"Parks property acquisition: Park Avenue Malls","year":1888,"effective_date":"1888-03-01","date_precision":"day","category":"environment","lens":"green_space","confidence":"documented","source_ids":["enfh-gkve"],"explanation":"Parks property record with acquisition date for Park Avenue Malls."},"geometry":{"type":"Point","coordinates":[-73.970283,40.76225]}},{"type":"Feature","id":"nyc_parks_property_169526","properties":{"city_id":"nyc","event_id":"nyc_parks_property_169526","title":"Parks property acquisition: Van Cortlandt Park","year":1888,"effective_date":"1888-12-12","date_precision":"day","category":"environment","lens":"green_space","confidence":"documented","source_ids":["enfh-gkve"],"explanation":"Parks property record with acquisition date for Van Cortlandt Park."},"geometry":{"type":"Point","coordinates":[-73.888656,40.895518]}},{"type":"Feature","id":"nyc_parks_property_169689","properties":{"city_id":"nyc","event_id":"nyc_parks_property_169689","title":"Parks property acquisition: Mosholu Parkway","year":1888,"effective_date":"1888-12-12","date_precision":"day","category":"environment","lens":"green_space","confidence":"documented","source_ids":["enfh-gkve"],"explanation":"Parks property record with acquisition date for Mosholu Parkway."},"geometry":{"type":"Point","coordinates":[-73.883106,40.876003]}},{"type":"Feature","id":"nyc_parks_property_170145","properties":{"city_id":"nyc","event_id":"nyc_parks_property_170145","title":"Parks property acquisition: Crotona Park","year":1888,"effective_date":"1888-12-08","date_precision":"day","category":"environment","lens":"green_space","confidence":"documented","source_ids":["enfh-gkve"],"explanation":"Parks property record with acquisition date for Crotona Park."},"geometry":{"type":"Point","coordinates":[-73.896354,40.836736]}},{"type":"Feature","id":"nyc_parks_property_170428","properties":{"city_id":"nyc","event_id":"nyc_parks_property_170428","title":"Parks property acquisition: St. Mary's Park","year":1888,"effective_date":"1888-12-12","date_precision":"day","category":"environment","lens":"green_space","confidence":"documented","source_ids":["enfh-gkve"],"explanation":"Parks property record with acquisition date for St. Mary's Park."},"geometry":{"type":"Point","coordinates":[-73.911194,40.81177]}},{"type":"Feature","id":"nyc_parks_property_170929","properties":{"city_id":"nyc","event_id":"nyc_parks_property_170929","title":"Parks property acquisition: Annunciation Playground","year":1888,"effective_date":"1888-04-24","date_precision":"day","category":"environment","lens":"green_space","confidence":"documented","source_ids":["enfh-gkve"],"explanation":"Parks property record with acquisition date for Annunciation Playground."},"geometry":{"type":"Point","coordinates":[-73.951814,40.818013]}},{"type":"Feature","id":"nyc_parks_property_171038","properties":{"city_id":"nyc","event_id":"nyc_parks_property_171038","title":"Parks property acquisition: Bronx Park","year":1888,"effective_date":"1888-12-08","date_precision":"day","category":"environment","lens":"green_space","confidence":"documented","source_ids":["enfh-gkve"],"explanation":"Parks property record with acquisition date for Bronx Park."},"geometry":{"type":"Point","coordinates":[-73.873844,40.860074]}},{"type":"Feature","id":"nyc_parks_property_171043","properties":{"city_id":"nyc","event_id":"nyc_parks_property_171043","title":"Parks property acquisition: Pelham Parkway","year":1888,"effective_date":"1888-12-12","date_precision":"day","category":"environment","lens":"green_space","confidence":"documented","source_ids":["enfh-gkve"],"explanation":"Parks property record with acquisition date for Pelham Parkway."},"geometry":{"type":"Point","coordinates":[-73.852702,40.857135]}},{"type":"Feature","id":"nyc_parks_property_171047","properties":{"city_id":"nyc","event_id":"nyc_parks_property_171047","title":"Parks property acquisition: Pelham Bay Park","year":1888,"effective_date":"1888-12-12","date_precision":"day","category":"environment","lens":"green_space","confidence":"documented","source_ids":["enfh-gkve"],"explanation":"Parks property record with acquisition date for Pelham Bay Park."},"geometry":{"type":"Point","coordinates":[-73.806764,40.867235]}}]}
