{"type":"FeatureCollection","schema_version":"1.0.0","city_id":"nyc","year":1927,"features":[{"type":"Feature","id":"nyc_parks_property_169155","properties":{"city_id":"nyc","event_id":"nyc_parks_property_169155","title":"Parks property acquisition: Woodrow Wilson Triangle","year":1927,"effective_date":"1927-08-10","date_precision":"day","category":"environment","lens":"green_space","confidence":"documented","source_ids":["enfh-gkve"],"explanation":"Parks property record with acquisition date for Woodrow Wilson Triangle."},"geometry":{"type":"Point","coordinates":[-73.858092,40.813448]}},{"type":"Feature","id":"nyc_parks_property_169751","properties":{"city_id":"nyc","event_id":"nyc_parks_property_169751","title":"Parks property acquisition: Federalist Triangle","year":1927,"effective_date":"1927-02-03","date_precision":"day","category":"environment","lens":"green_space","confidence":"documented","source_ids":["enfh-gkve"],"explanation":"Parks property record with acquisition date for Federalist Triangle."},"geometry":{"type":"Point","coordinates":[-73.900532,40.726806]}},{"type":"Feature","id":"nyc_parks_property_169764","properties":{"city_id":"nyc","event_id":"nyc_parks_property_169764","title":"Parks property acquisition: David J O'Connell Square","year":1927,"effective_date":"1927-11-30","date_precision":"day","category":"environment","lens":"green_space","confidence":"documented","source_ids":["enfh-gkve"],"explanation":"Parks property record with acquisition date for David J O'Connell Square."},"geometry":{"type":"Point","coordinates":[-73.820585,40.676586]}},{"type":"Feature","id":"nyc_parks_property_169897","properties":{"city_id":"nyc","event_id":"nyc_parks_property_169897","title":"Parks property acquisition: Steinmann Triangle","year":1927,"effective_date":"1927-09-01","date_precision":"day","category":"environment","lens":"green_space","confidence":"documented","source_ids":["enfh-gkve"],"explanation":"Parks property record with acquisition date for Steinmann Triangle."},"geometry":{"type":"Point","coordinates":[-73.909135,40.745185]}},{"type":"Feature","id":"nyc_parks_property_171129","properties":{"city_id":"nyc","event_id":"nyc_parks_property_171129","title":"Parks property acquisition: Cunningham Park","year":1927,"effective_date":"1927-10-10","date_precision":"day","category":"environment","lens":"green_space","confidence":"documented","source_ids":["enfh-gkve"],"explanation":"Parks property record with acquisition date for Cunningham Park."},"geometry":{"type":"Point","coordinates":[-73.766993,40.734512]}},{"type":"Feature","id":"nyc_parks_property_171200","properties":{"city_id":"nyc","event_id":"nyc_parks_property_171200","title":"Parks property acquisition: Mall Thirty Four XXXIV","year":1927,"effective_date":"1927-01-20","date_precision":"day","category":"environment","lens":"green_space","confidence":"documented","source_ids":["enfh-gkve"],"explanation":"Parks property record with acquisition date for Mall Thirty Four XXXIV."},"geometry":{"type":"Point","coordinates":[-73.878182,40.754456]}}]}
