{"type":"FeatureCollection","schema_version":"1.0.0","city_id":"nyc","year":1868,"features":[{"type":"Feature","id":"nyc_parks_property_170163","properties":{"city_id":"nyc","event_id":"nyc_parks_property_170163","title":"Parks property acquisition: Lindsay Triangle","year":1868,"effective_date":"1868-07-28","date_precision":"day","category":"environment","lens":"green_space","confidence":"documented","source_ids":["enfh-gkve"],"explanation":"Parks property record with acquisition date for Lindsay Triangle."},"geometry":{"type":"Point","coordinates":[-73.94819,40.704138]}}]}
