{"type":"FeatureCollection","schema_version":"1.0.0","city_id":"nyc","year":1985,"features":[{"type":"Feature","id":"nyc_lpc_historic_district_lp-01408","properties":{"city_id":"nyc","event_id":"nyc_lpc_historic_district_lp-01408","title":"Historic district designated: New York City Farm Colony- Seaview Hospital Historic District","year":1985,"effective_date":"1985-03-26","date_precision":"day","category":"built_environment","lens":"built_environment","confidence":"documented","source_ids":["skyk-mpzq"],"explanation":"LPC historic district designation record for New York City Farm Colony- Seaview Hospital Historic District."},"geometry":{"type":"Point","coordinates":[-74.132917,40.5936]}},{"type":"Feature","id":"nyc_lpc_historic_district_lp-01429","properties":{"city_id":"nyc","event_id":"nyc_lpc_historic_district_lp-01429","title":"Historic district designated: Riverside Drive-West 80th-81st Street Historic District","year":1985,"effective_date":"1985-03-26","date_precision":"day","category":"built_environment","lens":"built_environment","confidence":"documented","source_ids":["skyk-mpzq"],"explanation":"LPC historic district designation record for Riverside Drive-West 80th-81st Street Historic District."},"geometry":{"type":"Point","coordinates":[-73.981541,40.785693]}},{"type":"Feature","id":"nyc_lpc_individual_landmark_1064","properties":{"city_id":"nyc","event_id":"nyc_lpc_individual_landmark_1064","title":"Individual landmark designated: Manufacturers Hanover Trust Building","year":1985,"effective_date":"1985-04-23","date_precision":"day","category":"built_environment","lens":"built_environment","confidence":"documented","source_ids":["buis-pvji"],"explanation":"LPC designation record for Manufacturers Hanover Trust Building; designation date is taken from the source desdate field."},"geometry":{"type":"Point","coordinates":[-73.978498,40.757891]}},{"type":"Feature","id":"nyc_lpc_individual_landmark_1065","properties":{"city_id":"nyc","event_id":"nyc_lpc_individual_landmark_1065","title":"Individual landmark designated: Rockefeller Center","year":1985,"effective_date":"1985-04-23","date_precision":"day","category":"built_environment","lens":"built_environment","confidence":"documented","source_ids":["buis-pvji"],"explanation":"LPC designation record for Rockefeller Center; designation date is taken from the source desdate field."},"geometry":{"type":"Point","coordinates":[-73.978915,40.759236]}},{"type":"Feature","id":"nyc_lpc_individual_landmark_1256","properties":{"city_id":"nyc","event_id":"nyc_lpc_individual_landmark_1256","title":"Individual landmark designated: Seaman's Retreat, Main Building","year":1985,"effective_date":"1985-04-09","date_precision":"day","category":"built_environment","lens":"built_environment","confidence":"documented","source_ids":["buis-pvji"],"explanation":"LPC designation record for Seaman's Retreat, Main Building; designation date is taken from the source desdate field."},"geometry":{"type":"Point","coordinates":[-74.075025,40.623235]}},{"type":"Feature","id":"nyc_lpc_individual_landmark_1257","properties":{"city_id":"nyc","event_id":"nyc_lpc_individual_landmark_1257","title":"Individual landmark designated: Seaman's Retreat, Physician-in-Chief's Residence","year":1985,"effective_date":"1985-04-09","date_precision":"day","category":"built_environment","lens":"built_environment","confidence":"documented","source_ids":["buis-pvji"],"explanation":"LPC designation record for Seaman's Retreat, Physician-in-Chief's Residence; designation date is taken from the source desdate field."},"geometry":{"type":"Point","coordinates":[-74.074543,40.624019]}},{"type":"Feature","id":"nyc_lpc_individual_landmark_1261","properties":{"city_id":"nyc","event_id":"nyc_lpc_individual_landmark_1261","title":"Individual landmark designated: Emigrant Industrial Savings Bank Building","year":1985,"effective_date":"1985-07-09","date_precision":"day","category":"built_environment","lens":"built_environment","confidence":"documented","source_ids":["buis-pvji"],"explanation":"LPC designation record for Emigrant Industrial Savings Bank Building; designation date is taken from the source desdate field."},"geometry":{"type":"Point","coordinates":[-74.005002,40.713962]}},{"type":"Feature","id":"nyc_lpc_individual_landmark_1263","properties":{"city_id":"nyc","event_id":"nyc_lpc_individual_landmark_1263","title":"Individual landmark designated: East River Houses","year":1985,"effective_date":"1985-07-09","date_precision":"day","category":"built_environment","lens":"built_environment","confidence":"documented","source_ids":["buis-pvji"],"explanation":"LPC designation record for East River Houses; designation date is taken from the source desdate field."},"geometry":{"type":"Point","coordinates":[-73.950129,40.77]}},{"type":"Feature","id":"nyc_lpc_individual_landmark_1264","properties":{"city_id":"nyc","event_id":"nyc_lpc_individual_landmark_1264","title":"Individual landmark designated: New York Stock Exchange","year":1985,"effective_date":"1985-07-09","date_precision":"day","category":"built_environment","lens":"built_environment","confidence":"documented","source_ids":["buis-pvji"],"explanation":"LPC designation record for New York Stock Exchange; designation date is taken from the source desdate field."},"geometry":{"type":"Point","coordinates":[-74.011314,40.706909]}},{"type":"Feature","id":"nyc_lpc_individual_landmark_1265","properties":{"city_id":"nyc","event_id":"nyc_lpc_individual_landmark_1265","title":"Individual landmark designated: 712 Fifth Avenue Building","year":1985,"effective_date":"1985-01-29","date_precision":"day","category":"built_environment","lens":"built_environment","confidence":"documented","source_ids":["buis-pvji"],"explanation":"LPC designation record for 712 Fifth Avenue Building; designation date is taken from the source desdate field."},"geometry":{"type":"Point","coordinates":[-73.975002,40.762125]}},{"type":"Feature","id":"nyc_lpc_individual_landmark_1266","properties":{"city_id":"nyc","event_id":"nyc_lpc_individual_landmark_1266","title":"Individual landmark designated: Coty Building","year":1985,"effective_date":"1985-01-29","date_precision":"day","category":"built_environment","lens":"built_environment","confidence":"documented","source_ids":["buis-pvji"],"explanation":"LPC designation record for Coty Building; designation date is taken from the source desdate field."},"geometry":{"type":"Point","coordinates":[-73.974895,40.762206]}},{"type":"Feature","id":"nyc_lpc_individual_landmark_226","properties":{"city_id":"nyc","event_id":"nyc_lpc_individual_landmark_226","title":"Individual landmark designated: Alvin Theater","year":1985,"effective_date":"1985-08-06","date_precision":"day","category":"built_environment","lens":"built_environment","confidence":"documented","source_ids":["buis-pvji"],"explanation":"LPC designation record for Alvin Theater; designation date is taken from the source desdate field."},"geometry":{"type":"Point","coordinates":[-73.984494,40.763002]}},{"type":"Feature","id":"nyc_lpc_individual_landmark_342","properties":{"city_id":"nyc","event_id":"nyc_lpc_individual_landmark_342","title":"Individual landmark designated: Normandy Apartments","year":1985,"effective_date":"1985-11-12","date_precision":"day","category":"built_environment","lens":"built_environment","confidence":"documented","source_ids":["buis-pvji"],"explanation":"LPC designation record for Normandy Apartments; designation date is taken from the source desdate field."},"geometry":{"type":"Point","coordinates":[-73.979597,40.790128]}},{"type":"Feature","id":"nyc_lpc_individual_landmark_350","properties":{"city_id":"nyc","event_id":"nyc_lpc_individual_landmark_350","title":"Individual landmark designated: B. Altman & Co. Department Store","year":1985,"effective_date":"1985-03-12","date_precision":"day","category":"built_environment","lens":"built_environment","confidence":"documented","source_ids":["buis-pvji"],"explanation":"LPC designation record for B. Altman & Co. Department Store; designation date is taken from the source desdate field."},"geometry":{"type":"Point","coordinates":[-73.983316,40.748446]}},{"type":"Feature","id":"nyc_lpc_individual_landmark_488","properties":{"city_id":"nyc","event_id":"nyc_lpc_individual_landmark_488","title":"Individual landmark designated: 254-260 Canal Street","year":1985,"effective_date":"1985-03-12","date_precision":"day","category":"built_environment","lens":"built_environment","confidence":"documented","source_ids":["buis-pvji"],"explanation":"LPC designation record for 254-260 Canal Street; designation date is taken from the source desdate field."},"geometry":{"type":"Point","coordinates":[-74.001,40.718356]}},{"type":"Feature","id":"nyc_lpc_individual_landmark_49","properties":{"city_id":"nyc","event_id":"nyc_lpc_individual_landmark_49","title":"Individual landmark designated: Rossville A.M.E. Zion Church Cemetery","year":1985,"effective_date":"1985-04-09","date_precision":"day","category":"built_environment","lens":"built_environment","confidence":"documented","source_ids":["buis-pvji"],"explanation":"LPC designation record for Rossville A.M.E. Zion Church Cemetery; designation date is taken from the source desdate field."},"geometry":{"type":"Point","coordinates":[-74.220256,40.541332]}},{"type":"Feature","id":"nyc_lpc_individual_landmark_560","properties":{"city_id":"nyc","event_id":"nyc_lpc_individual_landmark_560","title":"Individual landmark designated: 369th Regiment Armory","year":1985,"effective_date":"1985-05-14","date_precision":"day","category":"built_environment","lens":"built_environment","confidence":"documented","source_ids":["buis-pvji"],"explanation":"LPC designation record for 369th Regiment Armory; designation date is taken from the source desdate field."},"geometry":{"type":"Point","coordinates":[-73.93519,40.817865]}},{"type":"Feature","id":"nyc_lpc_individual_landmark_591","properties":{"city_id":"nyc","event_id":"nyc_lpc_individual_landmark_591","title":"Individual landmark designated: Century Apartments","year":1985,"effective_date":"1985-07-09","date_precision":"day","category":"built_environment","lens":"built_environment","confidence":"documented","source_ids":["buis-pvji"],"explanation":"LPC designation record for Century Apartments; designation date is taken from the source desdate field."},"geometry":{"type":"Point","coordinates":[-73.980992,40.770426]}},{"type":"Feature","id":"nyc_lpc_individual_landmark_608","properties":{"city_id":"nyc","event_id":"nyc_lpc_individual_landmark_608","title":"Individual landmark designated: Guild Theater","year":1985,"effective_date":"1985-08-06","date_precision":"day","category":"built_environment","lens":"built_environment","confidence":"documented","source_ids":["buis-pvji"],"explanation":"LPC designation record for Guild Theater; designation date is taken from the source desdate field."},"geometry":{"type":"Point","coordinates":[-73.984176,40.763328]}},{"type":"Feature","id":"nyc_lpc_individual_landmark_731","properties":{"city_id":"nyc","event_id":"nyc_lpc_individual_landmark_731","title":"Individual landmark designated: General Electric Building","year":1985,"effective_date":"1985-07-09","date_precision":"day","category":"built_environment","lens":"built_environment","confidence":"documented","source_ids":["buis-pvji"],"explanation":"LPC designation record for General Electric Building; designation date is taken from the source desdate field."},"geometry":{"type":"Point","coordinates":[-73.972451,40.75701]}},{"type":"Feature","id":"nyc_lpc_individual_landmark_746","properties":{"city_id":"nyc","event_id":"nyc_lpc_individual_landmark_746","title":"Individual landmark designated: Eldorado Apartments","year":1985,"effective_date":"1985-07-09","date_precision":"day","category":"built_environment","lens":"built_environment","confidence":"documented","source_ids":["buis-pvji"],"explanation":"LPC designation record for Eldorado Apartments; designation date is taken from the source desdate field."},"geometry":{"type":"Point","coordinates":[-73.967865,40.788385]}},{"type":"Feature","id":"nyc_parks_property_170483","properties":{"city_id":"nyc","event_id":"nyc_parks_property_170483","title":"Parks property acquisition: Robert E. Venable Park","year":1985,"effective_date":"1985-06-21","date_precision":"day","category":"environment","lens":"green_space","confidence":"documented","source_ids":["enfh-gkve"],"explanation":"Parks property record with acquisition date for Robert E. Venable Park."},"geometry":{"type":"Point","coordinates":[-73.864729,40.674424]}},{"type":"Feature","id":"nyc_parks_property_170651","properties":{"city_id":"nyc","event_id":"nyc_parks_property_170651","title":"Parks property acquisition: Convent Garden","year":1985,"effective_date":"1985-12-26","date_precision":"day","category":"environment","lens":"green_space","confidence":"documented","source_ids":["enfh-gkve"],"explanation":"Parks property record with acquisition date for Convent Garden."},"geometry":{"type":"Point","coordinates":[-73.942667,40.828299]}}]}
