{"type":"FeatureCollection","schema_version":"1.0.0","city_id":"nyc","year":1897,"features":[{"type":"Feature","id":"nyc_parks_property_169025","properties":{"city_id":"nyc","event_id":"nyc_parks_property_169025","title":"Parks property acquisition: Hutton Triangle","year":1897,"effective_date":"1897-06-01","date_precision":"day","category":"environment","lens":"green_space","confidence":"documented","source_ids":["enfh-gkve"],"explanation":"Parks property record with acquisition date for Hutton Triangle."},"geometry":{"type":"Point","coordinates":[-73.890108,40.852324]}},{"type":"Feature","id":"nyc_parks_property_169047","properties":{"city_id":"nyc","event_id":"nyc_parks_property_169047","title":"Parks property acquisition: Richman (Echo) Park","year":1897,"effective_date":"1897-07-06","date_precision":"day","category":"environment","lens":"green_space","confidence":"documented","source_ids":["enfh-gkve"],"explanation":"Parks property record with acquisition date for Richman (Echo) Park."},"geometry":{"type":"Point","coordinates":[-73.901481,40.849049]}},{"type":"Feature","id":"nyc_parks_property_169504","properties":{"city_id":"nyc","event_id":"nyc_parks_property_169504","title":"Parks property acquisition: St. James Park","year":1897,"effective_date":"1897-09-13","date_precision":"day","category":"environment","lens":"green_space","confidence":"documented","source_ids":["enfh-gkve"],"explanation":"Parks property record with acquisition date for St. James Park."},"geometry":{"type":"Point","coordinates":[-73.897774,40.865026]}},{"type":"Feature","id":"nyc_parks_property_170072","properties":{"city_id":"nyc","event_id":"nyc_parks_property_170072","title":"Parks property acquisition: Hamilton Fish Park","year":1897,"effective_date":"1897-06-22","date_precision":"day","category":"environment","lens":"green_space","confidence":"documented","source_ids":["enfh-gkve"],"explanation":"Parks property record with acquisition date for Hamilton Fish Park."},"geometry":{"type":"Point","coordinates":[-73.98054,40.719771]}},{"type":"Feature","id":"nyc_parks_property_170099","properties":{"city_id":"nyc","event_id":"nyc_parks_property_170099","title":"Parks property acquisition: Graham Triangle","year":1897,"effective_date":"1897-05-04","date_precision":"day","category":"environment","lens":"green_space","confidence":"documented","source_ids":["enfh-gkve"],"explanation":"Parks property record with acquisition date for Graham Triangle."},"geometry":{"type":"Point","coordinates":[-73.927515,40.81066]}},{"type":"Feature","id":"nyc_parks_property_170170","properties":{"city_id":"nyc","event_id":"nyc_parks_property_170170","title":"Parks property acquisition: Rufus King Park","year":1897,"effective_date":"1897-06-29","date_precision":"day","category":"environment","lens":"green_space","confidence":"documented","source_ids":["enfh-gkve"],"explanation":"Parks property record with acquisition date for Rufus King Park."},"geometry":{"type":"Point","coordinates":[-73.803393,40.704177]}},{"type":"Feature","id":"nyc_parks_property_170317","properties":{"city_id":"nyc","event_id":"nyc_parks_property_170317","title":"Parks property acquisition: Macombs Dam Park","year":1897,"effective_date":"1897-03-18","date_precision":"day","category":"environment","lens":"green_space","confidence":"documented","source_ids":["enfh-gkve"],"explanation":"Parks property record with acquisition date for Macombs Dam Park."},"geometry":{"type":"Point","coordinates":[-73.930001,40.82928]}},{"type":"Feature","id":"nyc_parks_property_170405","properties":{"city_id":"nyc","event_id":"nyc_parks_property_170405","title":"Parks property acquisition: Seward Park","year":1897,"effective_date":"1897-06-22","date_precision":"day","category":"environment","lens":"green_space","confidence":"documented","source_ids":["enfh-gkve"],"explanation":"Parks property record with acquisition date for Seward Park."},"geometry":{"type":"Point","coordinates":[-73.988969,40.714615]}},{"type":"Feature","id":"nyc_parks_property_170874","properties":{"city_id":"nyc","event_id":"nyc_parks_property_170874","title":"Parks property acquisition: Thomas Jefferson Park","year":1897,"effective_date":"1897-12-10","date_precision":"day","category":"environment","lens":"green_space","confidence":"documented","source_ids":["enfh-gkve"],"explanation":"Parks property record with acquisition date for Thomas Jefferson Park."},"geometry":{"type":"Point","coordinates":[-73.93482,40.79282]}},{"type":"Feature","id":"nyc_parks_property_171039","properties":{"city_id":"nyc","event_id":"nyc_parks_property_171039","title":"Parks property acquisition: Horseshoe Playground","year":1897,"effective_date":"1897-03-11","date_precision":"day","category":"environment","lens":"green_space","confidence":"documented","source_ids":["enfh-gkve"],"explanation":"Parks property record with acquisition date for Horseshoe Playground."},"geometry":{"type":"Point","coordinates":[-73.897623,40.824203]}}]}
