{"type":"FeatureCollection","schema_version":"1.0.0","city_id":"nyc","year":1970,"features":[{"type":"Feature","id":"nyc_lpc_historic_district_lp-00638","properties":{"city_id":"nyc","event_id":"nyc_lpc_historic_district_lp-00638","title":"Historic district designated: Jumel Terrace Historic District","subtitle":"Manhattan / 1970-08-18 / Documented / Historic Districts","details":"LPC historic district designation record for Jumel Terrace Historic District.","year":1970,"effective_date":"1970-08-18","date_precision":"day","short_description":"LPC historic district record LP-00638; status DESIGNATED; public hearing 2/3/1970.","category":"built_environment","lens":"built_environment","confidence":"documented","source_ids":["skyk-mpzq"],"affected_area_label":"Manhattan","explanation":"LPC historic district designation record for Jumel Terrace Historic District."},"geometry":{"type":"Point","coordinates":[-73.938802,40.834715]}},{"type":"Feature","id":"nyc_lpc_historic_district_lp-00666","properties":{"city_id":"nyc","event_id":"nyc_lpc_historic_district_lp-00666","title":"Historic district designated: Chelsea Historic District","subtitle":"Manhattan / 1970-09-15 / Documented / Historic Districts","details":"LPC historic district designation record for Chelsea Historic District.","year":1970,"effective_date":"1970-09-15","date_precision":"day","short_description":"LPC historic district record LP-00666; status DESIGNATED; public hearing 4/12/1966; 12/27/1966; 3/31/1970.","category":"built_environment","lens":"built_environment","confidence":"documented","source_ids":["skyk-mpzq"],"affected_area_label":"Manhattan","explanation":"LPC historic district designation record for Chelsea Historic District."},"geometry":{"type":"Point","coordinates":[-74.003007,40.744761]}},{"type":"Feature","id":"nyc_lpc_individual_landmark_0","properties":{"city_id":"nyc","event_id":"nyc_lpc_individual_landmark_0","title":"Individual landmark designated: 105 Franklin Avenue House","subtitle":"Staten Island / 1970-10-13 / Documented / Individual Landmark Sites","details":"LPC designation record for 105 Franklin Avenue House; designation date is taken from the source desdate field.","year":1970,"effective_date":"1970-10-13","date_precision":"day","short_description":"LPC individual landmark site LP-00330; status Designated; type Individual Landmark; alternate name also known as Hamilton Park Cottage.","category":"built_environment","lens":"built_environment","confidence":"documented","source_ids":["buis-pvji"],"affected_area_label":"Staten Island","explanation":"LPC designation record for 105 Franklin Avenue House; designation date is taken from the source desdate field."},"geometry":{"type":"Point","coordinates":[-74.091594,40.642973]}},{"type":"Feature","id":"nyc_lpc_individual_landmark_1061","properties":{"city_id":"nyc","event_id":"nyc_lpc_individual_landmark_1061","title":"Individual landmark designated: Morton and Nellie Plant House and Edward and Frances Holbrook House","subtitle":"Manhattan / 1970-07-14 / Documented / Individual Landmark Sites","details":"LPC designation record for Morton and Nellie Plant House and Edward and Frances Holbrook House; designation date is taken from the source desdate field.","year":1970,"effective_date":"1970-07-14","date_precision":"day","short_description":"LPC individual landmark site LP-00271; status Designated; type Individual Landmark; alternate name now Cartier, Inc..","category":"built_environment","lens":"built_environment","confidence":"documented","source_ids":["buis-pvji"],"affected_area_label":"Manhattan","explanation":"LPC designation record for Morton and Nellie Plant House and Edward and Frances Holbrook House; designation date is taken from the source desdate field."},"geometry":{"type":"Point","coordinates":[-73.976082,40.759532]}},{"type":"Feature","id":"nyc_lpc_individual_landmark_1087","properties":{"city_id":"nyc","event_id":"nyc_lpc_individual_landmark_1087","title":"Individual landmark designated: Saint John's Church","subtitle":"Bronx / 1970-08-18 / Documented / Individual Landmark Sites","details":"LPC designation record for Saint John's Church; designation date is taken from the source desdate field.","year":1970,"effective_date":"1970-08-18","date_precision":"day","short_description":"LPC individual landmark site LP-00117; status Designated; type Individual Landmark; alternate name now University Chapel, designated as Fordham University Chapel.","category":"built_environment","lens":"built_environment","confidence":"documented","source_ids":["buis-pvji"],"affected_area_label":"Bronx","explanation":"LPC designation record for Saint John's Church; designation date is taken from the source desdate field."},"geometry":{"type":"Point","coordinates":[-73.886438,40.863557]}},{"type":"Feature","id":"nyc_lpc_individual_landmark_1088","properties":{"city_id":"nyc","event_id":"nyc_lpc_individual_landmark_1088","title":"Individual landmark designated: Saint John's Hall","subtitle":"Bronx / 1970-08-18 / Documented / Individual Landmark Sites","details":"LPC designation record for Saint John's Hall; designation date is taken from the source desdate field.","year":1970,"effective_date":"1970-08-18","date_precision":"day","short_description":"LPC individual landmark site LP-00118; status Designated; type Individual Landmark; alternate name not stated.","category":"built_environment","lens":"built_environment","confidence":"documented","source_ids":["buis-pvji"],"affected_area_label":"Bronx","explanation":"LPC designation record for Saint John's Hall; designation date is taken from the source desdate field."},"geometry":{"type":"Point","coordinates":[-73.886943,40.863536]}},{"type":"Feature","id":"nyc_lpc_individual_landmark_1090","properties":{"city_id":"nyc","event_id":"nyc_lpc_individual_landmark_1090","title":"Individual landmark designated: Horatio Shepheard Moat House","subtitle":"Bronx / 1970-08-18 / Documented / Individual Landmark Sites","details":"LPC designation record for Horatio Shepheard Moat House; designation date is taken from the source desdate field.","year":1970,"effective_date":"1970-08-18","date_precision":"day","short_description":"LPC individual landmark site LP-00116; status Designated; type Individual Landmark; alternate name now Forham University Administration Building, designated as Rose Hill.","category":"built_environment","lens":"built_environment","confidence":"documented","source_ids":["buis-pvji"],"affected_area_label":"Bronx","explanation":"LPC designation record for Horatio Shepheard Moat House; designation date is taken from the source desdate field."},"geometry":{"type":"Point","coordinates":[-73.886342,40.862027]}},{"type":"Feature","id":"nyc_lpc_individual_landmark_1095","properties":{"city_id":"nyc","event_id":"nyc_lpc_individual_landmark_1095","title":"Individual landmark designated: Bowling Green Fence","subtitle":"Manhattan / 1970-07-14 / Documented / Individual Landmark Sites","details":"LPC designation record for Bowling Green Fence; designation date is taken from the source desdate field.","year":1970,"effective_date":"1970-07-14","date_precision":"day","short_description":"LPC individual landmark site LP-00548; status Designated; type Individual Landmark; alternate name not stated.","category":"built_environment","lens":"built_environment","confidence":"documented","source_ids":["buis-pvji"],"affected_area_label":"Manhattan","explanation":"LPC designation record for Bowling Green Fence; designation date is taken from the source desdate field."},"geometry":{"type":"Point","coordinates":[-74.013622,40.704986]}},{"type":"Feature","id":"nyc_lpc_individual_landmark_110","properties":{"city_id":"nyc","event_id":"nyc_lpc_individual_landmark_110","title":"Individual landmark designated: Richard Cornell Graveyard","subtitle":"Queens / 1970-08-18 / Documented / Individual Landmark Sites","details":"LPC designation record for Richard Cornell Graveyard; designation date is taken from the source desdate field.","year":1970,"effective_date":"1970-08-18","date_precision":"day","short_description":"LPC individual landmark site LP-00741; status Designated; type Individual Landmark; alternate name not stated.","category":"built_environment","lens":"built_environment","confidence":"documented","source_ids":["buis-pvji"],"affected_area_label":"Queens","explanation":"LPC designation record for Richard Cornell Graveyard; designation date is taken from the source desdate field."},"geometry":{"type":"Point","coordinates":[-73.749899,40.600397]}},{"type":"Feature","id":"nyc_lpc_individual_landmark_1210","properties":{"city_id":"nyc","event_id":"nyc_lpc_individual_landmark_1210","title":"Individual landmark designated: Magnolia Grandiflora","subtitle":"Brooklyn / 1970-05-12 / Documented / Individual Landmark Sites","details":"LPC designation record for Magnolia Grandiflora; designation date is taken from the source desdate field.","year":1970,"effective_date":"1970-05-12","date_precision":"day","short_description":"LPC individual landmark site LP-00641; status Designated; type Individual Landmark; alternate name not stated.","category":"built_environment","lens":"built_environment","confidence":"documented","source_ids":["buis-pvji"],"affected_area_label":"Brooklyn","explanation":"LPC designation record for Magnolia Grandiflora; designation date is taken from the source desdate field."},"geometry":{"type":"Point","coordinates":[-73.946814,40.690521]}},{"type":"Feature","id":"nyc_lpc_individual_landmark_1212","properties":{"city_id":"nyc","event_id":"nyc_lpc_individual_landmark_1212","title":"Individual landmark designated: William D. and Ann Cromwell House, Stonehurst","subtitle":"Bronx / 1970-10-13 / Documented / Individual Landmark Sites","details":"LPC designation record for William D. and Ann Cromwell House, Stonehurst; designation date is taken from the source desdate field.","year":1970,"effective_date":"1970-10-13","date_precision":"day","short_description":"LPC individual landmark site LP-00673; status Designated; type Individual Landmark; alternate name later the Robert Colgate House.","category":"built_environment","lens":"built_environment","confidence":"documented","source_ids":["buis-pvji"],"affected_area_label":"Bronx","explanation":"LPC designation record for William D. and Ann Cromwell House, Stonehurst; designation date is taken from the source desdate field."},"geometry":{"type":"Point","coordinates":[-73.912652,40.901536]}},{"type":"Feature","id":"nyc_lpc_individual_landmark_1216","properties":{"city_id":"nyc","event_id":"nyc_lpc_individual_landmark_1216","title":"Individual landmark designated: Houses on Hunterfly Road, 1698 Bergen Street House","subtitle":"Brooklyn / 1970-08-18 / Documented / Individual Landmark Sites","details":"LPC designation record for Houses on Hunterfly Road, 1698 Bergen Street House; designation date is taken from the source desdate field.","year":1970,"effective_date":"1970-08-18","date_precision":"day","short_description":"LPC individual landmark site LP-00769; status Designated; type Individual Landmark; alternate name designated as the Houses on Hunterfly Road, now the Weeksville Heritage Center.","category":"built_environment","lens":"built_environment","confidence":"documented","source_ids":["buis-pvji"],"affected_area_label":"Brooklyn","explanation":"LPC designation record for Houses on Hunterfly Road, 1698 Bergen Street House; designation date is taken from the source desdate field."},"geometry":{"type":"Point","coordinates":[-73.926058,40.67464]}},{"type":"Feature","id":"nyc_lpc_individual_landmark_192","properties":{"city_id":"nyc","event_id":"nyc_lpc_individual_landmark_192","title":"Individual landmark designated: 437 West 24th Street House","subtitle":"Manhattan / 1970-09-15 / Documented / Individual Landmark Sites","details":"LPC designation record for 437 West 24th Street House; designation date is taken from the source desdate field.","year":1970,"effective_date":"1970-09-15","date_precision":"day","short_description":"LPC individual landmark site LP-00679; status Designated; type Individual Landmark; alternate name not stated.","category":"built_environment","lens":"built_environment","confidence":"documented","source_ids":["buis-pvji"],"affected_area_label":"Manhattan","explanation":"LPC designation record for 437 West 24th Street House; designation date is taken from the source desdate field."},"geometry":{"type":"Point","coordinates":[-74.002293,40.748045]}},{"type":"Feature","id":"nyc_lpc_individual_landmark_213","properties":{"city_id":"nyc","event_id":"nyc_lpc_individual_landmark_213","title":"Individual landmark designated: 457 West 24th Street House","subtitle":"Manhattan / 1970-09-15 / Documented / Individual Landmark Sites","details":"LPC designation record for 457 West 24th Street House; designation date is taken from the source desdate field.","year":1970,"effective_date":"1970-09-15","date_precision":"day","short_description":"LPC individual landmark site LP-00688; status Designated; type Individual Landmark; alternate name not stated.","category":"built_environment","lens":"built_environment","confidence":"documented","source_ids":["buis-pvji"],"affected_area_label":"Manhattan","explanation":"LPC designation record for 457 West 24th Street House; designation date is taken from the source desdate field."},"geometry":{"type":"Point","coordinates":[-74.002944,40.74834]}},{"type":"Feature","id":"nyc_lpc_individual_landmark_260","properties":{"city_id":"nyc","event_id":"nyc_lpc_individual_landmark_260","title":"Individual landmark designated: 453 West 24th Street House","subtitle":"Manhattan / 1970-09-15 / Documented / Individual Landmark Sites","details":"LPC designation record for 453 West 24th Street House; designation date is taken from the source desdate field.","year":1970,"effective_date":"1970-09-15","date_precision":"day","short_description":"LPC individual landmark site LP-00686; status Designated; type Individual Landmark; alternate name not stated.","category":"built_environment","lens":"built_environment","confidence":"documented","source_ids":["buis-pvji"],"affected_area_label":"Manhattan","explanation":"LPC designation record for 453 West 24th Street House; designation date is taken from the source desdate field."},"geometry":{"type":"Point","coordinates":[-74.002815,40.748286]}},{"type":"Feature","id":"nyc_lpc_individual_landmark_265","properties":{"city_id":"nyc","event_id":"nyc_lpc_individual_landmark_265","title":"Individual landmark designated: 449 West 24th Street House","subtitle":"Manhattan / 1970-09-15 / Documented / Individual Landmark Sites","details":"LPC designation record for 449 West 24th Street House; designation date is taken from the source desdate field.","year":1970,"effective_date":"1970-09-15","date_precision":"day","short_description":"LPC individual landmark site LP-00684; status Designated; type Individual Landmark; alternate name not stated.","category":"built_environment","lens":"built_environment","confidence":"documented","source_ids":["buis-pvji"],"affected_area_label":"Manhattan","explanation":"LPC designation record for 449 West 24th Street House; designation date is taken from the source desdate field."},"geometry":{"type":"Point","coordinates":[-74.002688,40.748232]}},{"type":"Feature","id":"nyc_lpc_individual_landmark_269","properties":{"city_id":"nyc","event_id":"nyc_lpc_individual_landmark_269","title":"Individual landmark designated: Grolier Club","subtitle":"Manhattan / 1970-08-18 / Documented / Individual Landmark Sites","details":"LPC designation record for Grolier Club; designation date is taken from the source desdate field.","year":1970,"effective_date":"1970-08-18","date_precision":"day","short_description":"LPC individual landmark site LP-00597; status Designated; type Individual Landmark; alternate name not stated.","category":"built_environment","lens":"built_environment","confidence":"documented","source_ids":["buis-pvji"],"affected_area_label":"Manhattan","explanation":"LPC designation record for Grolier Club; designation date is taken from the source desdate field."},"geometry":{"type":"Point","coordinates":[-73.983254,40.746504]}},{"type":"Feature","id":"nyc_lpc_individual_landmark_294","properties":{"city_id":"nyc","event_id":"nyc_lpc_individual_landmark_294","title":"Individual landmark designated: 451 West 24th Street House","subtitle":"Manhattan / 1970-09-15 / Documented / Individual Landmark Sites","details":"LPC designation record for 451 West 24th Street House; designation date is taken from the source desdate field.","year":1970,"effective_date":"1970-09-15","date_precision":"day","short_description":"LPC individual landmark site LP-00685; status Designated; type Individual Landmark; alternate name not stated.","category":"built_environment","lens":"built_environment","confidence":"documented","source_ids":["buis-pvji"],"affected_area_label":"Manhattan","explanation":"LPC designation record for 451 West 24th Street House; designation date is taken from the source desdate field."},"geometry":{"type":"Point","coordinates":[-74.002753,40.74826]}},{"type":"Feature","id":"nyc_lpc_individual_landmark_307","properties":{"city_id":"nyc","event_id":"nyc_lpc_individual_landmark_307","title":"Individual landmark designated: 447 West 24th Street House","subtitle":"Manhattan / 1970-09-15 / Documented / Individual Landmark Sites","details":"LPC designation record for 447 West 24th Street House; designation date is taken from the source desdate field.","year":1970,"effective_date":"1970-09-15","date_precision":"day","short_description":"LPC individual landmark site LP-00683; status Designated; type Individual Landmark; alternate name not stated.","category":"built_environment","lens":"built_environment","confidence":"documented","source_ids":["buis-pvji"],"affected_area_label":"Manhattan","explanation":"LPC designation record for 447 West 24th Street House; designation date is taken from the source desdate field."},"geometry":{"type":"Point","coordinates":[-74.002623,40.748205]}},{"type":"Feature","id":"nyc_lpc_individual_landmark_39","properties":{"city_id":"nyc","event_id":"nyc_lpc_individual_landmark_39","title":"Individual landmark designated: Peter Housman House","subtitle":"Staten Island / 1970-10-13 / Documented / Individual Landmark Sites","details":"LPC designation record for Peter Housman House; designation date is taken from the source desdate field.","year":1970,"effective_date":"1970-10-13","date_precision":"day","short_description":"LPC individual landmark site LP-00345; status Designated; type Individual Landmark; alternate name not stated.","category":"built_environment","lens":"built_environment","confidence":"documented","source_ids":["buis-pvji"],"affected_area_label":"Staten Island","explanation":"LPC designation record for Peter Housman House; designation date is taken from the source desdate field."},"geometry":{"type":"Point","coordinates":[-74.135702,40.616011]}},{"type":"Feature","id":"nyc_lpc_individual_landmark_423","properties":{"city_id":"nyc","event_id":"nyc_lpc_individual_landmark_423","title":"Individual landmark designated: 459 West 24th Street House","subtitle":"Manhattan / 1970-09-15 / Documented / Individual Landmark Sites","details":"LPC designation record for 459 West 24th Street House; designation date is taken from the source desdate field.","year":1970,"effective_date":"1970-09-15","date_precision":"day","short_description":"LPC individual landmark site LP-00689; status Designated; type Individual Landmark; alternate name not stated.","category":"built_environment","lens":"built_environment","confidence":"documented","source_ids":["buis-pvji"],"affected_area_label":"Manhattan","explanation":"LPC designation record for 459 West 24th Street House; designation date is taken from the source desdate field."},"geometry":{"type":"Point","coordinates":[-74.00302,40.74837]}},{"type":"Feature","id":"nyc_lpc_individual_landmark_473","properties":{"city_id":"nyc","event_id":"nyc_lpc_individual_landmark_473","title":"Individual landmark designated: 455 West 24th Street House","subtitle":"Manhattan / 1970-09-15 / Documented / Individual Landmark Sites","details":"LPC designation record for 455 West 24th Street House; designation date is taken from the source desdate field.","year":1970,"effective_date":"1970-09-15","date_precision":"day","short_description":"LPC individual landmark site LP-00687; status Designated; type Individual Landmark; alternate name not stated.","category":"built_environment","lens":"built_environment","confidence":"documented","source_ids":["buis-pvji"],"affected_area_label":"Manhattan","explanation":"LPC designation record for 455 West 24th Street House; designation date is taken from the source desdate field."},"geometry":{"type":"Point","coordinates":[-74.002879,40.748313]}},{"type":"Feature","id":"nyc_lpc_individual_landmark_474","properties":{"city_id":"nyc","event_id":"nyc_lpc_individual_landmark_474","title":"Individual landmark designated: J. William and Margaretta C. Clark House","subtitle":"Manhattan / 1970-11-10 / Documented / Individual Landmark Sites","details":"LPC designation record for J. William and Margaretta C. Clark House; designation date is taken from the source desdate field.","year":1970,"effective_date":"1970-11-10","date_precision":"day","short_description":"LPC individual landmark site LP-00703; status Designated; type Individual Landmark; alternate name later Automation House, now Richard L. Feigen & Co..","category":"built_environment","lens":"built_environment","confidence":"documented","source_ids":["buis-pvji"],"affected_area_label":"Manhattan","explanation":"LPC designation record for J. William and Margaretta C. Clark House; designation date is taken from the source desdate field."},"geometry":{"type":"Point","coordinates":[-73.966085,40.769001]}},{"type":"Feature","id":"nyc_lpc_individual_landmark_483","properties":{"city_id":"nyc","event_id":"nyc_lpc_individual_landmark_483","title":"Individual landmark designated: 313 East 58th Street House","subtitle":"Manhattan / 1970-07-14 / Documented / Individual Landmark Sites","details":"LPC designation record for 313 East 58th Street House; designation date is taken from the source desdate field.","year":1970,"effective_date":"1970-07-14","date_precision":"day","short_description":"LPC individual landmark site LP-00584; status Designated; type Individual Landmark; alternate name not stated.","category":"built_environment","lens":"built_environment","confidence":"documented","source_ids":["buis-pvji"],"affected_area_label":"Manhattan","explanation":"LPC designation record for 313 East 58th Street House; designation date is taken from the source desdate field."},"geometry":{"type":"Point","coordinates":[-73.964044,40.759945]}},{"type":"Feature","id":"nyc_lpc_individual_landmark_519","properties":{"city_id":"nyc","event_id":"nyc_lpc_individual_landmark_519","title":"Individual landmark designated: Percy and Maud H. Pyne House","subtitle":"Manhattan / 1970-11-10 / Documented / Individual Landmark Sites","details":"LPC designation record for Percy and Maud H. Pyne House; designation date is taken from the source desdate field.","year":1970,"effective_date":"1970-11-10","date_precision":"day","short_description":"LPC individual landmark site LP-00704; status Designated; type Individual Landmark; alternate name now the Americas Society.","category":"built_environment","lens":"built_environment","confidence":"documented","source_ids":["buis-pvji"],"affected_area_label":"Manhattan","explanation":"LPC designation record for Percy and Maud H. Pyne House; designation date is taken from the source desdate field."},"geometry":{"type":"Point","coordinates":[-73.965929,40.768824]}},{"type":"Feature","id":"nyc_lpc_individual_landmark_536","properties":{"city_id":"nyc","event_id":"nyc_lpc_individual_landmark_536","title":"Individual landmark designated: High Bridge","subtitle":"NYC / 1970-11-10 / Documented / Individual Landmark Sites","details":"LPC designation record for High Bridge; designation date is taken from the source desdate field.","year":1970,"effective_date":"1970-11-10","date_precision":"day","short_description":"LPC individual landmark site LP-00639; status Designated; type Individual Landmark; alternate name not stated.","category":"built_environment","lens":"built_environment","confidence":"documented","source_ids":["buis-pvji"],"affected_area_label":"NYC","explanation":"LPC designation record for High Bridge; designation date is taken from the source desdate field."},"geometry":{"type":"Point","coordinates":[-73.935797,40.837252]}},{"type":"Feature","id":"nyc_lpc_individual_landmark_542","properties":{"city_id":"nyc","event_id":"nyc_lpc_individual_landmark_542","title":"Individual landmark designated: Dunbar Apartments","subtitle":"Manhattan / 1970-07-14 / Documented / Individual Landmark Sites","details":"LPC designation record for Dunbar Apartments; designation date is taken from the source desdate field.","year":1970,"effective_date":"1970-07-14","date_precision":"day","short_description":"LPC individual landmark site LP-00708; status Designated; type Individual Landmark; alternate name not stated.","category":"built_environment","lens":"built_environment","confidence":"documented","source_ids":["buis-pvji"],"affected_area_label":"Manhattan","explanation":"LPC designation record for Dunbar Apartments; designation date is taken from the source desdate field."},"geometry":{"type":"Point","coordinates":[-73.938386,40.825123]}},{"type":"Feature","id":"nyc_lpc_individual_landmark_547","properties":{"city_id":"nyc","event_id":"nyc_lpc_individual_landmark_547","title":"Individual landmark designated: New York Public Library, Hamilton Grange Branch","subtitle":"Manhattan / 1970-03-31 / Documented / Individual Landmark Sites","details":"LPC designation record for New York Public Library, Hamilton Grange Branch; designation date is taken from the source desdate field.","year":1970,"effective_date":"1970-03-31","date_precision":"day","short_description":"LPC individual landmark site LP-00599; status Designated; type Individual Landmark; alternate name not stated.","category":"built_environment","lens":"built_environment","confidence":"documented","source_ids":["buis-pvji"],"affected_area_label":"Manhattan","explanation":"LPC designation record for New York Public Library, Hamilton Grange Branch; designation date is taken from the source desdate field."},"geometry":{"type":"Point","coordinates":[-73.947959,40.825728]}},{"type":"Feature","id":"nyc_lpc_individual_landmark_565","properties":{"city_id":"nyc","event_id":"nyc_lpc_individual_landmark_565","title":"Individual landmark designated: Oliver D. and Mary Pyne Filley House","subtitle":"Manhattan / 1970-11-10 / Documented / Individual Landmark Sites","details":"LPC designation record for Oliver D. and Mary Pyne Filley House; designation date is taken from the source desdate field.","year":1970,"effective_date":"1970-11-10","date_precision":"day","short_description":"LPC individual landmark site LP-00705; status Designated; type Individual Landmark; alternate name now the Spanish Institute.","category":"built_environment","lens":"built_environment","confidence":"documented","source_ids":["buis-pvji"],"affected_area_label":"Manhattan","explanation":"LPC designation record for Oliver D. and Mary Pyne Filley House; designation date is taken from the source desdate field."},"geometry":{"type":"Point","coordinates":[-73.965862,40.768917]}},{"type":"Feature","id":"nyc_lpc_individual_landmark_568","properties":{"city_id":"nyc","event_id":"nyc_lpc_individual_landmark_568","title":"Individual landmark designated: Payne and Helen Hay Whitney House","subtitle":"Manhattan / 1970-09-15 / Documented / Individual Landmark Sites","details":"LPC designation record for Payne and Helen Hay Whitney House; designation date is taken from the source desdate field.","year":1970,"effective_date":"1970-09-15","date_precision":"day","short_description":"LPC individual landmark site LP-00737; status Designated; type Individual Landmark; alternate name now the Office of Cultural Services, Embassy of France.","category":"built_environment","lens":"built_environment","confidence":"documented","source_ids":["buis-pvji"],"affected_area_label":"Manhattan","explanation":"LPC designation record for Payne and Helen Hay Whitney House; designation date is taken from the source desdate field."},"geometry":{"type":"Point","coordinates":[-73.963617,40.776555]}},{"type":"Feature","id":"nyc_lpc_individual_landmark_583","properties":{"city_id":"nyc","event_id":"nyc_lpc_individual_landmark_583","title":"Individual landmark designated: 439 West 24th Street House","subtitle":"Manhattan / 1970-09-15 / Documented / Individual Landmark Sites","details":"LPC designation record for 439 West 24th Street House; designation date is taken from the source desdate field.","year":1970,"effective_date":"1970-09-15","date_precision":"day","short_description":"LPC individual landmark site LP-00680; status Designated; type Individual Landmark; alternate name not stated.","category":"built_environment","lens":"built_environment","confidence":"documented","source_ids":["buis-pvji"],"affected_area_label":"Manhattan","explanation":"LPC designation record for 439 West 24th Street House; designation date is taken from the source desdate field."},"geometry":{"type":"Point","coordinates":[-74.002358,40.748072]}},{"type":"Feature","id":"nyc_lpc_individual_landmark_594","properties":{"city_id":"nyc","event_id":"nyc_lpc_individual_landmark_594","title":"Individual landmark designated: 443-445 West 24th Street House","subtitle":"Manhattan / 1970-09-15 / Documented / Individual Landmark Sites","details":"LPC designation record for 443-445 West 24th Street House; designation date is taken from the source desdate field.","year":1970,"effective_date":"1970-09-15","date_precision":"day","short_description":"LPC individual landmark site LP-00682; status Designated; type Individual Landmark; alternate name not stated.","category":"built_environment","lens":"built_environment","confidence":"documented","source_ids":["buis-pvji"],"affected_area_label":"Manhattan","explanation":"LPC designation record for 443-445 West 24th Street House; designation date is taken from the source desdate field."},"geometry":{"type":"Point","coordinates":[-74.002518,40.74814]}},{"type":"Feature","id":"nyc_lpc_individual_landmark_595","properties":{"city_id":"nyc","event_id":"nyc_lpc_individual_landmark_595","title":"Individual landmark designated: Samuel Treadwell Skidmore House","subtitle":"Manhattan / 1970-08-18 / Documented / Individual Landmark Sites","details":"LPC designation record for Samuel Treadwell Skidmore House; designation date is taken from the source desdate field.","year":1970,"effective_date":"1970-08-18","date_precision":"day","short_description":"LPC individual landmark site LP-00646; status Designated; type Individual Landmark; alternate name not stated.","category":"built_environment","lens":"built_environment","confidence":"documented","source_ids":["buis-pvji"],"affected_area_label":"Manhattan","explanation":"LPC designation record for Samuel Treadwell Skidmore House; designation date is taken from the source desdate field."},"geometry":{"type":"Point","coordinates":[-73.992024,40.727515]}},{"type":"Feature","id":"nyc_lpc_individual_landmark_634","properties":{"city_id":"nyc","event_id":"nyc_lpc_individual_landmark_634","title":"Individual landmark designated: William Frances Crocker Sloane House","subtitle":"Manhattan / 1970-11-10 / Documented / Individual Landmark Sites","details":"LPC designation record for William Frances Crocker Sloane House; designation date is taken from the source desdate field.","year":1970,"effective_date":"1970-11-10","date_precision":"day","short_description":"LPC individual landmark site LP-00706; status Designated; type Individual Landmark; alternate name now the Italian Cultural Institute.","category":"built_environment","lens":"built_environment","confidence":"documented","source_ids":["buis-pvji"],"affected_area_label":"Manhattan","explanation":"LPC designation record for William Frances Crocker Sloane House; designation date is taken from the source desdate field."},"geometry":{"type":"Point","coordinates":[-73.965846,40.76901]}},{"type":"Feature","id":"nyc_lpc_individual_landmark_693","properties":{"city_id":"nyc","event_id":"nyc_lpc_individual_landmark_693","title":"Individual landmark designated: James B. and Nanaline Duke House","subtitle":"Manhattan / 1970-09-15 / Documented / Individual Landmark Sites","details":"LPC designation record for James B. and Nanaline Duke House; designation date is taken from the source desdate field.","year":1970,"effective_date":"1970-09-15","date_precision":"day","short_description":"LPC individual landmark site LP-00668; status Designated; type Individual Landmark; alternate name now the New York University Institue of Fine Arts.","category":"built_environment","lens":"built_environment","confidence":"documented","source_ids":["buis-pvji"],"affected_area_label":"Manhattan","explanation":"LPC designation record for James B. and Nanaline Duke House; designation date is taken from the source desdate field."},"geometry":{"type":"Point","coordinates":[-73.963624,40.776375]}},{"type":"Feature","id":"nyc_lpc_individual_landmark_751","properties":{"city_id":"nyc","event_id":"nyc_lpc_individual_landmark_751","title":"Individual landmark designated: 441 West 24th Street House","subtitle":"Manhattan / 1970-09-15 / Documented / Individual Landmark Sites","details":"LPC designation record for 441 West 24th Street House; designation date is taken from the source desdate field.","year":1970,"effective_date":"1970-09-15","date_precision":"day","short_description":"LPC individual landmark site LP-00681; status Designated; type Individual Landmark; alternate name not stated.","category":"built_environment","lens":"built_environment","confidence":"documented","source_ids":["buis-pvji"],"affected_area_label":"Manhattan","explanation":"LPC designation record for 441 West 24th Street House; designation date is taken from the source desdate field."},"geometry":{"type":"Point","coordinates":[-74.002426,40.748101]}},{"type":"Feature","id":"nyc_lpc_individual_landmark_797","properties":{"city_id":"nyc","event_id":"nyc_lpc_individual_landmark_797","title":"Individual landmark designated: 131-135 East 66th Street Apartment House","subtitle":"Manhattan / 1970-03-31 / Documented / Individual Landmark Sites","details":"LPC designation record for 131-135 East 66th Street Apartment House; designation date is taken from the source desdate field.","year":1970,"effective_date":"1970-03-31","date_precision":"day","short_description":"LPC individual landmark site LP-00418; status Designated; type Individual Landmark; alternate name not stated.","category":"built_environment","lens":"built_environment","confidence":"documented","source_ids":["buis-pvji"],"affected_area_label":"Manhattan","explanation":"LPC designation record for 131-135 East 66th Street Apartment House; designation date is taken from the source desdate field."},"geometry":{"type":"Point","coordinates":[-73.964403,40.766637]}},{"type":"Feature","id":"nyc_lpc_individual_landmark_799","properties":{"city_id":"nyc","event_id":"nyc_lpc_individual_landmark_799","title":"Individual landmark designated: Henry P. and Kate T. Davison House","subtitle":"Manhattan / 1970-11-10 / Documented / Individual Landmark Sites","details":"LPC designation record for Henry P. and Kate T. Davison House; designation date is taken from the source desdate field.","year":1970,"effective_date":"1970-11-10","date_precision":"day","short_description":"LPC individual landmark site LP-00707; status Designated; type Individual Landmark; alternate name now the Consulate General of Italy.","category":"built_environment","lens":"built_environment","confidence":"documented","source_ids":["buis-pvji"],"affected_area_label":"Manhattan","explanation":"LPC designation record for Henry P. and Kate T. Davison House; designation date is taken from the source desdate field."},"geometry":{"type":"Point","coordinates":[-73.96573,40.769107]}},{"type":"Feature","id":"nyc_lpc_individual_landmark_82","properties":{"city_id":"nyc","event_id":"nyc_lpc_individual_landmark_82","title":"Individual landmark designated: Poppenhusen Institute","subtitle":"Queens / 1970-08-18 / Documented / Individual Landmark Sites","details":"LPC designation record for Poppenhusen Institute; designation date is taken from the source desdate field.","year":1970,"effective_date":"1970-08-18","date_precision":"day","short_description":"LPC individual landmark site LP-00662; status Designated; type Individual Landmark; alternate name not stated.","category":"built_environment","lens":"built_environment","confidence":"documented","source_ids":["buis-pvji"],"affected_area_label":"Queens","explanation":"LPC designation record for Poppenhusen Institute; designation date is taken from the source desdate field."},"geometry":{"type":"Point","coordinates":[-73.852758,40.784238]}},{"type":"Feature","id":"nyc_lpc_individual_landmark_833","properties":{"city_id":"nyc","event_id":"nyc_lpc_individual_landmark_833","title":"Individual landmark designated: John Rankin House","subtitle":"Brooklyn / 1970-07-14 / Documented / Individual Landmark Sites","details":"LPC designation record for John Rankin House; designation date is taken from the source desdate field.","year":1970,"effective_date":"1970-07-14","date_precision":"day","short_description":"LPC individual landmark site LP-00628; status Designated; type Individual Landmark; alternate name also known as the 440 Clinton Street House, now the F. G. Guido Funeral Home.","category":"built_environment","lens":"built_environment","confidence":"documented","source_ids":["buis-pvji"],"affected_area_label":"Brooklyn","explanation":"LPC designation record for John Rankin House; designation date is taken from the source desdate field."},"geometry":{"type":"Point","coordinates":[-73.998827,40.681492]}},{"type":"Feature","id":"nyc_lpc_individual_landmark_86","properties":{"city_id":"nyc","event_id":"nyc_lpc_individual_landmark_86","title":"Individual landmark designated: Friends Meeting House","subtitle":"Queens / 1970-08-18 / Documented / Individual Landmark Sites","details":"LPC designation record for Friends Meeting House; designation date is taken from the source desdate field.","year":1970,"effective_date":"1970-08-18","date_precision":"day","short_description":"LPC individual landmark site LP-00141; status Designated; type Individual Landmark; alternate name not stated.","category":"built_environment","lens":"built_environment","confidence":"documented","source_ids":["buis-pvji"],"affected_area_label":"Queens","explanation":"LPC designation record for Friends Meeting House; designation date is taken from the source desdate field."},"geometry":{"type":"Point","coordinates":[-73.830104,40.762805]}},{"type":"Feature","id":"nyc_lpc_individual_landmark_875","properties":{"city_id":"nyc","event_id":"nyc_lpc_individual_landmark_875","title":"Individual landmark designated: Houses on Hunterfly Road, 1700 Bergen Street House","subtitle":"Brooklyn / 1970-08-18 / Documented / Individual Landmark Sites","details":"LPC designation record for Houses on Hunterfly Road, 1700 Bergen Street House; designation date is taken from the source desdate field.","year":1970,"effective_date":"1970-08-18","date_precision":"day","short_description":"LPC individual landmark site LP-00729; status Designated; type Individual Landmark; alternate name designated as the Houses on Hunterfly Road, now the Weeksville Heritage Center.","category":"built_environment","lens":"built_environment","confidence":"documented","source_ids":["buis-pvji"],"affected_area_label":"Brooklyn","explanation":"LPC designation record for Houses on Hunterfly Road, 1700 Bergen Street House; designation date is taken from the source desdate field."},"geometry":{"type":"Point","coordinates":[-73.926068,40.674494]}},{"type":"Feature","id":"nyc_lpc_individual_landmark_876","properties":{"city_id":"nyc","event_id":"nyc_lpc_individual_landmark_876","title":"Individual landmark designated: Hanson Place Baptist Church","subtitle":"Brooklyn / 1970-10-13 / Documented / Individual Landmark Sites","details":"LPC designation record for Hanson Place Baptist Church; designation date is taken from the source desdate field.","year":1970,"effective_date":"1970-10-13","date_precision":"day","short_description":"LPC individual landmark site LP-00664; status Designated; type Individual Landmark; alternate name now Hanson Place Seventh Day Adventist Church.","category":"built_environment","lens":"built_environment","confidence":"documented","source_ids":["buis-pvji"],"affected_area_label":"Brooklyn","explanation":"LPC designation record for Hanson Place Baptist Church; designation date is taken from the source desdate field."},"geometry":{"type":"Point","coordinates":[-73.973814,40.685251]}},{"type":"Feature","id":"nyc_lpc_individual_landmark_880","properties":{"city_id":"nyc","event_id":"nyc_lpc_individual_landmark_880","title":"Individual landmark designated: Houses on Hunterfly Road, 1702-04 Bergen Street House — Brooklyn","subtitle":"Brooklyn / 1970-08-18 / Documented / Individual Landmark Sites","details":"LPC designation record for Houses on Hunterfly Road, 1702-04 Bergen Street House; designation date is taken from the source desdate field.","year":1970,"effective_date":"1970-08-18","date_precision":"day","short_description":"LPC individual landmark site LP-00730; status Designated; type Individual Landmark; alternate name designated as the Houses on Hunterfly Road, now the Weeksville Heritage Center.","category":"built_environment","lens":"built_environment","confidence":"documented","source_ids":["buis-pvji"],"affected_area_label":"Brooklyn","explanation":"LPC designation record for Houses on Hunterfly Road, 1702-04 Bergen Street House; designation date is taken from the source desdate field."},"geometry":{"type":"Point","coordinates":[-73.926065,40.674444]}},{"type":"Feature","id":"nyc_lpc_individual_landmark_883","properties":{"city_id":"nyc","event_id":"nyc_lpc_individual_landmark_883","title":"Individual landmark designated: Houses on Hunterfly Road, 1706-08 Bergen Street House — Brooklyn","subtitle":"Brooklyn / 1970-08-18 / Documented / Individual Landmark Sites","details":"LPC designation record for Houses on Hunterfly Road, 1706-08 Bergen Street House; designation date is taken from the source desdate field.","year":1970,"effective_date":"1970-08-18","date_precision":"day","short_description":"LPC individual landmark site LP-00733; status Designated; type Individual Landmark; alternate name designated as the Houses on Hunterfly Road, now the Weeksville Heritage Center.","category":"built_environment","lens":"built_environment","confidence":"documented","source_ids":["buis-pvji"],"affected_area_label":"Brooklyn","explanation":"LPC designation record for Houses on Hunterfly Road, 1706-08 Bergen Street House; designation date is taken from the source desdate field."},"geometry":{"type":"Point","coordinates":[-73.926092,40.674278]}},{"type":"Feature","id":"nyc_lpc_individual_landmark_888","properties":{"city_id":"nyc","event_id":"nyc_lpc_individual_landmark_888","title":"Individual landmark designated: Houses on Hunterfly Road, 1706-08 Bergen Street House — Brooklyn · 888","subtitle":"Brooklyn / 1970-08-18 / Documented / Individual Landmark Sites","details":"LPC designation record for Houses on Hunterfly Road, 1706-08 Bergen Street House; designation date is taken from the source desdate field.","year":1970,"effective_date":"1970-08-18","date_precision":"day","short_description":"LPC individual landmark site LP-00732; status Designated; type Individual Landmark; alternate name designated as the Houses on Hunterfly Road, now the Weeksville Heritage Center.","category":"built_environment","lens":"built_environment","confidence":"documented","source_ids":["buis-pvji"],"affected_area_label":"Brooklyn","explanation":"LPC designation record for Houses on Hunterfly Road, 1706-08 Bergen Street House; designation date is taken from the source desdate field."},"geometry":{"type":"Point","coordinates":[-73.926094,40.674351]}},{"type":"Feature","id":"nyc_lpc_individual_landmark_889","properties":{"city_id":"nyc","event_id":"nyc_lpc_individual_landmark_889","title":"Individual landmark designated: Houses on Hunterfly Road, 1702-04 Bergen Street House — Brooklyn · 889","subtitle":"Brooklyn / 1970-08-18 / Documented / Individual Landmark Sites","details":"LPC designation record for Houses on Hunterfly Road, 1702-04 Bergen Street House; designation date is taken from the source desdate field.","year":1970,"effective_date":"1970-08-18","date_precision":"day","short_description":"LPC individual landmark site LP-00731; status Designated; type Individual Landmark; alternate name designated as the Houses on Hunterfly Road, now the Weeksville Heritage Center.","category":"built_environment","lens":"built_environment","confidence":"documented","source_ids":["buis-pvji"],"affected_area_label":"Brooklyn","explanation":"LPC designation record for Houses on Hunterfly Road, 1702-04 Bergen Street House; designation date is taken from the source desdate field."},"geometry":{"type":"Point","coordinates":[-73.926045,40.674381]}},{"type":"Feature","id":"nyc_lpc_individual_landmark_982","properties":{"city_id":"nyc","event_id":"nyc_lpc_individual_landmark_982","title":"Individual landmark designated: William E. and Melissa Phelps Dodge House, Greystone","subtitle":"Bronx / 1970-10-13 / Documented / Individual Landmark Sites","details":"LPC designation record for William E. and Melissa Phelps Dodge House, Greystone; designation date is taken from the source desdate field.","year":1970,"effective_date":"1970-10-13","date_precision":"day","short_description":"LPC individual landmark site LP-00672; status Designated; type Individual Landmark; alternate name not stated.","category":"built_environment","lens":"built_environment","confidence":"documented","source_ids":["buis-pvji"],"affected_area_label":"Bronx","explanation":"LPC designation record for William E. and Melissa Phelps Dodge House, Greystone; designation date is taken from the source desdate field."},"geometry":{"type":"Point","coordinates":[-73.913063,40.894791]}},{"type":"Feature","id":"nyc_parks_property_169891","properties":{"city_id":"nyc","event_id":"nyc_parks_property_169891","title":"Parks property acquisition: New Dorp Park","subtitle":"Staten Island / 1970-01-08 / Documented / Parks Properties","details":"Parks property record with acquisition date for New Dorp Park.","year":1970,"effective_date":"1970-01-08","date_precision":"day","short_description":"NYC Parks property record for New Dorp Park; type Nature Area; acres 0.785; waterfront=False.","category":"environment","lens":"green_space","confidence":"documented","source_ids":["enfh-gkve"],"affected_area_label":"Staten Island","explanation":"Parks property record with acquisition date for New Dorp Park."},"geometry":{"type":"Point","coordinates":[-74.118326,40.569717]}},{"type":"Feature","id":"nyc_parks_property_170796","properties":{"city_id":"nyc","event_id":"nyc_parks_property_170796","title":"Parks property acquisition: Fisher Pool","subtitle":"Queens / 1970-01-19 / Documented / Parks Properties","details":"Parks property record with acquisition date for Fisher Pool.","year":1970,"effective_date":"1970-01-19","date_precision":"day","short_description":"NYC Parks property record for Fisher Pool; type Buildings/Institutions; acres 0.817; waterfront=False.","category":"environment","lens":"green_space","confidence":"documented","source_ids":["enfh-gkve"],"affected_area_label":"Queens","explanation":"Parks property record with acquisition date for Fisher Pool."},"geometry":{"type":"Point","coordinates":[-73.869307,40.75873]}},{"type":"Feature","id":"nyc_zap_project_p1987r0544","properties":{"city_id":"nyc","event_id":"nyc_zap_project_p1987r0544","title":"ZAP land-use project: P1987R0544 (Staten Island)","subtitle":"Staten Island / 1970-04-21 / Documented / Zoning Application Portal (ZAP) - Project Data","details":"Land-use/zoning application milestone with public status Completed.","year":1970,"effective_date":"1970-04-21","date_precision":"day","short_description":"Zoning Application Portal project P1987R0544; CEQR n/a; public status Completed; borough Staten Island.","category":"built_environment","lens":"built_environment","confidence":"documented","source_ids":["hgx4-8ukb"],"affected_area_label":"Staten Island","explanation":"Land-use/zoning application milestone with public status Completed."},"geometry":{"type":"Point","coordinates":[-74.1502,40.5795]}}]}
