{"type":"FeatureCollection","schema_version":"1.0.0","city_id":"nyc","year":1825,"features":[{"type":"Feature","id":"nyc_parks_property_169062","properties":{"city_id":"nyc","event_id":"nyc_parks_property_169062","title":"Parks property acquisition: Ahearn Park","year":1825,"effective_date":"1825-02-24","date_precision":"day","category":"environment","lens":"green_space","confidence":"documented","source_ids":["enfh-gkve"],"explanation":"Parks property record with acquisition date for Ahearn Park."},"geometry":{"type":"Point","coordinates":[-73.983553,40.714764]}}]}
