{"type":"FeatureCollection","schema_version":"1.0.0","city_id":"nyc","year":1926,"features":[{"type":"Feature","id":"nyc_parks_property_169197","properties":{"city_id":"nyc","event_id":"nyc_parks_property_169197","title":"Parks property acquisition: Mount Eden Malls","short_description":"NYC Parks property record for Mount Eden Malls; type Mall; acres 1.682; waterfront=False.","year":1926,"effective_date":"1926-06-17","date_precision":"day","category":"environment","lens":"green_space","confidence":"documented","source_ids":["enfh-gkve"],"explanation":"Parks property record with acquisition date for Mount Eden Malls."},"geometry":{"type":"Point","coordinates":[-73.909677,40.842958]}},{"type":"Feature","id":"nyc_parks_property_169755","properties":{"city_id":"nyc","event_id":"nyc_parks_property_169755","title":"Parks property acquisition: Drumm Triangle","short_description":"NYC Parks property record for Drumm Triangle; type Triangle/Plaza; acres 0.166; waterfront=False.","year":1926,"effective_date":"1926-02-04","date_precision":"day","category":"environment","lens":"green_space","confidence":"documented","source_ids":["enfh-gkve"],"explanation":"Parks property record with acquisition date for Drumm Triangle."},"geometry":{"type":"Point","coordinates":[-73.888248,40.699364]}},{"type":"Feature","id":"nyc_parks_property_169841","properties":{"city_id":"nyc","event_id":"nyc_parks_property_169841","title":"Parks property acquisition: Bobbie Lewis Jr. Playground","short_description":"NYC Parks property record for Bobbie Lewis Jr. Playground; type Neighborhood Park; acres 0.271; waterfront=False.","year":1926,"effective_date":"1926-04-21","date_precision":"day","category":"environment","lens":"green_space","confidence":"documented","source_ids":["enfh-gkve"],"explanation":"Parks property record with acquisition date for Bobbie Lewis Jr. Playground."},"geometry":{"type":"Point","coordinates":[-74.160468,40.636608]}},{"type":"Feature","id":"nyc_parks_property_170094","properties":{"city_id":"nyc","event_id":"nyc_parks_property_170094","title":"Parks property acquisition: Marcus Garvey Square","short_description":"NYC Parks property record for Marcus Garvey Square; type Triangle/Plaza; acres 1.395; waterfront=False.","year":1926,"effective_date":"1926-03-18","date_precision":"day","category":"environment","lens":"green_space","confidence":"documented","source_ids":["enfh-gkve"],"explanation":"Parks property record with acquisition date for Marcus Garvey Square."},"geometry":{"type":"Point","coordinates":[-73.866461,40.877572]}},{"type":"Feature","id":"nyc_parks_property_170095","properties":{"city_id":"nyc","event_id":"nyc_parks_property_170095","title":"Parks property acquisition: D'Onofrio Square","short_description":"NYC Parks property record for D'Onofrio Square; type Triangle/Plaza; acres 0.38; waterfront=False.","year":1926,"effective_date":"1926-03-18","date_precision":"day","category":"environment","lens":"green_space","confidence":"documented","source_ids":["enfh-gkve"],"explanation":"Parks property record with acquisition date for D'Onofrio Square."},"geometry":{"type":"Point","coordinates":[-73.865056,40.879927]}},{"type":"Feature","id":"nyc_parks_property_170162","properties":{"city_id":"nyc","event_id":"nyc_parks_property_170162","title":"Parks property acquisition: Washington Park","short_description":"NYC Parks property record for Washington Park; type Neighborhood Park; acres 3.03; waterfront=False.","year":1926,"effective_date":"1926-07-26","date_precision":"day","category":"environment","lens":"green_space","confidence":"documented","source_ids":["enfh-gkve"],"explanation":"Parks property record with acquisition date for Washington Park."},"geometry":{"type":"Point","coordinates":[-73.984952,40.672929]}},{"type":"Feature","id":"nyc_parks_property_170347","properties":{"city_id":"nyc","event_id":"nyc_parks_property_170347","title":"Parks property acquisition: Crispus Attucks Playground","short_description":"NYC Parks property record for Crispus Attucks Playground; type Playground; acres 0.934; waterfront=False.","year":1926,"effective_date":"1926-01-02","date_precision":"day","category":"environment","lens":"green_space","confidence":"documented","source_ids":["enfh-gkve"],"explanation":"Parks property record with acquisition date for Crispus Attucks Playground."},"geometry":{"type":"Point","coordinates":[-73.959154,40.681522]}},{"type":"Feature","id":"nyc_parks_property_170753","properties":{"city_id":"nyc","event_id":"nyc_parks_property_170753","title":"Parks property acquisition: Conference House Park","short_description":"NYC Parks property record for Conference House Park; type Nature Area; acres 286.557; waterfront=True.","year":1926,"effective_date":"1926-04-29","date_precision":"day","category":"environment","lens":"green_space","confidence":"documented","source_ids":["enfh-gkve"],"explanation":"Parks property record with acquisition date for Conference House Park."},"geometry":{"type":"Point","coordinates":[-74.239806,40.501085]}}]}
