{"type":"FeatureCollection","schema_version":"1.0.0","city_id":"nyc","year":1964,"features":[{"type":"Feature","id":"nyc-milestone-1964-verrazzano-narrows-bridge-opens-7","properties":{"city_id":"nyc","event_id":"nyc-milestone-1964-verrazzano-narrows-bridge-opens-7","title":"Verrazzano-Narrows Bridge opens","year":1964,"effective_date":"1964","date_precision":"year","category":"built_environment","lens":"built_environment","confidence":"documented","source_ids":["c9sj-fmsg","tqtj-sjs8","i6b5-j7bu"],"explanation":"Staten Island growth and regional highway access shift"},"geometry":{"type":"Point","coordinates":[-74.1502,40.5795]}},{"type":"Feature","id":"nyc_parks_property_169111","properties":{"city_id":"nyc","event_id":"nyc_parks_property_169111","title":"Parks property acquisition: Abigail Playground","year":1964,"effective_date":"1964-10-08","date_precision":"day","category":"environment","lens":"green_space","confidence":"documented","source_ids":["enfh-gkve"],"explanation":"Parks property record with acquisition date for Abigail Playground."},"geometry":{"type":"Point","coordinates":[-73.904504,40.817304]}},{"type":"Feature","id":"nyc_parks_property_169162","properties":{"city_id":"nyc","event_id":"nyc_parks_property_169162","title":"Parks property acquisition: Police Officer Edward Byrne Park","year":1964,"effective_date":"1964-02-20","date_precision":"day","category":"environment","lens":"green_space","confidence":"documented","source_ids":["enfh-gkve"],"explanation":"Parks property record with acquisition date for Police Officer Edward Byrne Park."},"geometry":{"type":"Point","coordinates":[-73.806751,40.667406]}},{"type":"Feature","id":"nyc_parks_property_169472","properties":{"city_id":"nyc","event_id":"nyc_parks_property_169472","title":"Parks property acquisition: Lot","year":1964,"effective_date":"1964-12-23","date_precision":"day","category":"environment","lens":"green_space","confidence":"documented","source_ids":["enfh-gkve"],"explanation":"Parks property record with acquisition date for Lot."},"geometry":{"type":"Point","coordinates":[-73.988099,40.573586]}},{"type":"Feature","id":"nyc_parks_property_169772","properties":{"city_id":"nyc","event_id":"nyc_parks_property_169772","title":"Parks property acquisition: Reiff Playground","year":1964,"effective_date":"1964-06-29","date_precision":"day","category":"environment","lens":"green_space","confidence":"documented","source_ids":["enfh-gkve"],"explanation":"Parks property record with acquisition date for Reiff Playground."},"geometry":{"type":"Point","coordinates":[-73.901716,40.718646]}},{"type":"Feature","id":"nyc_parks_property_169886","properties":{"city_id":"nyc","event_id":"nyc_parks_property_169886","title":"Parks property acquisition: Wegener Park","year":1964,"effective_date":"1964-06-23","date_precision":"day","category":"environment","lens":"green_space","confidence":"documented","source_ids":["enfh-gkve"],"explanation":"Parks property record with acquisition date for Wegener Park."},"geometry":{"type":"Point","coordinates":[-74.175995,40.552391]}},{"type":"Feature","id":"nyc_parks_property_169942","properties":{"city_id":"nyc","event_id":"nyc_parks_property_169942","title":"Parks property acquisition: James Madison Plaza","year":1964,"effective_date":"1964-10-20","date_precision":"day","category":"environment","lens":"green_space","confidence":"documented","source_ids":["enfh-gkve"],"explanation":"Parks property record with acquisition date for James Madison Plaza."},"geometry":{"type":"Point","coordinates":[-74.000506,40.711467]}},{"type":"Feature","id":"nyc_parks_property_170284","properties":{"city_id":"nyc","event_id":"nyc_parks_property_170284","title":"Parks property acquisition: Playground Seventy Five","year":1964,"effective_date":"1964-03-19","date_precision":"day","category":"environment","lens":"green_space","confidence":"documented","source_ids":["enfh-gkve"],"explanation":"Parks property record with acquisition date for Playground Seventy Five."},"geometry":{"type":"Point","coordinates":[-73.808075,40.726472]}},{"type":"Feature","id":"nyc_parks_property_170374","properties":{"city_id":"nyc","event_id":"nyc_parks_property_170374","title":"Parks property acquisition: Jackie Robinson Playground","year":1964,"effective_date":"1964-03-16","date_precision":"day","category":"environment","lens":"green_space","confidence":"documented","source_ids":["enfh-gkve"],"explanation":"Parks property record with acquisition date for Jackie Robinson Playground."},"geometry":{"type":"Point","coordinates":[-73.959145,40.665831]}},{"type":"Feature","id":"nyc_parks_property_170448","properties":{"city_id":"nyc","event_id":"nyc_parks_property_170448","title":"Parks property acquisition: Beach Channel Playground","year":1964,"effective_date":"1964-03-19","date_precision":"day","category":"environment","lens":"green_space","confidence":"documented","source_ids":["enfh-gkve"],"explanation":"Parks property record with acquisition date for Beach Channel Playground."},"geometry":{"type":"Point","coordinates":[-73.805798,40.588951]}},{"type":"Feature","id":"nyc_parks_property_170470","properties":{"city_id":"nyc","event_id":"nyc_parks_property_170470","title":"Parks property acquisition: Stroud Playground","year":1964,"effective_date":"1964-01-15","date_precision":"day","category":"environment","lens":"green_space","confidence":"documented","source_ids":["enfh-gkve"],"explanation":"Parks property record with acquisition date for Stroud Playground."},"geometry":{"type":"Point","coordinates":[-73.961982,40.674836]}},{"type":"Feature","id":"nyc_parks_property_170476","properties":{"city_id":"nyc","event_id":"nyc_parks_property_170476","title":"Parks property acquisition: Eleanor Roosevelt Playground","year":1964,"effective_date":"1964-06-17","date_precision":"day","category":"environment","lens":"green_space","confidence":"documented","source_ids":["enfh-gkve"],"explanation":"Parks property record with acquisition date for Eleanor Roosevelt Playground."},"geometry":{"type":"Point","coordinates":[-73.9357,40.692838]}},{"type":"Feature","id":"nyc_parks_property_170478","properties":{"city_id":"nyc","event_id":"nyc_parks_property_170478","title":"Parks property acquisition: Chester Playground","year":1964,"effective_date":"1964-01-20","date_precision":"day","category":"environment","lens":"green_space","confidence":"documented","source_ids":["enfh-gkve"],"explanation":"Parks property record with acquisition date for Chester Playground."},"geometry":{"type":"Point","coordinates":[-73.911915,40.668783]}},{"type":"Feature","id":"nyc_parks_property_170549","properties":{"city_id":"nyc","event_id":"nyc_parks_property_170549","title":"Parks property acquisition: Fresh Meadows Playground","year":1964,"effective_date":"1964-03-19","date_precision":"day","category":"environment","lens":"green_space","confidence":"documented","source_ids":["enfh-gkve"],"explanation":"Parks property record with acquisition date for Fresh Meadows Playground."},"geometry":{"type":"Point","coordinates":[-73.796102,40.734191]}},{"type":"Feature","id":"nyc_parks_property_170638","properties":{"city_id":"nyc","event_id":"nyc_parks_property_170638","title":"Parks property acquisition: Yellowstone Park","year":1964,"effective_date":"1964-12-04","date_precision":"day","category":"environment","lens":"green_space","confidence":"documented","source_ids":["enfh-gkve"],"explanation":"Parks property record with acquisition date for Yellowstone Park."},"geometry":{"type":"Point","coordinates":[-73.847761,40.726173]}},{"type":"Feature","id":"nyc_parks_property_170748","properties":{"city_id":"nyc","event_id":"nyc_parks_property_170748","title":"Parks property acquisition: Abe Stark Skating Rink","year":1964,"effective_date":"1964-04-23","date_precision":"day","category":"environment","lens":"green_space","confidence":"documented","source_ids":["enfh-gkve"],"explanation":"Parks property record with acquisition date for Abe Stark Skating Rink."},"geometry":{"type":"Point","coordinates":[-73.985093,40.573876]}},{"type":"Feature","id":"nyc_parks_property_170915","properties":{"city_id":"nyc","event_id":"nyc_parks_property_170915","title":"Parks property acquisition: Valentine Varian House","year":1964,"effective_date":"1964-07-15","date_precision":"day","category":"environment","lens":"green_space","confidence":"documented","source_ids":["enfh-gkve"],"explanation":"Parks property record with acquisition date for Valentine Varian House."},"geometry":{"type":"Point","coordinates":[-73.879405,40.877305]}}]}
