{"type":"FeatureCollection","schema_version":"1.0.0","city_id":"nyc","year":1984,"features":[{"type":"Feature","id":"nyc_lpc_historic_district_lp-01418","properties":{"city_id":"nyc","event_id":"nyc_lpc_historic_district_lp-01418","title":"Historic district designated: West End - Collegiate Historic District","subtitle":"Manhattan / 1984-01-03 / Documented / Historic Districts","details":"LPC historic district designation record for West End - Collegiate Historic District.","year":1984,"effective_date":"1984-01-03","date_precision":"day","short_description":"LPC historic district record LP-01418; status DESIGNATED; public hearing 2/8/1983.","category":"built_environment","lens":"built_environment","confidence":"documented","source_ids":["skyk-mpzq"],"affected_area_label":"Manhattan","explanation":"LPC historic district designation record for West End - Collegiate Historic District."},"geometry":{"type":"Point","coordinates":[-73.983587,40.78265]}},{"type":"Feature","id":"nyc_lpc_historic_district_lp-01420","properties":{"city_id":"nyc","event_id":"nyc_lpc_historic_district_lp-01420","title":"Historic district designated: St. Mark's Historic District Extension","subtitle":"Manhattan / 1984-06-19 / Documented / Historic Districts","details":"LPC historic district designation record for St. Mark's Historic District Extension.","year":1984,"effective_date":"1984-06-19","date_precision":"day","short_description":"LPC historic district record LP-01420; status DESIGNATED; public hearing 4/12/1983.","category":"built_environment","lens":"built_environment","confidence":"documented","source_ids":["skyk-mpzq"],"affected_area_label":"Manhattan","explanation":"LPC historic district designation record for St. Mark's Historic District Extension."},"geometry":{"type":"Point","coordinates":[-73.988696,40.730432]}},{"type":"Feature","id":"nyc_lpc_individual_landmark_1052","properties":{"city_id":"nyc","event_id":"nyc_lpc_individual_landmark_1052","title":"Individual landmark designated: Chatsworth Apartments and Annex","subtitle":"Manhattan / 1984-09-11 / Documented / Individual Landmark Sites","details":"LPC designation record for Chatsworth Apartments and Annex; designation date is taken from the source desdate field.","year":1984,"effective_date":"1984-09-11","date_precision":"day","short_description":"LPC individual landmark site LP-01506; status Designated; type Individual Landmark; alternate name not stated.","category":"built_environment","lens":"built_environment","confidence":"documented","source_ids":["buis-pvji"],"affected_area_label":"Manhattan","explanation":"LPC designation record for Chatsworth Apartments and Annex; designation date is taken from the source desdate field."},"geometry":{"type":"Point","coordinates":[-73.986422,40.780212]}},{"type":"Feature","id":"nyc_lpc_individual_landmark_1259","properties":{"city_id":"nyc","event_id":"nyc_lpc_individual_landmark_1259","title":"Individual landmark designated: New York County Courthouse","subtitle":"Manhattan / 1984-10-16 / Documented / Individual Landmark Sites","details":"LPC designation record for New York County Courthouse; designation date is taken from the source desdate field.","year":1984,"effective_date":"1984-10-16","date_precision":"day","short_description":"LPC individual landmark site LP-01437; status Designated; type Individual Landmark; alternate name also known as the Tweed Courthouse.","category":"built_environment","lens":"built_environment","confidence":"documented","source_ids":["buis-pvji"],"affected_area_label":"Manhattan","explanation":"LPC designation record for New York County Courthouse; designation date is taken from the source desdate field."},"geometry":{"type":"Point","coordinates":[-74.005566,40.713401]}},{"type":"Feature","id":"nyc_lpc_individual_landmark_1262","properties":{"city_id":"nyc","event_id":"nyc_lpc_individual_landmark_1262","title":"Individual landmark designated: University Heights Bridge","subtitle":"NYC / 1984-09-11 / Documented / Individual Landmark Sites","details":"LPC designation record for University Heights Bridge; designation date is taken from the source desdate field.","year":1984,"effective_date":"1984-09-11","date_precision":"day","short_description":"LPC individual landmark site LP-01455; status Designated; type Individual Landmark; alternate name not stated.","category":"built_environment","lens":"built_environment","confidence":"documented","source_ids":["buis-pvji"],"affected_area_label":"NYC","explanation":"LPC designation record for University Heights Bridge; designation date is taken from the source desdate field."},"geometry":{"type":"Point","coordinates":[-73.915222,40.862909]}},{"type":"Feature","id":"nyc_lpc_individual_landmark_319","properties":{"city_id":"nyc","event_id":"nyc_lpc_individual_landmark_319","title":"Individual landmark designated: Gorham Manufacturing Company Building","subtitle":"Manhattan / 1984-06-19 / Documented / Individual Landmark Sites","details":"LPC designation record for Gorham Manufacturing Company Building; designation date is taken from the source desdate field.","year":1984,"effective_date":"1984-06-19","date_precision":"day","short_description":"LPC individual landmark site LP-01227; status Designated; type Individual Landmark; alternate name not stated.","category":"built_environment","lens":"built_environment","confidence":"documented","source_ids":["buis-pvji"],"affected_area_label":"Manhattan","explanation":"LPC designation record for Gorham Manufacturing Company Building; designation date is taken from the source desdate field."},"geometry":{"type":"Point","coordinates":[-73.990149,40.738758]}},{"type":"Feature","id":"nyc_lpc_individual_landmark_456","properties":{"city_id":"nyc","event_id":"nyc_lpc_individual_landmark_456","title":"Individual landmark designated: Harry B. and Evelina Hollins Residence","subtitle":"Manhattan / 1984-06-19 / Documented / Individual Landmark Sites","details":"LPC designation record for Harry B. and Evelina Hollins Residence; designation date is taken from the source desdate field.","year":1984,"effective_date":"1984-06-19","date_precision":"day","short_description":"LPC individual landmark site LP-01266; status Designated; type Individual Landmark; alternate name later the Calumet Club, now the Consulate General of Argentina.","category":"built_environment","lens":"built_environment","confidence":"documented","source_ids":["buis-pvji"],"affected_area_label":"Manhattan","explanation":"LPC designation record for Harry B. and Evelina Hollins Residence; designation date is taken from the source desdate field."},"geometry":{"type":"Point","coordinates":[-73.975545,40.762485]}},{"type":"Feature","id":"nyc_lpc_individual_landmark_471","properties":{"city_id":"nyc","event_id":"nyc_lpc_individual_landmark_471","title":"Individual landmark designated: Saks Fifth Avenue","subtitle":"Manhattan / 1984-12-20 / Documented / Individual Landmark Sites","details":"LPC designation record for Saks Fifth Avenue; designation date is taken from the source desdate field.","year":1984,"effective_date":"1984-12-20","date_precision":"day","short_description":"LPC individual landmark site LP-01523; status Designated; type Individual Landmark; alternate name not stated.","category":"built_environment","lens":"built_environment","confidence":"documented","source_ids":["buis-pvji"],"affected_area_label":"Manhattan","explanation":"LPC designation record for Saks Fifth Avenue; designation date is taken from the source desdate field."},"geometry":{"type":"Point","coordinates":[-73.97659,40.757915]}},{"type":"Feature","id":"nyc_lpc_individual_landmark_48","properties":{"city_id":"nyc","event_id":"nyc_lpc_individual_landmark_48","title":"Individual landmark designated: Abraham Manee House","subtitle":"Staten Island / 1984-09-11 / Documented / Individual Landmark Sites","details":"LPC designation record for Abraham Manee House; designation date is taken from the source desdate field.","year":1984,"effective_date":"1984-09-11","date_precision":"day","short_description":"LPC individual landmark site LP-01398; status Designated; type Individual Landmark; alternate name also known as the Manee-Seguine Homestead.","category":"built_environment","lens":"built_environment","confidence":"documented","source_ids":["buis-pvji"],"affected_area_label":"Staten Island","explanation":"LPC designation record for Abraham Manee House; designation date is taken from the source desdate field."},"geometry":{"type":"Point","coordinates":[-74.196256,40.513367]}},{"type":"Feature","id":"nyc_lpc_individual_landmark_662","properties":{"city_id":"nyc","event_id":"nyc_lpc_individual_landmark_662","title":"Individual landmark designated: Lucy Dahlgren House","subtitle":"Manhattan / 1984-06-19 / Documented / Individual Landmark Sites","details":"LPC designation record for Lucy Dahlgren House; designation date is taken from the source desdate field.","year":1984,"effective_date":"1984-06-19","date_precision":"day","short_description":"LPC individual landmark site LP-01267; status Designated; type Individual Landmark; alternate name later the Pierre Cartier House.","category":"built_environment","lens":"built_environment","confidence":"documented","source_ids":["buis-pvji"],"affected_area_label":"Manhattan","explanation":"LPC designation record for Lucy Dahlgren House; designation date is taken from the source desdate field."},"geometry":{"type":"Point","coordinates":[-73.954521,40.787722]}},{"type":"Feature","id":"nyc_lpc_individual_landmark_688","properties":{"city_id":"nyc","event_id":"nyc_lpc_individual_landmark_688","title":"Individual landmark designated: Graham Court Apartments","subtitle":"Manhattan / 1984-10-16 / Documented / Individual Landmark Sites","details":"LPC designation record for Graham Court Apartments; designation date is taken from the source desdate field.","year":1984,"effective_date":"1984-10-16","date_precision":"day","short_description":"LPC individual landmark site LP-01254; status Designated; type Individual Landmark; alternate name not stated.","category":"built_environment","lens":"built_environment","confidence":"documented","source_ids":["buis-pvji"],"affected_area_label":"Manhattan","explanation":"LPC designation record for Graham Court Apartments; designation date is taken from the source desdate field."},"geometry":{"type":"Point","coordinates":[-73.951628,40.803367]}},{"type":"Feature","id":"nyc_lpc_individual_landmark_704","properties":{"city_id":"nyc","event_id":"nyc_lpc_individual_landmark_704","title":"Individual landmark designated: Rockefeller Apartments","subtitle":"Manhattan / 1984-06-19 / Documented / Individual Landmark Sites","details":"LPC designation record for Rockefeller Apartments; designation date is taken from the source desdate field.","year":1984,"effective_date":"1984-06-19","date_precision":"day","short_description":"LPC individual landmark site LP-01276; status Designated; type Individual Landmark; alternate name not stated.","category":"built_environment","lens":"built_environment","confidence":"documented","source_ids":["buis-pvji"],"affected_area_label":"Manhattan","explanation":"LPC designation record for Rockefeller Apartments; designation date is taken from the source desdate field."},"geometry":{"type":"Point","coordinates":[-73.976474,40.761963]}},{"type":"Feature","id":"nyc_lpc_individual_landmark_850","properties":{"city_id":"nyc","event_id":"nyc_lpc_individual_landmark_850","title":"Individual landmark designated: Public Bath No. 7","subtitle":"Brooklyn / 1984-09-11 / Documented / Individual Landmark Sites","details":"LPC designation record for Public Bath No. 7; designation date is taken from the source desdate field.","year":1984,"effective_date":"1984-09-11","date_precision":"day","short_description":"LPC individual landmark site LP-01287; status Designated; type Individual Landmark; alternate name not stated.","category":"built_environment","lens":"built_environment","confidence":"documented","source_ids":["buis-pvji"],"affected_area_label":"Brooklyn","explanation":"LPC designation record for Public Bath No. 7; designation date is taken from the source desdate field."},"geometry":{"type":"Point","coordinates":[-73.982998,40.676798]}},{"type":"Feature","id":"nyc_lpc_individual_landmark_885","properties":{"city_id":"nyc","event_id":"nyc_lpc_individual_landmark_885","title":"Individual landmark designated: Public School 73","subtitle":"Brooklyn / 1984-09-11 / Documented / Individual Landmark Sites","details":"LPC designation record for Public School 73; designation date is taken from the source desdate field.","year":1984,"effective_date":"1984-09-11","date_precision":"day","short_description":"LPC individual landmark site LP-01289; status Designated; type Individual Landmark; alternate name not stated.","category":"built_environment","lens":"built_environment","confidence":"documented","source_ids":["buis-pvji"],"affected_area_label":"Brooklyn","explanation":"LPC designation record for Public School 73; designation date is taken from the source desdate field."},"geometry":{"type":"Point","coordinates":[-73.910509,40.680704]}},{"type":"Feature","id":"nyc_parks_property_169959","properties":{"city_id":"nyc","event_id":"nyc_parks_property_169959","title":"Parks property acquisition: Tramway Plaza","subtitle":"Manhattan / 1984-05-23 / Documented / Parks Properties","details":"Parks property record with acquisition date for Tramway Plaza.","year":1984,"effective_date":"1984-05-23","date_precision":"day","short_description":"NYC Parks property record for Tramway Plaza; type Triangle/Plaza; acres 0.345; waterfront=False.","category":"environment","lens":"green_space","confidence":"documented","source_ids":["enfh-gkve"],"affected_area_label":"Manhattan","explanation":"Parks property record with acquisition date for Tramway Plaza."},"geometry":{"type":"Point","coordinates":[-73.964318,40.761077]}},{"type":"Feature","id":"nyc_parks_property_169960","properties":{"city_id":"nyc","event_id":"nyc_parks_property_169960","title":"Parks property acquisition: Clinton Community Garden","subtitle":"Manhattan / 1984-11-16 / Documented / Parks Properties","details":"Parks property record with acquisition date for Clinton Community Garden.","year":1984,"effective_date":"1984-11-16","date_precision":"day","short_description":"NYC Parks property record for Clinton Community Garden; type Garden; acres 0.35; waterfront=False.","category":"environment","lens":"green_space","confidence":"documented","source_ids":["enfh-gkve"],"affected_area_label":"Manhattan","explanation":"Parks property record with acquisition date for Clinton Community Garden."},"geometry":{"type":"Point","coordinates":[-73.991828,40.762725]}},{"type":"Feature","id":"nyc_parks_property_170936","properties":{"city_id":"nyc","event_id":"nyc_parks_property_170936","title":"Parks property acquisition: Coney Island Creek Park","subtitle":"Brooklyn / 1984-03-09 / Documented / Parks Properties","details":"Parks property record with acquisition date for Coney Island Creek Park.","year":1984,"effective_date":"1984-03-09","date_precision":"day","short_description":"NYC Parks property record for Coney Island Creek Park; type Nature Area; acres 8.892; waterfront=True.","category":"environment","lens":"green_space","confidence":"documented","source_ids":["enfh-gkve"],"affected_area_label":"Brooklyn","explanation":"Parks property record with acquisition date for Coney Island Creek Park."},"geometry":{"type":"Point","coordinates":[-74.005327,40.581209]}},{"type":"Feature","id":"nyc_parks_property_171000","properties":{"city_id":"nyc","event_id":"nyc_parks_property_171000","title":"Parks property acquisition: Bill Rainey Park","subtitle":"Bronx / 1984-05-07 / Documented / Parks Properties","details":"Parks property record with acquisition date for Bill Rainey Park.","year":1984,"effective_date":"1984-05-07","date_precision":"day","short_description":"NYC Parks property record for Bill Rainey Park; type Recreational Field/Courts; acres 7.738; waterfront=False.","category":"environment","lens":"green_space","confidence":"documented","source_ids":["enfh-gkve"],"affected_area_label":"Bronx","explanation":"Parks property record with acquisition date for Bill Rainey Park."},"geometry":{"type":"Point","coordinates":[-73.897223,40.819342]}},{"type":"Feature","id":"nyc_parks_property_171178","properties":{"city_id":"nyc","event_id":"nyc_parks_property_171178","title":"Parks property acquisition: Pralls Island","subtitle":"Staten Island / 1984-06-15 / Documented / Parks Properties","details":"Parks property record with acquisition date for Pralls Island.","year":1984,"effective_date":"1984-06-15","date_precision":"day","short_description":"NYC Parks property record for Pralls Island; type Nature Area; acres 107.514; waterfront=True.","category":"environment","lens":"green_space","confidence":"documented","source_ids":["enfh-gkve"],"affected_area_label":"Staten Island","explanation":"Parks property record with acquisition date for Pralls Island."},"geometry":{"type":"Point","coordinates":[-74.200488,40.608427]}}]}
