{"type":"FeatureCollection","schema_version":"1.0.0","city_id":"nyc","year":1827,"features":[{"type":"Feature","id":"nyc_parks_property_169160","properties":{"city_id":"nyc","event_id":"nyc_parks_property_169160","title":"Parks property acquisition: Washington Square Park","subtitle":"Manhattan / 1827-10-26 / Documented / Parks Properties","details":"Parks property record with acquisition date for Washington Square Park.","year":1827,"effective_date":"1827-10-26","date_precision":"day","short_description":"NYC Parks property record for Washington Square Park; type Neighborhood Park; acres 9.749; waterfront=False.","category":"environment","lens":"green_space","confidence":"documented","source_ids":["enfh-gkve"],"affected_area_label":"Manhattan","explanation":"Parks property record with acquisition date for Washington Square Park."},"geometry":{"type":"Point","coordinates":[-73.997435,40.730609]}}]}
