{"type":"FeatureCollection","schema_version":"1.0.0","city_id":"nyc","year":1909,"features":[{"type":"Feature","id":"nyc_parks_property_169971","properties":{"city_id":"nyc","event_id":"nyc_parks_property_169971","title":"Parks property acquisition: Sergeant Johnson Triangle","short_description":"NYC Parks property record for Sergeant Johnson Triangle; type Triangle/Plaza; acres 0.74; waterfront=False.","year":1909,"effective_date":"1909-12-27","date_precision":"day","category":"environment","lens":"green_space","confidence":"documented","source_ids":["enfh-gkve"],"explanation":"Parks property record with acquisition date for Sergeant Johnson Triangle."},"geometry":{"type":"Point","coordinates":[-73.88127,40.857991]}},{"type":"Feature","id":"nyc_parks_property_170195","properties":{"city_id":"nyc","event_id":"nyc_parks_property_170195","title":"Parks property acquisition: Owen F. Dolen Park","short_description":"NYC Parks property record for Owen F. Dolen Park; type Neighborhood Park; acres 1.4; waterfront=False.","year":1909,"effective_date":"1909-08-02","date_precision":"day","category":"environment","lens":"green_space","confidence":"documented","source_ids":["enfh-gkve"],"explanation":"Parks property record with acquisition date for Owen F. Dolen Park."},"geometry":{"type":"Point","coordinates":[-73.842897,40.840523]}},{"type":"Feature","id":"nyc_parks_property_170836","properties":{"city_id":"nyc","event_id":"nyc_parks_property_170836","title":"Parks property acquisition: St. Nicholas Park","short_description":"NYC Parks property record for St. Nicholas Park; type Neighborhood Park; acres 22.74; waterfront=False.","year":1909,"effective_date":"1909-11-29","date_precision":"day","category":"environment","lens":"green_space","confidence":"documented","source_ids":["enfh-gkve"],"explanation":"Parks property record with acquisition date for St. Nicholas Park."},"geometry":{"type":"Point","coordinates":[-73.949073,40.817772]}},{"type":"Feature","id":"nyc_parks_property_170946","properties":{"city_id":"nyc","event_id":"nyc_parks_property_170946","title":"Parks property acquisition: Joseph Rodman Drake Park & Enslaved African Burial Ground","short_description":"NYC Parks property record for Joseph Rodman Drake Park & Enslaved African Burial Ground; type Neighborhood Park; acres 2.49; waterfront=False.","year":1909,"effective_date":"1909-03-09","date_precision":"day","category":"environment","lens":"green_space","confidence":"documented","source_ids":["enfh-gkve"],"explanation":"Parks property record with acquisition date for Joseph Rodman Drake Park & Enslaved African Burial Ground."},"geometry":{"type":"Point","coordinates":[-73.882504,40.810231]}},{"type":"Feature","id":"nyc_parks_property_171027","properties":{"city_id":"nyc","event_id":"nyc_parks_property_171027","title":"Parks property acquisition: Queensboro Oval","short_description":"NYC Parks property record for Queensboro Oval; type Recreational Field/Courts; acres 1.239; waterfront=False.","year":1909,"effective_date":"1909-02-02","date_precision":"day","category":"environment","lens":"green_space","confidence":"documented","source_ids":["enfh-gkve"],"explanation":"Parks property record with acquisition date for Queensboro Oval."},"geometry":{"type":"Point","coordinates":[-73.960026,40.75914]}}]}
