{"type":"FeatureCollection","schema_version":"1.0.0","city_id":"nyc","year":1919,"features":[{"type":"Feature","id":"nyc_parks_property_169171","properties":{"city_id":"nyc","event_id":"nyc_parks_property_169171","title":"Parks property acquisition: Church Triangle","year":1919,"effective_date":"1919-07-17","date_precision":"day","category":"environment","lens":"green_space","confidence":"documented","source_ids":["enfh-gkve"],"explanation":"Parks property record with acquisition date for Church Triangle."},"geometry":{"type":"Point","coordinates":[-73.850241,40.829893]}},{"type":"Feature","id":"nyc_parks_property_169741","properties":{"city_id":"nyc","event_id":"nyc_parks_property_169741","title":"Parks property acquisition: Clemens Triangle","year":1919,"effective_date":"1919-07-17","date_precision":"day","category":"environment","lens":"green_space","confidence":"documented","source_ids":["enfh-gkve"],"explanation":"Parks property record with acquisition date for Clemens Triangle."},"geometry":{"type":"Point","coordinates":[-73.905878,40.700075]}},{"type":"Feature","id":"nyc_parks_property_169747","properties":{"city_id":"nyc","event_id":"nyc_parks_property_169747","title":"Parks property acquisition: Glendale Veterans Triangle","year":1919,"effective_date":"1919-05-17","date_precision":"day","category":"environment","lens":"green_space","confidence":"documented","source_ids":["enfh-gkve"],"explanation":"Parks property record with acquisition date for Glendale Veterans Triangle."},"geometry":{"type":"Point","coordinates":[-73.880832,40.701855]}},{"type":"Feature","id":"nyc_parks_property_170158","properties":{"city_id":"nyc","event_id":"nyc_parks_property_170158","title":"Parks property acquisition: Sternberg Park","year":1919,"effective_date":"1919-05-05","date_precision":"day","category":"environment","lens":"green_space","confidence":"documented","source_ids":["enfh-gkve"],"explanation":"Parks property record with acquisition date for Sternberg Park."},"geometry":{"type":"Point","coordinates":[-73.947079,40.706119]}}]}
