{"type":"FeatureCollection","schema_version":"1.0.0","city_id":"nyc","year":1929,"features":[{"type":"Feature","id":"nyc_parks_property_169067","properties":{"city_id":"nyc","event_id":"nyc_parks_property_169067","title":"Parks property acquisition: Muller Triangle","subtitle":"Bronx / 1929-12-17 / Documented / Parks Properties","details":"Parks property record with acquisition date for Muller Triangle.","year":1929,"effective_date":"1929-12-17","date_precision":"day","short_description":"NYC Parks property record for Muller Triangle; type Triangle/Plaza; acres 0.04; waterfront=False.","category":"environment","lens":"green_space","confidence":"documented","source_ids":["enfh-gkve"],"affected_area_label":"Bronx","explanation":"Parks property record with acquisition date for Muller Triangle."},"geometry":{"type":"Point","coordinates":[-73.898128,40.862506]}},{"type":"Feature","id":"nyc_parks_property_169647","properties":{"city_id":"nyc","event_id":"nyc_parks_property_169647","title":"Parks property acquisition: Egbert Triangle","subtitle":"Staten Island / 1929-11-29 / Documented / Parks Properties","details":"Parks property record with acquisition date for Egbert Triangle.","year":1929,"effective_date":"1929-11-29","date_precision":"day","short_description":"NYC Parks property record for Egbert Triangle; type Triangle/Plaza; acres 0.207; waterfront=False.","category":"environment","lens":"green_space","confidence":"documented","source_ids":["enfh-gkve"],"affected_area_label":"Staten Island","explanation":"Parks property record with acquisition date for Egbert Triangle."},"geometry":{"type":"Point","coordinates":[-74.144473,40.625116]}},{"type":"Feature","id":"nyc_parks_property_169793","properties":{"city_id":"nyc","event_id":"nyc_parks_property_169793","title":"Parks property acquisition: Schneider Sampson Square","subtitle":"Bronx / 1929-07-01 / Documented / Parks Properties","details":"Parks property record with acquisition date for Schneider Sampson Square.","year":1929,"effective_date":"1929-07-01","date_precision":"day","short_description":"NYC Parks property record for Schneider Sampson Square; type Mall; acres 0.09; waterfront=False.","category":"environment","lens":"green_space","confidence":"documented","source_ids":["enfh-gkve"],"affected_area_label":"Bronx","explanation":"Parks property record with acquisition date for Schneider Sampson Square."},"geometry":{"type":"Point","coordinates":[-73.825768,40.836384]}},{"type":"Feature","id":"nyc_parks_property_169853","properties":{"city_id":"nyc","event_id":"nyc_parks_property_169853","title":"Parks property acquisition: Wolfe's Pond Park","subtitle":"Staten Island / 1929-08-19 / Documented / Parks Properties","details":"Parks property record with acquisition date for Wolfe's Pond Park.","year":1929,"effective_date":"1929-08-19","date_precision":"day","short_description":"NYC Parks property record for Wolfe's Pond Park; type Community Park; acres 302.693; waterfront=True.","category":"environment","lens":"green_space","confidence":"documented","source_ids":["enfh-gkve"],"affected_area_label":"Staten Island","explanation":"Parks property record with acquisition date for Wolfe's Pond Park."},"geometry":{"type":"Point","coordinates":[-74.190581,40.520649]}},{"type":"Feature","id":"nyc_parks_property_169854","properties":{"city_id":"nyc","event_id":"nyc_parks_property_169854","title":"Parks property acquisition: Cypress Hills Playground","subtitle":"Brooklyn / 1929-05-15 / Documented / Parks Properties","details":"Parks property record with acquisition date for Cypress Hills Playground.","year":1929,"effective_date":"1929-05-15","date_precision":"day","short_description":"NYC Parks property record for Cypress Hills Playground; type Neighborhood Park; acres 4.947; waterfront=False.","category":"environment","lens":"green_space","confidence":"documented","source_ids":["enfh-gkve"],"affected_area_label":"Brooklyn","explanation":"Parks property record with acquisition date for Cypress Hills Playground."},"geometry":{"type":"Point","coordinates":[-73.871493,40.670334]}},{"type":"Feature","id":"nyc_parks_property_170187","properties":{"city_id":"nyc","event_id":"nyc_parks_property_170187","title":"Parks property acquisition: Lt. Joseph Petrosino Park","subtitle":"Brooklyn / 1929-10-28 / Documented / Parks Properties","details":"Parks property record with acquisition date for Lt. Joseph Petrosino Park.","year":1929,"effective_date":"1929-10-28","date_precision":"day","short_description":"NYC Parks property record for Lt. Joseph Petrosino Park; type Playground; acres 0.871; waterfront=False.","category":"environment","lens":"green_space","confidence":"documented","source_ids":["enfh-gkve"],"affected_area_label":"Brooklyn","explanation":"Parks property record with acquisition date for Lt. Joseph Petrosino Park."},"geometry":{"type":"Point","coordinates":[-73.998426,40.619108]}},{"type":"Feature","id":"nyc_parks_property_170188","properties":{"city_id":"nyc","event_id":"nyc_parks_property_170188","title":"Parks property acquisition: Taaffe Playground","subtitle":"Brooklyn / 1929-12-23 / Documented / Parks Properties","details":"Parks property record with acquisition date for Taaffe Playground.","year":1929,"effective_date":"1929-12-23","date_precision":"day","short_description":"NYC Parks property record for Taaffe Playground; type Neighborhood Park; acres 1.821; waterfront=False.","category":"environment","lens":"green_space","confidence":"documented","source_ids":["enfh-gkve"],"affected_area_label":"Brooklyn","explanation":"Parks property record with acquisition date for Taaffe Playground."},"geometry":{"type":"Point","coordinates":[-73.960814,40.69498]}},{"type":"Feature","id":"nyc_parks_property_170189","properties":{"city_id":"nyc","event_id":"nyc_parks_property_170189","title":"Parks property acquisition: Lion's Pride Playground","subtitle":"Brooklyn / 1929-11-22 / Documented / Parks Properties","details":"Parks property record with acquisition date for Lion's Pride Playground.","year":1929,"effective_date":"1929-11-22","date_precision":"day","short_description":"NYC Parks property record for Lion's Pride Playground; type Playground; acres 0.865; waterfront=False.","category":"environment","lens":"green_space","confidence":"documented","source_ids":["enfh-gkve"],"affected_area_label":"Brooklyn","explanation":"Parks property record with acquisition date for Lion's Pride Playground."},"geometry":{"type":"Point","coordinates":[-73.899702,40.662742]}},{"type":"Feature","id":"nyc_parks_property_170799","properties":{"city_id":"nyc","event_id":"nyc_parks_property_170799","title":"Parks property acquisition: James Weldon Johnson Playground","subtitle":"Manhattan / 1929-12-26 / Documented / Parks Properties","details":"Parks property record with acquisition date for James Weldon Johnson Playground.","year":1929,"effective_date":"1929-12-26","date_precision":"day","short_description":"NYC Parks property record for James Weldon Johnson Playground; type Jointly Operated Playground; acres 1.048; waterfront=False.","category":"environment","lens":"green_space","confidence":"documented","source_ids":["enfh-gkve"],"affected_area_label":"Manhattan","explanation":"Parks property record with acquisition date for James Weldon Johnson Playground."},"geometry":{"type":"Point","coordinates":[-73.941662,40.797073]}},{"type":"Feature","id":"nyc_parks_property_170833","properties":{"city_id":"nyc","event_id":"nyc_parks_property_170833","title":"Parks property acquisition: Vesuvio Playground","subtitle":"Manhattan / 1929-12-04 / Documented / Parks Properties","details":"Parks property record with acquisition date for Vesuvio Playground.","year":1929,"effective_date":"1929-12-04","date_precision":"day","short_description":"NYC Parks property record for Vesuvio Playground; type Neighborhood Park; acres 0.635; waterfront=False.","category":"environment","lens":"green_space","confidence":"documented","source_ids":["enfh-gkve"],"affected_area_label":"Manhattan","explanation":"Parks property record with acquisition date for Vesuvio Playground."},"geometry":{"type":"Point","coordinates":[-74.002684,40.72541]}},{"type":"Feature","id":"nyc_parks_property_171028","properties":{"city_id":"nyc","event_id":"nyc_parks_property_171028","title":"Parks property acquisition: Alley Athletic Playground","subtitle":"Queens / 1929-06-24 / Documented / Parks Properties","details":"Parks property record with acquisition date for Alley Athletic Playground.","year":1929,"effective_date":"1929-06-24","date_precision":"day","short_description":"NYC Parks property record for Alley Athletic Playground; type Recreational Field/Courts; acres 27.531; waterfront=False.","category":"environment","lens":"green_space","confidence":"documented","source_ids":["enfh-gkve"],"affected_area_label":"Queens","explanation":"Parks property record with acquisition date for Alley Athletic Playground."},"geometry":{"type":"Point","coordinates":[-73.736652,40.739321]}},{"type":"Feature","id":"nyc_parks_property_171105","properties":{"city_id":"nyc","event_id":"nyc_parks_property_171105","title":"Parks property acquisition: Police Officer John G. Scarangella Park","subtitle":"Brooklyn / 1929-10-31 / Documented / Parks Properties","details":"Parks property record with acquisition date for Police Officer John G. Scarangella Park.","year":1929,"effective_date":"1929-10-31","date_precision":"day","short_description":"NYC Parks property record for Police Officer John G. Scarangella Park; type Neighborhood Park; acres 3.214; waterfront=False.","category":"environment","lens":"green_space","confidence":"documented","source_ids":["enfh-gkve"],"affected_area_label":"Brooklyn","explanation":"Parks property record with acquisition date for Police Officer John G. Scarangella Park."},"geometry":{"type":"Point","coordinates":[-73.98423,40.594484]}},{"type":"Feature","id":"nyc_parks_property_171108","properties":{"city_id":"nyc","event_id":"nyc_parks_property_171108","title":"Parks property acquisition: Great Kills Park","subtitle":"Staten Island / 1929-10-25 / Documented / Parks Properties","details":"Parks property record with acquisition date for Great Kills Park.","year":1929,"effective_date":"1929-10-25","date_precision":"day","short_description":"NYC Parks property record for Great Kills Park; type Nature Area; acres 334.502; waterfront=True.","category":"environment","lens":"green_space","confidence":"documented","source_ids":["enfh-gkve"],"affected_area_label":"Staten Island","explanation":"Parks property record with acquisition date for Great Kills Park."},"geometry":{"type":"Point","coordinates":[-74.113854,40.554401]}},{"type":"Feature","id":"nyc_parks_property_171172","properties":{"city_id":"nyc","event_id":"nyc_parks_property_171172","title":"Parks property acquisition: Freshkills Park","subtitle":"Staten Island / 1929-11-20 / Documented / Parks Properties","details":"Parks property record with acquisition date for Freshkills Park.","year":1929,"effective_date":"1929-11-20","date_precision":"day","short_description":"NYC Parks property record for Freshkills Park; type Community Park; acres 953.065; waterfront=True.","category":"environment","lens":"green_space","confidence":"documented","source_ids":["enfh-gkve"],"affected_area_label":"Staten Island","explanation":"Parks property record with acquisition date for Freshkills Park."},"geometry":{"type":"Point","coordinates":[-74.180854,40.582227]}}]}
