{"type":"FeatureCollection","schema_version":"1.0.0","city_id":"nyc","year":1884,"map_feature_count":2,"withheld_geometry_event_count":0,"features":[{"type":"Feature","id":"nyc_parks_property_169108","properties":{"city_id":"nyc","event_id":"nyc_parks_property_169108","title":"Parks property acquisition: Vietnam Veterans Plaza","subtitle":"Manhattan / 1884-06-26 / Documented / Parks Properties","details":"Parks property record with acquisition date for Vietnam Veterans Plaza.","year":1884,"effective_date":"1884-06-26","date_precision":"day","short_description":"NYC Parks property record for Vietnam Veterans Plaza; type Triangle/Plaza; acres 0.728; waterfront=False.","category":"environment","lens":"green_space","confidence":"documented","source_ids":["enfh-gkve"],"affected_area_label":"Manhattan","explanation":"Parks property record with acquisition date for Vietnam Veterans Plaza."},"geometry":{"type":"Point","coordinates":[-74.00998,40.702622]}},{"type":"Feature","id":"nyc_parks_property_169809","properties":{"city_id":"nyc","event_id":"nyc_parks_property_169809","title":"Parks property acquisition: Beattie Square","subtitle":"Brooklyn / 1884-10-04 / Documented / Parks Properties","details":"Parks property record with acquisition date for Beattie Square.","year":1884,"effective_date":"1884-10-04","date_precision":"day","short_description":"NYC Parks property record for Beattie Square; type Triangle/Plaza; acres 0.012; waterfront=False.","category":"environment","lens":"green_space","confidence":"documented","source_ids":["enfh-gkve"],"affected_area_label":"Brooklyn","explanation":"Parks property record with acquisition date for Beattie Square."},"geometry":{"type":"Point","coordinates":[-73.934546,40.696427]}}]}
