{"type":"FeatureCollection","schema_version":"1.0.0","city_id":"nyc","year":1975,"features":[{"type":"Feature","id":"nyc-milestone-1975-fiscal-crisis-and-capital-disinvestment-period-8","properties":{"city_id":"nyc","event_id":"nyc-milestone-1975-fiscal-crisis-and-capital-disinvestment-period-8","title":"Fiscal crisis and capital disinvestment period","subtitle":"Jamaica / 1975 / Documented / Evictions","details":"Permit slowdown, service stress, neighborhood decline/reinvestment baseline","year":1975,"effective_date":"1975","date_precision":"year","short_description":"Permit slowdown, service stress, neighborhood decline/reinvestment baseline","category":"built_environment","lens":"built_environment","confidence":"documented","source_ids":["6z8x-wfk4","new-035-tlc-trip-record-data","43nn-pn8j"],"affected_area_label":"Jamaica","explanation":"Permit slowdown, service stress, neighborhood decline/reinvestment baseline"},"geometry":{"type":"Point","coordinates":[-73.797012,40.69852]}},{"type":"Feature","id":"nyc_lpc_historic_district_lp-00893","properties":{"city_id":"nyc","event_id":"nyc_lpc_historic_district_lp-00893","title":"Historic district designated: Stuyvesant Square Historic District","subtitle":"Manhattan / 1975-09-23 / Documented / Historic Districts","details":"LPC historic district designation record for Stuyvesant Square Historic District.","year":1975,"effective_date":"1975-09-23","date_precision":"day","short_description":"LPC historic district record LP-00893; status DESIGNATED; public hearing 5/27/1975.","category":"built_environment","lens":"built_environment","confidence":"documented","source_ids":["skyk-mpzq"],"affected_area_label":"Manhattan","explanation":"LPC historic district designation record for Stuyvesant Square Historic District."},"geometry":{"type":"Point","coordinates":[-73.984743,40.734081]}},{"type":"Feature","id":"nyc_lpc_individual_landmark_1035","properties":{"city_id":"nyc","event_id":"nyc_lpc_individual_landmark_1035","title":"Individual landmark designated: Manhattan Bridge Arch and Colonnade","subtitle":"Manhattan / 1975-11-25 / Documented / Individual Landmark Sites","details":"LPC designation record for Manhattan Bridge Arch and Colonnade; designation date is taken from the source desdate field.","year":1975,"effective_date":"1975-11-25","date_precision":"day","short_description":"LPC individual landmark site LP-00899; status Designated; type Individual Landmark; alternate name not stated.","category":"built_environment","lens":"built_environment","confidence":"documented","source_ids":["buis-pvji"],"affected_area_label":"Manhattan","explanation":"LPC designation record for Manhattan Bridge Arch and Colonnade; designation date is taken from the source desdate field."},"geometry":{"type":"Point","coordinates":[-73.99518,40.71542]}},{"type":"Feature","id":"nyc_lpc_individual_landmark_1225","properties":{"city_id":"nyc","event_id":"nyc_lpc_individual_landmark_1225","title":"Individual landmark designated: Saint Paul's Memorial Church and Rectory","subtitle":"Staten Island / 1975-07-22 / Documented / Individual Landmark Sites","details":"LPC designation record for Saint Paul's Memorial Church and Rectory; designation date is taken from the source desdate field.","year":1975,"effective_date":"1975-07-22","date_precision":"day","short_description":"LPC individual landmark site LP-00891; status Designated; type Individual Landmark; alternate name not stated.","category":"built_environment","lens":"built_environment","confidence":"documented","source_ids":["buis-pvji"],"affected_area_label":"Staten Island","explanation":"LPC designation record for Saint Paul's Memorial Church and Rectory; designation date is taken from the source desdate field."},"geometry":{"type":"Point","coordinates":[-74.078797,40.631991]}},{"type":"Feature","id":"nyc_lpc_individual_landmark_1226","properties":{"city_id":"nyc","event_id":"nyc_lpc_individual_landmark_1226","title":"Individual landmark designated: Harlem River Houses","subtitle":"Manhattan / 1975-09-23 / Documented / Individual Landmark Sites","details":"LPC designation record for Harlem River Houses; designation date is taken from the source desdate field.","year":1975,"effective_date":"1975-09-23","date_precision":"day","short_description":"LPC individual landmark site LP-00894; status Designated; type Individual Landmark; alternate name not stated.","category":"built_environment","lens":"built_environment","confidence":"documented","source_ids":["buis-pvji"],"affected_area_label":"Manhattan","explanation":"LPC designation record for Harlem River Houses; designation date is taken from the source desdate field."},"geometry":{"type":"Point","coordinates":[-73.936043,40.826678]}},{"type":"Feature","id":"nyc_lpc_individual_landmark_1366","properties":{"city_id":"nyc","event_id":"nyc_lpc_individual_landmark_1366","title":"Individual landmark designated: Dry Dock No. 1","subtitle":"Brooklyn / 1975-09-23 / Documented / Individual Landmark Sites","details":"LPC designation record for Dry Dock No. 1; designation date is taken from the source desdate field.","year":1975,"effective_date":"1975-09-23","date_precision":"day","short_description":"LPC individual landmark site LP-00895; status Designated; type Individual Landmark; alternate name not stated.","category":"built_environment","lens":"built_environment","confidence":"documented","source_ids":["buis-pvji"],"affected_area_label":"Brooklyn","explanation":"LPC designation record for Dry Dock No. 1; designation date is taken from the source desdate field."},"geometry":{"type":"Point","coordinates":[-73.973694,40.701746]}},{"type":"Feature","id":"nyc_lpc_individual_landmark_202","properties":{"city_id":"nyc","event_id":"nyc_lpc_individual_landmark_202","title":"Individual landmark designated: Joseph Raphael De Lamar House","subtitle":"Manhattan / 1975-03-25 / Documented / Individual Landmark Sites","details":"LPC designation record for Joseph Raphael De Lamar House; designation date is taken from the source desdate field.","year":1975,"effective_date":"1975-03-25","date_precision":"day","short_description":"LPC individual landmark site LP-00884; status Designated; type Individual Landmark; alternate name now the Consulate General of the Republic of Poland.","category":"built_environment","lens":"built_environment","confidence":"documented","source_ids":["buis-pvji"],"affected_area_label":"Manhattan","explanation":"LPC designation record for Joseph Raphael De Lamar House; designation date is taken from the source desdate field."},"geometry":{"type":"Point","coordinates":[-73.981169,40.74968]}},{"type":"Feature","id":"nyc_lpc_individual_landmark_210","properties":{"city_id":"nyc","event_id":"nyc_lpc_individual_landmark_210","title":"Individual landmark designated: Central Savings Bank","subtitle":"Manhattan / 1975-01-28 / Documented / Individual Landmark Sites","details":"LPC designation record for Central Savings Bank; designation date is taken from the source desdate field.","year":1975,"effective_date":"1975-01-28","date_precision":"day","short_description":"LPC individual landmark site LP-00856; status Designated; type Individual Landmark; alternate name now Apple Bank for Savings and apartments.","category":"built_environment","lens":"built_environment","confidence":"documented","source_ids":["buis-pvji"],"affected_area_label":"Manhattan","explanation":"LPC designation record for Central Savings Bank; designation date is taken from the source desdate field."},"geometry":{"type":"Point","coordinates":[-73.981149,40.779775]}},{"type":"Feature","id":"nyc_lpc_individual_landmark_469","properties":{"city_id":"nyc","event_id":"nyc_lpc_individual_landmark_469","title":"Individual landmark designated: General Ulysses S. Grant Tomb","subtitle":"Manhattan / 1975-11-25 / Documented / Individual Landmark Sites","details":"LPC designation record for General Ulysses S. Grant Tomb; designation date is taken from the source desdate field.","year":1975,"effective_date":"1975-11-25","date_precision":"day","short_description":"LPC individual landmark site LP-00900; status Designated; type Individual Landmark; alternate name now the General Grant National Memorial.","category":"built_environment","lens":"built_environment","confidence":"documented","source_ids":["buis-pvji"],"affected_area_label":"Manhattan","explanation":"LPC designation record for General Ulysses S. Grant Tomb; designation date is taken from the source desdate field."},"geometry":{"type":"Point","coordinates":[-73.963052,40.813451]}},{"type":"Feature","id":"nyc_lpc_individual_landmark_650","properties":{"city_id":"nyc","event_id":"nyc_lpc_individual_landmark_650","title":"Individual landmark designated: Our Lady of Lourdes Roman Catholic Church","subtitle":"Manhattan / 1975-07-22 / Documented / Individual Landmark Sites","details":"LPC designation record for Our Lady of Lourdes Roman Catholic Church; designation date is taken from the source desdate field.","year":1975,"effective_date":"1975-07-22","date_precision":"day","short_description":"LPC individual landmark site LP-00892; status Designated; type Individual Landmark; alternate name not stated.","category":"built_environment","lens":"built_environment","confidence":"documented","source_ids":["buis-pvji"],"affected_area_label":"Manhattan","explanation":"LPC designation record for Our Lady of Lourdes Roman Catholic Church; designation date is taken from the source desdate field."},"geometry":{"type":"Point","coordinates":[-73.948217,40.823262]}},{"type":"Feature","id":"nyc_lpc_individual_landmark_740","properties":{"city_id":"nyc","event_id":"nyc_lpc_individual_landmark_740","title":"Individual landmark designated: Bayard-Condict Building","subtitle":"Manhattan / 1975-11-25 / Documented / Individual Landmark Sites","details":"LPC designation record for Bayard-Condict Building; designation date is taken from the source desdate field.","year":1975,"effective_date":"1975-11-25","date_precision":"day","short_description":"LPC individual landmark site LP-00882; status Designated; type Individual Landmark; alternate name not stated.","category":"built_environment","lens":"built_environment","confidence":"documented","source_ids":["buis-pvji"],"affected_area_label":"Manhattan","explanation":"LPC designation record for Bayard-Condict Building; designation date is taken from the source desdate field."},"geometry":{"type":"Point","coordinates":[-73.99499,40.726398]}},{"type":"Feature","id":"nyc_lpc_individual_landmark_752","properties":{"city_id":"nyc","event_id":"nyc_lpc_individual_landmark_752","title":"Individual landmark designated: United States Courthouse","subtitle":"Manhattan / 1975-03-25 / Documented / Individual Landmark Sites","details":"LPC designation record for United States Courthouse; designation date is taken from the source desdate field.","year":1975,"effective_date":"1975-03-25","date_precision":"day","short_description":"LPC individual landmark site LP-00883; status Designated; type Individual Landmark; alternate name not stated.","category":"built_environment","lens":"built_environment","confidence":"documented","source_ids":["buis-pvji"],"affected_area_label":"Manhattan","explanation":"LPC designation record for United States Courthouse; designation date is taken from the source desdate field."},"geometry":{"type":"Point","coordinates":[-74.002435,40.713501]}},{"type":"Feature","id":"nyc_lpc_individual_landmark_878","properties":{"city_id":"nyc","event_id":"nyc_lpc_individual_landmark_878","title":"Individual landmark designated: Boys' High School","subtitle":"Brooklyn / 1975-09-23 / Documented / Individual Landmark Sites","details":"LPC designation record for Boys' High School; designation date is taken from the source desdate field.","year":1975,"effective_date":"1975-09-23","date_precision":"day","short_description":"LPC individual landmark site LP-00896; status Designated; type Individual Landmark; alternate name now the Bedford Stuyvesant Preparatory High School and Literacy Center.","category":"built_environment","lens":"built_environment","confidence":"documented","source_ids":["buis-pvji"],"affected_area_label":"Brooklyn","explanation":"LPC designation record for Boys' High School; designation date is taken from the source desdate field."},"geometry":{"type":"Point","coordinates":[-73.948092,40.684583]}},{"type":"Feature","id":"nyc_lpc_individual_landmark_962","properties":{"city_id":"nyc","event_id":"nyc_lpc_individual_landmark_962","title":"Individual landmark designated: Bronx Post Office","subtitle":"Bronx / 1975-11-25 / Documented / Individual Landmark Sites","details":"LPC designation record for Bronx Post Office; designation date is taken from the source desdate field.","year":1975,"effective_date":"1975-11-25","date_precision":"day","short_description":"LPC individual landmark site LP-00837; status Designated; type Individual Landmark; alternate name not stated.","category":"built_environment","lens":"built_environment","confidence":"documented","source_ids":["buis-pvji"],"affected_area_label":"Bronx","explanation":"LPC designation record for Bronx Post Office; designation date is taken from the source desdate field."},"geometry":{"type":"Point","coordinates":[-73.926462,40.818972]}},{"type":"Feature","id":"nyc_parks_property_169732","properties":{"city_id":"nyc","event_id":"nyc_parks_property_169732","title":"Parks property acquisition: Elizabeth Stroud Playground","subtitle":"Brooklyn / 1975-02-06 / Documented / Parks Properties","details":"Parks property record with acquisition date for Elizabeth Stroud Playground.","year":1975,"effective_date":"1975-02-06","date_precision":"day","short_description":"NYC Parks property record for Elizabeth Stroud Playground; type Playground; acres 0.29; waterfront=False.","category":"environment","lens":"green_space","confidence":"documented","source_ids":["enfh-gkve"],"affected_area_label":"Brooklyn","explanation":"Parks property record with acquisition date for Elizabeth Stroud Playground."},"geometry":{"type":"Point","coordinates":[-73.931047,40.679673]}},{"type":"Feature","id":"nyc_parks_property_170050","properties":{"city_id":"nyc","event_id":"nyc_parks_property_170050","title":"Parks property acquisition: Burns Playground","subtitle":"Bronx / 1975-10-08 / Documented / Parks Properties","details":"Parks property record with acquisition date for Burns Playground.","year":1975,"effective_date":"1975-10-08","date_precision":"day","short_description":"NYC Parks property record for Burns Playground; type Jointly Operated Playground; acres 1.623; waterfront=False.","category":"environment","lens":"green_space","confidence":"documented","source_ids":["enfh-gkve"],"affected_area_label":"Bronx","explanation":"Parks property record with acquisition date for Burns Playground."},"geometry":{"type":"Point","coordinates":[-73.83658,40.863542]}},{"type":"Feature","id":"nyc_parks_property_170741","properties":{"city_id":"nyc","event_id":"nyc_parks_property_170741","title":"Parks property acquisition: Alice Austen Park","subtitle":"Staten Island / 1975-04-28 / Documented / Parks Properties","details":"Parks property record with acquisition date for Alice Austen Park.","year":1975,"effective_date":"1975-04-28","date_precision":"day","short_description":"NYC Parks property record for Alice Austen Park; type Historic House Park; acres 15.524; waterfront=True.","category":"environment","lens":"green_space","confidence":"documented","source_ids":["enfh-gkve"],"affected_area_label":"Staten Island","explanation":"Parks property record with acquisition date for Alice Austen Park."},"geometry":{"type":"Point","coordinates":[-74.063315,40.61559]}},{"type":"Feature","id":"nyc_zap_project_p1975r0006","properties":{"city_id":"nyc","event_id":"nyc_zap_project_p1975r0006","title":"ZAP land-use project: P1975R0006 (Staten Island)","subtitle":"Staten Island / 1975-11-03 / Documented / Zoning Application Portal (ZAP) - Project Data","details":"Land-use/zoning application milestone with public status Completed.","year":1975,"effective_date":"1975-11-03","date_precision":"day","short_description":"Zoning Application Portal project P1975R0006; CEQR n/a; public status Completed; borough Staten Island.","category":"built_environment","lens":"built_environment","confidence":"documented","source_ids":["hgx4-8ukb"],"affected_area_label":"Staten Island","explanation":"Land-use/zoning application milestone with public status Completed."},"geometry":{"type":"Point","coordinates":[-74.1502,40.5795]}},{"type":"Feature","id":"nyc_zap_project_p1975x0004","properties":{"city_id":"nyc","event_id":"nyc_zap_project_p1975x0004","title":"ZAP land-use project: P1975X0004 (Bronx)","subtitle":"Bronx / 1975-08-04 / Documented / Zoning Application Portal (ZAP) - Project Data","details":"Land-use/zoning application milestone with public status Completed.","year":1975,"effective_date":"1975-08-04","date_precision":"day","short_description":"Zoning Application Portal project P1975X0004; CEQR n/a; public status Completed; borough Bronx.","category":"built_environment","lens":"built_environment","confidence":"documented","source_ids":["hgx4-8ukb"],"affected_area_label":"Bronx","explanation":"Land-use/zoning application milestone with public status Completed."},"geometry":{"type":"Point","coordinates":[-73.8648,40.8448]}},{"type":"Feature","id":"nyc_zap_project_p1975x0005","properties":{"city_id":"nyc","event_id":"nyc_zap_project_p1975x0005","title":"ZAP land-use project: P1975X0005 (Bronx)","subtitle":"Bronx / 1975-08-04 / Documented / Zoning Application Portal (ZAP) - Project Data","details":"Land-use/zoning application milestone with public status Completed.","year":1975,"effective_date":"1975-08-04","date_precision":"day","short_description":"Zoning Application Portal project P1975X0005; CEQR n/a; public status Completed; borough Bronx.","category":"built_environment","lens":"built_environment","confidence":"documented","source_ids":["hgx4-8ukb"],"affected_area_label":"Bronx","explanation":"Land-use/zoning application milestone with public status Completed."},"geometry":{"type":"Point","coordinates":[-73.8648,40.8448]}}],"map_feature_count":20,"withheld_geometry_event_count":0}
