{"type":"FeatureCollection","schema_version":"1.0.0","city_id":"nyc","year":1874,"features":[{"type":"Feature","id":"nyc_parks_property_169724","properties":{"city_id":"nyc","event_id":"nyc_parks_property_169724","title":"Parks property acquisition: McKenna Triangle","short_description":"NYC Parks property record for McKenna Triangle; type Triangle/Plaza; acres 0.01; waterfront=False.","year":1874,"effective_date":"1874-11-04","date_precision":"day","category":"environment","lens":"green_space","confidence":"documented","source_ids":["enfh-gkve"],"explanation":"Parks property record with acquisition date for McKenna Triangle."},"geometry":{"type":"Point","coordinates":[-73.944091,40.746596]}}]}
