{"type":"FeatureCollection","schema_version":"1.0.0","city_id":"nyc","year":1797,"features":[{"type":"Feature","id":"nyc_parks_property_169037","properties":{"city_id":"nyc","event_id":"nyc_parks_property_169037","title":"Parks property acquisition: Duane Park","subtitle":"Manhattan / 1797-06-20 / Documented / Parks Properties","details":"Parks property record with acquisition date for Duane Park.","year":1797,"effective_date":"1797-06-20","date_precision":"day","short_description":"NYC Parks property record for Duane Park; type Triangle/Plaza; acres 0.115; waterfront=False.","category":"environment","lens":"green_space","confidence":"documented","source_ids":["enfh-gkve"],"affected_area_label":"Manhattan","explanation":"Parks property record with acquisition date for Duane Park."},"geometry":{"type":"Point","coordinates":[-74.009385,40.717177]}}]}
