{"type":"FeatureCollection","schema_version":"1.0.0","city_id":"nyc","year":1945,"features":[{"type":"Feature","id":"nyc_parks_property_169089","properties":{"city_id":"nyc","event_id":"nyc_parks_property_169089","title":"Parks property acquisition: Merriam Playground","short_description":"NYC Parks property record for Merriam Playground; type Playground; acres 2.944; waterfront=False.","year":1945,"effective_date":"1945-08-23","date_precision":"day","category":"environment","lens":"green_space","confidence":"documented","source_ids":["enfh-gkve"],"explanation":"Parks property record with acquisition date for Merriam Playground."},"geometry":{"type":"Point","coordinates":[-73.92669,40.83969]}},{"type":"Feature","id":"nyc_parks_property_169151","properties":{"city_id":"nyc","event_id":"nyc_parks_property_169151","title":"Parks property acquisition: Harlem Art Park","short_description":"NYC Parks property record for Harlem Art Park; type Neighborhood Park; acres 0.347; waterfront=False.","year":1945,"effective_date":"1945-04-16","date_precision":"day","category":"environment","lens":"green_space","confidence":"documented","source_ids":["enfh-gkve"],"explanation":"Parks property record with acquisition date for Harlem Art Park."},"geometry":{"type":"Point","coordinates":[-73.938751,40.801039]}},{"type":"Feature","id":"nyc_parks_property_169302","properties":{"city_id":"nyc","event_id":"nyc_parks_property_169302","title":"Parks property acquisition: Samuel Goldberg Triangle","short_description":"NYC Parks property record for Samuel Goldberg Triangle; type Triangle/Plaza; acres 0.015; waterfront=False.","year":1945,"effective_date":"1945-06-25","date_precision":"day","category":"environment","lens":"green_space","confidence":"documented","source_ids":["enfh-gkve"],"explanation":"Parks property record with acquisition date for Samuel Goldberg Triangle."},"geometry":{"type":"Point","coordinates":[-73.977256,40.611143]}},{"type":"Feature","id":"nyc_parks_property_169329","properties":{"city_id":"nyc","event_id":"nyc_parks_property_169329","title":"Parks property acquisition: Flynn Playground","short_description":"NYC Parks property record for Flynn Playground; type Playground; acres 0.82; waterfront=False.","year":1945,"effective_date":"1945-03-22","date_precision":"day","category":"environment","lens":"green_space","confidence":"documented","source_ids":["enfh-gkve"],"explanation":"Parks property record with acquisition date for Flynn Playground."},"geometry":{"type":"Point","coordinates":[-73.911841,40.821083]}},{"type":"Feature","id":"nyc_parks_property_169711","properties":{"city_id":"nyc","event_id":"nyc_parks_property_169711","title":"Parks property acquisition: Vinmont Veteran Park","short_description":"NYC Parks property record for Vinmont Veteran Park; type Jointly Operated Playground; acres 3.5; waterfront=False.","year":1945,"effective_date":"1945-01-12","date_precision":"day","category":"environment","lens":"green_space","confidence":"documented","source_ids":["enfh-gkve"],"explanation":"Parks property record with acquisition date for Vinmont Veteran Park."},"geometry":{"type":"Point","coordinates":[-73.904753,40.902644]}},{"type":"Feature","id":"nyc_parks_property_169849","properties":{"city_id":"nyc","event_id":"nyc_parks_property_169849","title":"Parks property acquisition: Von Briesen Park","short_description":"NYC Parks property record for Von Briesen Park; type Neighborhood Park; acres 13.938; waterfront=True.","year":1945,"effective_date":"1945-06-28","date_precision":"day","category":"environment","lens":"green_space","confidence":"documented","source_ids":["enfh-gkve"],"explanation":"Parks property record with acquisition date for Von Briesen Park."},"geometry":{"type":"Point","coordinates":[-74.063316,40.605861]}},{"type":"Feature","id":"nyc_parks_property_170079","properties":{"city_id":"nyc","event_id":"nyc_parks_property_170079","title":"Parks property acquisition: Minetta Triangle","short_description":"NYC Parks property record for Minetta Triangle; type Triangle/Plaza; acres 0.075; waterfront=False.","year":1945,"effective_date":"1945-12-13","date_precision":"day","category":"environment","lens":"green_space","confidence":"documented","source_ids":["enfh-gkve"],"explanation":"Parks property record with acquisition date for Minetta Triangle."},"geometry":{"type":"Point","coordinates":[-74.001874,40.729837]}},{"type":"Feature","id":"nyc_parks_property_170321","properties":{"city_id":"nyc","event_id":"nyc_parks_property_170321","title":"Parks property acquisition: Roy Wilkins Recreation Center","short_description":"NYC Parks property record for Roy Wilkins Recreation Center; type Community Park; acres 56.831; waterfront=False.","year":1945,"effective_date":"1945-01-25","date_precision":"day","category":"environment","lens":"green_space","confidence":"documented","source_ids":["enfh-gkve"],"explanation":"Parks property record with acquisition date for Roy Wilkins Recreation Center."},"geometry":{"type":"Point","coordinates":[-73.772324,40.687405]}},{"type":"Feature","id":"nyc_parks_property_170360","properties":{"city_id":"nyc","event_id":"nyc_parks_property_170360","title":"Parks property acquisition: Marcy Playground","short_description":"NYC Parks property record for Marcy Playground; type Community Park; acres 3.201; waterfront=False.","year":1945,"effective_date":"1945-07-31","date_precision":"day","category":"environment","lens":"green_space","confidence":"documented","source_ids":["enfh-gkve"],"explanation":"Parks property record with acquisition date for Marcy Playground."},"geometry":{"type":"Point","coordinates":[-73.950818,40.695646]}},{"type":"Feature","id":"nyc_parks_property_170403","properties":{"city_id":"nyc","event_id":"nyc_parks_property_170403","title":"Parks property acquisition: St. Andrew's Playground","short_description":"NYC Parks property record for St. Andrew's Playground; type Neighborhood Park; acres 3.38; waterfront=False.","year":1945,"effective_date":"1945-01-16","date_precision":"day","category":"environment","lens":"green_space","confidence":"documented","source_ids":["enfh-gkve"],"explanation":"Parks property record with acquisition date for St. Andrew's Playground."},"geometry":{"type":"Point","coordinates":[-73.942084,40.678582]}},{"type":"Feature","id":"nyc_parks_property_170556","properties":{"city_id":"nyc","event_id":"nyc_parks_property_170556","title":"Parks property acquisition: Sheltering Arms Playground","short_description":"NYC Parks property record for Sheltering Arms Playground; type Community Park; acres 1.43; waterfront=False.","year":1945,"effective_date":"1945-01-04","date_precision":"day","category":"environment","lens":"green_space","confidence":"documented","source_ids":["enfh-gkve"],"explanation":"Parks property record with acquisition date for Sheltering Arms Playground."},"geometry":{"type":"Point","coordinates":[-73.95588,40.814873]}},{"type":"Feature","id":"nyc_parks_property_170731","properties":{"city_id":"nyc","event_id":"nyc_parks_property_170731","title":"Parks property acquisition: Arrochar Playground","short_description":"NYC Parks property record for Arrochar Playground; type Jointly Operated Playground; acres 0.892; waterfront=False.","year":1945,"effective_date":"1945-10-24","date_precision":"day","category":"environment","lens":"green_space","confidence":"documented","source_ids":["enfh-gkve"],"explanation":"Parks property record with acquisition date for Arrochar Playground."},"geometry":{"type":"Point","coordinates":[-74.070825,40.597718]}},{"type":"Feature","id":"nyc_parks_property_170962","properties":{"city_id":"nyc","event_id":"nyc_parks_property_170962","title":"Parks property acquisition: Coney Island Boat Basin","short_description":"NYC Parks property record for Coney Island Boat Basin; type Recreational Field/Courts; acres 36.81; waterfront=True.","year":1945,"effective_date":"1945-06-14","date_precision":"day","category":"environment","lens":"green_space","confidence":"documented","source_ids":["enfh-gkve"],"explanation":"Parks property record with acquisition date for Coney Island Boat Basin."},"geometry":{"type":"Point","coordinates":[-73.990438,40.583281]}},{"type":"Feature","id":"nyc_parks_property_171098","properties":{"city_id":"nyc","event_id":"nyc_parks_property_171098","title":"Parks property acquisition: Starlight Park","short_description":"NYC Parks property record for Starlight Park; type Neighborhood Park; acres 17.256; waterfront=True.","year":1945,"effective_date":"1945-12-17","date_precision":"day","category":"environment","lens":"green_space","confidence":"documented","source_ids":["enfh-gkve"],"explanation":"Parks property record with acquisition date for Starlight Park."},"geometry":{"type":"Point","coordinates":[-73.883092,40.831995]}},{"type":"Feature","id":"nyc_parks_property_171141","properties":{"city_id":"nyc","event_id":"nyc_parks_property_171141","title":"Parks property acquisition: Callahan-Kelly Playground","short_description":"NYC Parks property record for Callahan-Kelly Playground; type Community Park; acres 3.461; waterfront=False.","year":1945,"effective_date":"1945-01-25","date_precision":"day","category":"environment","lens":"green_space","confidence":"documented","source_ids":["enfh-gkve"],"explanation":"Parks property record with acquisition date for Callahan-Kelly Playground."},"geometry":{"type":"Point","coordinates":[-73.9045,40.678492]}}]}
