{"type":"FeatureCollection","schema_version":"1.0.0","city_id":"nyc","year":1921,"map_feature_count":1,"withheld_geometry_event_count":0,"features":[{"type":"Feature","id":"nyc_parks_property_170715","properties":{"city_id":"nyc","event_id":"nyc_parks_property_170715","title":"Parks property acquisition: Heisser Triangle","subtitle":"Brooklyn / 1921-06-09 / Documented / Parks Properties","details":"Parks property record with acquisition date for Heisser Triangle.","year":1921,"effective_date":"1921-06-09","date_precision":"day","short_description":"NYC Parks property record for Heisser Triangle; type Triangle/Plaza; acres 0.027; waterfront=False.","category":"environment","lens":"green_space","confidence":"documented","source_ids":["enfh-gkve"],"affected_area_label":"Brooklyn","explanation":"Parks property record with acquisition date for Heisser Triangle."},"geometry":{"type":"Point","coordinates":[-73.917871,40.698743]}}]}
