{"type":"FeatureCollection","schema_version":"1.0.0","city_id":"nyc","year":1834,"features":[{"type":"Feature","id":"nyc_parks_property_170827","properties":{"city_id":"nyc","event_id":"nyc_parks_property_170827","title":"Parks property acquisition: Tompkins Square Park","year":1834,"effective_date":"1834-03-21","date_precision":"day","category":"environment","lens":"green_space","confidence":"documented","source_ids":["enfh-gkve"],"explanation":"Parks property record with acquisition date for Tompkins Square Park."},"geometry":{"type":"Point","coordinates":[-73.981621,40.726198]}}]}
