{"type":"FeatureCollection","schema_version":"1.0.0","city_id":"nyc","year":1961,"features":[{"type":"Feature","id":"nyc-milestone-1961-comprehensive-zoning-resolution-adopted-6","properties":{"city_id":"nyc","event_id":"nyc-milestone-1961-comprehensive-zoning-resolution-adopted-6","title":"Comprehensive Zoning Resolution adopted","year":1961,"effective_date":"1961","date_precision":"year","category":"built_environment","lens":"built_environment","confidence":"documented","source_ids":["hgx4-8ukb","2iga-a6mk","as9z-kwsh"],"explanation":"FAR/parking/open-space zoning framework replaces 1916 rules"},"geometry":{"type":"Point","coordinates":[-74.079496,40.64816]}},{"type":"Feature","id":"nyc_parks_property_169392","properties":{"city_id":"nyc","event_id":"nyc_parks_property_169392","title":"Parks property acquisition: Neptune Playground","year":1961,"effective_date":"1961-02-09","date_precision":"day","category":"environment","lens":"green_space","confidence":"documented","source_ids":["enfh-gkve"],"explanation":"Parks property record with acquisition date for Neptune Playground."},"geometry":{"type":"Point","coordinates":[-73.980372,40.578255]}},{"type":"Feature","id":"nyc_parks_property_169589","properties":{"city_id":"nyc","event_id":"nyc_parks_property_169589","title":"Parks property acquisition: Alexander Grey Triangle","year":1961,"effective_date":"1961-01-01","date_precision":"day","category":"environment","lens":"green_space","confidence":"documented","source_ids":["enfh-gkve"],"explanation":"Parks property record with acquisition date for Alexander Grey Triangle."},"geometry":{"type":"Point","coordinates":[-73.813735,40.795188]}},{"type":"Feature","id":"nyc_parks_property_169635","properties":{"city_id":"nyc","event_id":"nyc_parks_property_169635","title":"Parks property acquisition: Park","year":1961,"effective_date":"1961-01-26","date_precision":"day","category":"environment","lens":"green_space","confidence":"documented","source_ids":["enfh-gkve"],"explanation":"Parks property record with acquisition date for Park."},"geometry":{"type":"Point","coordinates":[-73.894002,40.844037]}},{"type":"Feature","id":"nyc_parks_property_169654","properties":{"city_id":"nyc","event_id":"nyc_parks_property_169654","title":"Parks property acquisition: Park","year":1961,"effective_date":"1961-01-01","date_precision":"day","category":"environment","lens":"green_space","confidence":"documented","source_ids":["enfh-gkve"],"explanation":"Parks property record with acquisition date for Park."},"geometry":{"type":"Point","coordinates":[-73.908284,40.865755]}},{"type":"Feature","id":"nyc_parks_property_169861","properties":{"city_id":"nyc","event_id":"nyc_parks_property_169861","title":"Parks property acquisition: St. George Park","year":1961,"effective_date":"1961-07-27","date_precision":"day","category":"environment","lens":"green_space","confidence":"documented","source_ids":["enfh-gkve"],"explanation":"Parks property record with acquisition date for St. George Park."},"geometry":{"type":"Point","coordinates":[-74.077879,40.644524]}},{"type":"Feature","id":"nyc_parks_property_169941","properties":{"city_id":"nyc","event_id":"nyc_parks_property_169941","title":"Parks property acquisition: Kimlau Square","year":1961,"effective_date":"1961-04-27","date_precision":"day","category":"environment","lens":"green_space","confidence":"documented","source_ids":["enfh-gkve"],"explanation":"Parks property record with acquisition date for Kimlau Square."},"geometry":{"type":"Point","coordinates":[-73.998079,40.713434]}},{"type":"Feature","id":"nyc_parks_property_169973","properties":{"city_id":"nyc","event_id":"nyc_parks_property_169973","title":"Parks property acquisition: Park","year":1961,"effective_date":"1961-01-26","date_precision":"day","category":"environment","lens":"green_space","confidence":"documented","source_ids":["enfh-gkve"],"explanation":"Parks property record with acquisition date for Park."},"geometry":{"type":"Point","coordinates":[-73.893272,40.843802]}},{"type":"Feature","id":"nyc_parks_property_170009","properties":{"city_id":"nyc","event_id":"nyc_parks_property_170009","title":"Parks property acquisition: Hinton Park","year":1961,"effective_date":"1961-10-26","date_precision":"day","category":"environment","lens":"green_space","confidence":"documented","source_ids":["enfh-gkve"],"explanation":"Parks property record with acquisition date for Hinton Park."},"geometry":{"type":"Point","coordinates":[-73.854911,40.756124]}},{"type":"Feature","id":"nyc_parks_property_170098","properties":{"city_id":"nyc","event_id":"nyc_parks_property_170098","title":"Parks property acquisition: Clark Playground","year":1961,"effective_date":"1961-11-09","date_precision":"day","category":"environment","lens":"green_space","confidence":"documented","source_ids":["enfh-gkve"],"explanation":"Parks property record with acquisition date for Clark Playground."},"geometry":{"type":"Point","coordinates":[-73.92112,40.81373]}},{"type":"Feature","id":"nyc_parks_property_170149","properties":{"city_id":"nyc","event_id":"nyc_parks_property_170149","title":"Parks property acquisition: Park","year":1961,"effective_date":"1961-01-26","date_precision":"day","category":"environment","lens":"green_space","confidence":"documented","source_ids":["enfh-gkve"],"explanation":"Parks property record with acquisition date for Park."},"geometry":{"type":"Point","coordinates":[-73.893709,40.843322]}},{"type":"Feature","id":"nyc_parks_property_170298","properties":{"city_id":"nyc","event_id":"nyc_parks_property_170298","title":"Parks property acquisition: Horace Harding Playground","year":1961,"effective_date":"1961-07-07","date_precision":"day","category":"environment","lens":"green_space","confidence":"documented","source_ids":["enfh-gkve"],"explanation":"Parks property record with acquisition date for Horace Harding Playground."},"geometry":{"type":"Point","coordinates":[-73.860587,40.733467]}},{"type":"Feature","id":"nyc_parks_property_170456","properties":{"city_id":"nyc","event_id":"nyc_parks_property_170456","title":"Parks property acquisition: Jacob Joffe Fields","year":1961,"effective_date":"1961-08-24","date_precision":"day","category":"environment","lens":"green_space","confidence":"documented","source_ids":["enfh-gkve"],"explanation":"Parks property record with acquisition date for Jacob Joffe Fields."},"geometry":{"type":"Point","coordinates":[-73.919311,40.624707]}},{"type":"Feature","id":"nyc_parks_property_170458","properties":{"city_id":"nyc","event_id":"nyc_parks_property_170458","title":"Parks property acquisition: Hickman Playground","year":1961,"effective_date":"1961-02-09","date_precision":"day","category":"environment","lens":"green_space","confidence":"documented","source_ids":["enfh-gkve"],"explanation":"Parks property record with acquisition date for Hickman Playground."},"geometry":{"type":"Point","coordinates":[-73.913082,40.620505]}},{"type":"Feature","id":"nyc_parks_property_170459","properties":{"city_id":"nyc","event_id":"nyc_parks_property_170459","title":"Parks property acquisition: Evergreen Playground","year":1961,"effective_date":"1961-09-22","date_precision":"day","category":"environment","lens":"green_space","confidence":"documented","source_ids":["enfh-gkve"],"explanation":"Parks property record with acquisition date for Evergreen Playground."},"geometry":{"type":"Point","coordinates":[-73.910845,40.685965]}},{"type":"Feature","id":"nyc_parks_property_170460","properties":{"city_id":"nyc","event_id":"nyc_parks_property_170460","title":"Parks property acquisition: Fermi Playground","year":1961,"effective_date":"1961-06-09","date_precision":"day","category":"environment","lens":"green_space","confidence":"documented","source_ids":["enfh-gkve"],"explanation":"Parks property record with acquisition date for Fermi Playground."},"geometry":{"type":"Point","coordinates":[-73.928129,40.700636]}},{"type":"Feature","id":"nyc_parks_property_170463","properties":{"city_id":"nyc","event_id":"nyc_parks_property_170463","title":"Parks property acquisition: 100% Playground","year":1961,"effective_date":"1961-10-26","date_precision":"day","category":"environment","lens":"green_space","confidence":"documented","source_ids":["enfh-gkve"],"explanation":"Parks property record with acquisition date for 100% Playground."},"geometry":{"type":"Point","coordinates":[-73.899169,40.646411]}},{"type":"Feature","id":"nyc_parks_property_170631","properties":{"city_id":"nyc","event_id":"nyc_parks_property_170631","title":"Parks property acquisition: St. James Triangle","year":1961,"effective_date":"1961-09-28","date_precision":"day","category":"environment","lens":"green_space","confidence":"documented","source_ids":["enfh-gkve"],"explanation":"Parks property record with acquisition date for St. James Triangle."},"geometry":{"type":"Point","coordinates":[-73.998556,40.712686]}},{"type":"Feature","id":"nyc_parks_property_170632","properties":{"city_id":"nyc","event_id":"nyc_parks_property_170632","title":"Parks property acquisition: Penn South Playground","year":1961,"effective_date":"1961-09-22","date_precision":"day","category":"environment","lens":"green_space","confidence":"documented","source_ids":["enfh-gkve"],"explanation":"Parks property record with acquisition date for Penn South Playground."},"geometry":{"type":"Point","coordinates":[-73.998677,40.747489]}},{"type":"Feature","id":"nyc_parks_property_170781","properties":{"city_id":"nyc","event_id":"nyc_parks_property_170781","title":"Parks property acquisition: Captain Jacob Joseph Playground","year":1961,"effective_date":"1961-03-23","date_precision":"day","category":"environment","lens":"green_space","confidence":"documented","source_ids":["enfh-gkve"],"explanation":"Parks property record with acquisition date for Captain Jacob Joseph Playground."},"geometry":{"type":"Point","coordinates":[-73.989798,40.713605]}},{"type":"Feature","id":"nyc_parks_property_170797","properties":{"city_id":"nyc","event_id":"nyc_parks_property_170797","title":"Parks property acquisition: Stars & Stripes Playground","year":1961,"effective_date":"1961-01-12","date_precision":"day","category":"environment","lens":"green_space","confidence":"documented","source_ids":["enfh-gkve"],"explanation":"Parks property record with acquisition date for Stars & Stripes Playground."},"geometry":{"type":"Point","coordinates":[-73.839387,40.885581]}}]}
