{"type":"FeatureCollection","schema_version":"1.0.0","city_id":"nyc","year":1859,"features":[{"type":"Feature","id":"nyc_parks_property_169862","properties":{"city_id":"nyc","event_id":"nyc_parks_property_169862","title":"Parks property acquisition: Cohn Triangle","year":1859,"effective_date":"1859-01-01","date_precision":"day","category":"environment","lens":"green_space","confidence":"documented","source_ids":["enfh-gkve"],"explanation":"Parks property record with acquisition date for Cohn Triangle."},"geometry":{"type":"Point","coordinates":[-73.964675,40.70734]}}]}
