{"type":"FeatureCollection","schema_version":"1.0.0","city_id":"nyc","year":1922,"features":[{"type":"Feature","id":"nyc_parks_property_169183","properties":{"city_id":"nyc","event_id":"nyc_parks_property_169183","title":"Parks property acquisition: Garlinge Triangle","year":1922,"effective_date":"1922-11-10","date_precision":"day","category":"environment","lens":"green_space","confidence":"documented","source_ids":["enfh-gkve"],"explanation":"Parks property record with acquisition date for Garlinge Triangle."},"geometry":{"type":"Point","coordinates":[-73.89087,40.728355]}},{"type":"Feature","id":"nyc_parks_property_169616","properties":{"city_id":"nyc","event_id":"nyc_parks_property_169616","title":"Parks property acquisition: Young Park","year":1922,"effective_date":"1922-02-10","date_precision":"day","category":"environment","lens":"green_space","confidence":"documented","source_ids":["enfh-gkve"],"explanation":"Parks property record with acquisition date for Young Park."},"geometry":{"type":"Point","coordinates":[-73.870869,40.839841]}},{"type":"Feature","id":"nyc_parks_property_169734","properties":{"city_id":"nyc","event_id":"nyc_parks_property_169734","title":"Parks property acquisition: Neponsit Mall","year":1922,"effective_date":"1922-04-04","date_precision":"day","category":"environment","lens":"green_space","confidence":"documented","source_ids":["enfh-gkve"],"explanation":"Parks property record with acquisition date for Neponsit Mall."},"geometry":{"type":"Point","coordinates":[-73.861197,40.570541]}},{"type":"Feature","id":"nyc_parks_property_169894","properties":{"city_id":"nyc","event_id":"nyc_parks_property_169894","title":"Parks property acquisition: Veteran's Square","year":1922,"effective_date":"1922-06-01","date_precision":"day","category":"environment","lens":"green_space","confidence":"documented","source_ids":["enfh-gkve"],"explanation":"Parks property record with acquisition date for Veteran's Square."},"geometry":{"type":"Point","coordinates":[-73.863298,40.747687]}},{"type":"Feature","id":"nyc_parks_property_169895","properties":{"city_id":"nyc","event_id":"nyc_parks_property_169895","title":"Parks property acquisition: Sohncke Square","year":1922,"effective_date":"1922-04-07","date_precision":"day","category":"environment","lens":"green_space","confidence":"documented","source_ids":["enfh-gkve"],"explanation":"Parks property record with acquisition date for Sohncke Square."},"geometry":{"type":"Point","coordinates":[-73.906233,40.745499]}},{"type":"Feature","id":"nyc_parks_property_169923","properties":{"city_id":"nyc","event_id":"nyc_parks_property_169923","title":"Parks property acquisition: Lt. Frank McConnell Park","year":1922,"effective_date":"1922-05-02","date_precision":"day","category":"environment","lens":"green_space","confidence":"documented","source_ids":["enfh-gkve"],"explanation":"Parks property record with acquisition date for Lt. Frank McConnell Park."},"geometry":{"type":"Point","coordinates":[-73.827415,40.693963]}},{"type":"Feature","id":"nyc_parks_property_170765","properties":{"city_id":"nyc","event_id":"nyc_parks_property_170765","title":"Parks property acquisition: Van Nest Park","year":1922,"effective_date":"1922-06-20","date_precision":"day","category":"environment","lens":"green_space","confidence":"documented","source_ids":["enfh-gkve"],"explanation":"Parks property record with acquisition date for Van Nest Park."},"geometry":{"type":"Point","coordinates":[-73.865535,40.842996]}},{"type":"Feature","id":"nyc_parks_property_171096","properties":{"city_id":"nyc","event_id":"nyc_parks_property_171096","title":"Parks property acquisition: Rockaway Beach","year":1922,"effective_date":"1922-06-15","date_precision":"day","category":"environment","lens":"green_space","confidence":"documented","source_ids":["enfh-gkve"],"explanation":"Parks property record with acquisition date for Rockaway Beach."},"geometry":{"type":"Point","coordinates":[-73.836006,40.577477]}}]}
