{"type":"FeatureCollection","schema_version":"1.0.0","city_id":"nyc","year":1856,"features":[{"type":"Feature","id":"nyc_parks_property_171213","properties":{"city_id":"nyc","event_id":"nyc_parks_property_171213","title":"Parks property acquisition: Central Park","year":1856,"effective_date":"1856-02-05","date_precision":"day","category":"environment","lens":"green_space","confidence":"documented","source_ids":["enfh-gkve"],"explanation":"Parks property record with acquisition date for Central Park."},"geometry":{"type":"Point","coordinates":[-73.971988,40.773893]}}]}
