{"type":"FeatureCollection","schema_version":"1.0.0","city_id":"nyc","year":1863,"features":[{"type":"Feature","id":"nyc_parks_property_169770","properties":{"city_id":"nyc","event_id":"nyc_parks_property_169770","title":"Parks property acquisition: Calvary Monument","year":1863,"effective_date":"1863-04-28","date_precision":"day","category":"environment","lens":"green_space","confidence":"documented","source_ids":["enfh-gkve"],"explanation":"Parks property record with acquisition date for Calvary Monument."},"geometry":{"type":"Point","coordinates":[-73.929774,40.730902]}}]}
