{"type":"FeatureCollection","schema_version":"1.0.0","city_id":"nyc","year":1913,"features":[{"type":"Feature","id":"nyc_parks_property_169026","properties":{"city_id":"nyc","event_id":"nyc_parks_property_169026","title":"Parks property acquisition: Whalen Grove","year":1913,"effective_date":"1913-06-12","date_precision":"day","category":"environment","lens":"green_space","confidence":"documented","source_ids":["enfh-gkve"],"explanation":"Parks property record with acquisition date for Whalen Grove."},"geometry":{"type":"Point","coordinates":[-73.885943,40.851069]}},{"type":"Feature","id":"nyc_parks_property_169027","properties":{"city_id":"nyc","event_id":"nyc_parks_property_169027","title":"Parks property acquisition: Murphy Triangle","year":1913,"effective_date":"1913-10-06","date_precision":"day","category":"environment","lens":"green_space","confidence":"documented","source_ids":["enfh-gkve"],"explanation":"Parks property record with acquisition date for Murphy Triangle."},"geometry":{"type":"Point","coordinates":[-73.893351,40.851153]}},{"type":"Feature","id":"nyc_parks_property_169029","properties":{"city_id":"nyc","event_id":"nyc_parks_property_169029","title":"Parks property acquisition: Martin Luther King Triangle","year":1913,"effective_date":"1913-05-01","date_precision":"day","category":"environment","lens":"green_space","confidence":"documented","source_ids":["enfh-gkve"],"explanation":"Parks property record with acquisition date for Martin Luther King Triangle."},"geometry":{"type":"Point","coordinates":[-73.923324,40.83833]}},{"type":"Feature","id":"nyc_parks_property_169049","properties":{"city_id":"nyc","event_id":"nyc_parks_property_169049","title":"Parks property acquisition: Dorrance Brooks Square","year":1913,"effective_date":"1913-07-22","date_precision":"day","category":"environment","lens":"green_space","confidence":"documented","source_ids":["enfh-gkve"],"explanation":"Parks property record with acquisition date for Dorrance Brooks Square."},"geometry":{"type":"Point","coordinates":[-73.947299,40.818204]}},{"type":"Feature","id":"nyc_parks_property_170921","properties":{"city_id":"nyc","event_id":"nyc_parks_property_170921","title":"Parks property acquisition: Washington's Walk","year":1913,"effective_date":"1913-07-23","date_precision":"day","category":"environment","lens":"green_space","confidence":"documented","source_ids":["enfh-gkve"],"explanation":"Parks property record with acquisition date for Washington's Walk."},"geometry":{"type":"Point","coordinates":[-73.899323,40.873475]}},{"type":"Feature","id":"nyc_parks_property_171121","properties":{"city_id":"nyc","event_id":"nyc_parks_property_171121","title":"Parks property acquisition: Astoria Park","year":1913,"effective_date":"1913-10-09","date_precision":"day","category":"environment","lens":"green_space","confidence":"documented","source_ids":["enfh-gkve"],"explanation":"Parks property record with acquisition date for Astoria Park."},"geometry":{"type":"Point","coordinates":[-73.922299,40.779156]}}]}
