{"type":"FeatureCollection","schema_version":"1.0.0","city_id":"nyc","year":1835,"map_feature_count":1,"withheld_geometry_event_count":0,"features":[{"type":"Feature","id":"nyc_parks_property_171183","properties":{"city_id":"nyc","event_id":"nyc_parks_property_171183","title":"Parks property acquisition: Randall's Island Park","subtitle":"Manhattan / 1835-04-08 / Documented / Parks Properties","details":"Parks property record with acquisition date for Randall's Island Park.","year":1835,"effective_date":"1835-04-08","date_precision":"day","short_description":"NYC Parks property record for Randall's Island Park; type Flagship Park; acres 254.3; waterfront=True.","category":"environment","lens":"green_space","confidence":"documented","source_ids":["enfh-gkve"],"affected_area_label":"Manhattan","explanation":"Parks property record with acquisition date for Randall's Island Park."},"geometry":{"type":"Point","coordinates":[-73.922736,40.798251]}}]}
