{"type":"FeatureCollection","schema_version":"1.0.0","city_id":"nyc","year":1982,"features":[{"type":"Feature","id":"nyc-milestone-1982-loft-law-adopted-9","properties":{"city_id":"nyc","event_id":"nyc-milestone-1982-loft-law-adopted-9","title":"Loft Law adopted","year":1982,"effective_date":"1982","date_precision":"year","category":"built_environment","lens":"built_environment","confidence":"documented","source_ids":["hgx4-8ukb","2iga-a6mk","as9z-kwsh"],"explanation":"Industrial-to-residential legalization in manufacturing districts"},"geometry":{"type":"Point","coordinates":[-73.9851,40.7589]}},{"type":"Feature","id":"nyc_lpc_historic_district_lp-01248","properties":{"city_id":"nyc","event_id":"nyc_lpc_historic_district_lp-01248","title":"Historic district designated: Greenpoint Historic District","year":1982,"effective_date":"1982-09-14","date_precision":"day","category":"built_environment","lens":"built_environment","confidence":"documented","source_ids":["skyk-mpzq"],"explanation":"LPC historic district designation record for Greenpoint Historic District."},"geometry":{"type":"Point","coordinates":[-73.955951,40.729446]}},{"type":"Feature","id":"nyc_lpc_historic_district_lp-01258","properties":{"city_id":"nyc","event_id":"nyc_lpc_historic_district_lp-01258","title":"Historic district designated: Morris High School Historic District","year":1982,"effective_date":"1982-12-21","date_precision":"day","category":"built_environment","lens":"built_environment","confidence":"documented","source_ids":["skyk-mpzq"],"explanation":"LPC historic district designation record for Morris High School Historic District."},"geometry":{"type":"Point","coordinates":[-73.903644,40.827454]}},{"type":"Feature","id":"nyc_lpc_individual_landmark_1033","properties":{"city_id":"nyc","event_id":"nyc_lpc_individual_landmark_1033","title":"Individual landmark designated: Hamilton Fish Park Play Center","year":1982,"effective_date":"1982-12-21","date_precision":"day","category":"built_environment","lens":"built_environment","confidence":"documented","source_ids":["buis-pvji"],"explanation":"LPC designation record for Hamilton Fish Park Play Center; designation date is taken from the source desdate field."},"geometry":{"type":"Point","coordinates":[-73.981445,40.720009]}},{"type":"Feature","id":"nyc_lpc_individual_landmark_1075","properties":{"city_id":"nyc","event_id":"nyc_lpc_individual_landmark_1075","title":"Individual landmark designated: Henry McFarlane House","year":1982,"effective_date":"1982-10-12","date_precision":"day","category":"built_environment","lens":"built_environment","confidence":"documented","source_ids":["buis-pvji"],"explanation":"LPC designation record for Henry McFarlane House; designation date is taken from the source desdate field."},"geometry":{"type":"Point","coordinates":[-74.06358,40.614767]}},{"type":"Feature","id":"nyc_lpc_individual_landmark_1246","properties":{"city_id":"nyc","event_id":"nyc_lpc_individual_landmark_1246","title":"Individual landmark designated: Woodland Cottage","year":1982,"effective_date":"1982-10-12","date_precision":"day","category":"built_environment","lens":"built_environment","confidence":"documented","source_ids":["buis-pvji"],"explanation":"LPC designation record for Woodland Cottage; designation date is taken from the source desdate field."},"geometry":{"type":"Point","coordinates":[-74.065691,40.611393]}},{"type":"Feature","id":"nyc_lpc_individual_landmark_1247","properties":{"city_id":"nyc","event_id":"nyc_lpc_individual_landmark_1247","title":"Individual landmark designated: Curtis High School","year":1982,"effective_date":"1982-10-12","date_precision":"day","category":"built_environment","lens":"built_environment","confidence":"documented","source_ids":["buis-pvji"],"explanation":"LPC designation record for Curtis High School; designation date is taken from the source desdate field."},"geometry":{"type":"Point","coordinates":[-74.081793,40.64549]}},{"type":"Feature","id":"nyc_lpc_individual_landmark_1248","properties":{"city_id":"nyc","event_id":"nyc_lpc_individual_landmark_1248","title":"Individual landmark designated: Dr. James R. Boardman House","year":1982,"effective_date":"1982-10-12","date_precision":"day","category":"built_environment","lens":"built_environment","confidence":"documented","source_ids":["buis-pvji"],"explanation":"LPC designation record for Dr. James R. Boardman House; designation date is taken from the source desdate field."},"geometry":{"type":"Point","coordinates":[-74.075,40.624637]}},{"type":"Feature","id":"nyc_lpc_individual_landmark_1250","properties":{"city_id":"nyc","event_id":"nyc_lpc_individual_landmark_1250","title":"Individual landmark designated: South Congregational Church Complex","year":1982,"effective_date":"1982-03-23","date_precision":"day","category":"built_environment","lens":"built_environment","confidence":"documented","source_ids":["buis-pvji"],"explanation":"LPC designation record for South Congregational Church Complex; designation date is taken from the source desdate field."},"geometry":{"type":"Point","coordinates":[-73.996603,40.682115]}},{"type":"Feature","id":"nyc_lpc_individual_landmark_1347","properties":{"city_id":"nyc","event_id":"nyc_lpc_individual_landmark_1347","title":"Individual landmark designated: Washington Bridge","year":1982,"effective_date":"1982-09-14","date_precision":"day","category":"built_environment","lens":"built_environment","confidence":"documented","source_ids":["buis-pvji"],"explanation":"LPC designation record for Washington Bridge; designation date is taken from the source desdate field."},"geometry":{"type":"Point","coordinates":[-73.927669,40.846664]}},{"type":"Feature","id":"nyc_lpc_individual_landmark_145","properties":{"city_id":"nyc","event_id":"nyc_lpc_individual_landmark_145","title":"Individual landmark designated: Public School 67","year":1982,"effective_date":"1982-12-21","date_precision":"day","category":"built_environment","lens":"built_environment","confidence":"documented","source_ids":["buis-pvji"],"explanation":"LPC designation record for Public School 67; designation date is taken from the source desdate field."},"geometry":{"type":"Point","coordinates":[-73.983491,40.757564]}},{"type":"Feature","id":"nyc_lpc_individual_landmark_200","properties":{"city_id":"nyc","event_id":"nyc_lpc_individual_landmark_200","title":"Individual landmark designated: Hotel Gerard","year":1982,"effective_date":"1982-07-27","date_precision":"day","category":"built_environment","lens":"built_environment","confidence":"documented","source_ids":["buis-pvji"],"explanation":"LPC designation record for Hotel Gerard; designation date is taken from the source desdate field."},"geometry":{"type":"Point","coordinates":[-73.984109,40.756819]}},{"type":"Feature","id":"nyc_lpc_individual_landmark_271","properties":{"city_id":"nyc","event_id":"nyc_lpc_individual_landmark_271","title":"Individual landmark designated: Red House","year":1982,"effective_date":"1982-09-14","date_precision":"day","category":"built_environment","lens":"built_environment","confidence":"documented","source_ids":["buis-pvji"],"explanation":"LPC designation record for Red House; designation date is taken from the source desdate field."},"geometry":{"type":"Point","coordinates":[-73.980398,40.78878]}},{"type":"Feature","id":"nyc_lpc_individual_landmark_308","properties":{"city_id":"nyc","event_id":"nyc_lpc_individual_landmark_308","title":"Individual landmark designated: 361 Broadway Building","year":1982,"effective_date":"1982-07-27","date_precision":"day","category":"built_environment","lens":"built_environment","confidence":"documented","source_ids":["buis-pvji"],"explanation":"LPC designation record for 361 Broadway Building; designation date is taken from the source desdate field."},"geometry":{"type":"Point","coordinates":[-74.004011,40.717482]}},{"type":"Feature","id":"nyc_lpc_individual_landmark_36","properties":{"city_id":"nyc","event_id":"nyc_lpc_individual_landmark_36","title":"Individual landmark designated: Richmond County Courthouse","year":1982,"effective_date":"1982-03-23","date_precision":"day","category":"built_environment","lens":"built_environment","confidence":"documented","source_ids":["buis-pvji"],"explanation":"LPC designation record for Richmond County Courthouse; designation date is taken from the source desdate field."},"geometry":{"type":"Point","coordinates":[-74.076276,40.642946]}},{"type":"Feature","id":"nyc_lpc_individual_landmark_411","properties":{"city_id":"nyc","event_id":"nyc_lpc_individual_landmark_411","title":"Individual landmark designated: Liberty Tower","year":1982,"effective_date":"1982-08-24","date_precision":"day","category":"built_environment","lens":"built_environment","confidence":"documented","source_ids":["buis-pvji"],"explanation":"LPC designation record for Liberty Tower; designation date is taken from the source desdate field."},"geometry":{"type":"Point","coordinates":[-74.00934,40.708849]}},{"type":"Feature","id":"nyc_lpc_individual_landmark_412","properties":{"city_id":"nyc","event_id":"nyc_lpc_individual_landmark_412","title":"Individual landmark designated: Cary Building","year":1982,"effective_date":"1982-08-24","date_precision":"day","category":"built_environment","lens":"built_environment","confidence":"documented","source_ids":["buis-pvji"],"explanation":"LPC designation record for Cary Building; designation date is taken from the source desdate field."},"geometry":{"type":"Point","coordinates":[-74.007992,40.715261]}},{"type":"Feature","id":"nyc_lpc_individual_landmark_481","properties":{"city_id":"nyc","event_id":"nyc_lpc_individual_landmark_481","title":"Individual landmark designated: Odd Fellows Hall","year":1982,"effective_date":"1982-08-24","date_precision":"day","category":"built_environment","lens":"built_environment","confidence":"documented","source_ids":["buis-pvji"],"explanation":"LPC designation record for Odd Fellows Hall; designation date is taken from the source desdate field."},"geometry":{"type":"Point","coordinates":[-73.998455,40.719434]}},{"type":"Feature","id":"nyc_lpc_individual_landmark_538","properties":{"city_id":"nyc","event_id":"nyc_lpc_individual_landmark_538","title":"Individual landmark designated: Lever House","year":1982,"effective_date":"1982-11-09","date_precision":"day","category":"built_environment","lens":"built_environment","confidence":"documented","source_ids":["buis-pvji"],"explanation":"LPC designation record for Lever House; designation date is taken from the source desdate field."},"geometry":{"type":"Point","coordinates":[-73.973013,40.759587]}},{"type":"Feature","id":"nyc_lpc_individual_landmark_654","properties":{"city_id":"nyc","event_id":"nyc_lpc_individual_landmark_654","title":"Individual landmark designated: Scribner Building","year":1982,"effective_date":"1982-03-23","date_precision":"day","category":"built_environment","lens":"built_environment","confidence":"documented","source_ids":["buis-pvji"],"explanation":"LPC designation record for Scribner Building; designation date is taken from the source desdate field."},"geometry":{"type":"Point","coordinates":[-73.977628,40.757338]}},{"type":"Feature","id":"nyc_lpc_individual_landmark_68","properties":{"city_id":"nyc","event_id":"nyc_lpc_individual_landmark_68","title":"Individual landmark designated: New York Architectural Terra Cotta Company Building","year":1982,"effective_date":"1982-08-24","date_precision":"day","category":"built_environment","lens":"built_environment","confidence":"documented","source_ids":["buis-pvji"],"explanation":"LPC designation record for New York Architectural Terra Cotta Company Building; designation date is taken from the source desdate field."},"geometry":{"type":"Point","coordinates":[-73.949787,40.753993]}},{"type":"Feature","id":"nyc_lpc_individual_landmark_7","properties":{"city_id":"nyc","event_id":"nyc_lpc_individual_landmark_7","title":"Individual landmark designated: Staten Island Borough Hall","year":1982,"effective_date":"1982-03-23","date_precision":"day","category":"built_environment","lens":"built_environment","confidence":"documented","source_ids":["buis-pvji"],"explanation":"LPC designation record for Staten Island Borough Hall; designation date is taken from the source desdate field."},"geometry":{"type":"Point","coordinates":[-74.075818,40.642155]}},{"type":"Feature","id":"nyc_lpc_individual_landmark_774","properties":{"city_id":"nyc","event_id":"nyc_lpc_individual_landmark_774","title":"Individual landmark designated: 17 East 128th Street House","year":1982,"effective_date":"1982-12-21","date_precision":"day","category":"built_environment","lens":"built_environment","confidence":"documented","source_ids":["buis-pvji"],"explanation":"LPC designation record for 17 East 128th Street House; designation date is taken from the source desdate field."},"geometry":{"type":"Point","coordinates":[-73.939741,40.808165]}},{"type":"Feature","id":"nyc_lpc_individual_landmark_780","properties":{"city_id":"nyc","event_id":"nyc_lpc_individual_landmark_780","title":"Individual landmark designated: Pomander Walk","year":1982,"effective_date":"1982-09-14","date_precision":"day","category":"built_environment","lens":"built_environment","confidence":"documented","source_ids":["buis-pvji"],"explanation":"LPC designation record for Pomander Walk; designation date is taken from the source desdate field."},"geometry":{"type":"Point","coordinates":[-73.973392,40.79406]}},{"type":"Feature","id":"nyc_lpc_individual_landmark_829","properties":{"city_id":"nyc","event_id":"nyc_lpc_individual_landmark_829","title":"Individual landmark designated: Weir Greenhouse","year":1982,"effective_date":"1982-04-13","date_precision":"day","category":"built_environment","lens":"built_environment","confidence":"documented","source_ids":["buis-pvji"],"explanation":"LPC designation record for Weir Greenhouse; designation date is taken from the source desdate field."},"geometry":{"type":"Point","coordinates":[-73.996086,40.6591]}},{"type":"Feature","id":"nyc_lpc_individual_landmark_84","properties":{"city_id":"nyc","event_id":"nyc_lpc_individual_landmark_84","title":"Individual landmark designated: Arthur and Dorothy Dalton Hammerstein House, Wildflower","year":1982,"effective_date":"1982-07-27","date_precision":"day","category":"built_environment","lens":"built_environment","confidence":"documented","source_ids":["buis-pvji"],"explanation":"LPC designation record for Arthur and Dorothy Dalton Hammerstein House, Wildflower; designation date is taken from the source desdate field."},"geometry":{"type":"Point","coordinates":[-73.795176,40.79461]}},{"type":"Feature","id":"nyc_lpc_individual_landmark_946","properties":{"city_id":"nyc","event_id":"nyc_lpc_individual_landmark_946","title":"Individual landmark designated: Bronx Grit Chamber","year":1982,"effective_date":"1982-06-08","date_precision":"day","category":"built_environment","lens":"built_environment","confidence":"documented","source_ids":["buis-pvji"],"explanation":"LPC designation record for Bronx Grit Chamber; designation date is taken from the source desdate field."},"geometry":{"type":"Point","coordinates":[-73.918996,40.802845]}},{"type":"Feature","id":"nyc_parks_property_169650","properties":{"city_id":"nyc","event_id":"nyc_parks_property_169650","title":"Parks property acquisition: Battery Park City","year":1982,"effective_date":"1982-04-27","date_precision":"day","category":"environment","lens":"green_space","confidence":"documented","source_ids":["enfh-gkve"],"explanation":"Parks property record with acquisition date for Battery Park City."},"geometry":{"type":"Point","coordinates":[-74.015962,40.713809]}},{"type":"Feature","id":"nyc_parks_property_169696","properties":{"city_id":"nyc","event_id":"nyc_parks_property_169696","title":"Parks property acquisition: Siedenburg Park","year":1982,"effective_date":"1982-03-16","date_precision":"day","category":"environment","lens":"green_space","confidence":"documented","source_ids":["enfh-gkve"],"explanation":"Parks property record with acquisition date for Siedenburg Park."},"geometry":{"type":"Point","coordinates":[-74.144295,40.556802]}},{"type":"Feature","id":"nyc_parks_property_169961","properties":{"city_id":"nyc","event_id":"nyc_parks_property_169961","title":"Parks property acquisition: Battery Park City","year":1982,"effective_date":"1982-04-27","date_precision":"day","category":"environment","lens":"green_space","confidence":"documented","source_ids":["enfh-gkve"],"explanation":"Parks property record with acquisition date for Battery Park City."},"geometry":{"type":"Point","coordinates":[-74.017103,40.711887]}},{"type":"Feature","id":"nyc_parks_property_171064","properties":{"city_id":"nyc","event_id":"nyc_parks_property_171064","title":"Parks property acquisition: Blue Heron Park","year":1982,"effective_date":"1982-04-07","date_precision":"day","category":"environment","lens":"green_space","confidence":"documented","source_ids":["enfh-gkve"],"explanation":"Parks property record with acquisition date for Blue Heron Park."},"geometry":{"type":"Point","coordinates":[-74.176077,40.532136]}}]}
