{"type":"FeatureCollection","schema_version":"1.0.0","city_id":"nyc","year":1933,"features":[{"type":"Feature","id":"nyc_parks_property_169305","properties":{"city_id":"nyc","event_id":"nyc_parks_property_169305","title":"Parks property acquisition: Hawkins Park","subtitle":"Bronx / 1933-10-18 / Documented / Parks Properties","details":"Parks property record with acquisition date for Hawkins Park.","year":1933,"effective_date":"1933-10-18","date_precision":"day","short_description":"NYC Parks property record for Hawkins Park; type Triangle/Plaza; acres 0.136; waterfront=False.","category":"environment","lens":"green_space","confidence":"documented","source_ids":["enfh-gkve"],"affected_area_label":"Bronx","explanation":"Parks property record with acquisition date for Hawkins Park."},"geometry":{"type":"Point","coordinates":[-73.786484,40.846618]}},{"type":"Feature","id":"nyc_parks_property_169520","properties":{"city_id":"nyc","event_id":"nyc_parks_property_169520","title":"Parks property acquisition: Triboro Plaza","subtitle":"Manhattan / 1933-09-15 / Documented / Parks Properties","details":"Parks property record with acquisition date for Triboro Plaza.","year":1933,"effective_date":"1933-09-15","date_precision":"day","short_description":"NYC Parks property record for Triboro Plaza; type Triangle/Plaza; acres 2.3; waterfront=False.","category":"environment","lens":"green_space","confidence":"documented","source_ids":["enfh-gkve"],"affected_area_label":"Manhattan","explanation":"Parks property record with acquisition date for Triboro Plaza."},"geometry":{"type":"Point","coordinates":[-73.932944,40.802591]}},{"type":"Feature","id":"nyc_parks_property_169627","properties":{"city_id":"nyc","event_id":"nyc_parks_property_169627","title":"Parks property acquisition: O'Sullivan Plaza","subtitle":"Queens / 1933-11-02 / Documented / Parks Properties","details":"Parks property record with acquisition date for O'Sullivan Plaza.","year":1933,"effective_date":"1933-11-02","date_precision":"day","short_description":"NYC Parks property record for O'Sullivan Plaza; type Triangle/Plaza; acres 0.03; waterfront=False.","category":"environment","lens":"green_space","confidence":"documented","source_ids":["enfh-gkve"],"affected_area_label":"Queens","explanation":"Parks property record with acquisition date for O'Sullivan Plaza."},"geometry":{"type":"Point","coordinates":[-73.880977,40.763735]}},{"type":"Feature","id":"nyc_parks_property_169725","properties":{"city_id":"nyc","event_id":"nyc_parks_property_169725","title":"Parks property acquisition: Sabba Park","subtitle":"Queens / 1933-10-18 / Documented / Parks Properties","details":"Parks property record with acquisition date for Sabba Park.","year":1933,"effective_date":"1933-10-18","date_precision":"day","short_description":"NYC Parks property record for Sabba Park; type Triangle/Plaza; acres 0.467; waterfront=False.","category":"environment","lens":"green_space","confidence":"documented","source_ids":["enfh-gkve"],"affected_area_label":"Queens","explanation":"Parks property record with acquisition date for Sabba Park."},"geometry":{"type":"Point","coordinates":[-73.915393,40.742776]}},{"type":"Feature","id":"nyc_parks_property_169756","properties":{"city_id":"nyc","event_id":"nyc_parks_property_169756","title":"Parks property acquisition: Barclay Triangle","subtitle":"Queens / 1933-11-02 / Documented / Parks Properties","details":"Parks property record with acquisition date for Barclay Triangle.","year":1933,"effective_date":"1933-11-02","date_precision":"day","short_description":"NYC Parks property record for Barclay Triangle; type Triangle/Plaza; acres 0.047; waterfront=False.","category":"environment","lens":"green_space","confidence":"documented","source_ids":["enfh-gkve"],"affected_area_label":"Queens","explanation":"Parks property record with acquisition date for Barclay Triangle."},"geometry":{"type":"Point","coordinates":[-73.867021,40.761376]}},{"type":"Feature","id":"nyc_parks_property_169913","properties":{"city_id":"nyc","event_id":"nyc_parks_property_169913","title":"Parks property acquisition: Litchhult Square","subtitle":"Queens / 1933-12-12 / Documented / Parks Properties","details":"Parks property record with acquisition date for Litchhult Square.","year":1933,"effective_date":"1933-12-12","date_precision":"day","short_description":"NYC Parks property record for Litchhult Square; type Triangle/Plaza; acres 0.074; waterfront=False.","category":"environment","lens":"green_space","confidence":"documented","source_ids":["enfh-gkve"],"affected_area_label":"Queens","explanation":"Parks property record with acquisition date for Litchhult Square."},"geometry":{"type":"Point","coordinates":[-73.744852,40.71597]}},{"type":"Feature","id":"nyc_parks_property_170840","properties":{"city_id":"nyc","event_id":"nyc_parks_property_170840","title":"Parks property acquisition: Dr. Gertrude B. Kelly Playground","subtitle":"Manhattan / 1933-05-24 / Documented / Parks Properties","details":"Parks property record with acquisition date for Dr. Gertrude B. Kelly Playground.","year":1933,"effective_date":"1933-05-24","date_precision":"day","short_description":"NYC Parks property record for Dr. Gertrude B. Kelly Playground; type Neighborhood Park; acres 0.525; waterfront=False.","category":"environment","lens":"green_space","confidence":"documented","source_ids":["enfh-gkve"],"affected_area_label":"Manhattan","explanation":"Parks property record with acquisition date for Dr. Gertrude B. Kelly Playground."},"geometry":{"type":"Point","coordinates":[-74.002003,40.741592]}},{"type":"Feature","id":"nyc_parks_property_170911","properties":{"city_id":"nyc","event_id":"nyc_parks_property_170911","title":"Parks property acquisition: Bryan Park","subtitle":"Bronx / 1933-06-21 / Documented / Parks Properties","details":"Parks property record with acquisition date for Bryan Park.","year":1933,"effective_date":"1933-06-21","date_precision":"day","short_description":"NYC Parks property record for Bryan Park; type Triangle/Plaza; acres 0.15; waterfront=False.","category":"environment","lens":"green_space","confidence":"documented","source_ids":["enfh-gkve"],"affected_area_label":"Bronx","explanation":"Parks property record with acquisition date for Bryan Park."},"geometry":{"type":"Point","coordinates":[-73.894162,40.862166]}},{"type":"Feature","id":"nyc_parks_property_170964","properties":{"city_id":"nyc","event_id":"nyc_parks_property_170964","title":"Parks property acquisition: Calvert Vaux Park","subtitle":"Brooklyn / 1933-11-17 / Documented / Parks Properties","details":"Parks property record with acquisition date for Calvert Vaux Park.","year":1933,"effective_date":"1933-11-17","date_precision":"day","short_description":"NYC Parks property record for Calvert Vaux Park; type Recreational Field/Courts; acres 85.527; waterfront=True.","category":"environment","lens":"green_space","confidence":"documented","source_ids":["enfh-gkve"],"affected_area_label":"Brooklyn","explanation":"Parks property record with acquisition date for Calvert Vaux Park."},"geometry":{"type":"Point","coordinates":[-73.991478,40.585018]}},{"type":"Feature","id":"nyc_parks_property_171210","properties":{"city_id":"nyc","event_id":"nyc_parks_property_171210","title":"Parks property acquisition: Midland Malls","subtitle":"Queens / 1933-05-16 / Documented / Parks Properties","details":"Parks property record with acquisition date for Midland Malls.","year":1933,"effective_date":"1933-05-16","date_precision":"day","short_description":"NYC Parks property record for Midland Malls; type Mall; acres 1.803; waterfront=False.","category":"environment","lens":"green_space","confidence":"documented","source_ids":["enfh-gkve"],"affected_area_label":"Queens","explanation":"Parks property record with acquisition date for Midland Malls."},"geometry":{"type":"Point","coordinates":[-73.784051,40.717238]}}],"map_feature_count":10,"withheld_geometry_event_count":0}
