{"type":"FeatureCollection","schema_version":"1.0.0","city_id":"nyc","year":1990,"features":[{"type":"Feature","id":"nyc-milestone-1990-americans-with-disabilities-act-era-begins-10","properties":{"city_id":"nyc","event_id":"nyc-milestone-1990-americans-with-disabilities-act-era-begins-10","title":"Americans with Disabilities Act era begins","year":1990,"effective_date":"1990","date_precision":"year","category":"transport","lens":"traffic","confidence":"documented","source_ids":["hgx4-8ukb","2iga-a6mk","as9z-kwsh"],"explanation":"Accessibility retrofits in transit and streetscape"},"geometry":{"type":"Point","coordinates":[-74.153692,40.58371]}}]}
