{"type":"FeatureCollection","schema_version":"1.0.0","city_id":"nyc","year":1851,"features":[{"type":"Feature","id":"nyc_parks_property_169687","properties":{"city_id":"nyc","event_id":"nyc_parks_property_169687","title":"Parks property acquisition: Park Avenue Malls","subtitle":"Manhattan / 1851-08-19 / Documented / Parks Properties","details":"Parks property record with acquisition date for Park Avenue Malls.","year":1851,"effective_date":"1851-08-19","date_precision":"day","short_description":"NYC Parks property record for Park Avenue Malls; type Mall; acres 0.65; waterfront=False.","category":"environment","lens":"green_space","confidence":"documented","source_ids":["enfh-gkve"],"affected_area_label":"Manhattan","explanation":"Parks property record with acquisition date for Park Avenue Malls."},"geometry":{"type":"Point","coordinates":[-73.980133,40.748742]}}],"map_feature_count":1,"withheld_geometry_event_count":0}
