{"type":"FeatureCollection","schema_version":"1.0.0","city_id":"nyc","year":2003,"features":[{"type":"Feature","id":"nyc_dob_permit_1249699","properties":{"city_id":"nyc","event_id":"nyc_dob_permit_1249699","title":"DOB permit issued: NB at 123-05 109 AVENUE, QUEENS","year":2003,"effective_date":"2003-08-29","date_precision":"day","category":"built_environment","lens":"built_environment","confidence":"documented","source_ids":["ipu4-2q9a"],"explanation":"IN PROCESS NB record for job 400746680 at 123-05 109 AVENUE in QUEENS."},"geometry":{"type":"Point","coordinates":[-73.818561,40.683292]}}]}
