{"type":"FeatureCollection","schema_version":"1.0.0","city_id":"nyc","year":1973,"features":[{"type":"Feature","id":"nyc_lpc_historic_district_lp-00323","properties":{"city_id":"nyc","event_id":"nyc_lpc_historic_district_lp-00323","title":"Historic district designated: Riverside - West 105th Street Historic District","year":1973,"effective_date":"1973-04-19","date_precision":"day","category":"built_environment","lens":"built_environment","confidence":"documented","source_ids":["skyk-mpzq"],"explanation":"LPC historic district designation record for Riverside - West 105th Street Historic District."},"geometry":{"type":"Point","coordinates":[-73.969864,40.801499]}},{"type":"Feature","id":"nyc_lpc_historic_district_lp-00696","properties":{"city_id":"nyc","event_id":"nyc_lpc_historic_district_lp-00696","title":"Historic district designated: Carroll Gardens Historic District","year":1973,"effective_date":"1973-09-25","date_precision":"day","category":"built_environment","lens":"built_environment","confidence":"documented","source_ids":["skyk-mpzq"],"explanation":"LPC historic district designation record for Carroll Gardens Historic District."},"geometry":{"type":"Point","coordinates":[-73.993343,40.679761]}},{"type":"Feature","id":"nyc_lpc_historic_district_lp-00709","properties":{"city_id":"nyc","event_id":"nyc_lpc_historic_district_lp-00709","title":"Historic district designated: Park Slope Historic District","year":1973,"effective_date":"1973-07-17","date_precision":"day","category":"built_environment","lens":"built_environment","confidence":"documented","source_ids":["skyk-mpzq"],"explanation":"LPC historic district designation record for Park Slope Historic District."},"geometry":{"type":"Point","coordinates":[-73.975798,40.670785]}},{"type":"Feature","id":"nyc_lpc_historic_district_lp-00713","properties":{"city_id":"nyc","event_id":"nyc_lpc_historic_district_lp-00713","title":"Historic district designated: Central Park West - 76th Street Historic District","year":1973,"effective_date":"1973-04-19","date_precision":"day","category":"built_environment","lens":"built_environment","confidence":"documented","source_ids":["skyk-mpzq"],"explanation":"LPC historic district designation record for Central Park West - 76th Street Historic District."},"geometry":{"type":"Point","coordinates":[-73.974825,40.779159]}},{"type":"Feature","id":"nyc_lpc_historic_district_lp-00767","properties":{"city_id":"nyc","event_id":"nyc_lpc_historic_district_lp-00767","title":"Historic district designated: Boerum Hill Historic District","year":1973,"effective_date":"1973-11-20","date_precision":"day","category":"built_environment","lens":"built_environment","confidence":"documented","source_ids":["skyk-mpzq"],"explanation":"LPC historic district designation record for Boerum Hill Historic District."},"geometry":{"type":"Point","coordinates":[-73.986293,40.685787]}},{"type":"Feature","id":"nyc_lpc_historic_district_lp-00768","properties":{"city_id":"nyc","event_id":"nyc_lpc_historic_district_lp-00768","title":"Historic district designated: SoHo-Cast Iron Historic District","year":1973,"effective_date":"1973-08-14","date_precision":"day","category":"built_environment","lens":"built_environment","confidence":"documented","source_ids":["skyk-mpzq"],"explanation":"LPC historic district designation record for SoHo-Cast Iron Historic District."},"geometry":{"type":"Point","coordinates":[-74.000719,40.722478]}},{"type":"Feature","id":"nyc_lpc_individual_landmark_10","properties":{"city_id":"nyc","event_id":"nyc_lpc_individual_landmark_10","title":"Individual landmark designated: 364 Van Duzer Street House","year":1973,"effective_date":"1973-12-18","date_precision":"day","category":"built_environment","lens":"built_environment","confidence":"documented","source_ids":["buis-pvji"],"explanation":"LPC designation record for 364 Van Duzer Street House; designation date is taken from the source desdate field."},"geometry":{"type":"Point","coordinates":[-74.079628,40.629344]}},{"type":"Feature","id":"nyc_lpc_individual_landmark_1083","properties":{"city_id":"nyc","event_id":"nyc_lpc_individual_landmark_1083","title":"Individual landmark designated: Conservatory, New York Botanical Garden","year":1973,"effective_date":"1973-10-16","date_precision":"day","category":"built_environment","lens":"built_environment","confidence":"documented","source_ids":["buis-pvji"],"explanation":"LPC designation record for Conservatory, New York Botanical Garden; designation date is taken from the source desdate field."},"geometry":{"type":"Point","coordinates":[-73.882128,40.863871]}},{"type":"Feature","id":"nyc_lpc_individual_landmark_1094","properties":{"city_id":"nyc","event_id":"nyc_lpc_individual_landmark_1094","title":"Individual landmark designated: Interborough Rapid Transit System, Battery Park Control House","year":1973,"effective_date":"1973-11-20","date_precision":"day","category":"built_environment","lens":"built_environment","confidence":"documented","source_ids":["buis-pvji"],"explanation":"LPC designation record for Interborough Rapid Transit System, Battery Park Control House; designation date is taken from the source desdate field."},"geometry":{"type":"Point","coordinates":[-74.014517,40.704105]}},{"type":"Feature","id":"nyc_lpc_individual_landmark_1116","properties":{"city_id":"nyc","event_id":"nyc_lpc_individual_landmark_1116","title":"Individual landmark designated: Sailors' Snug Harbor, Iron Fence","year":1973,"effective_date":"1973-05-15","date_precision":"day","category":"built_environment","lens":"built_environment","confidence":"documented","source_ids":["buis-pvji"],"explanation":"LPC designation record for Sailors' Snug Harbor, Iron Fence; designation date is taken from the source desdate field."},"geometry":{"type":"Point","coordinates":[-74.103337,40.644931]}},{"type":"Feature","id":"nyc_lpc_individual_landmark_1120","properties":{"city_id":"nyc","event_id":"nyc_lpc_individual_landmark_1120","title":"Individual landmark designated: Soldiers' and Sailors' Memorial Arch","year":1973,"effective_date":"1973-10-16","date_precision":"day","category":"built_environment","lens":"built_environment","confidence":"documented","source_ids":["buis-pvji"],"explanation":"LPC designation record for Soldiers' and Sailors' Memorial Arch; designation date is taken from the source desdate field."},"geometry":{"type":"Point","coordinates":[-73.969894,40.672992]}},{"type":"Feature","id":"nyc_lpc_individual_landmark_1172","properties":{"city_id":"nyc","event_id":"nyc_lpc_individual_landmark_1172","title":"Individual landmark designated: Sailors' Snug Harbor, North Gatehouse","year":1973,"effective_date":"1973-05-15","date_precision":"day","category":"built_environment","lens":"built_environment","confidence":"documented","source_ids":["buis-pvji"],"explanation":"LPC designation record for Sailors' Snug Harbor, North Gatehouse; designation date is taken from the source desdate field."},"geometry":{"type":"Point","coordinates":[-74.101887,40.644985]}},{"type":"Feature","id":"nyc_lpc_individual_landmark_1211","properties":{"city_id":"nyc","event_id":"nyc_lpc_individual_landmark_1211","title":"Individual landmark designated: Henry Clay and Adelaide Childs Frick House","year":1973,"effective_date":"1973-03-20","date_precision":"day","category":"built_environment","lens":"built_environment","confidence":"documented","source_ids":["buis-pvji"],"explanation":"LPC designation record for Henry Clay and Adelaide Childs Frick House; designation date is taken from the source desdate field."},"geometry":{"type":"Point","coordinates":[-73.967161,40.771127]}},{"type":"Feature","id":"nyc_lpc_individual_landmark_1215","properties":{"city_id":"nyc","event_id":"nyc_lpc_individual_landmark_1215","title":"Individual landmark designated: Brooklyn City Railroad Company Building","year":1973,"effective_date":"1973-02-20","date_precision":"day","category":"built_environment","lens":"built_environment","confidence":"documented","source_ids":["buis-pvji"],"explanation":"LPC designation record for Brooklyn City Railroad Company Building; designation date is taken from the source desdate field."},"geometry":{"type":"Point","coordinates":[-73.994692,40.702549]}},{"type":"Feature","id":"nyc_lpc_individual_landmark_156","properties":{"city_id":"nyc","event_id":"nyc_lpc_individual_landmark_156","title":"Individual landmark designated: 330 East 18th Street House","year":1973,"effective_date":"1973-03-20","date_precision":"day","category":"built_environment","lens":"built_environment","confidence":"documented","source_ids":["buis-pvji"],"explanation":"LPC designation record for 330 East 18th Street House; designation date is taken from the source desdate field."},"geometry":{"type":"Point","coordinates":[-73.981888,40.734094]}},{"type":"Feature","id":"nyc_lpc_individual_landmark_17","properties":{"city_id":"nyc","event_id":"nyc_lpc_individual_landmark_17","title":"Individual landmark designated: New Dorp Light, Expanded Site","year":1973,"effective_date":"1973-12-18","date_precision":"day","category":"built_environment","lens":"built_environment","confidence":"documented","source_ids":["buis-pvji"],"explanation":"LPC designation record for New Dorp Light, Expanded Site; designation date is taken from the source desdate field."},"geometry":{"type":"Point","coordinates":[-74.119786,40.580732]}},{"type":"Feature","id":"nyc_lpc_individual_landmark_18","properties":{"city_id":"nyc","event_id":"nyc_lpc_individual_landmark_18","title":"Individual landmark designated: 390 Van Duzer Street House","year":1973,"effective_date":"1973-12-18","date_precision":"day","category":"built_environment","lens":"built_environment","confidence":"documented","source_ids":["buis-pvji"],"explanation":"LPC designation record for 390 Van Duzer Street House; designation date is taken from the source desdate field."},"geometry":{"type":"Point","coordinates":[-74.080423,40.628815]}},{"type":"Feature","id":"nyc_lpc_individual_landmark_266","properties":{"city_id":"nyc","event_id":"nyc_lpc_individual_landmark_266","title":"Individual landmark designated: 326 East 18th Street House","year":1973,"effective_date":"1973-03-20","date_precision":"day","category":"built_environment","lens":"built_environment","confidence":"documented","source_ids":["buis-pvji"],"explanation":"LPC designation record for 326 East 18th Street House; designation date is taken from the source desdate field."},"geometry":{"type":"Point","coordinates":[-73.982025,40.734152]}},{"type":"Feature","id":"nyc_lpc_individual_landmark_361","properties":{"city_id":"nyc","event_id":"nyc_lpc_individual_landmark_361","title":"Individual landmark designated: 83 Sullivan Street House","year":1973,"effective_date":"1973-05-15","date_precision":"day","category":"built_environment","lens":"built_environment","confidence":"documented","source_ids":["buis-pvji"],"explanation":"LPC designation record for 83 Sullivan Street House; designation date is taken from the source desdate field."},"geometry":{"type":"Point","coordinates":[-74.003426,40.724721]}},{"type":"Feature","id":"nyc_lpc_individual_landmark_377","properties":{"city_id":"nyc","event_id":"nyc_lpc_individual_landmark_377","title":"Individual landmark designated: 116 Sullivan Street House","year":1973,"effective_date":"1973-05-15","date_precision":"day","category":"built_environment","lens":"built_environment","confidence":"documented","source_ids":["buis-pvji"],"explanation":"LPC designation record for 116 Sullivan Street House; designation date is taken from the source desdate field."},"geometry":{"type":"Point","coordinates":[-74.002927,40.726177]}},{"type":"Feature","id":"nyc_lpc_individual_landmark_556","properties":{"city_id":"nyc","event_id":"nyc_lpc_individual_landmark_556","title":"Individual landmark designated: Saint Nicholas Russian Orthodox Cathedral","year":1973,"effective_date":"1973-12-18","date_precision":"day","category":"built_environment","lens":"built_environment","confidence":"documented","source_ids":["buis-pvji"],"explanation":"LPC designation record for Saint Nicholas Russian Orthodox Cathedral; designation date is taken from the source desdate field."},"geometry":{"type":"Point","coordinates":[-73.954037,40.788337]}},{"type":"Feature","id":"nyc_lpc_individual_landmark_563","properties":{"city_id":"nyc","event_id":"nyc_lpc_individual_landmark_563","title":"Individual landmark designated: Lewis Gouverneur and Nathalie Bailey Morris House","year":1973,"effective_date":"1973-04-19","date_precision":"day","category":"built_environment","lens":"built_environment","confidence":"documented","source_ids":["buis-pvji"],"explanation":"LPC designation record for Lewis Gouverneur and Nathalie Bailey Morris House; designation date is taken from the source desdate field."},"geometry":{"type":"Point","coordinates":[-73.957393,40.779246]}},{"type":"Feature","id":"nyc_lpc_individual_landmark_587","properties":{"city_id":"nyc","event_id":"nyc_lpc_individual_landmark_587","title":"Individual landmark designated: 85 Sullivan Street House","year":1973,"effective_date":"1973-05-15","date_precision":"day","category":"built_environment","lens":"built_environment","confidence":"documented","source_ids":["buis-pvji"],"explanation":"LPC designation record for 85 Sullivan Street House; designation date is taken from the source desdate field."},"geometry":{"type":"Point","coordinates":[-74.003396,40.724799]}},{"type":"Feature","id":"nyc_lpc_individual_landmark_721","properties":{"city_id":"nyc","event_id":"nyc_lpc_individual_landmark_721","title":"Individual landmark designated: Sara Delano Roosevelt and Franklin and Eleanor Roosevelt Houses","year":1973,"effective_date":"1973-09-25","date_precision":"day","category":"built_environment","lens":"built_environment","confidence":"documented","source_ids":["buis-pvji"],"explanation":"LPC designation record for Sara Delano Roosevelt and Franklin and Eleanor Roosevelt Houses; designation date is taken from the source desdate field."},"geometry":{"type":"Point","coordinates":[-73.967586,40.767204]}},{"type":"Feature","id":"nyc_lpc_individual_landmark_727","properties":{"city_id":"nyc","event_id":"nyc_lpc_individual_landmark_727","title":"Individual landmark designated: 328 East 18th Street House","year":1973,"effective_date":"1973-03-20","date_precision":"day","category":"built_environment","lens":"built_environment","confidence":"documented","source_ids":["buis-pvji"],"explanation":"LPC designation record for 328 East 18th Street House; designation date is taken from the source desdate field."},"geometry":{"type":"Point","coordinates":[-73.981957,40.734123]}},{"type":"Feature","id":"nyc_lpc_individual_landmark_811","properties":{"city_id":"nyc","event_id":"nyc_lpc_individual_landmark_811","title":"Individual landmark designated: 296 State Street House","year":1973,"effective_date":"1973-11-20","date_precision":"day","category":"built_environment","lens":"built_environment","confidence":"documented","source_ids":["buis-pvji"],"explanation":"LPC designation record for 296 State Street House; designation date is taken from the source desdate field."},"geometry":{"type":"Point","coordinates":[-73.988236,40.688857]}},{"type":"Feature","id":"nyc_lpc_individual_landmark_812","properties":{"city_id":"nyc","event_id":"nyc_lpc_individual_landmark_812","title":"Individual landmark designated: 304 State Street House","year":1973,"effective_date":"1973-11-20","date_precision":"day","category":"built_environment","lens":"built_environment","confidence":"documented","source_ids":["buis-pvji"],"explanation":"LPC designation record for 304 State Street House; designation date is taken from the source desdate field."},"geometry":{"type":"Point","coordinates":[-73.987912,40.688731]}},{"type":"Feature","id":"nyc_lpc_individual_landmark_815","properties":{"city_id":"nyc","event_id":"nyc_lpc_individual_landmark_815","title":"Individual landmark designated: 297 State Street House","year":1973,"effective_date":"1973-11-20","date_precision":"day","category":"built_environment","lens":"built_environment","confidence":"documented","source_ids":["buis-pvji"],"explanation":"LPC designation record for 297 State Street House; designation date is taken from the source desdate field."},"geometry":{"type":"Point","coordinates":[-73.987106,40.688894]}},{"type":"Feature","id":"nyc_lpc_individual_landmark_816","properties":{"city_id":"nyc","event_id":"nyc_lpc_individual_landmark_816","title":"Individual landmark designated: 322 State Street House","year":1973,"effective_date":"1973-11-23","date_precision":"day","category":"built_environment","lens":"built_environment","confidence":"documented","source_ids":["buis-pvji"],"explanation":"LPC designation record for 322 State Street House; designation date is taken from the source desdate field."},"geometry":{"type":"Point","coordinates":[-73.987196,40.688439]}},{"type":"Feature","id":"nyc_lpc_individual_landmark_817","properties":{"city_id":"nyc","event_id":"nyc_lpc_individual_landmark_817","title":"Individual landmark designated: 295 State Street House","year":1973,"effective_date":"1973-11-20","date_precision":"day","category":"built_environment","lens":"built_environment","confidence":"documented","source_ids":["buis-pvji"],"explanation":"LPC designation record for 295 State Street House; designation date is taken from the source desdate field."},"geometry":{"type":"Point","coordinates":[-73.987166,40.688918]}},{"type":"Feature","id":"nyc_lpc_individual_landmark_818","properties":{"city_id":"nyc","event_id":"nyc_lpc_individual_landmark_818","title":"Individual landmark designated: 302 State Street House","year":1973,"effective_date":"1973-11-20","date_precision":"day","category":"built_environment","lens":"built_environment","confidence":"documented","source_ids":["buis-pvji"],"explanation":"LPC designation record for 302 State Street House; designation date is taken from the source desdate field."},"geometry":{"type":"Point","coordinates":[-73.987994,40.688763]}},{"type":"Feature","id":"nyc_lpc_individual_landmark_819","properties":{"city_id":"nyc","event_id":"nyc_lpc_individual_landmark_819","title":"Individual landmark designated: 299 State Street House","year":1973,"effective_date":"1973-11-20","date_precision":"day","category":"built_environment","lens":"built_environment","confidence":"documented","source_ids":["buis-pvji"],"explanation":"LPC designation record for 299 State Street House; designation date is taken from the source desdate field."},"geometry":{"type":"Point","coordinates":[-73.987036,40.688878]}},{"type":"Feature","id":"nyc_lpc_individual_landmark_821","properties":{"city_id":"nyc","event_id":"nyc_lpc_individual_landmark_821","title":"Individual landmark designated: 320 State Street House","year":1973,"effective_date":"1973-11-20","date_precision":"day","category":"built_environment","lens":"built_environment","confidence":"documented","source_ids":["buis-pvji"],"explanation":"LPC designation record for 320 State Street House; designation date is taken from the source desdate field."},"geometry":{"type":"Point","coordinates":[-73.987295,40.688447]}},{"type":"Feature","id":"nyc_lpc_individual_landmark_823","properties":{"city_id":"nyc","event_id":"nyc_lpc_individual_landmark_823","title":"Individual landmark designated: 290 State Street House","year":1973,"effective_date":"1973-11-20","date_precision":"day","category":"built_environment","lens":"built_environment","confidence":"documented","source_ids":["buis-pvji"],"explanation":"LPC designation record for 290 State Street House; designation date is taken from the source desdate field."},"geometry":{"type":"Point","coordinates":[-73.988439,40.688936]}},{"type":"Feature","id":"nyc_lpc_individual_landmark_824","properties":{"city_id":"nyc","event_id":"nyc_lpc_individual_landmark_824","title":"Individual landmark designated: 318 State Street House","year":1973,"effective_date":"1973-11-20","date_precision":"day","category":"built_environment","lens":"built_environment","confidence":"documented","source_ids":["buis-pvji"],"explanation":"LPC designation record for 318 State Street House; designation date is taken from the source desdate field."},"geometry":{"type":"Point","coordinates":[-73.987376,40.688478]}},{"type":"Feature","id":"nyc_lpc_individual_landmark_825","properties":{"city_id":"nyc","event_id":"nyc_lpc_individual_landmark_825","title":"Individual landmark designated: 308 State Street House","year":1973,"effective_date":"1973-11-20","date_precision":"day","category":"built_environment","lens":"built_environment","confidence":"documented","source_ids":["buis-pvji"],"explanation":"LPC designation record for 308 State Street House; designation date is taken from the source desdate field."},"geometry":{"type":"Point","coordinates":[-73.987753,40.688669]}},{"type":"Feature","id":"nyc_lpc_individual_landmark_826","properties":{"city_id":"nyc","event_id":"nyc_lpc_individual_landmark_826","title":"Individual landmark designated: 294 State Street House","year":1973,"effective_date":"1973-11-20","date_precision":"day","category":"built_environment","lens":"built_environment","confidence":"documented","source_ids":["buis-pvji"],"explanation":"LPC designation record for 294 State Street House; designation date is taken from the source desdate field."},"geometry":{"type":"Point","coordinates":[-73.988309,40.688885]}},{"type":"Feature","id":"nyc_lpc_individual_landmark_827","properties":{"city_id":"nyc","event_id":"nyc_lpc_individual_landmark_827","title":"Individual landmark designated: 310 State Street House","year":1973,"effective_date":"1973-11-20","date_precision":"day","category":"built_environment","lens":"built_environment","confidence":"documented","source_ids":["buis-pvji"],"explanation":"LPC designation record for 310 State Street House; designation date is taken from the source desdate field."},"geometry":{"type":"Point","coordinates":[-73.987701,40.68861]}},{"type":"Feature","id":"nyc_lpc_individual_landmark_828","properties":{"city_id":"nyc","event_id":"nyc_lpc_individual_landmark_828","title":"Individual landmark designated: 298 State Street House","year":1973,"effective_date":"1973-11-20","date_precision":"day","category":"built_environment","lens":"built_environment","confidence":"documented","source_ids":["buis-pvji"],"explanation":"LPC designation record for 298 State Street House; designation date is taken from the source desdate field."},"geometry":{"type":"Point","coordinates":[-73.988154,40.688825]}},{"type":"Feature","id":"nyc_lpc_individual_landmark_830","properties":{"city_id":"nyc","event_id":"nyc_lpc_individual_landmark_830","title":"Individual landmark designated: 293 State Street House","year":1973,"effective_date":"1973-11-20","date_precision":"day","category":"built_environment","lens":"built_environment","confidence":"documented","source_ids":["buis-pvji"],"explanation":"LPC designation record for 293 State Street House; designation date is taken from the source desdate field."},"geometry":{"type":"Point","coordinates":[-73.987227,40.688941]}},{"type":"Feature","id":"nyc_lpc_individual_landmark_835","properties":{"city_id":"nyc","event_id":"nyc_lpc_individual_landmark_835","title":"Individual landmark designated: 324 State Street House","year":1973,"effective_date":"1973-11-20","date_precision":"day","category":"built_environment","lens":"built_environment","confidence":"documented","source_ids":["buis-pvji"],"explanation":"LPC designation record for 324 State Street House; designation date is taken from the source desdate field."},"geometry":{"type":"Point","coordinates":[-73.987116,40.688408]}},{"type":"Feature","id":"nyc_lpc_individual_landmark_839","properties":{"city_id":"nyc","event_id":"nyc_lpc_individual_landmark_839","title":"Individual landmark designated: 292 State Street House","year":1973,"effective_date":"1973-11-20","date_precision":"day","category":"built_environment","lens":"built_environment","confidence":"documented","source_ids":["buis-pvji"],"explanation":"LPC designation record for 292 State Street House; designation date is taken from the source desdate field."},"geometry":{"type":"Point","coordinates":[-73.988374,40.68891]}},{"type":"Feature","id":"nyc_lpc_individual_landmark_841","properties":{"city_id":"nyc","event_id":"nyc_lpc_individual_landmark_841","title":"Individual landmark designated: 316 State Street House","year":1973,"effective_date":"1973-11-20","date_precision":"day","category":"built_environment","lens":"built_environment","confidence":"documented","source_ids":["buis-pvji"],"explanation":"LPC designation record for 316 State Street House; designation date is taken from the source desdate field."},"geometry":{"type":"Point","coordinates":[-73.987454,40.688508]}},{"type":"Feature","id":"nyc_lpc_individual_landmark_842","properties":{"city_id":"nyc","event_id":"nyc_lpc_individual_landmark_842","title":"Individual landmark designated: 312 State Street House","year":1973,"effective_date":"1973-11-20","date_precision":"day","category":"built_environment","lens":"built_environment","confidence":"documented","source_ids":["buis-pvji"],"explanation":"LPC designation record for 312 State Street House; designation date is taken from the source desdate field."},"geometry":{"type":"Point","coordinates":[-73.987611,40.68857]}},{"type":"Feature","id":"nyc_lpc_individual_landmark_843","properties":{"city_id":"nyc","event_id":"nyc_lpc_individual_landmark_843","title":"Individual landmark designated: 300 State Street House","year":1973,"effective_date":"1973-11-20","date_precision":"day","category":"built_environment","lens":"built_environment","confidence":"documented","source_ids":["buis-pvji"],"explanation":"LPC designation record for 300 State Street House; designation date is taken from the source desdate field."},"geometry":{"type":"Point","coordinates":[-73.988075,40.688794]}},{"type":"Feature","id":"nyc_lpc_individual_landmark_846","properties":{"city_id":"nyc","event_id":"nyc_lpc_individual_landmark_846","title":"Individual landmark designated: 314 State Street House","year":1973,"effective_date":"1973-11-20","date_precision":"day","category":"built_environment","lens":"built_environment","confidence":"documented","source_ids":["buis-pvji"],"explanation":"LPC designation record for 314 State Street House; designation date is taken from the source desdate field."},"geometry":{"type":"Point","coordinates":[-73.987533,40.688539]}},{"type":"Feature","id":"nyc_lpc_individual_landmark_847","properties":{"city_id":"nyc","event_id":"nyc_lpc_individual_landmark_847","title":"Individual landmark designated: 291 State Street House","year":1973,"effective_date":"1973-11-20","date_precision":"day","category":"built_environment","lens":"built_environment","confidence":"documented","source_ids":["buis-pvji"],"explanation":"LPC designation record for 291 State Street House; designation date is taken from the source desdate field."},"geometry":{"type":"Point","coordinates":[-73.987285,40.68898]}},{"type":"Feature","id":"nyc_lpc_individual_landmark_854","properties":{"city_id":"nyc","event_id":"nyc_lpc_individual_landmark_854","title":"Individual landmark designated: 306 State Street House","year":1973,"effective_date":"1973-11-20","date_precision":"day","category":"built_environment","lens":"built_environment","confidence":"documented","source_ids":["buis-pvji"],"explanation":"LPC designation record for 306 State Street House; designation date is taken from the source desdate field."},"geometry":{"type":"Point","coordinates":[-73.987831,40.688699]}},{"type":"Feature","id":"nyc_lpc_individual_landmark_908","properties":{"city_id":"nyc","event_id":"nyc_lpc_individual_landmark_908","title":"Individual landmark designated: Flatbush Town Hall","year":1973,"effective_date":"1973-10-16","date_precision":"day","category":"built_environment","lens":"built_environment","confidence":"documented","source_ids":["buis-pvji"],"explanation":"LPC designation record for Flatbush Town Hall; designation date is taken from the source desdate field."},"geometry":{"type":"Point","coordinates":[-73.956872,40.648896]}},{"type":"Feature","id":"nyc_parks_property_170096","properties":{"city_id":"nyc","event_id":"nyc_parks_property_170096","title":"Parks property acquisition: Saw Mill Playground","year":1973,"effective_date":"1973-10-11","date_precision":"day","category":"environment","lens":"green_space","confidence":"documented","source_ids":["enfh-gkve"],"explanation":"Parks property record with acquisition date for Saw Mill Playground."},"geometry":{"type":"Point","coordinates":[-73.919276,40.808935]}},{"type":"Feature","id":"nyc_parks_property_170481","properties":{"city_id":"nyc","event_id":"nyc_parks_property_170481","title":"Parks property acquisition: Friends Field","year":1973,"effective_date":"1973-01-17","date_precision":"day","category":"environment","lens":"green_space","confidence":"documented","source_ids":["enfh-gkve"],"explanation":"Parks property record with acquisition date for Friends Field."},"geometry":{"type":"Point","coordinates":[-73.973397,40.618636]}},{"type":"Feature","id":"nyc_parks_property_170649","properties":{"city_id":"nyc","event_id":"nyc_parks_property_170649","title":"Parks property acquisition: Hell's Kitchen Park","year":1973,"effective_date":"1973-12-19","date_precision":"day","category":"environment","lens":"green_space","confidence":"documented","source_ids":["enfh-gkve"],"explanation":"Parks property record with acquisition date for Hell's Kitchen Park."},"geometry":{"type":"Point","coordinates":[-73.992514,40.762942]}},{"type":"Feature","id":"nyc_parks_property_170934","properties":{"city_id":"nyc","event_id":"nyc_parks_property_170934","title":"Parks property acquisition: River Avenue Parks","year":1973,"effective_date":"1973-12-30","date_precision":"day","category":"environment","lens":"green_space","confidence":"documented","source_ids":["enfh-gkve"],"explanation":"Parks property record with acquisition date for River Avenue Parks."},"geometry":{"type":"Point","coordinates":[-73.926919,40.82544]}}]}
