{"type":"FeatureCollection","schema_version":"1.0.0","city_id":"nyc","year":2000,"features":[{"type":"Feature","id":"nyc_lpc_historic_district_lp-02044","properties":{"city_id":"nyc","event_id":"nyc_lpc_historic_district_lp-02044","title":"Historic district designated: Hamilton Heights Historic District Extension","year":2000,"effective_date":"2000-03-28","date_precision":"day","category":"built_environment","lens":"built_environment","confidence":"documented","source_ids":["skyk-mpzq"],"explanation":"LPC historic district designation record for Hamilton Heights Historic District Extension."},"geometry":{"type":"Point","coordinates":[-73.947641,40.823085]}},{"type":"Feature","id":"nyc_lpc_historic_district_lp-02064","properties":{"city_id":"nyc","event_id":"nyc_lpc_historic_district_lp-02064","title":"Historic district designated: Hamilton Heights/Sugar Hill Historic District","year":2000,"effective_date":"2000-06-27","date_precision":"day","category":"built_environment","lens":"built_environment","confidence":"documented","source_ids":["skyk-mpzq"],"explanation":"LPC historic district designation record for Hamilton Heights/Sugar Hill Historic District."},"geometry":{"type":"Point","coordinates":[-73.943996,40.825996]}},{"type":"Feature","id":"nyc_lpc_historic_district_lp-02081","properties":{"city_id":"nyc","event_id":"nyc_lpc_historic_district_lp-02081","title":"Historic district designated: Stockholm Street Historic District","year":2000,"effective_date":"2000-11-28","date_precision":"day","category":"built_environment","lens":"built_environment","confidence":"documented","source_ids":["skyk-mpzq"],"explanation":"LPC historic district designation record for Stockholm Street Historic District."},"geometry":{"type":"Point","coordinates":[-73.913466,40.708894]}},{"type":"Feature","id":"nyc_lpc_individual_landmark_1014","properties":{"city_id":"nyc","event_id":"nyc_lpc_individual_landmark_1014","title":"Individual landmark designated: Saint George's Church, Old Parish House and Graveyard","year":2000,"effective_date":"2000-02-08","date_precision":"day","category":"built_environment","lens":"built_environment","confidence":"documented","source_ids":["buis-pvji"],"explanation":"LPC designation record for Saint George's Church, Old Parish House and Graveyard; designation date is taken from the source desdate field."},"geometry":{"type":"Point","coordinates":[-73.831238,40.760309]}},{"type":"Feature","id":"nyc_lpc_individual_landmark_1086","properties":{"city_id":"nyc","event_id":"nyc_lpc_individual_landmark_1086","title":"Individual landmark designated: Baird Court, New York Zoological Park","year":2000,"effective_date":"2000-06-20","date_precision":"day","category":"built_environment","lens":"built_environment","confidence":"documented","source_ids":["buis-pvji"],"explanation":"LPC designation record for Baird Court, New York Zoological Park; designation date is taken from the source desdate field."},"geometry":{"type":"Point","coordinates":[-73.878655,40.852422]}},{"type":"Feature","id":"nyc_lpc_individual_landmark_1128","properties":{"city_id":"nyc","event_id":"nyc_lpc_individual_landmark_1128","title":"Individual landmark designated: Whitehall Building","year":2000,"effective_date":"2000-10-17","date_precision":"day","category":"built_environment","lens":"built_environment","confidence":"documented","source_ids":["buis-pvji"],"explanation":"LPC designation record for Whitehall Building; designation date is taken from the source desdate field."},"geometry":{"type":"Point","coordinates":[-74.015832,40.705521]}},{"type":"Feature","id":"nyc_lpc_individual_landmark_1294","properties":{"city_id":"nyc","event_id":"nyc_lpc_individual_landmark_1294","title":"Individual landmark designated: The Riverside Church","year":2000,"effective_date":"2000-05-16","date_precision":"day","category":"built_environment","lens":"built_environment","confidence":"documented","source_ids":["buis-pvji"],"explanation":"LPC designation record for The Riverside Church; designation date is taken from the source desdate field."},"geometry":{"type":"Point","coordinates":[-73.962931,40.811879]}},{"type":"Feature","id":"nyc_lpc_individual_landmark_1295","properties":{"city_id":"nyc","event_id":"nyc_lpc_individual_landmark_1295","title":"Individual landmark designated: Hamilton Theater","year":2000,"effective_date":"2000-02-08","date_precision":"day","category":"built_environment","lens":"built_environment","confidence":"documented","source_ids":["buis-pvji"],"explanation":"LPC designation record for Hamilton Theater; designation date is taken from the source desdate field."},"geometry":{"type":"Point","coordinates":[-73.949197,40.827103]}},{"type":"Feature","id":"nyc_lpc_individual_landmark_1296","properties":{"city_id":"nyc","event_id":"nyc_lpc_individual_landmark_1296","title":"Individual landmark designated: 120th Police Precinct Station House","year":2000,"effective_date":"2000-06-27","date_precision":"day","category":"built_environment","lens":"built_environment","confidence":"documented","source_ids":["buis-pvji"],"explanation":"LPC designation record for 120th Police Precinct Station House; designation date is taken from the source desdate field."},"geometry":{"type":"Point","coordinates":[-74.077424,40.644671]}},{"type":"Feature","id":"nyc_lpc_individual_landmark_1297","properties":{"city_id":"nyc","event_id":"nyc_lpc_individual_landmark_1297","title":"Individual landmark designated: Hadley House","year":2000,"effective_date":"2000-06-20","date_precision":"day","category":"built_environment","lens":"built_environment","confidence":"documented","source_ids":["buis-pvji"],"explanation":"LPC designation record for Hadley House; designation date is taken from the source desdate field."},"geometry":{"type":"Point","coordinates":[-73.897974,40.896598]}},{"type":"Feature","id":"nyc_lpc_individual_landmark_1298","properties":{"city_id":"nyc","event_id":"nyc_lpc_individual_landmark_1298","title":"Individual landmark designated: Ridgewood Savings Bank, Forest Hills Branch","year":2000,"effective_date":"2000-05-30","date_precision":"day","category":"built_environment","lens":"built_environment","confidence":"documented","source_ids":["buis-pvji"],"explanation":"LPC designation record for Ridgewood Savings Bank, Forest Hills Branch; designation date is taken from the source desdate field."},"geometry":{"type":"Point","coordinates":[-73.844268,40.721953]}},{"type":"Feature","id":"nyc_lpc_individual_landmark_1300","properties":{"city_id":"nyc","event_id":"nyc_lpc_individual_landmark_1300","title":"Individual landmark designated: Broad Exchange Building","year":2000,"effective_date":"2000-06-27","date_precision":"day","category":"built_environment","lens":"built_environment","confidence":"documented","source_ids":["buis-pvji"],"explanation":"LPC designation record for Broad Exchange Building; designation date is taken from the source desdate field."},"geometry":{"type":"Point","coordinates":[-74.010793,40.705723]}},{"type":"Feature","id":"nyc_lpc_individual_landmark_217","properties":{"city_id":"nyc","event_id":"nyc_lpc_individual_landmark_217","title":"Individual landmark designated: Russell Sage Foundation Building and Annex","year":2000,"effective_date":"2000-06-20","date_precision":"day","category":"built_environment","lens":"built_environment","confidence":"documented","source_ids":["buis-pvji"],"explanation":"LPC designation record for Russell Sage Foundation Building and Annex; designation date is taken from the source desdate field."},"geometry":{"type":"Point","coordinates":[-73.985722,40.738761]}},{"type":"Feature","id":"nyc_lpc_individual_landmark_245","properties":{"city_id":"nyc","event_id":"nyc_lpc_individual_landmark_245","title":"Individual landmark designated: A. T. Demarest & Company and Peerless Motor Car Company Buildings","year":2000,"effective_date":"2000-12-19","date_precision":"day","category":"built_environment","lens":"built_environment","confidence":"documented","source_ids":["buis-pvji"],"explanation":"LPC designation record for A. T. Demarest & Company and Peerless Motor Car Company Buildings; designation date is taken from the source desdate field."},"geometry":{"type":"Point","coordinates":[-73.981493,40.765836]}},{"type":"Feature","id":"nyc_lpc_individual_landmark_259","properties":{"city_id":"nyc","event_id":"nyc_lpc_individual_landmark_259","title":"Individual landmark designated: New York Life Insurance Company Building","year":2000,"effective_date":"2000-10-24","date_precision":"day","category":"built_environment","lens":"built_environment","confidence":"documented","source_ids":["buis-pvji"],"explanation":"LPC designation record for New York Life Insurance Company Building; designation date is taken from the source desdate field."},"geometry":{"type":"Point","coordinates":[-73.985414,40.74274]}},{"type":"Feature","id":"nyc_lpc_individual_landmark_297","properties":{"city_id":"nyc","event_id":"nyc_lpc_individual_landmark_297","title":"Individual landmark designated: American Seamen's Friend Society Sailors' Home and Institute","year":2000,"effective_date":"2000-11-28","date_precision":"day","category":"built_environment","lens":"built_environment","confidence":"documented","source_ids":["buis-pvji"],"explanation":"LPC designation record for American Seamen's Friend Society Sailors' Home and Institute; designation date is taken from the source desdate field."},"geometry":{"type":"Point","coordinates":[-74.009272,40.738318]}},{"type":"Feature","id":"nyc_lpc_individual_landmark_386","properties":{"city_id":"nyc","event_id":"nyc_lpc_individual_landmark_386","title":"Individual landmark designated: United States Rubber Company Building","year":2000,"effective_date":"2000-12-19","date_precision":"day","category":"built_environment","lens":"built_environment","confidence":"documented","source_ids":["buis-pvji"],"explanation":"LPC designation record for United States Rubber Company Building; designation date is taken from the source desdate field."},"geometry":{"type":"Point","coordinates":[-73.981367,40.766746]}},{"type":"Feature","id":"nyc_lpc_individual_landmark_399","properties":{"city_id":"nyc","event_id":"nyc_lpc_individual_landmark_399","title":"Individual landmark designated: Children's Aid Society, Tompkins Square Lodging House for Boys and Industrial School","year":2000,"effective_date":"2000-05-16","date_precision":"day","category":"built_environment","lens":"built_environment","confidence":"documented","source_ids":["buis-pvji"],"explanation":"LPC designation record for Children's Aid Society, Tompkins Square Lodging House for Boys and Industrial School; designation date is taken from the source desdate field."},"geometry":{"type":"Point","coordinates":[-73.980401,40.725708]}},{"type":"Feature","id":"nyc_lpc_individual_landmark_443","properties":{"city_id":"nyc","event_id":"nyc_lpc_individual_landmark_443","title":"Individual landmark designated: Swift, Seaman & Company Building","year":2000,"effective_date":"2000-05-16","date_precision":"day","category":"built_environment","lens":"built_environment","confidence":"documented","source_ids":["buis-pvji"],"explanation":"LPC designation record for Swift, Seaman & Company Building; designation date is taken from the source desdate field."},"geometry":{"type":"Point","coordinates":[-74.008856,40.715012]}},{"type":"Feature","id":"nyc_lpc_individual_landmark_578","properties":{"city_id":"nyc","event_id":"nyc_lpc_individual_landmark_578","title":"Individual landmark designated: Croton Aqueduct, West 119th Street Gatehouse","year":2000,"effective_date":"2000-03-28","date_precision":"day","category":"built_environment","lens":"built_environment","confidence":"documented","source_ids":["buis-pvji"],"explanation":"LPC designation record for Croton Aqueduct, West 119th Street Gatehouse; designation date is taken from the source desdate field."},"geometry":{"type":"Point","coordinates":[-73.959541,40.808461]}},{"type":"Feature","id":"nyc_lpc_individual_landmark_642","properties":{"city_id":"nyc","event_id":"nyc_lpc_individual_landmark_642","title":"Individual landmark designated: Public School 166","year":2000,"effective_date":"2000-06-27","date_precision":"day","category":"built_environment","lens":"built_environment","confidence":"documented","source_ids":["buis-pvji"],"explanation":"LPC designation record for Public School 166; designation date is taken from the source desdate field."},"geometry":{"type":"Point","coordinates":[-73.972597,40.788829]}},{"type":"Feature","id":"nyc_lpc_individual_landmark_762","properties":{"city_id":"nyc","event_id":"nyc_lpc_individual_landmark_762","title":"Individual landmark designated: Downtown Athletic Club Building","year":2000,"effective_date":"2000-11-14","date_precision":"day","category":"built_environment","lens":"built_environment","confidence":"documented","source_ids":["buis-pvji"],"explanation":"LPC designation record for Downtown Athletic Club Building; designation date is taken from the source desdate field."},"geometry":{"type":"Point","coordinates":[-74.015522,40.706135]}},{"type":"Feature","id":"nyc_lpc_individual_landmark_793","properties":{"city_id":"nyc","event_id":"nyc_lpc_individual_landmark_793","title":"Individual landmark designated: Rockefeller Guest House","year":2000,"effective_date":"2000-12-05","date_precision":"day","category":"built_environment","lens":"built_environment","confidence":"documented","source_ids":["buis-pvji"],"explanation":"LPC designation record for Rockefeller Guest House; designation date is taken from the source desdate field."},"geometry":{"type":"Point","coordinates":[-73.968393,40.756243]}},{"type":"Feature","id":"nyc_lpc_individual_landmark_805","properties":{"city_id":"nyc","event_id":"nyc_lpc_individual_landmark_805","title":"Individual landmark designated: 314 East 53rd Street House","year":2000,"effective_date":"2000-06-20","date_precision":"day","category":"built_environment","lens":"built_environment","confidence":"documented","source_ids":["buis-pvji"],"explanation":"LPC designation record for 314 East 53rd Street House; designation date is taken from the source desdate field."},"geometry":{"type":"Point","coordinates":[-73.966616,40.756281]}},{"type":"Feature","id":"nyc_lpc_individual_landmark_83","properties":{"city_id":"nyc","event_id":"nyc_lpc_individual_landmark_83","title":"Individual landmark designated: Queens Borough Public Library, Poppenhusen Branch","year":2000,"effective_date":"2000-05-30","date_precision":"day","category":"built_environment","lens":"built_environment","confidence":"documented","source_ids":["buis-pvji"],"explanation":"LPC designation record for Queens Borough Public Library, Poppenhusen Branch; designation date is taken from the source desdate field."},"geometry":{"type":"Point","coordinates":[-73.846012,40.786251]}},{"type":"Feature","id":"nyc_lpc_individual_landmark_867","properties":{"city_id":"nyc","event_id":"nyc_lpc_individual_landmark_867","title":"Individual landmark designated: Studebaker Building","year":2000,"effective_date":"2000-12-19","date_precision":"day","category":"built_environment","lens":"built_environment","confidence":"documented","source_ids":["buis-pvji"],"explanation":"LPC designation record for Studebaker Building; designation date is taken from the source desdate field."},"geometry":{"type":"Point","coordinates":[-73.953898,40.672927]}},{"type":"Feature","id":"nyc_lpc_individual_landmark_940","properties":{"city_id":"nyc","event_id":"nyc_lpc_individual_landmark_940","title":"Individual landmark designated: Tremont Baptist Church","year":2000,"effective_date":"2000-02-08","date_precision":"day","category":"built_environment","lens":"built_environment","confidence":"documented","source_ids":["buis-pvji"],"explanation":"LPC designation record for Tremont Baptist Church; designation date is taken from the source desdate field."},"geometry":{"type":"Point","coordinates":[-73.902247,40.848245]}},{"type":"Feature","id":"nyc_lpc_individual_landmark_959","properties":{"city_id":"nyc","event_id":"nyc_lpc_individual_landmark_959","title":"Individual landmark designated: American Female Guardian Society and Home for the Friendless at Woody Crest Home","year":2000,"effective_date":"2000-03-28","date_precision":"day","category":"built_environment","lens":"built_environment","confidence":"documented","source_ids":["buis-pvji"],"explanation":"LPC designation record for American Female Guardian Society and Home for the Friendless at Woody Crest Home; designation date is taken from the source desdate field."},"geometry":{"type":"Point","coordinates":[-73.928913,40.830635]}},{"type":"Feature","id":"nyc_lpc_individual_landmark_964","properties":{"city_id":"nyc","event_id":"nyc_lpc_individual_landmark_964","title":"Individual landmark designated: Fire Hook and Ladder Company 17","year":2000,"effective_date":"2000-06-20","date_precision":"day","category":"built_environment","lens":"built_environment","confidence":"documented","source_ids":["buis-pvji"],"explanation":"LPC designation record for Fire Hook and Ladder Company 17; designation date is taken from the source desdate field."},"geometry":{"type":"Point","coordinates":[-73.922113,40.813218]}},{"type":"Feature","id":"nyc_lpc_individual_landmark_969","properties":{"city_id":"nyc","event_id":"nyc_lpc_individual_landmark_969","title":"Individual landmark designated: Bedford Park Congregational Church","year":2000,"effective_date":"2000-06-20","date_precision":"day","category":"built_environment","lens":"built_environment","confidence":"documented","source_ids":["buis-pvji"],"explanation":"LPC designation record for Bedford Park Congregational Church; designation date is taken from the source desdate field."},"geometry":{"type":"Point","coordinates":[-73.883394,40.871277]}},{"type":"Feature","id":"nyc_lpc_individual_landmark_979","properties":{"city_id":"nyc","event_id":"nyc_lpc_individual_landmark_979","title":"Individual landmark designated: 21 Tier Street House","year":2000,"effective_date":"2000-06-20","date_precision":"day","category":"built_environment","lens":"built_environment","confidence":"documented","source_ids":["buis-pvji"],"explanation":"LPC designation record for 21 Tier Street House; designation date is taken from the source desdate field."},"geometry":{"type":"Point","coordinates":[-73.79125,40.848218]}},{"type":"Feature","id":"nyc_lpc_individual_landmark_981","properties":{"city_id":"nyc","event_id":"nyc_lpc_individual_landmark_981","title":"Individual landmark designated: Williamsbridge Reservoir Keeper's House","year":2000,"effective_date":"2000-02-08","date_precision":"day","category":"built_environment","lens":"built_environment","confidence":"documented","source_ids":["buis-pvji"],"explanation":"LPC designation record for Williamsbridge Reservoir Keeper's House; designation date is taken from the source desdate field."},"geometry":{"type":"Point","coordinates":[-73.875717,40.878932]}},{"type":"Feature","id":"nyc_parks_property_169188","properties":{"city_id":"nyc","event_id":"nyc_parks_property_169188","title":"Parks property acquisition: Graniteville Quarry Park","year":2000,"effective_date":"2000-06-05","date_precision":"day","category":"environment","lens":"green_space","confidence":"documented","source_ids":["enfh-gkve"],"explanation":"Parks property record with acquisition date for Graniteville Quarry Park."},"geometry":{"type":"Point","coordinates":[-74.154223,40.625006]}},{"type":"Feature","id":"nyc_parks_property_169453","properties":{"city_id":"nyc","event_id":"nyc_parks_property_169453","title":"Parks property acquisition: Tiffany Street Pier","year":2000,"effective_date":"2000-05-05","date_precision":"day","category":"environment","lens":"green_space","confidence":"documented","source_ids":["enfh-gkve"],"explanation":"Parks property record with acquisition date for Tiffany Street Pier."},"geometry":{"type":"Point","coordinates":[-73.890579,40.805602]}},{"type":"Feature","id":"nyc_parks_property_169692","properties":{"city_id":"nyc","event_id":"nyc_parks_property_169692","title":"Parks property acquisition: Garrison Park","year":2000,"effective_date":"2000-12-07","date_precision":"day","category":"environment","lens":"green_space","confidence":"documented","source_ids":["enfh-gkve"],"explanation":"Parks property record with acquisition date for Garrison Park."},"geometry":{"type":"Point","coordinates":[-73.884379,40.822043]}},{"type":"Feature","id":"nyc_parks_property_169969","properties":{"city_id":"nyc","event_id":"nyc_parks_property_169969","title":"Parks property acquisition: Ocean Breeze Park","year":2000,"effective_date":"2000-06-01","date_precision":"day","category":"environment","lens":"green_space","confidence":"documented","source_ids":["enfh-gkve"],"explanation":"Parks property record with acquisition date for Ocean Breeze Park."},"geometry":{"type":"Point","coordinates":[-74.07821,40.586588]}},{"type":"Feature","id":"nyc_parks_property_170510","properties":{"city_id":"nyc","event_id":"nyc_parks_property_170510","title":"Parks property acquisition: Hope Ballfield","year":2000,"effective_date":"2000-07-14","date_precision":"day","category":"environment","lens":"green_space","confidence":"documented","source_ids":["enfh-gkve"],"explanation":"Parks property record with acquisition date for Hope Ballfield."},"geometry":{"type":"Point","coordinates":[-73.917167,40.69743]}},{"type":"Feature","id":"nyc_parks_property_170511","properties":{"city_id":"nyc","event_id":"nyc_parks_property_170511","title":"Parks property acquisition: Lewis Playground","year":2000,"effective_date":"2000-12-08","date_precision":"day","category":"environment","lens":"green_space","confidence":"documented","source_ids":["enfh-gkve"],"explanation":"Parks property record with acquisition date for Lewis Playground."},"geometry":{"type":"Point","coordinates":[-73.93786,40.695389]}},{"type":"Feature","id":"nyc_parks_property_170709","properties":{"city_id":"nyc","event_id":"nyc_parks_property_170709","title":"Parks property acquisition: Two Coves Community Garden","year":2000,"effective_date":"2000-02-09","date_precision":"day","category":"environment","lens":"green_space","confidence":"documented","source_ids":["enfh-gkve"],"explanation":"Parks property record with acquisition date for Two Coves Community Garden."},"geometry":{"type":"Point","coordinates":[-73.932119,40.772285]}},{"type":"Feature","id":"nyc_parks_property_170750","properties":{"city_id":"nyc","event_id":"nyc_parks_property_170750","title":"Parks property acquisition: Concrete Plant Park","year":2000,"effective_date":"2000-08-10","date_precision":"day","category":"environment","lens":"green_space","confidence":"documented","source_ids":["enfh-gkve"],"explanation":"Parks property record with acquisition date for Concrete Plant Park."},"geometry":{"type":"Point","coordinates":[-73.885082,40.825495]}}]}
