{"type":"FeatureCollection","schema_version":"1.0.0","city_id":"nyc","year":1910,"features":[{"type":"Feature","id":"nyc_parks_property_170159","properties":{"city_id":"nyc","event_id":"nyc_parks_property_170159","title":"Parks property acquisition: Milestone Park","year":1910,"effective_date":"1910-05-28","date_precision":"day","category":"environment","lens":"green_space","confidence":"documented","source_ids":["enfh-gkve"],"explanation":"Parks property record with acquisition date for Milestone Park."},"geometry":{"type":"Point","coordinates":[-73.999388,40.609508]}}]}
