{"type":"FeatureCollection","schema_version":"1.0.0","city_id":"nyc","year":1918,"features":[{"type":"Feature","id":"nyc_parks_property_169100","properties":{"city_id":"nyc","event_id":"nyc_parks_property_169100","title":"Parks property acquisition: Plaza Lafayette","subtitle":"Manhattan / 1918-02-23 / Documented / Parks Properties","details":"Parks property record with acquisition date for Plaza Lafayette.","year":1918,"effective_date":"1918-02-23","date_precision":"day","short_description":"NYC Parks property record for Plaza Lafayette; type Triangle/Plaza; acres 0.092; waterfront=False.","category":"environment","lens":"green_space","confidence":"documented","source_ids":["enfh-gkve"],"affected_area_label":"Manhattan","explanation":"Parks property record with acquisition date for Plaza Lafayette."},"geometry":{"type":"Point","coordinates":[-73.94152,40.851504]}},{"type":"Feature","id":"nyc_parks_property_169745","properties":{"city_id":"nyc","event_id":"nyc_parks_property_169745","title":"Parks property acquisition: Middleburgh Triangle","subtitle":"Queens / 1918-06-06 / Documented / Parks Properties","details":"Parks property record with acquisition date for Middleburgh Triangle.","year":1918,"effective_date":"1918-06-06","date_precision":"day","short_description":"NYC Parks property record for Middleburgh Triangle; type Triangle/Plaza; acres 0.002; waterfront=False.","category":"environment","lens":"green_space","confidence":"documented","source_ids":["enfh-gkve"],"affected_area_label":"Queens","explanation":"Parks property record with acquisition date for Middleburgh Triangle."},"geometry":{"type":"Point","coordinates":[-73.875049,40.741323]}}]}
