{"type":"FeatureCollection","schema_version":"1.0.0","city_id":"nyc","year":1932,"features":[{"type":"Feature","id":"nyc_parks_property_169060","properties":{"city_id":"nyc","event_id":"nyc_parks_property_169060","title":"Parks property acquisition: Bergen Triangle","short_description":"NYC Parks property record for Bergen Triangle; type Triangle/Plaza; acres 0.21; waterfront=False.","year":1932,"effective_date":"1932-01-13","date_precision":"day","category":"environment","lens":"green_space","confidence":"documented","source_ids":["enfh-gkve"],"explanation":"Parks property record with acquisition date for Bergen Triangle."},"geometry":{"type":"Point","coordinates":[-73.901276,40.854833]}},{"type":"Feature","id":"nyc_parks_property_169657","properties":{"city_id":"nyc","event_id":"nyc_parks_property_169657","title":"Parks property acquisition: Lt. Clinton L .Whiting Square","short_description":"NYC Parks property record for Lt. Clinton L .Whiting Square; type Triangle/Plaza; acres 0.049; waterfront=False.","year":1932,"effective_date":"1932-05-10","date_precision":"day","category":"environment","lens":"green_space","confidence":"documented","source_ids":["enfh-gkve"],"explanation":"Parks property record with acquisition date for Lt. Clinton L .Whiting Square."},"geometry":{"type":"Point","coordinates":[-73.858234,40.687248]}},{"type":"Feature","id":"nyc_parks_property_169735","properties":{"city_id":"nyc","event_id":"nyc_parks_property_169735","title":"Parks property acquisition: Queens Village Veterans Plaza","short_description":"NYC Parks property record for Queens Village Veterans Plaza; type Triangle/Plaza; acres 0.32; waterfront=False.","year":1932,"effective_date":"1932-01-13","date_precision":"day","category":"environment","lens":"green_space","confidence":"documented","source_ids":["enfh-gkve"],"explanation":"Parks property record with acquisition date for Queens Village Veterans Plaza."},"geometry":{"type":"Point","coordinates":[-73.735887,40.718035]}},{"type":"Feature","id":"nyc_parks_property_169775","properties":{"city_id":"nyc","event_id":"nyc_parks_property_169775","title":"Parks property acquisition: Dwyer Square","short_description":"NYC Parks property record for Dwyer Square; type Triangle/Plaza; acres 0.002; waterfront=False.","year":1932,"effective_date":"1932-06-14","date_precision":"day","category":"environment","lens":"green_space","confidence":"documented","source_ids":["enfh-gkve"],"explanation":"Parks property record with acquisition date for Dwyer Square."},"geometry":{"type":"Point","coordinates":[-73.915221,40.753926]}},{"type":"Feature","id":"nyc_parks_property_169777","properties":{"city_id":"nyc","event_id":"nyc_parks_property_169777","title":"Parks property acquisition: Travis Triangle","short_description":"NYC Parks property record for Travis Triangle; type Triangle/Plaza; acres 0.221; waterfront=False.","year":1932,"effective_date":"1932-04-19","date_precision":"day","category":"environment","lens":"green_space","confidence":"documented","source_ids":["enfh-gkve"],"explanation":"Parks property record with acquisition date for Travis Triangle."},"geometry":{"type":"Point","coordinates":[-73.81309,40.766749]}},{"type":"Feature","id":"nyc_parks_property_169921","properties":{"city_id":"nyc","event_id":"nyc_parks_property_169921","title":"Parks property acquisition: Hollis Veterans Square","short_description":"NYC Parks property record for Hollis Veterans Square; type Triangle/Plaza; acres 0.018; waterfront=False.","year":1932,"effective_date":"1932-06-14","date_precision":"day","category":"environment","lens":"green_space","confidence":"documented","source_ids":["enfh-gkve"],"explanation":"Parks property record with acquisition date for Hollis Veterans Square."},"geometry":{"type":"Point","coordinates":[-73.771267,40.710311]}}]}
