{"type":"FeatureCollection","schema_version":"1.0.0","city_id":"nyc","year":1959,"features":[{"type":"Feature","id":"nyc_parks_property_169372","properties":{"city_id":"nyc","event_id":"nyc_parks_property_169372","title":"Parks property acquisition: Ten Eyck Playground","year":1959,"effective_date":"1959-05-20","date_precision":"day","category":"environment","lens":"green_space","confidence":"documented","source_ids":["enfh-gkve"],"explanation":"Parks property record with acquisition date for Ten Eyck Playground."},"geometry":{"type":"Point","coordinates":[-73.938944,40.708905]}},{"type":"Feature","id":"nyc_parks_property_169510","properties":{"city_id":"nyc","event_id":"nyc_parks_property_169510","title":"Parks property acquisition: Lafayette Gardens Playground","year":1959,"effective_date":"1959-04-01","date_precision":"day","category":"environment","lens":"green_space","confidence":"documented","source_ids":["enfh-gkve"],"explanation":"Parks property record with acquisition date for Lafayette Gardens Playground."},"geometry":{"type":"Point","coordinates":[-73.95756,40.689887]}},{"type":"Feature","id":"nyc_parks_property_169944","properties":{"city_id":"nyc","event_id":"nyc_parks_property_169944","title":"Parks property acquisition: Judge Angelo Graci Triangle","year":1959,"effective_date":"1959-09-28","date_precision":"day","category":"environment","lens":"green_space","confidence":"documented","source_ids":["enfh-gkve"],"explanation":"Parks property record with acquisition date for Judge Angelo Graci Triangle."},"geometry":{"type":"Point","coordinates":[-73.858608,40.674495]}},{"type":"Feature","id":"nyc_parks_property_170150","properties":{"city_id":"nyc","event_id":"nyc_parks_property_170150","title":"Parks property acquisition: Park","year":1959,"effective_date":"1959-02-26","date_precision":"day","category":"environment","lens":"green_space","confidence":"documented","source_ids":["enfh-gkve"],"explanation":"Parks property record with acquisition date for Park."},"geometry":{"type":"Point","coordinates":[-73.89791,40.844086]}},{"type":"Feature","id":"nyc_parks_property_170151","properties":{"city_id":"nyc","event_id":"nyc_parks_property_170151","title":"Parks property acquisition: Park","year":1959,"effective_date":"1959-02-26","date_precision":"day","category":"environment","lens":"green_space","confidence":"documented","source_ids":["enfh-gkve"],"explanation":"Parks property record with acquisition date for Park."},"geometry":{"type":"Point","coordinates":[-73.89893,40.844353]}},{"type":"Feature","id":"nyc_parks_property_170152","properties":{"city_id":"nyc","event_id":"nyc_parks_property_170152","title":"Parks property acquisition: Park","year":1959,"effective_date":"1959-02-26","date_precision":"day","category":"environment","lens":"green_space","confidence":"documented","source_ids":["enfh-gkve"],"explanation":"Parks property record with acquisition date for Park."},"geometry":{"type":"Point","coordinates":[-73.900192,40.84435]}},{"type":"Feature","id":"nyc_parks_property_170153","properties":{"city_id":"nyc","event_id":"nyc_parks_property_170153","title":"Parks property acquisition: Park","year":1959,"effective_date":"1959-02-26","date_precision":"day","category":"environment","lens":"green_space","confidence":"documented","source_ids":["enfh-gkve"],"explanation":"Parks property record with acquisition date for Park."},"geometry":{"type":"Point","coordinates":[-73.901856,40.844533]}},{"type":"Feature","id":"nyc_parks_property_170286","properties":{"city_id":"nyc","event_id":"nyc_parks_property_170286","title":"Parks property acquisition: Oakland Gardens","year":1959,"effective_date":"1959-05-14","date_precision":"day","category":"environment","lens":"green_space","confidence":"documented","source_ids":["enfh-gkve"],"explanation":"Parks property record with acquisition date for Oakland Gardens."},"geometry":{"type":"Point","coordinates":[-73.759725,40.753351]}},{"type":"Feature","id":"nyc_parks_property_170289","properties":{"city_id":"nyc","event_id":"nyc_parks_property_170289","title":"Parks property acquisition: Hollis Playground","year":1959,"effective_date":"1959-01-08","date_precision":"day","category":"environment","lens":"green_space","confidence":"documented","source_ids":["enfh-gkve"],"explanation":"Parks property record with acquisition date for Hollis Playground."},"geometry":{"type":"Point","coordinates":[-73.753018,40.706456]}},{"type":"Feature","id":"nyc_parks_property_170290","properties":{"city_id":"nyc","event_id":"nyc_parks_property_170290","title":"Parks property acquisition: Springfield Park North","year":1959,"effective_date":"1959-03-02","date_precision":"day","category":"environment","lens":"green_space","confidence":"documented","source_ids":["enfh-gkve"],"explanation":"Parks property record with acquisition date for Springfield Park North."},"geometry":{"type":"Point","coordinates":[-73.759756,40.664145]}},{"type":"Feature","id":"nyc_parks_property_170333","properties":{"city_id":"nyc","event_id":"nyc_parks_property_170333","title":"Parks property acquisition: Albemarle Playground","year":1959,"effective_date":"1959-02-13","date_precision":"day","category":"environment","lens":"green_space","confidence":"documented","source_ids":["enfh-gkve"],"explanation":"Parks property record with acquisition date for Albemarle Playground."},"geometry":{"type":"Point","coordinates":[-73.980458,40.645875]}},{"type":"Feature","id":"nyc_parks_property_170342","properties":{"city_id":"nyc","event_id":"nyc_parks_property_170342","title":"Parks property acquisition: Millbrook Playground","year":1959,"effective_date":"1959-05-07","date_precision":"day","category":"environment","lens":"green_space","confidence":"documented","source_ids":["enfh-gkve"],"explanation":"Parks property record with acquisition date for Millbrook Playground."},"geometry":{"type":"Point","coordinates":[-73.916557,40.804483]}},{"type":"Feature","id":"nyc_parks_property_170434","properties":{"city_id":"nyc","event_id":"nyc_parks_property_170434","title":"Parks property acquisition: Pratt Playground","year":1959,"effective_date":"1959-03-25","date_precision":"day","category":"environment","lens":"green_space","confidence":"documented","source_ids":["enfh-gkve"],"explanation":"Parks property record with acquisition date for Pratt Playground."},"geometry":{"type":"Point","coordinates":[-73.962444,40.69259]}},{"type":"Feature","id":"nyc_parks_property_170442","properties":{"city_id":"nyc","event_id":"nyc_parks_property_170442","title":"Parks property acquisition: Tiger Playground","year":1959,"effective_date":"1959-03-12","date_precision":"day","category":"environment","lens":"green_space","confidence":"documented","source_ids":["enfh-gkve"],"explanation":"Parks property record with acquisition date for Tiger Playground."},"geometry":{"type":"Point","coordinates":[-73.910868,40.688271]}},{"type":"Feature","id":"nyc_parks_property_170452","properties":{"city_id":"nyc","event_id":"nyc_parks_property_170452","title":"Parks property acquisition: Edmonds Playground","year":1959,"effective_date":"1959-03-12","date_precision":"day","category":"environment","lens":"green_space","confidence":"documented","source_ids":["enfh-gkve"],"explanation":"Parks property record with acquisition date for Edmonds Playground."},"geometry":{"type":"Point","coordinates":[-73.971517,40.689163]}},{"type":"Feature","id":"nyc_parks_property_170596","properties":{"city_id":"nyc","event_id":"nyc_parks_property_170596","title":"Parks property acquisition: Gutenberg Playground","year":1959,"effective_date":"1959-03-11","date_precision":"day","category":"environment","lens":"green_space","confidence":"documented","source_ids":["enfh-gkve"],"explanation":"Parks property record with acquisition date for Gutenberg Playground."},"geometry":{"type":"Point","coordinates":[-73.989997,40.763426]}},{"type":"Feature","id":"nyc_parks_property_170620","properties":{"city_id":"nyc","event_id":"nyc_parks_property_170620","title":"Parks property acquisition: Montbellier Park","year":1959,"effective_date":"1959-09-11","date_precision":"day","category":"environment","lens":"green_space","confidence":"documented","source_ids":["enfh-gkve"],"explanation":"Parks property record with acquisition date for Montbellier Park."},"geometry":{"type":"Point","coordinates":[-73.756396,40.675518]}},{"type":"Feature","id":"nyc_parks_property_170624","properties":{"city_id":"nyc","event_id":"nyc_parks_property_170624","title":"Parks property acquisition: Corporal John A. Seravalli Playground","year":1959,"effective_date":"1959-11-17","date_precision":"day","category":"environment","lens":"green_space","confidence":"documented","source_ids":["enfh-gkve"],"explanation":"Parks property record with acquisition date for Corporal John A. Seravalli Playground."},"geometry":{"type":"Point","coordinates":[-74.004698,40.739024]}},{"type":"Feature","id":"nyc_parks_property_170629","properties":{"city_id":"nyc","event_id":"nyc_parks_property_170629","title":"Parks property acquisition: Sol Bloom Playground","year":1959,"effective_date":"1959-03-09","date_precision":"day","category":"environment","lens":"green_space","confidence":"documented","source_ids":["enfh-gkve"],"explanation":"Parks property record with acquisition date for Sol Bloom Playground."},"geometry":{"type":"Point","coordinates":[-73.968752,40.789556]}},{"type":"Feature","id":"nyc_parks_property_170636","properties":{"city_id":"nyc","event_id":"nyc_parks_property_170636","title":"Parks property acquisition: McKinley Playground","year":1959,"effective_date":"1959-12-17","date_precision":"day","category":"environment","lens":"green_space","confidence":"documented","source_ids":["enfh-gkve"],"explanation":"Parks property record with acquisition date for McKinley Playground."},"geometry":{"type":"Point","coordinates":[-73.985749,40.724243]}},{"type":"Feature","id":"nyc_parks_property_170733","properties":{"city_id":"nyc","event_id":"nyc_parks_property_170733","title":"Parks property acquisition: Seton Park","year":1959,"effective_date":"1959-05-28","date_precision":"day","category":"environment","lens":"green_space","confidence":"documented","source_ids":["enfh-gkve"],"explanation":"Parks property record with acquisition date for Seton Park."},"geometry":{"type":"Point","coordinates":[-73.916941,40.886318]}}]}
