{"type":"FeatureCollection","schema_version":"1.0.0","city_id":"nyc","year":1915,"features":[{"type":"Feature","id":"nyc_parks_property_169075","properties":{"city_id":"nyc","event_id":"nyc_parks_property_169075","title":"Parks property acquisition: Fort Independence Playground","subtitle":"Bronx / 1915-11-18 / Documented / Parks Properties","details":"Parks property record with acquisition date for Fort Independence Playground.","year":1915,"effective_date":"1915-11-18","date_precision":"day","short_description":"NYC Parks property record for Fort Independence Playground; type Playground; acres 3.02; waterfront=False.","category":"environment","lens":"green_space","confidence":"documented","source_ids":["enfh-gkve"],"affected_area_label":"Bronx","explanation":"Parks property record with acquisition date for Fort Independence Playground."},"geometry":{"type":"Point","coordinates":[-73.89433,40.881965]}},{"type":"Feature","id":"nyc_parks_property_169161","properties":{"city_id":"nyc","event_id":"nyc_parks_property_169161","title":"Parks property acquisition: Locust Grove Civic Triangle","subtitle":"Queens / 1915-03-13 / Documented / Parks Properties","details":"Parks property record with acquisition date for Locust Grove Civic Triangle.","year":1915,"effective_date":"1915-03-13","date_precision":"day","short_description":"NYC Parks property record for Locust Grove Civic Triangle; type Triangle/Plaza; acres 0.315; waterfront=False.","category":"environment","lens":"green_space","confidence":"documented","source_ids":["enfh-gkve"],"affected_area_label":"Queens","explanation":"Parks property record with acquisition date for Locust Grove Civic Triangle."},"geometry":{"type":"Point","coordinates":[-73.823061,40.666295]}},{"type":"Feature","id":"nyc_parks_property_169750","properties":{"city_id":"nyc","event_id":"nyc_parks_property_169750","title":"Parks property acquisition: Monsignor Raul Del Valle Square","subtitle":"Bronx / 1915-03-03 / Documented / Parks Properties","details":"Parks property record with acquisition date for Monsignor Raul Del Valle Square.","year":1915,"effective_date":"1915-03-03","date_precision":"day","short_description":"NYC Parks property record for Monsignor Raul Del Valle Square; type Triangle/Plaza; acres 0.42; waterfront=False.","category":"environment","lens":"green_space","confidence":"documented","source_ids":["enfh-gkve"],"affected_area_label":"Bronx","explanation":"Parks property record with acquisition date for Monsignor Raul Del Valle Square."},"geometry":{"type":"Point","coordinates":[-73.890717,40.820749]}},{"type":"Feature","id":"nyc_parks_property_170779","properties":{"city_id":"nyc","event_id":"nyc_parks_property_170779","title":"Parks property acquisition: Constance Baker Motley Recreation Center","subtitle":"Manhattan / 1915-10-01 / Documented / Parks Properties","details":"Parks property record with acquisition date for Constance Baker Motley Recreation Center.","year":1915,"effective_date":"1915-10-01","date_precision":"day","short_description":"NYC Parks property record for Constance Baker Motley Recreation Center; type Buildings/Institutions; acres 0.17; waterfront=False.","category":"environment","lens":"green_space","confidence":"documented","source_ids":["enfh-gkve"],"affected_area_label":"Manhattan","explanation":"Parks property record with acquisition date for Constance Baker Motley Recreation Center."},"geometry":{"type":"Point","coordinates":[-73.965151,40.756435]}},{"type":"Feature","id":"nyc_parks_property_171002","properties":{"city_id":"nyc","event_id":"nyc_parks_property_171002","title":"Parks property acquisition: Vito Locascio Field","subtitle":"Queens / 1915-03-03 / Documented / Parks Properties","details":"Parks property record with acquisition date for Vito Locascio Field.","year":1915,"effective_date":"1915-03-03","date_precision":"day","short_description":"NYC Parks property record for Vito Locascio Field; type Recreational Field/Courts; acres 3.258; waterfront=False.","category":"environment","lens":"green_space","confidence":"documented","source_ids":["enfh-gkve"],"affected_area_label":"Queens","explanation":"Parks property record with acquisition date for Vito Locascio Field."},"geometry":{"type":"Point","coordinates":[-73.84347,40.669795]}},{"type":"Feature","id":"nyc_parks_property_171112","properties":{"city_id":"nyc","event_id":"nyc_parks_property_171112","title":"Parks property acquisition: Betsy Head Park","subtitle":"Brooklyn / 1915-10-01 / Documented / Parks Properties","details":"Parks property record with acquisition date for Betsy Head Park.","year":1915,"effective_date":"1915-10-01","date_precision":"day","short_description":"NYC Parks property record for Betsy Head Park; type Community Park; acres 10.555; waterfront=False.","category":"environment","lens":"green_space","confidence":"documented","source_ids":["enfh-gkve"],"affected_area_label":"Brooklyn","explanation":"Parks property record with acquisition date for Betsy Head Park."},"geometry":{"type":"Point","coordinates":[-73.912384,40.663495]}},{"type":"Feature","id":"nyc_parks_property_171139","properties":{"city_id":"nyc","event_id":"nyc_parks_property_171139","title":"Parks property acquisition: Tudor Park","subtitle":"Queens / 1915-03-03 / Documented / Parks Properties","details":"Parks property record with acquisition date for Tudor Park.","year":1915,"effective_date":"1915-03-03","date_precision":"day","short_description":"NYC Parks property record for Tudor Park; type Community Park; acres 13.543; waterfront=False.","category":"environment","lens":"green_space","confidence":"documented","source_ids":["enfh-gkve"],"affected_area_label":"Queens","explanation":"Parks property record with acquisition date for Tudor Park."},"geometry":{"type":"Point","coordinates":[-73.852071,40.672824]}},{"type":"Feature","id":"nyc_parks_property_171155","properties":{"city_id":"nyc","event_id":"nyc_parks_property_171155","title":"Parks property acquisition: Inwood Hill Park","subtitle":"Manhattan / 1915-05-21 / Documented / Parks Properties","details":"Parks property record with acquisition date for Inwood Hill Park.","year":1915,"effective_date":"1915-05-21","date_precision":"day","short_description":"NYC Parks property record for Inwood Hill Park; type Community Park; acres 196.398; waterfront=True.","category":"environment","lens":"green_space","confidence":"documented","source_ids":["enfh-gkve"],"affected_area_label":"Manhattan","explanation":"Parks property record with acquisition date for Inwood Hill Park."},"geometry":{"type":"Point","coordinates":[-73.926063,40.873072]}}]}
