{"type":"FeatureCollection","schema_version":"1.0.0","city_id":"nyc","year":1963,"features":[{"type":"Feature","id":"nyc_parks_property_169346","properties":{"city_id":"nyc","event_id":"nyc_parks_property_169346","title":"Parks property acquisition: Park","year":1963,"effective_date":"1963-06-27","date_precision":"day","category":"environment","lens":"green_space","confidence":"documented","source_ids":["enfh-gkve"],"explanation":"Parks property record with acquisition date for Park."},"geometry":{"type":"Point","coordinates":[-73.811919,40.663672]}},{"type":"Feature","id":"nyc_parks_property_169369","properties":{"city_id":"nyc","event_id":"nyc_parks_property_169369","title":"Parks property acquisition: Bath Playground","year":1963,"effective_date":"1963-07-15","date_precision":"day","category":"environment","lens":"green_space","confidence":"documented","source_ids":["enfh-gkve"],"explanation":"Parks property record with acquisition date for Bath Playground."},"geometry":{"type":"Point","coordinates":[-73.993308,40.59479]}},{"type":"Feature","id":"nyc_parks_property_169393","properties":{"city_id":"nyc","event_id":"nyc_parks_property_169393","title":"Parks property acquisition: Audubon Playground","year":1963,"effective_date":"1963-11-21","date_precision":"day","category":"environment","lens":"green_space","confidence":"documented","source_ids":["enfh-gkve"],"explanation":"Parks property record with acquisition date for Audubon Playground."},"geometry":{"type":"Point","coordinates":[-73.938104,40.841581]}},{"type":"Feature","id":"nyc_parks_property_169596","properties":{"city_id":"nyc","event_id":"nyc_parks_property_169596","title":"Parks property acquisition: Space Time Playground","year":1963,"effective_date":"1963-07-08","date_precision":"day","category":"environment","lens":"green_space","confidence":"documented","source_ids":["enfh-gkve"],"explanation":"Parks property record with acquisition date for Space Time Playground."},"geometry":{"type":"Point","coordinates":[-73.859727,40.822248]}},{"type":"Feature","id":"nyc_parks_property_169618","properties":{"city_id":"nyc","event_id":"nyc_parks_property_169618","title":"Parks property acquisition: Park","year":1963,"effective_date":"1963-05-07","date_precision":"day","category":"environment","lens":"green_space","confidence":"documented","source_ids":["enfh-gkve"],"explanation":"Parks property record with acquisition date for Park."},"geometry":{"type":"Point","coordinates":[-73.839792,40.665773]}},{"type":"Feature","id":"nyc_parks_property_169879","properties":{"city_id":"nyc","event_id":"nyc_parks_property_169879","title":"Parks property acquisition: North Shore Esplanade","year":1963,"effective_date":"1963-01-14","date_precision":"day","category":"environment","lens":"green_space","confidence":"documented","source_ids":["enfh-gkve"],"explanation":"Parks property record with acquisition date for North Shore Esplanade."},"geometry":{"type":"Point","coordinates":[-74.088989,40.647167]}},{"type":"Feature","id":"nyc_parks_property_169990","properties":{"city_id":"nyc","event_id":"nyc_parks_property_169990","title":"Parks property acquisition: Ocean Hill Playground","year":1963,"effective_date":"1963-12-12","date_precision":"day","category":"environment","lens":"green_space","confidence":"documented","source_ids":["enfh-gkve"],"explanation":"Parks property record with acquisition date for Ocean Hill Playground."},"geometry":{"type":"Point","coordinates":[-73.912064,40.674481]}},{"type":"Feature","id":"nyc_parks_property_170110","properties":{"city_id":"nyc","event_id":"nyc_parks_property_170110","title":"Parks property acquisition: Lozada Playground","year":1963,"effective_date":"1963-11-21","date_precision":"day","category":"environment","lens":"green_space","confidence":"documented","source_ids":["enfh-gkve"],"explanation":"Parks property record with acquisition date for Lozada Playground."},"geometry":{"type":"Point","coordinates":[-73.924995,40.807974]}},{"type":"Feature","id":"nyc_parks_property_170111","properties":{"city_id":"nyc","event_id":"nyc_parks_property_170111","title":"Parks property acquisition: Grove Hill Playground","year":1963,"effective_date":"1963-07-08","date_precision":"day","category":"environment","lens":"green_space","confidence":"documented","source_ids":["enfh-gkve"],"explanation":"Parks property record with acquisition date for Grove Hill Playground."},"geometry":{"type":"Point","coordinates":[-73.908735,40.81991]}},{"type":"Feature","id":"nyc_parks_property_170273","properties":{"city_id":"nyc","event_id":"nyc_parks_property_170273","title":"Parks property acquisition: Bellaire Playground","year":1963,"effective_date":"1963-07-17","date_precision":"day","category":"environment","lens":"green_space","confidence":"documented","source_ids":["enfh-gkve"],"explanation":"Parks property record with acquisition date for Bellaire Playground."},"geometry":{"type":"Point","coordinates":[-73.758045,40.721435]}},{"type":"Feature","id":"nyc_parks_property_170274","properties":{"city_id":"nyc","event_id":"nyc_parks_property_170274","title":"Parks property acquisition: Nathan Straus Playground","year":1963,"effective_date":"1963-11-21","date_precision":"day","category":"environment","lens":"green_space","confidence":"documented","source_ids":["enfh-gkve"],"explanation":"Parks property record with acquisition date for Nathan Straus Playground."},"geometry":{"type":"Point","coordinates":[-73.983936,40.719462]}},{"type":"Feature","id":"nyc_parks_property_170277","properties":{"city_id":"nyc","event_id":"nyc_parks_property_170277","title":"Parks property acquisition: Prall Playground","year":1963,"effective_date":"1963-12-15","date_precision":"day","category":"environment","lens":"green_space","confidence":"documented","source_ids":["enfh-gkve"],"explanation":"Parks property record with acquisition date for Prall Playground."},"geometry":{"type":"Point","coordinates":[-74.118152,40.628672]}},{"type":"Feature","id":"nyc_parks_property_170352","properties":{"city_id":"nyc","event_id":"nyc_parks_property_170352","title":"Parks property acquisition: Northerleigh Park","year":1963,"effective_date":"1963-05-15","date_precision":"day","category":"environment","lens":"green_space","confidence":"documented","source_ids":["enfh-gkve"],"explanation":"Parks property record with acquisition date for Northerleigh Park."},"geometry":{"type":"Point","coordinates":[-74.133597,40.622897]}},{"type":"Feature","id":"nyc_parks_property_170357","properties":{"city_id":"nyc","event_id":"nyc_parks_property_170357","title":"Parks property acquisition: Greencroft Playground","year":1963,"effective_date":"1963-07-08","date_precision":"day","category":"environment","lens":"green_space","confidence":"documented","source_ids":["enfh-gkve"],"explanation":"Parks property record with acquisition date for Greencroft Playground."},"geometry":{"type":"Point","coordinates":[-74.136446,40.551842]}},{"type":"Feature","id":"nyc_parks_property_170467","properties":{"city_id":"nyc","event_id":"nyc_parks_property_170467","title":"Parks property acquisition: Ericsson Playground","year":1963,"effective_date":"1963-03-28","date_precision":"day","category":"environment","lens":"green_space","confidence":"documented","source_ids":["enfh-gkve"],"explanation":"Parks property record with acquisition date for Ericsson Playground."},"geometry":{"type":"Point","coordinates":[-73.948345,40.720421]}},{"type":"Feature","id":"nyc_parks_property_170468","properties":{"city_id":"nyc","event_id":"nyc_parks_property_170468","title":"Parks property acquisition: Carver Playground","year":1963,"effective_date":"1963-03-28","date_precision":"day","category":"environment","lens":"green_space","confidence":"documented","source_ids":["enfh-gkve"],"explanation":"Parks property record with acquisition date for Carver Playground."},"geometry":{"type":"Point","coordinates":[-73.920397,40.680273]}},{"type":"Feature","id":"nyc_parks_property_170469","properties":{"city_id":"nyc","event_id":"nyc_parks_property_170469","title":"Parks property acquisition: Willoughby Playground","year":1963,"effective_date":"1963-07-15","date_precision":"day","category":"environment","lens":"green_space","confidence":"documented","source_ids":["enfh-gkve"],"explanation":"Parks property record with acquisition date for Willoughby Playground."},"geometry":{"type":"Point","coordinates":[-73.946686,40.694562]}},{"type":"Feature","id":"nyc_parks_property_170473","properties":{"city_id":"nyc","event_id":"nyc_parks_property_170473","title":"Parks property acquisition: Bergen Beach Playground","year":1963,"effective_date":"1963-07-08","date_precision":"day","category":"environment","lens":"green_space","confidence":"documented","source_ids":["enfh-gkve"],"explanation":"Parks property record with acquisition date for Bergen Beach Playground."},"geometry":{"type":"Point","coordinates":[-73.909572,40.622276]}},{"type":"Feature","id":"nyc_parks_property_170572","properties":{"city_id":"nyc","event_id":"nyc_parks_property_170572","title":"Parks property acquisition: Cobble Hill Park","year":1963,"effective_date":"1963-03-07","date_precision":"day","category":"environment","lens":"green_space","confidence":"documented","source_ids":["enfh-gkve"],"explanation":"Parks property record with acquisition date for Cobble Hill Park."},"geometry":{"type":"Point","coordinates":[-73.995919,40.688212]}},{"type":"Feature","id":"nyc_parks_property_170573","properties":{"city_id":"nyc","event_id":"nyc_parks_property_170573","title":"Parks property acquisition: Lindower Park","year":1963,"effective_date":"1963-11-21","date_precision":"day","category":"environment","lens":"green_space","confidence":"documented","source_ids":["enfh-gkve"],"explanation":"Parks property record with acquisition date for Lindower Park."},"geometry":{"type":"Point","coordinates":[-73.910922,40.612174]}},{"type":"Feature","id":"nyc_parks_property_170597","properties":{"city_id":"nyc","event_id":"nyc_parks_property_170597","title":"Parks property acquisition: Jacob H. Schiff Playground","year":1963,"effective_date":"1963-11-21","date_precision":"day","category":"environment","lens":"green_space","confidence":"documented","source_ids":["enfh-gkve"],"explanation":"Parks property record with acquisition date for Jacob H. Schiff Playground."},"geometry":{"type":"Point","coordinates":[-73.951989,40.820352]}},{"type":"Feature","id":"nyc_parks_property_170615","properties":{"city_id":"nyc","event_id":"nyc_parks_property_170615","title":"Parks property acquisition: Peter's Field","year":1963,"effective_date":"1963-11-21","date_precision":"day","category":"environment","lens":"green_space","confidence":"documented","source_ids":["enfh-gkve"],"explanation":"Parks property record with acquisition date for Peter's Field."},"geometry":{"type":"Point","coordinates":[-73.981479,40.736127]}},{"type":"Feature","id":"nyc_parks_property_170623","properties":{"city_id":"nyc","event_id":"nyc_parks_property_170623","title":"Parks property acquisition: Samuel Seabury Playground","year":1963,"effective_date":"1963-11-21","date_precision":"day","category":"environment","lens":"green_space","confidence":"documented","source_ids":["enfh-gkve"],"explanation":"Parks property record with acquisition date for Samuel Seabury Playground."},"geometry":{"type":"Point","coordinates":[-73.950788,40.785332]}},{"type":"Feature","id":"nyc_parks_property_170625","properties":{"city_id":"nyc","event_id":"nyc_parks_property_170625","title":"Parks property acquisition: Bloomingdale Playground","year":1963,"effective_date":"1963-11-21","date_precision":"day","category":"environment","lens":"green_space","confidence":"documented","source_ids":["enfh-gkve"],"explanation":"Parks property record with acquisition date for Bloomingdale Playground."},"geometry":{"type":"Point","coordinates":[-73.965995,40.799289]}},{"type":"Feature","id":"nyc_parks_property_170626","properties":{"city_id":"nyc","event_id":"nyc_parks_property_170626","title":"Parks property acquisition: P.S. 155 Playground","year":1963,"effective_date":"1963-11-21","date_precision":"day","category":"environment","lens":"green_space","confidence":"documented","source_ids":["enfh-gkve"],"explanation":"Parks property record with acquisition date for P.S. 155 Playground."},"geometry":{"type":"Point","coordinates":[-73.93526,40.797241]}},{"type":"Feature","id":"nyc_parks_property_170628","properties":{"city_id":"nyc","event_id":"nyc_parks_property_170628","title":"Parks property acquisition: Eugene McCabe Field","year":1963,"effective_date":"1963-11-21","date_precision":"day","category":"environment","lens":"green_space","confidence":"documented","source_ids":["enfh-gkve"],"explanation":"Parks property record with acquisition date for Eugene McCabe Field."},"geometry":{"type":"Point","coordinates":[-73.94156,40.802419]}},{"type":"Feature","id":"nyc_parks_property_170633","properties":{"city_id":"nyc","event_id":"nyc_parks_property_170633","title":"Parks property acquisition: Bleecker Playground","year":1963,"effective_date":"1963-11-26","date_precision":"day","category":"environment","lens":"green_space","confidence":"documented","source_ids":["enfh-gkve"],"explanation":"Parks property record with acquisition date for Bleecker Playground."},"geometry":{"type":"Point","coordinates":[-74.005527,40.736601]}},{"type":"Feature","id":"nyc_parks_property_170729","properties":{"city_id":"nyc","event_id":"nyc_parks_property_170729","title":"Parks property acquisition: Midland Field","year":1963,"effective_date":"1963-01-21","date_precision":"day","category":"environment","lens":"green_space","confidence":"documented","source_ids":["enfh-gkve"],"explanation":"Parks property record with acquisition date for Midland Field."},"geometry":{"type":"Point","coordinates":[-74.099329,40.576254]}},{"type":"Feature","id":"nyc_parks_property_170889","properties":{"city_id":"nyc","event_id":"nyc_parks_property_170889","title":"Parks property acquisition: Arcilla Playground","year":1963,"effective_date":"1963-01-24","date_precision":"day","category":"environment","lens":"green_space","confidence":"documented","source_ids":["enfh-gkve"],"explanation":"Parks property record with acquisition date for Arcilla Playground."},"geometry":{"type":"Point","coordinates":[-73.914263,40.827033]}}]}
