{"type":"FeatureCollection","schema_version":"1.0.0","city_id":"nyc","year":1939,"features":[{"type":"Feature","id":"nyc_parks_property_169096","properties":{"city_id":"nyc","event_id":"nyc_parks_property_169096","title":"Parks property acquisition: Catherine Slip Malls","year":1939,"effective_date":"1939-10-01","date_precision":"day","category":"environment","lens":"green_space","confidence":"documented","source_ids":["enfh-gkve"],"explanation":"Parks property record with acquisition date for Catherine Slip Malls."},"geometry":{"type":"Point","coordinates":[-73.996225,40.709805]}},{"type":"Feature","id":"nyc_parks_property_169106","properties":{"city_id":"nyc","event_id":"nyc_parks_property_169106","title":"Parks property acquisition: Sixteen Oaks Grove","year":1939,"effective_date":"1939-02-16","date_precision":"day","category":"environment","lens":"green_space","confidence":"documented","source_ids":["enfh-gkve"],"explanation":"Parks property record with acquisition date for Sixteen Oaks Grove."},"geometry":{"type":"Point","coordinates":[-73.938311,40.758557]}},{"type":"Feature","id":"nyc_parks_property_169532","properties":{"city_id":"nyc","event_id":"nyc_parks_property_169532","title":"Parks property acquisition: Playground 103 CIII","year":1939,"effective_date":"1939-11-16","date_precision":"day","category":"environment","lens":"green_space","confidence":"documented","source_ids":["enfh-gkve"],"explanation":"Parks property record with acquisition date for Playground 103 CIII."},"geometry":{"type":"Point","coordinates":[-73.938902,40.787259]}},{"type":"Feature","id":"nyc_parks_property_169914","properties":{"city_id":"nyc","event_id":"nyc_parks_property_169914","title":"Parks property acquisition: Lawrence Triangle","year":1939,"effective_date":"1939-07-14","date_precision":"day","category":"environment","lens":"green_space","confidence":"documented","source_ids":["enfh-gkve"],"explanation":"Parks property record with acquisition date for Lawrence Triangle."},"geometry":{"type":"Point","coordinates":[-73.815764,40.755956]}},{"type":"Feature","id":"nyc_parks_property_170939","properties":{"city_id":"nyc","event_id":"nyc_parks_property_170939","title":"Parks property acquisition: Korean War Veterans Plaza","year":1939,"effective_date":"1939-06-16","date_precision":"day","category":"environment","lens":"green_space","confidence":"documented","source_ids":["enfh-gkve"],"explanation":"Parks property record with acquisition date for Korean War Veterans Plaza."},"geometry":{"type":"Point","coordinates":[-73.99052,40.695772]}},{"type":"Feature","id":"nyc_parks_property_171145","properties":{"city_id":"nyc","event_id":"nyc_parks_property_171145","title":"Parks property acquisition: John V. Lindsay East River Park","year":1939,"effective_date":"1939-02-24","date_precision":"day","category":"environment","lens":"green_space","confidence":"documented","source_ids":["enfh-gkve"],"explanation":"Parks property record with acquisition date for John V. Lindsay East River Park."},"geometry":{"type":"Point","coordinates":[-73.978987,40.713235]}}]}
