{"type":"FeatureCollection","schema_version":"1.0.0","city_id":"nyc","year":1904,"features":[{"type":"Feature","id":"nyc-milestone-1904-first-irt-subway-opens-2","properties":{"city_id":"nyc","event_id":"nyc-milestone-1904-first-irt-subway-opens-2","title":"First IRT subway opens","short_description":"Transit-led growth along early subway corridors","year":1904,"effective_date":"1904","date_precision":"year","category":"built_environment","lens":"built_environment","confidence":"documented","source_ids":["c9sj-fmsg","tqtj-sjs8","i6b5-j7bu"],"explanation":"Transit-led growth along early subway corridors"},"geometry":{"type":"Point","coordinates":[-73.9851,40.7589]}},{"type":"Feature","id":"nyc_parks_property_169817","properties":{"city_id":"nyc","event_id":"nyc_parks_property_169817","title":"Parks property acquisition: Hugh J. Grant Circle","short_description":"NYC Parks property record for Hugh J. Grant Circle; type Triangle/Plaza; acres 1.11; waterfront=False.","year":1904,"effective_date":"1904-05-02","date_precision":"day","category":"environment","lens":"green_space","confidence":"documented","source_ids":["enfh-gkve"],"explanation":"Parks property record with acquisition date for Hugh J. Grant Circle."},"geometry":{"type":"Point","coordinates":[-73.860985,40.833148]}},{"type":"Feature","id":"nyc_parks_property_170322","properties":{"city_id":"nyc","event_id":"nyc_parks_property_170322","title":"Parks property acquisition: Devoe Park","short_description":"NYC Parks property record for Devoe Park; type Neighborhood Park; acres 5.44; waterfront=False.","year":1904,"effective_date":"1904-04-13","date_precision":"day","category":"environment","lens":"green_space","confidence":"documented","source_ids":["enfh-gkve"],"explanation":"Parks property record with acquisition date for Devoe Park."},"geometry":{"type":"Point","coordinates":[-73.906503,40.863405]}},{"type":"Feature","id":"nyc_parks_property_170710","properties":{"city_id":"nyc","event_id":"nyc_parks_property_170710","title":"Parks property acquisition: Marion Hopkinson Playground","short_description":"NYC Parks property record for Marion Hopkinson Playground; type Neighborhood Park; acres 1.32; waterfront=False.","year":1904,"effective_date":"1904-11-29","date_precision":"day","category":"environment","lens":"green_space","confidence":"documented","source_ids":["enfh-gkve"],"explanation":"Parks property record with acquisition date for Marion Hopkinson Playground."},"geometry":{"type":"Point","coordinates":[-73.91317,40.681822]}},{"type":"Feature","id":"nyc_parks_property_170757","properties":{"city_id":"nyc","event_id":"nyc_parks_property_170757","title":"Parks property acquisition: Fulton Park","short_description":"NYC Parks property record for Fulton Park; type Neighborhood Park; acres 1.987; waterfront=False.","year":1904,"effective_date":"1904-07-15","date_precision":"day","category":"environment","lens":"green_space","confidence":"documented","source_ids":["enfh-gkve"],"explanation":"Parks property record with acquisition date for Fulton Park."},"geometry":{"type":"Point","coordinates":[-73.933504,40.679766]}},{"type":"Feature","id":"nyc_parks_property_170995","properties":{"city_id":"nyc","event_id":"nyc_parks_property_170995","title":"Parks property acquisition: McLaughlin Park","short_description":"NYC Parks property record for McLaughlin Park; type Recreational Field/Courts; acres 1.976; waterfront=False.","year":1904,"effective_date":"1904-09-27","date_precision":"day","category":"environment","lens":"green_space","confidence":"documented","source_ids":["enfh-gkve"],"explanation":"Parks property record with acquisition date for McLaughlin Park."},"geometry":{"type":"Point","coordinates":[-73.985867,40.696557]}}]}
