{"type":"FeatureCollection","schema_version":"1.0.0","city_id":"nyc","year":1895,"map_feature_count":9,"withheld_geometry_event_count":0,"features":[{"type":"Feature","id":"nyc_parks_property_169533","properties":{"city_id":"nyc","event_id":"nyc_parks_property_169533","title":"Parks property acquisition: Bridge Park","subtitle":"Bronx / 1895-01-01 / Documented / Parks Properties","details":"Parks property record with acquisition date for Bridge Park.","year":1895,"effective_date":"1895-01-01","date_precision":"day","short_description":"NYC Parks property record for Bridge Park; type Neighborhood Park; acres 7.156; waterfront=True.","category":"environment","lens":"green_space","confidence":"documented","source_ids":["enfh-gkve"],"affected_area_label":"Bronx","explanation":"Parks property record with acquisition date for Bridge Park."},"geometry":{"type":"Point","coordinates":[-73.927472,40.845565]}},{"type":"Feature","id":"nyc_parks_property_169811","properties":{"city_id":"nyc","event_id":"nyc_parks_property_169811","title":"Parks property acquisition: Cooper Park","subtitle":"Brooklyn / 1895-10-10 / Documented / Parks Properties","details":"Parks property record with acquisition date for Cooper Park.","year":1895,"effective_date":"1895-10-10","date_precision":"day","short_description":"NYC Parks property record for Cooper Park; type Neighborhood Park; acres 6.401; waterfront=False.","category":"environment","lens":"green_space","confidence":"documented","source_ids":["enfh-gkve"],"affected_area_label":"Brooklyn","explanation":"Parks property record with acquisition date for Cooper Park."},"geometry":{"type":"Point","coordinates":[-73.937204,40.716]}},{"type":"Feature","id":"nyc_parks_property_169836","properties":{"city_id":"nyc","event_id":"nyc_parks_property_169836","title":"Parks property acquisition: Irving Square Park","subtitle":"Brooklyn / 1895-07-31 / Documented / Parks Properties","details":"Parks property record with acquisition date for Irving Square Park.","year":1895,"effective_date":"1895-07-31","date_precision":"day","short_description":"NYC Parks property record for Irving Square Park; type Neighborhood Park; acres 2.76; waterfront=False.","category":"environment","lens":"green_space","confidence":"documented","source_ids":["enfh-gkve"],"affected_area_label":"Brooklyn","explanation":"Parks property record with acquisition date for Irving Square Park."},"geometry":{"type":"Point","coordinates":[-73.908995,40.69254]}},{"type":"Feature","id":"nyc_parks_property_170161","properties":{"city_id":"nyc","event_id":"nyc_parks_property_170161","title":"Parks property acquisition: Saratoga Park","subtitle":"Brooklyn / 1895-09-03 / Documented / Parks Properties","details":"Parks property record with acquisition date for Saratoga Park.","year":1895,"effective_date":"1895-09-03","date_precision":"day","short_description":"NYC Parks property record for Saratoga Park; type Neighborhood Park; acres 3.214; waterfront=False.","category":"environment","lens":"green_space","confidence":"documented","source_ids":["enfh-gkve"],"affected_area_label":"Brooklyn","explanation":"Parks property record with acquisition date for Saratoga Park."},"geometry":{"type":"Point","coordinates":[-73.918741,40.684954]}},{"type":"Feature","id":"nyc_parks_property_170820","properties":{"city_id":"nyc","event_id":"nyc_parks_property_170820","title":"Parks property acquisition: James J Walker Park","subtitle":"Manhattan / 1895-08-12 / Documented / Parks Properties","details":"Parks property record with acquisition date for James J Walker Park.","year":1895,"effective_date":"1895-08-12","date_precision":"day","short_description":"NYC Parks property record for James J Walker Park; type Neighborhood Park; acres 1.67; waterfront=False.","category":"environment","lens":"green_space","confidence":"documented","source_ids":["enfh-gkve"],"affected_area_label":"Manhattan","explanation":"Parks property record with acquisition date for James J Walker Park."},"geometry":{"type":"Point","coordinates":[-74.00568,40.729747]}},{"type":"Feature","id":"nyc_parks_property_170826","properties":{"city_id":"nyc","event_id":"nyc_parks_property_170826","title":"Parks property acquisition: Straus Park","subtitle":"Manhattan / 1895-05-01 / Documented / Parks Properties","details":"Parks property record with acquisition date for Straus Park.","year":1895,"effective_date":"1895-05-01","date_precision":"day","short_description":"NYC Parks property record for Straus Park; type Triangle/Plaza; acres 0.072; waterfront=False.","category":"environment","lens":"green_space","confidence":"documented","source_ids":["enfh-gkve"],"affected_area_label":"Manhattan","explanation":"Parks property record with acquisition date for Straus Park."},"geometry":{"type":"Point","coordinates":[-73.968162,40.80171]}},{"type":"Feature","id":"nyc_parks_property_171126","properties":{"city_id":"nyc","event_id":"nyc_parks_property_171126","title":"Parks property acquisition: Dyker Beach Park","subtitle":"Brooklyn / 1895-07-24 / Documented / Parks Properties","details":"Parks property record with acquisition date for Dyker Beach Park.","year":1895,"effective_date":"1895-07-24","date_precision":"day","short_description":"NYC Parks property record for Dyker Beach Park; type Community Park; acres 216.655; waterfront=False.","category":"environment","lens":"green_space","confidence":"documented","source_ids":["enfh-gkve"],"affected_area_label":"Brooklyn","explanation":"Parks property record with acquisition date for Dyker Beach Park."},"geometry":{"type":"Point","coordinates":[-74.018775,40.607621]}},{"type":"Feature","id":"nyc_parks_property_171147","properties":{"city_id":"nyc","event_id":"nyc_parks_property_171147","title":"Parks property acquisition: Leif Ericson Park","subtitle":"Brooklyn / 1895-01-01 / Documented / Parks Properties","details":"Parks property record with acquisition date for Leif Ericson Park.","year":1895,"effective_date":"1895-01-01","date_precision":"day","short_description":"NYC Parks property record for Leif Ericson Park; type Neighborhood Park; acres 16.8; waterfront=False.","category":"environment","lens":"green_space","confidence":"documented","source_ids":["enfh-gkve"],"affected_area_label":"Brooklyn","explanation":"Parks property record with acquisition date for Leif Ericson Park."},"geometry":{"type":"Point","coordinates":[-74.019106,40.635291]}},{"type":"Feature","id":"nyc_parks_property_171193","properties":{"city_id":"nyc","event_id":"nyc_parks_property_171193","title":"Parks property acquisition: Forest Park","subtitle":"Queens / 1895-08-08 / Documented / Parks Properties","details":"Parks property record with acquisition date for Forest Park.","year":1895,"effective_date":"1895-08-08","date_precision":"day","short_description":"NYC Parks property record for Forest Park; type Flagship Park; acres 506.86; waterfront=False.","category":"environment","lens":"green_space","confidence":"documented","source_ids":["enfh-gkve"],"affected_area_label":"Queens","explanation":"Parks property record with acquisition date for Forest Park."},"geometry":{"type":"Point","coordinates":[-73.852151,40.7043]}}]}
