{"type":"FeatureCollection","name":"nyc_lens_detail_1968","metadata":{"schema_version":"1.0.0","city_id":"nyc","year":1968,"generated_at":"2026-06-02T10:33:16.883Z","source_paths":["web/data/city-atlas/cities/nyc/events_1968.json","web/data/city-atlas/cities/nyc/events.json","web/data/city-atlas/cities/nyc/transport_roads_base.geojson"],"method":"Derived OpenCityLog lens geometry built from source-backed event points plus existing OSM road/detail geometry. Grid cells aggregate events by effective year. Trace lines reuse nearest mapped road geometry for context.","caveats":["Derived cells are evidence grids, not surveyed parcels, catchments, zones, or administrative boundaries.","Trace lines are nearest mapped street or work-location context, not surveyed utility networks, measured traffic speed, spend, vacancy, or service quality. No capacity data is inferred.","When a lens/year has no same-category source-backed records, no coverage geometry is generated; sparse data remains sparse.","Borough, citywide, statistical, corridor, and multi-site records are excluded from site-like lens geometry; they remain available in the event list and evidence records.","OSM mapped-visibility dates and administrative decision dates can differ from real-world physical change dates."],"feature_layers":{"planning_cell":30},"excluded_non_site_record_count":0,"excluded_non_site_reasons":{}},"features":[{"type":"Feature","properties":{"id":"lens-detail-nyc-1968-planning_cell-2","layer":"planning_cell","category":"built_environment","year":1968,"visible_year":1968,"title":"12 source-backed planning and built records","confidence":"documented","confidence_mix":"documented:12","event_count":12,"source_count":1,"source_ids":"buis-pvji","event_ids":"nyc_lpc_individual_landmark_1002,nyc_lpc_individual_landmark_1003,nyc_lpc_individual_landmark_1004,nyc_lpc_individual_landmark_1005,nyc_lpc_individual_landmark_1006,nyc_lpc_individual_landmark_1007,nyc_lpc_individual_landmark_1008,nyc_lpc_individual_landmark_1009,nyc_lpc_individual_landmark_1010,nyc_lpc_individual_landmark_1057","event_ids_all":"nyc_lpc_individual_landmark_1002,nyc_lpc_individual_landmark_1003,nyc_lpc_individual_landmark_1004,nyc_lpc_individual_landmark_1005,nyc_lpc_individual_landmark_1006,nyc_lpc_individual_landmark_1007,nyc_lpc_individual_landmark_1008,nyc_lpc_individual_landmark_1009,nyc_lpc_individual_landmark_1010,nyc_lpc_individual_landmark_1057,nyc_lpc_individual_landmark_998,nyc_lpc_individual_landmark_999","source_urls":"https://data.cityofnewyork.us/resource/buis-pvji.json?objectid=1002,https://data.cityofnewyork.us/resource/buis-pvji.json?objectid=1003,https://data.cityofnewyork.us/resource/buis-pvji.json?objectid=1004,https://data.cityofnewyork.us/resource/buis-pvji.json?objectid=1005","geometry_precision_mix":"Row-level point from the adapter; source geocoding precision varies and may be approximate.:12","representation":"planning and built evidence grid cell","timing_note":"Filtered by event effective year. OSM mapped-visibility dates and administrative dates can differ from real-world physical change dates.","caveat":"Planning cells are derived from source-backed event locations; they are not parcel boundaries unless source geometry is separately present.","generated_from":"web/data/city-atlas/cities/nyc/events_1968.json","lifecycle_status":"uncertain","status":"source_record","cell_size_m":95,"intensity":1,"label":"Individual landmark designated: 14 Fulton Street Building"},"geometry":{"type":"Polygon","coordinates":[[[-74.0039424,40.7058169],[-74.0028157,40.7058169],[-74.0028157,40.7066761],[-74.0039424,40.7066761],[-74.0039424,40.7058169]]]}},{"type":"Feature","properties":{"id":"lens-detail-nyc-1968-planning_cell-3","layer":"planning_cell","category":"built_environment","year":1968,"visible_year":1968,"title":"5 source-backed planning and built records","confidence":"documented","confidence_mix":"documented:5","event_count":5,"source_count":1,"source_ids":"buis-pvji","event_ids":"nyc_lpc_individual_landmark_1011,nyc_lpc_individual_landmark_1012,nyc_lpc_individual_landmark_1013,nyc_lpc_individual_landmark_1395,nyc_lpc_individual_landmark_761","event_ids_all":"nyc_lpc_individual_landmark_1011,nyc_lpc_individual_landmark_1012,nyc_lpc_individual_landmark_1013,nyc_lpc_individual_landmark_1395,nyc_lpc_individual_landmark_761","source_urls":"https://data.cityofnewyork.us/resource/buis-pvji.json?objectid=1011,https://data.cityofnewyork.us/resource/buis-pvji.json?objectid=1012,https://data.cityofnewyork.us/resource/buis-pvji.json?objectid=1013,https://data.cityofnewyork.us/resource/buis-pvji.json?objectid=1395","geometry_precision_mix":"Row-level point from the adapter; source geocoding precision varies and may be approximate.:5","representation":"planning and built evidence grid cell","timing_note":"Filtered by event effective year. OSM mapped-visibility dates and administrative dates can differ from real-world physical change dates.","caveat":"Planning cells are derived from source-backed event locations; they are not parcel boundaries unless source geometry is separately present.","generated_from":"web/data/city-atlas/cities/nyc/events_1968.json","lifecycle_status":"uncertain","status":"source_record","cell_size_m":95,"intensity":0.747,"label":"Individual landmark designated: 165 John Street Building"},"geometry":{"type":"Polygon","coordinates":[[[-74.005069,40.7058169],[-74.0039424,40.7058169],[-74.0039424,40.7066761],[-74.005069,40.7066761],[-74.005069,40.7058169]]]}},{"type":"Feature","properties":{"id":"lens-detail-nyc-1968-planning_cell-20","layer":"planning_cell","category":"built_environment","year":1968,"visible_year":1968,"title":"4 source-backed planning and built records","confidence":"documented","confidence_mix":"documented:4","event_count":4,"source_count":1,"source_ids":"buis-pvji","event_ids":"nyc_lpc_individual_landmark_651,nyc_lpc_individual_landmark_690,nyc_lpc_individual_landmark_737,nyc_lpc_individual_landmark_749","event_ids_all":"nyc_lpc_individual_landmark_651,nyc_lpc_individual_landmark_690,nyc_lpc_individual_landmark_737,nyc_lpc_individual_landmark_749","source_urls":"https://data.cityofnewyork.us/resource/buis-pvji.json?objectid=651,https://data.cityofnewyork.us/resource/buis-pvji.json?objectid=690,https://data.cityofnewyork.us/resource/buis-pvji.json?objectid=737,https://data.cityofnewyork.us/resource/buis-pvji.json?objectid=749","geometry_precision_mix":"Row-level point from the adapter; source geocoding precision varies and may be approximate.:4","representation":"planning and built evidence grid cell","timing_note":"Filtered by event effective year. OSM mapped-visibility dates and administrative dates can differ from real-world physical change dates.","caveat":"Planning cells are derived from source-backed event locations; they are not parcel boundaries unless source geometry is separately present.","generated_from":"web/data/city-atlas/cities/nyc/events_1968.json","lifecycle_status":"uncertain","status":"source_record","cell_size_m":95,"intensity":0.671,"label":"Individual landmark designated: 161 East 78th Street House"},"geometry":{"type":"Polygon","coordinates":[[[-73.9588764,40.77369],[-73.9577497,40.77369],[-73.9577497,40.7745492],[-73.9588764,40.7745492],[-73.9588764,40.77369]]]}},{"type":"Feature","properties":{"id":"lens-detail-nyc-1968-planning_cell-1","layer":"planning_cell","category":"built_environment","year":1968,"visible_year":1968,"title":"2 source-backed planning and built records","confidence":"documented","confidence_mix":"documented:2","event_count":2,"source_count":1,"source_ids":"buis-pvji","event_ids":"nyc_lpc_individual_landmark_1000,nyc_lpc_individual_landmark_1001","event_ids_all":"nyc_lpc_individual_landmark_1000,nyc_lpc_individual_landmark_1001","source_urls":"https://data.cityofnewyork.us/resource/buis-pvji.json?objectid=1000,https://data.cityofnewyork.us/resource/buis-pvji.json?objectid=1001","geometry_precision_mix":"Row-level point from the adapter; source geocoding precision varies and may be approximate.:2","representation":"planning and built evidence grid cell","timing_note":"Filtered by event effective year. OSM mapped-visibility dates and administrative dates can differ from real-world physical change dates.","caveat":"Planning cells are derived from source-backed event locations; they are not parcel boundaries unless source geometry is separately present.","generated_from":"web/data/city-atlas/cities/nyc/events_1968.json","lifecycle_status":"uncertain","status":"source_record","cell_size_m":95,"intensity":0.458,"label":"Individual landmark designated: 18 Fulton Street Building"},"geometry":{"type":"Polygon","coordinates":[[[-74.0039424,40.7066761],[-74.0028157,40.7066761],[-74.0028157,40.7075352],[-74.0039424,40.7075352],[-74.0039424,40.7066761]]]}},{"type":"Feature","properties":{"id":"lens-detail-nyc-1968-planning_cell-8","layer":"planning_cell","category":"built_environment","year":1968,"visible_year":1968,"title":"2 source-backed planning and built records","confidence":"documented","confidence_mix":"documented:2","event_count":2,"source_count":1,"source_ids":"buis-pvji","event_ids":"nyc_lpc_individual_landmark_1165,nyc_lpc_individual_landmark_1166","event_ids_all":"nyc_lpc_individual_landmark_1165,nyc_lpc_individual_landmark_1166","source_urls":"https://data.cityofnewyork.us/resource/buis-pvji.json?objectid=1165,https://data.cityofnewyork.us/resource/buis-pvji.json?objectid=1166","geometry_precision_mix":"Row-level point from the adapter; source geocoding precision varies and may be approximate.:2","representation":"planning and built evidence grid cell","timing_note":"Filtered by event effective year. OSM mapped-visibility dates and administrative dates can differ from real-world physical change dates.","caveat":"Planning cells are derived from source-backed event locations; they are not parcel boundaries unless source geometry is separately present.","generated_from":"web/data/city-atlas/cities/nyc/events_1968.json","lifecycle_status":"uncertain","status":"source_record","cell_size_m":95,"intensity":0.458,"label":"Individual landmark designated: Villard Houses — Manhattan"},"geometry":{"type":"Polygon","coordinates":[[[-73.9757761,40.7573661],[-73.9746495,40.7573661],[-73.9746495,40.7582253],[-73.9757761,40.7582253],[-73.9757761,40.7573661]]]}},{"type":"Feature","properties":{"id":"lens-detail-nyc-1968-planning_cell-0","layer":"planning_cell","category":"built_environment","year":1968,"visible_year":1968,"title":"1 source-backed planning and built record","confidence":"documented","confidence_mix":"documented:1","event_count":1,"source_count":1,"source_ids":"skyk-mpzq","event_ids":"nyc_lpc_historic_district_lp-00450","event_ids_all":"nyc_lpc_historic_district_lp-00450","source_urls":"https://data.cityofnewyork.us/resource/skyk-mpzq.json?lp_number=LP-00450","geometry_precision_mix":"Row-level point from the adapter; source geocoding precision varies and may be approximate.:1","representation":"planning and built evidence grid cell","timing_note":"Filtered by event effective year. OSM mapped-visibility dates and administrative dates can differ from real-world physical change dates.","caveat":"Planning cells are derived from source-backed event locations; they are not parcel boundaries unless source geometry is separately present.","generated_from":"web/data/city-atlas/cities/nyc/events_1968.json","lifecycle_status":"uncertain","status":"source_record","cell_size_m":95,"intensity":0.289,"label":"Historic district designated: Hunters Point Historic District"},"geometry":{"type":"Polygon","coordinates":[[[-73.9464832,40.7470563],[-73.9453566,40.7470563],[-73.9453566,40.7479154],[-73.9464832,40.7479154],[-73.9464832,40.7470563]]]}},{"type":"Feature","properties":{"id":"lens-detail-nyc-1968-planning_cell-10","layer":"planning_cell","category":"built_environment","year":1968,"visible_year":1968,"title":"1 source-backed planning and built record","confidence":"documented","confidence_mix":"documented:1","event_count":1,"source_count":1,"source_ids":"buis-pvji","event_ids":"nyc_lpc_individual_landmark_1180","event_ids_all":"nyc_lpc_individual_landmark_1180","source_urls":"https://data.cityofnewyork.us/resource/buis-pvji.json?objectid=1180","geometry_precision_mix":"Row-level point from the adapter; source geocoding precision varies and may be approximate.:1","representation":"planning and built evidence grid cell","timing_note":"Filtered by event effective year. OSM mapped-visibility dates and administrative dates can differ from real-world physical change dates.","caveat":"Planning cells are derived from source-backed event locations; they are not parcel boundaries unless source geometry is separately present.","generated_from":"web/data/city-atlas/cities/nyc/events_1968.json","lifecycle_status":"uncertain","status":"source_record","cell_size_m":95,"intensity":0.289,"label":"Individual landmark designated: Asbury Methodist Church"},"geometry":{"type":"Polygon","coordinates":[[[-74.1639265,40.5992819],[-74.1627999,40.5992819],[-74.1627999,40.6001411],[-74.1639265,40.6001411],[-74.1639265,40.5992819]]]}},{"type":"Feature","properties":{"id":"lens-detail-nyc-1968-planning_cell-11","layer":"planning_cell","category":"built_environment","year":1968,"visible_year":1968,"title":"1 source-backed planning and built record","confidence":"documented","confidence_mix":"documented:1","event_count":1,"source_count":1,"source_ids":"buis-pvji","event_ids":"nyc_lpc_individual_landmark_1183","event_ids_all":"nyc_lpc_individual_landmark_1183","source_urls":"https://data.cityofnewyork.us/resource/buis-pvji.json?objectid=1183","geometry_precision_mix":"Row-level point from the adapter; source geocoding precision varies and may be approximate.:1","representation":"planning and built evidence grid cell","timing_note":"Filtered by event effective year. OSM mapped-visibility dates and administrative dates can differ from real-world physical change dates.","caveat":"Planning cells are derived from source-backed event locations; they are not parcel boundaries unless source geometry is separately present.","generated_from":"web/data/city-atlas/cities/nyc/events_1968.json","lifecycle_status":"uncertain","status":"source_record","cell_size_m":95,"intensity":0.289,"label":"Individual landmark designated: Sleight Family Graveyard"},"geometry":{"type":"Polygon","coordinates":[[[-74.2134991,40.5563243],[-74.2123724,40.5563243],[-74.2123724,40.5571834],[-74.2134991,40.5571834],[-74.2134991,40.5563243]]]}},{"type":"Feature","properties":{"id":"lens-detail-nyc-1968-planning_cell-12","layer":"planning_cell","category":"built_environment","year":1968,"visible_year":1968,"title":"1 source-backed planning and built record","confidence":"documented","confidence_mix":"documented:1","event_count":1,"source_count":1,"source_ids":"buis-pvji","event_ids":"nyc_lpc_individual_landmark_15","event_ids_all":"nyc_lpc_individual_landmark_15","source_urls":"https://data.cityofnewyork.us/resource/buis-pvji.json?objectid=15","geometry_precision_mix":"Row-level point from the adapter; source geocoding precision varies and may be approximate.:1","representation":"planning and built evidence grid cell","timing_note":"Filtered by event effective year. OSM mapped-visibility dates and administrative dates can differ from real-world physical change dates.","caveat":"Planning cells are derived from source-backed event locations; they are not parcel boundaries unless source geometry is separately present.","generated_from":"web/data/city-atlas/cities/nyc/events_1968.json","lifecycle_status":"uncertain","status":"source_record","cell_size_m":95,"intensity":0.289,"label":"Individual landmark designated: 66 Harvard Avenue House"},"geometry":{"type":"Polygon","coordinates":[[[-74.0906943,40.6413804],[-74.0895677,40.6413804],[-74.0895677,40.6422396],[-74.0906943,40.6422396],[-74.0906943,40.6413804]]]}},{"type":"Feature","properties":{"id":"lens-detail-nyc-1968-planning_cell-13","layer":"planning_cell","category":"built_environment","year":1968,"visible_year":1968,"title":"1 source-backed planning and built record","confidence":"documented","confidence_mix":"documented:1","event_count":1,"source_count":1,"source_ids":"buis-pvji","event_ids":"nyc_lpc_individual_landmark_242","event_ids_all":"nyc_lpc_individual_landmark_242","source_urls":"https://data.cityofnewyork.us/resource/buis-pvji.json?objectid=242","geometry_precision_mix":"Row-level point from the adapter; source geocoding precision varies and may be approximate.:1","representation":"planning and built evidence grid cell","timing_note":"Filtered by event effective year. OSM mapped-visibility dates and administrative dates can differ from real-world physical change dates.","caveat":"Planning cells are derived from source-backed event locations; they are not parcel boundaries unless source geometry is separately present.","generated_from":"web/data/city-atlas/cities/nyc/events_1968.json","lifecycle_status":"uncertain","status":"source_record","cell_size_m":95,"intensity":0.289,"label":"Individual landmark designated: American Fine Arts Society"},"geometry":{"type":"Polygon","coordinates":[[[-73.9814094,40.7659576],[-73.9802827,40.7659576],[-73.9802827,40.7668168],[-73.9814094,40.7668168],[-73.9814094,40.7659576]]]}},{"type":"Feature","properties":{"id":"lens-detail-nyc-1968-planning_cell-14","layer":"planning_cell","category":"built_environment","year":1968,"visible_year":1968,"title":"1 source-backed planning and built record","confidence":"documented","confidence_mix":"documented:1","event_count":1,"source_count":1,"source_ids":"buis-pvji","event_ids":"nyc_lpc_individual_landmark_358","event_ids_all":"nyc_lpc_individual_landmark_358","source_urls":"https://data.cityofnewyork.us/resource/buis-pvji.json?objectid=358","geometry_precision_mix":"Row-level point from the adapter; source geocoding precision varies and may be approximate.:1","representation":"planning and built evidence grid cell","timing_note":"Filtered by event effective year. OSM mapped-visibility dates and administrative dates can differ from real-world physical change dates.","caveat":"Planning cells are derived from source-backed event locations; they are not parcel boundaries unless source geometry is separately present.","generated_from":"web/data/city-atlas/cities/nyc/events_1968.json","lifecycle_status":"uncertain","status":"source_record","cell_size_m":95,"intensity":0.289,"label":"Individual landmark designated: Trinity Chapel Complex"},"geometry":{"type":"Polygon","coordinates":[[[-73.9904226,40.7436197],[-73.9892959,40.7436197],[-73.9892959,40.7444788],[-73.9904226,40.7444788],[-73.9904226,40.7436197]]]}},{"type":"Feature","properties":{"id":"lens-detail-nyc-1968-planning_cell-15","layer":"planning_cell","category":"built_environment","year":1968,"visible_year":1968,"title":"1 source-backed planning and built record","confidence":"documented","confidence_mix":"documented:1","event_count":1,"source_count":1,"source_ids":"buis-pvji","event_ids":"nyc_lpc_individual_landmark_426","event_ids_all":"nyc_lpc_individual_landmark_426","source_urls":"https://data.cityofnewyork.us/resource/buis-pvji.json?objectid=426","geometry_precision_mix":"Row-level point from the adapter; source geocoding precision varies and may be approximate.:1","representation":"planning and built evidence grid cell","timing_note":"Filtered by event effective year. OSM mapped-visibility dates and administrative dates can differ from real-world physical change dates.","caveat":"Planning cells are derived from source-backed event locations; they are not parcel boundaries unless source geometry is separately present.","generated_from":"web/data/city-atlas/cities/nyc/events_1968.json","lifecycle_status":"uncertain","status":"source_record","cell_size_m":95,"intensity":0.289,"label":"Individual landmark designated: Fire Engine Company No. 33"},"geometry":{"type":"Polygon","coordinates":[[[-73.9926759,40.7264366],[-73.9915492,40.7264366],[-73.9915492,40.7272957],[-73.9926759,40.7272957],[-73.9926759,40.7264366]]]}},{"type":"Feature","properties":{"id":"lens-detail-nyc-1968-planning_cell-16","layer":"planning_cell","category":"built_environment","year":1968,"visible_year":1968,"title":"1 source-backed planning and built record","confidence":"documented","confidence_mix":"documented:1","event_count":1,"source_count":1,"source_ids":"buis-pvji","event_ids":"nyc_lpc_individual_landmark_55","event_ids_all":"nyc_lpc_individual_landmark_55","source_urls":"https://data.cityofnewyork.us/resource/buis-pvji.json?objectid=55","geometry_precision_mix":"Row-level point from the adapter; source geocoding precision varies and may be approximate.:1","representation":"planning and built evidence grid cell","timing_note":"Filtered by event effective year. OSM mapped-visibility dates and administrative dates can differ from real-world physical change dates.","caveat":"Planning cells are derived from source-backed event locations; they are not parcel boundaries unless source geometry is separately present.","generated_from":"web/data/city-atlas/cities/nyc/events_1968.json","lifecycle_status":"uncertain","status":"source_record","cell_size_m":95,"intensity":0.289,"label":"Individual landmark designated: Saint Patrick's Church"},"geometry":{"type":"Polygon","coordinates":[[[-74.1436468,40.5709299],[-74.1425202,40.5709299],[-74.1425202,40.571789],[-74.1436468,40.571789],[-74.1436468,40.5709299]]]}},{"type":"Feature","properties":{"id":"lens-detail-nyc-1968-planning_cell-17","layer":"planning_cell","category":"built_environment","year":1968,"visible_year":1968,"title":"1 source-backed planning and built record","confidence":"documented","confidence_mix":"documented:1","event_count":1,"source_count":1,"source_ids":"buis-pvji","event_ids":"nyc_lpc_individual_landmark_558","event_ids_all":"nyc_lpc_individual_landmark_558","source_urls":"https://data.cityofnewyork.us/resource/buis-pvji.json?objectid=558","geometry_precision_mix":"Row-level point from the adapter; source geocoding precision varies and may be approximate.:1","representation":"planning and built evidence grid cell","timing_note":"Filtered by event effective year. OSM mapped-visibility dates and administrative dates can differ from real-world physical change dates.","caveat":"Planning cells are derived from source-backed event locations; they are not parcel boundaries unless source geometry is separately present.","generated_from":"web/data/city-atlas/cities/nyc/events_1968.json","lifecycle_status":"uncertain","status":"source_record","cell_size_m":95,"intensity":0.289,"label":"Individual landmark designated: Villard Houses — Manhattan · 558"},"geometry":{"type":"Polygon","coordinates":[[[-73.9757761,40.7582253],[-73.9746495,40.7582253],[-73.9746495,40.7590844],[-73.9757761,40.7590844],[-73.9757761,40.7582253]]]}},{"type":"Feature","properties":{"id":"lens-detail-nyc-1968-planning_cell-18","layer":"planning_cell","category":"built_environment","year":1968,"visible_year":1968,"title":"1 source-backed planning and built record","confidence":"documented","confidence_mix":"documented:1","event_count":1,"source_count":1,"source_ids":"buis-pvji","event_ids":"nyc_lpc_individual_landmark_604","event_ids_all":"nyc_lpc_individual_landmark_604","source_urls":"https://data.cityofnewyork.us/resource/buis-pvji.json?objectid=604","geometry_precision_mix":"Row-level point from the adapter; source geocoding precision varies and may be approximate.:1","representation":"planning and built evidence grid cell","timing_note":"Filtered by event effective year. OSM mapped-visibility dates and administrative dates can differ from real-world physical change dates.","caveat":"Planning cells are derived from source-backed event locations; they are not parcel boundaries unless source geometry is separately present.","generated_from":"web/data/city-atlas/cities/nyc/events_1968.json","lifecycle_status":"uncertain","status":"source_record","cell_size_m":95,"intensity":0.289,"label":"Individual landmark designated: Hopkins Store"},"geometry":{"type":"Polygon","coordinates":[[[-74.0107022,40.7144085],[-74.0095756,40.7144085],[-74.0095756,40.7152676],[-74.0107022,40.7152676],[-74.0107022,40.7144085]]]}},{"type":"Feature","properties":{"id":"lens-detail-nyc-1968-planning_cell-19","layer":"planning_cell","category":"built_environment","year":1968,"visible_year":1968,"title":"1 source-backed planning and built record","confidence":"documented","confidence_mix":"documented:1","event_count":1,"source_count":1,"source_ids":"buis-pvji","event_ids":"nyc_lpc_individual_landmark_65","event_ids_all":"nyc_lpc_individual_landmark_65","source_urls":"https://data.cityofnewyork.us/resource/buis-pvji.json?objectid=65","geometry_precision_mix":"Row-level point from the adapter; source geocoding precision varies and may be approximate.:1","representation":"planning and built evidence grid cell","timing_note":"Filtered by event effective year. OSM mapped-visibility dates and administrative dates can differ from real-world physical change dates.","caveat":"Planning cells are derived from source-backed event locations; they are not parcel boundaries unless source geometry is separately present.","generated_from":"web/data/city-atlas/cities/nyc/events_1968.json","lifecycle_status":"uncertain","status":"source_record","cell_size_m":95,"intensity":0.289,"label":"Individual landmark designated: Charles Kreischer House"},"geometry":{"type":"Polygon","coordinates":[[[-74.2382854,40.532268],[-74.2371587,40.532268],[-74.2371587,40.5331271],[-74.2382854,40.5331271],[-74.2382854,40.532268]]]}},{"type":"Feature","properties":{"id":"lens-detail-nyc-1968-planning_cell-21","layer":"planning_cell","category":"built_environment","year":1968,"visible_year":1968,"title":"1 source-backed planning and built record","confidence":"documented","confidence_mix":"documented:1","event_count":1,"source_count":1,"source_ids":"buis-pvji","event_ids":"nyc_lpc_individual_landmark_667","event_ids_all":"nyc_lpc_individual_landmark_667","source_urls":"https://data.cityofnewyork.us/resource/buis-pvji.json?objectid=667","geometry_precision_mix":"Row-level point from the adapter; source geocoding precision varies and may be approximate.:1","representation":"planning and built evidence grid cell","timing_note":"Filtered by event effective year. OSM mapped-visibility dates and administrative dates can differ from real-world physical change dates.","caveat":"Planning cells are derived from source-backed event locations; they are not parcel boundaries unless source geometry is separately present.","generated_from":"web/data/city-atlas/cities/nyc/events_1968.json","lifecycle_status":"uncertain","status":"source_record","cell_size_m":95,"intensity":0.289,"label":"Individual landmark designated: Virginia Graham Fair Vanderbilt House"},"geometry":{"type":"Polygon","coordinates":[[[-73.9554964,40.7839999],[-73.9543698,40.7839999],[-73.9543698,40.784859],[-73.9554964,40.784859],[-73.9554964,40.7839999]]]}},{"type":"Feature","properties":{"id":"lens-detail-nyc-1968-planning_cell-22","layer":"planning_cell","category":"built_environment","year":1968,"visible_year":1968,"title":"1 source-backed planning and built record","confidence":"documented","confidence_mix":"documented:1","event_count":1,"source_count":1,"source_ids":"buis-pvji","event_ids":"nyc_lpc_individual_landmark_682","event_ids_all":"nyc_lpc_individual_landmark_682","source_urls":"https://data.cityofnewyork.us/resource/buis-pvji.json?objectid=682","geometry_precision_mix":"Row-level point from the adapter; source geocoding precision varies and may be approximate.:1","representation":"planning and built evidence grid cell","timing_note":"Filtered by event effective year. OSM mapped-visibility dates and administrative dates can differ from real-world physical change dates.","caveat":"Planning cells are derived from source-backed event locations; they are not parcel boundaries unless source geometry is separately present.","generated_from":"web/data/city-atlas/cities/nyc/events_1968.json","lifecycle_status":"uncertain","status":"source_record","cell_size_m":95,"intensity":0.289,"label":"Individual landmark designated: 312 East 53rd Street House"},"geometry":{"type":"Polygon","coordinates":[[[-73.9667629,40.7556478],[-73.9656363,40.7556478],[-73.9656363,40.756507],[-73.9667629,40.756507],[-73.9667629,40.7556478]]]}},{"type":"Feature","properties":{"id":"lens-detail-nyc-1968-planning_cell-23","layer":"planning_cell","category":"built_environment","year":1968,"visible_year":1968,"title":"1 source-backed planning and built record","confidence":"documented","confidence_mix":"documented:1","event_count":1,"source_count":1,"source_ids":"buis-pvji","event_ids":"nyc_lpc_individual_landmark_709","event_ids_all":"nyc_lpc_individual_landmark_709","source_urls":"https://data.cityofnewyork.us/resource/buis-pvji.json?objectid=709","geometry_precision_mix":"Row-level point from the adapter; source geocoding precision varies and may be approximate.:1","representation":"planning and built evidence grid cell","timing_note":"Filtered by event effective year. OSM mapped-visibility dates and administrative dates can differ from real-world physical change dates.","caveat":"Planning cells are derived from source-backed event locations; they are not parcel boundaries unless source geometry is separately present.","generated_from":"web/data/city-atlas/cities/nyc/events_1968.json","lifecycle_status":"uncertain","status":"source_record","cell_size_m":95,"intensity":0.289,"label":"Individual landmark designated: Willard and Dorothy Whitney Straight House"},"geometry":{"type":"Polygon","coordinates":[[[-73.9566231,40.7857182],[-73.9554964,40.7857182],[-73.9554964,40.7865773],[-73.9566231,40.7865773],[-73.9566231,40.7857182]]]}},{"type":"Feature","properties":{"id":"lens-detail-nyc-1968-planning_cell-24","layer":"planning_cell","category":"built_environment","year":1968,"visible_year":1968,"title":"1 source-backed planning and built record","confidence":"documented","confidence_mix":"documented:1","event_count":1,"source_count":1,"source_ids":"buis-pvji","event_ids":"nyc_lpc_individual_landmark_796","event_ids_all":"nyc_lpc_individual_landmark_796","source_urls":"https://data.cityofnewyork.us/resource/buis-pvji.json?objectid=796","geometry_precision_mix":"Row-level point from the adapter; source geocoding precision varies and may be approximate.:1","representation":"planning and built evidence grid cell","timing_note":"Filtered by event effective year. OSM mapped-visibility dates and administrative dates can differ from real-world physical change dates.","caveat":"Planning cells are derived from source-backed event locations; they are not parcel boundaries unless source geometry is separately present.","generated_from":"web/data/city-atlas/cities/nyc/events_1968.json","lifecycle_status":"uncertain","status":"source_record","cell_size_m":95,"intensity":0.289,"label":"Individual landmark designated: George and Martha Whitney House"},"geometry":{"type":"Polygon","coordinates":[[[-73.960003,40.7754083],[-73.9588764,40.7754083],[-73.9588764,40.7762675],[-73.960003,40.7762675],[-73.960003,40.7754083]]]}},{"type":"Feature","properties":{"id":"lens-detail-nyc-1968-planning_cell-25","layer":"planning_cell","category":"built_environment","year":1968,"visible_year":1968,"title":"1 source-backed planning and built record","confidence":"documented","confidence_mix":"documented:1","event_count":1,"source_count":1,"source_ids":"buis-pvji","event_ids":"nyc_lpc_individual_landmark_866","event_ids_all":"nyc_lpc_individual_landmark_866","source_urls":"https://data.cityofnewyork.us/resource/buis-pvji.json?objectid=866","geometry_precision_mix":"Row-level point from the adapter; source geocoding precision varies and may be approximate.:1","representation":"planning and built evidence grid cell","timing_note":"Filtered by event effective year. OSM mapped-visibility dates and administrative dates can differ from real-world physical change dates.","caveat":"Planning cells are derived from source-backed event locations; they are not parcel boundaries unless source geometry is separately present.","generated_from":"web/data/city-atlas/cities/nyc/events_1968.json","lifecycle_status":"uncertain","status":"source_record","cell_size_m":95,"intensity":0.289,"label":"Individual landmark designated: Emmanuel Baptist Church"},"geometry":{"type":"Polygon","coordinates":[[[-73.9656363,40.6877747],[-73.9645096,40.6877747],[-73.9645096,40.6886339],[-73.9656363,40.6886339],[-73.9656363,40.6877747]]]}},{"type":"Feature","properties":{"id":"lens-detail-nyc-1968-planning_cell-26","layer":"planning_cell","category":"built_environment","year":1968,"visible_year":1968,"title":"1 source-backed planning and built record","confidence":"documented","confidence_mix":"documented:1","event_count":1,"source_count":1,"source_ids":"buis-pvji","event_ids":"nyc_lpc_individual_landmark_87","event_ids_all":"nyc_lpc_individual_landmark_87","source_urls":"https://data.cityofnewyork.us/resource/buis-pvji.json?objectid=87","geometry_precision_mix":"Row-level point from the adapter; source geocoding precision varies and may be approximate.:1","representation":"planning and built evidence grid cell","timing_note":"Filtered by event effective year. OSM mapped-visibility dates and administrative dates can differ from real-world physical change dates.","caveat":"Planning cells are derived from source-backed event locations; they are not parcel boundaries unless source geometry is separately present.","generated_from":"web/data/city-atlas/cities/nyc/events_1968.json","lifecycle_status":"uncertain","status":"source_record","cell_size_m":95,"intensity":0.289,"label":"Individual landmark designated: Flushing Town Hall"},"geometry":{"type":"Polygon","coordinates":[[[-73.8304384,40.7633802],[-73.8293117,40.7633802],[-73.8293117,40.7642393],[-73.8304384,40.7642393],[-73.8304384,40.7633802]]]}},{"type":"Feature","properties":{"id":"lens-detail-nyc-1968-planning_cell-27","layer":"planning_cell","category":"built_environment","year":1968,"visible_year":1968,"title":"1 source-backed planning and built record","confidence":"documented","confidence_mix":"documented:1","event_count":1,"source_count":1,"source_ids":"buis-pvji","event_ids":"nyc_lpc_individual_landmark_882","event_ids_all":"nyc_lpc_individual_landmark_882","source_urls":"https://data.cityofnewyork.us/resource/buis-pvji.json?objectid=882","geometry_precision_mix":"Row-level point from the adapter; source geocoding precision varies and may be approximate.:1","representation":"planning and built evidence grid cell","timing_note":"Filtered by event effective year. OSM mapped-visibility dates and administrative dates can differ from real-world physical change dates.","caveat":"Planning cells are derived from source-backed event locations; they are not parcel boundaries unless source geometry is separately present.","generated_from":"web/data/city-atlas/cities/nyc/events_1968.json","lifecycle_status":"uncertain","status":"source_record","cell_size_m":95,"intensity":0.289,"label":"Individual landmark designated: Joseph Steele House"},"geometry":{"type":"Polygon","coordinates":[[[-73.9690162,40.6869155],[-73.9678896,40.6869155],[-73.9678896,40.6877747],[-73.9690162,40.6877747],[-73.9690162,40.6869155]]]}},{"type":"Feature","properties":{"id":"lens-detail-nyc-1968-planning_cell-28","layer":"planning_cell","category":"built_environment","year":1968,"visible_year":1968,"title":"1 source-backed planning and built record","confidence":"documented","confidence_mix":"documented:1","event_count":1,"source_count":1,"source_ids":"buis-pvji","event_ids":"nyc_lpc_individual_landmark_895","event_ids_all":"nyc_lpc_individual_landmark_895","source_urls":"https://data.cityofnewyork.us/resource/buis-pvji.json?objectid=895","geometry_precision_mix":"Row-level point from the adapter; source geocoding precision varies and may be approximate.:1","representation":"planning and built evidence grid cell","timing_note":"Filtered by event effective year. OSM mapped-visibility dates and administrative dates can differ from real-world physical change dates.","caveat":"Planning cells are derived from source-backed event locations; they are not parcel boundaries unless source geometry is separately present.","generated_from":"web/data/city-atlas/cities/nyc/events_1968.json","lifecycle_status":"uncertain","status":"source_record","cell_size_m":95,"intensity":0.289,"label":"Individual landmark designated: Reformed Church of South Bushwick"},"geometry":{"type":"Polygon","coordinates":[[[-73.9262036,40.6937888],[-73.9250769,40.6937888],[-73.9250769,40.6946479],[-73.9262036,40.6946479],[-73.9262036,40.6937888]]]}},{"type":"Feature","properties":{"id":"lens-detail-nyc-1968-planning_cell-29","layer":"planning_cell","category":"built_environment","year":1968,"visible_year":1968,"title":"1 source-backed planning and built record","confidence":"documented","confidence_mix":"documented:1","event_count":1,"source_count":1,"source_ids":"buis-pvji","event_ids":"nyc_lpc_individual_landmark_910","event_ids_all":"nyc_lpc_individual_landmark_910","source_urls":"https://data.cityofnewyork.us/resource/buis-pvji.json?objectid=910","geometry_precision_mix":"Row-level point from the adapter; source geocoding precision varies and may be approximate.:1","representation":"planning and built evidence grid cell","timing_note":"Filtered by event effective year. OSM mapped-visibility dates and administrative dates can differ from real-world physical change dates.","caveat":"Planning cells are derived from source-backed event locations; they are not parcel boundaries unless source geometry is separately present.","generated_from":"web/data/city-atlas/cities/nyc/events_1968.json","lifecycle_status":"uncertain","status":"source_record","cell_size_m":95,"intensity":0.289,"label":"Individual landmark designated: Henry and Abraham Wyckoff House"},"geometry":{"type":"Polygon","coordinates":[[[-73.9521165,40.6104509],[-73.9509898,40.6104509],[-73.9509898,40.6113101],[-73.9521165,40.6113101],[-73.9521165,40.6104509]]]}},{"type":"Feature","properties":{"id":"lens-detail-nyc-1968-planning_cell-4","layer":"planning_cell","category":"built_environment","year":1968,"visible_year":1968,"title":"1 source-backed planning and built record","confidence":"documented","confidence_mix":"documented:1","event_count":1,"source_count":1,"source_ids":"buis-pvji","event_ids":"nyc_lpc_individual_landmark_1085","event_ids_all":"nyc_lpc_individual_landmark_1085","source_urls":"https://data.cityofnewyork.us/resource/buis-pvji.json?objectid=1085","geometry_precision_mix":"Row-level point from the adapter; source geocoding precision varies and may be approximate.:1","representation":"planning and built evidence grid cell","timing_note":"Filtered by event effective year. OSM mapped-visibility dates and administrative dates can differ from real-world physical change dates.","caveat":"Planning cells are derived from source-backed event locations; they are not parcel boundaries unless source geometry is separately present.","generated_from":"web/data/city-atlas/cities/nyc/events_1968.json","lifecycle_status":"uncertain","status":"source_record","cell_size_m":95,"intensity":0.289,"label":"Individual landmark designated: Rockefeller Fountain, New York Zoological Park"},"geometry":{"type":"Polygon","coordinates":[[[-73.8777577,40.8535913],[-73.876631,40.8535913],[-73.876631,40.8544504],[-73.8777577,40.8544504],[-73.8777577,40.8535913]]]}},{"type":"Feature","properties":{"id":"lens-detail-nyc-1968-planning_cell-5","layer":"planning_cell","category":"built_environment","year":1968,"visible_year":1968,"title":"1 source-backed planning and built record","confidence":"documented","confidence_mix":"documented:1","event_count":1,"source_count":1,"source_ids":"buis-pvji","event_ids":"nyc_lpc_individual_landmark_1114","event_ids_all":"nyc_lpc_individual_landmark_1114","source_urls":"https://data.cityofnewyork.us/resource/buis-pvji.json?objectid=1114","geometry_precision_mix":"Row-level point from the adapter; source geocoding precision varies and may be approximate.:1","representation":"planning and built evidence grid cell","timing_note":"Filtered by event effective year. OSM mapped-visibility dates and administrative dates can differ from real-world physical change dates.","caveat":"Planning cells are derived from source-backed event locations; they are not parcel boundaries unless source geometry is separately present.","generated_from":"web/data/city-atlas/cities/nyc/events_1968.json","lifecycle_status":"uncertain","status":"source_record","cell_size_m":95,"intensity":0.289,"label":"Individual landmark designated: David Latourette House"},"geometry":{"type":"Polygon","coordinates":[[[-74.1470268,40.5760848],[-74.1459001,40.5760848],[-74.1459001,40.5769439],[-74.1470268,40.5769439],[-74.1470268,40.5760848]]]}},{"type":"Feature","properties":{"id":"lens-detail-nyc-1968-planning_cell-6","layer":"planning_cell","category":"built_environment","year":1968,"visible_year":1968,"title":"1 source-backed planning and built record","confidence":"documented","confidence_mix":"documented:1","event_count":1,"source_count":1,"source_ids":"buis-pvji","event_ids":"nyc_lpc_individual_landmark_1115","event_ids_all":"nyc_lpc_individual_landmark_1115","source_urls":"https://data.cityofnewyork.us/resource/buis-pvji.json?objectid=1115","geometry_precision_mix":"Row-level point from the adapter; source geocoding precision varies and may be approximate.:1","representation":"planning and built evidence grid cell","timing_note":"Filtered by event effective year. OSM mapped-visibility dates and administrative dates can differ from real-world physical change dates.","caveat":"Planning cells are derived from source-backed event locations; they are not parcel boundaries unless source geometry is separately present.","generated_from":"web/data/city-atlas/cities/nyc/events_1968.json","lifecycle_status":"uncertain","status":"source_record","cell_size_m":95,"intensity":0.289,"label":"Individual landmark designated: Staten Island Lighthouse"},"geometry":{"type":"Polygon","coordinates":[[[-74.1413935,40.5760848],[-74.1402669,40.5760848],[-74.1402669,40.5769439],[-74.1413935,40.5769439],[-74.1413935,40.5760848]]]}},{"type":"Feature","properties":{"id":"lens-detail-nyc-1968-planning_cell-7","layer":"planning_cell","category":"built_environment","year":1968,"visible_year":1968,"title":"1 source-backed planning and built record","confidence":"documented","confidence_mix":"documented:1","event_count":1,"source_count":1,"source_ids":"buis-pvji","event_ids":"nyc_lpc_individual_landmark_1118","event_ids_all":"nyc_lpc_individual_landmark_1118","source_urls":"https://data.cityofnewyork.us/resource/buis-pvji.json?objectid=1118","geometry_precision_mix":"Row-level point from the adapter; source geocoding precision varies and may be approximate.:1","representation":"planning and built evidence grid cell","timing_note":"Filtered by event effective year. OSM mapped-visibility dates and administrative dates can differ from real-world physical change dates.","caveat":"Planning cells are derived from source-backed event locations; they are not parcel boundaries unless source geometry is separately present.","generated_from":"web/data/city-atlas/cities/nyc/events_1968.json","lifecycle_status":"uncertain","status":"source_record","cell_size_m":95,"intensity":0.289,"label":"Individual landmark designated: Croquet Shelter"},"geometry":{"type":"Polygon","coordinates":[[[-73.9678896,40.6525494],[-73.9667629,40.6525494],[-73.9667629,40.6534086],[-73.9678896,40.6534086],[-73.9678896,40.6525494]]]}},{"type":"Feature","properties":{"id":"lens-detail-nyc-1968-planning_cell-9","layer":"planning_cell","category":"built_environment","year":1968,"visible_year":1968,"title":"1 source-backed planning and built record","confidence":"documented","confidence_mix":"documented:1","event_count":1,"source_count":1,"source_ids":"buis-pvji","event_ids":"nyc_lpc_individual_landmark_1175","event_ids_all":"nyc_lpc_individual_landmark_1175","source_urls":"https://data.cityofnewyork.us/resource/buis-pvji.json?objectid=1175","geometry_precision_mix":"Row-level point from the adapter; source geocoding precision varies and may be approximate.:1","representation":"planning and built evidence grid cell","timing_note":"Filtered by event effective year. OSM mapped-visibility dates and administrative dates can differ from real-world physical change dates.","caveat":"Planning cells are derived from source-backed event locations; they are not parcel boundaries unless source geometry is separately present.","generated_from":"web/data/city-atlas/cities/nyc/events_1968.json","lifecycle_status":"uncertain","status":"source_record","cell_size_m":95,"intensity":0.289,"label":"Individual landmark designated: Edgewater Village Hall"},"geometry":{"type":"Polygon","coordinates":[[[-74.0783012,40.6267748],[-74.0771745,40.6267748],[-74.0771745,40.627634],[-74.0783012,40.627634],[-74.0783012,40.6267748]]]}}]}
