{"type":"FeatureCollection","name":"nyc_lens_detail_1998","metadata":{"schema_version":"1.0.0","city_id":"nyc","year":1998,"generated_at":"2026-05-20T03:30:53.168Z","source_paths":["web/data/city-atlas/cities/nyc/events_1998.json","web/data/city-atlas/cities/nyc/events.json","web/data/city-atlas/cities/nyc/transport_roads_base.geojson"],"method":"Derived OpenCityLog lens geometry built from source-backed event points plus existing OSM road/detail geometry. Grid cells aggregate events by effective year. Trace lines reuse nearest mapped road geometry for context.","caveats":["Derived cells are evidence grids, not surveyed parcels, catchments, zones, or administrative boundaries.","Trace lines are nearest mapped street or work-location context, not surveyed utility networks, measured traffic speed, spend, vacancy, or service quality. No capacity data is inferred.","Borough, citywide, statistical, corridor, and multi-site records are excluded from site-like lens geometry; they remain available in the event list and evidence records.","OSM mapped-visibility dates and administrative decision dates can differ from real-world physical change dates."],"feature_layers":{"planning_cell":28},"excluded_non_site_record_count":0,"excluded_non_site_reasons":{}},"features":[{"type":"Feature","properties":{"id":"lens-detail-nyc-1998-planning_cell-3","layer":"planning_cell","category":"built_environment","year":1998,"visible_year":1998,"title":"4 source-backed planning and built records","confidence":"documented","confidence_mix":"documented:4","event_count":4,"source_count":1,"source_ids":"buis-pvji","event_ids":"nyc_lpc_individual_landmark_137,nyc_lpc_individual_landmark_261,nyc_lpc_individual_landmark_364,nyc_lpc_individual_landmark_741","event_ids_all":"nyc_lpc_individual_landmark_137,nyc_lpc_individual_landmark_261,nyc_lpc_individual_landmark_364,nyc_lpc_individual_landmark_741","source_urls":"https://data.cityofnewyork.us/resource/buis-pvji.json?objectid=137,https://data.cityofnewyork.us/resource/buis-pvji.json?objectid=261,https://data.cityofnewyork.us/resource/buis-pvji.json?objectid=364,https://data.cityofnewyork.us/resource/buis-pvji.json?objectid=741","geometry_precision_mix":"Row-level point from the adapter; source geocoding precision varies and may be approximate.:4","representation":"planning and built evidence grid cell","timing_note":"Filtered by event effective year. OSM mapped-visibility dates and administrative dates can differ from real-world physical change dates.","caveat":"Planning cells are derived from source-backed event locations; they are not parcel boundaries unless source geometry is separately present.","generated_from":"web/data/city-atlas/cities/nyc/events_1998.json","lifecycle_status":"uncertain","status":"source_record","cell_size_m":95,"intensity":0.671,"label":"Individual landmark designated: 504 Canal Street House"},"geometry":{"type":"Polygon","coordinates":[[[-74.0104613,40.7238591],[-74.0093353,40.7238591],[-74.0093353,40.7247183],[-74.0104613,40.7247183],[-74.0104613,40.7238591]]]}},{"type":"Feature","properties":{"id":"lens-detail-nyc-1998-planning_cell-0","layer":"planning_cell","category":"built_environment","year":1998,"visible_year":1998,"title":"1 source-backed planning and built record","confidence":"documented","confidence_mix":"documented:1","event_count":1,"source_count":1,"source_ids":"skyk-mpzq","event_ids":"nyc_lpc_historic_district_lp-01976","event_ids_all":"nyc_lpc_historic_district_lp-01976","source_urls":"https://data.cityofnewyork.us/resource/skyk-mpzq.json?lp_number=LP-01976","geometry_precision_mix":"Row-level point from the adapter; source geocoding precision varies and may be approximate.:1","representation":"planning and built evidence grid cell","timing_note":"Filtered by event effective year. OSM mapped-visibility dates and administrative dates can differ from real-world physical change dates.","caveat":"Planning cells are derived from source-backed event locations; they are not parcel boundaries unless source geometry is separately present.","generated_from":"web/data/city-atlas/cities/nyc/events_1998.json","lifecycle_status":"uncertain","status":"source_record","cell_size_m":95,"intensity":0.289,"label":"Historic district designated: East 17th Street / Irving Place Historic District"},"geometry":{"type":"Polygon","coordinates":[[[-73.9879424,40.7350281],[-73.9868165,40.7350281],[-73.9868165,40.7358873],[-73.9879424,40.7358873],[-73.9879424,40.7350281]]]}},{"type":"Feature","properties":{"id":"lens-detail-nyc-1998-planning_cell-1","layer":"planning_cell","category":"built_environment","year":1998,"visible_year":1998,"title":"1 source-backed planning and built record","confidence":"documented","confidence_mix":"documented:1","event_count":1,"source_count":1,"source_ids":"skyk-mpzq","event_ids":"nyc_lpc_historic_district_lp-01985","event_ids_all":"nyc_lpc_historic_district_lp-01985","source_urls":"https://data.cityofnewyork.us/resource/skyk-mpzq.json?lp_number=LP-01985","geometry_precision_mix":"Row-level point from the adapter; source geocoding precision varies and may be approximate.:1","representation":"planning and built evidence grid cell","timing_note":"Filtered by event effective year. OSM mapped-visibility dates and administrative dates can differ from real-world physical change dates.","caveat":"Planning cells are derived from source-backed event locations; they are not parcel boundaries unless source geometry is separately present.","generated_from":"web/data/city-atlas/cities/nyc/events_1998.json","lifecycle_status":"uncertain","status":"source_record","cell_size_m":95,"intensity":0.289,"label":"Historic district designated: Hardenbergh/Rhinelander Historic District"},"geometry":{"type":"Polygon","coordinates":[[[-73.9552901,40.7814224],[-73.9541641,40.7814224],[-73.9541641,40.7822815],[-73.9552901,40.7822815],[-73.9552901,40.7814224]]]}},{"type":"Feature","properties":{"id":"lens-detail-nyc-1998-planning_cell-10","layer":"planning_cell","category":"built_environment","year":1998,"visible_year":1998,"title":"1 source-backed planning and built record","confidence":"documented","confidence_mix":"documented:1","event_count":1,"source_count":1,"source_ids":"buis-pvji","event_ids":"nyc_lpc_individual_landmark_494","event_ids_all":"nyc_lpc_individual_landmark_494","source_urls":"https://data.cityofnewyork.us/resource/buis-pvji.json?objectid=494","geometry_precision_mix":"Row-level point from the adapter; source geocoding precision varies and may be approximate.:1","representation":"planning and built evidence grid cell","timing_note":"Filtered by event effective year. OSM mapped-visibility dates and administrative dates can differ from real-world physical change dates.","caveat":"Planning cells are derived from source-backed event locations; they are not parcel boundaries unless source geometry is separately present.","generated_from":"web/data/city-atlas/cities/nyc/events_1998.json","lifecycle_status":"uncertain","status":"source_record","cell_size_m":95,"intensity":0.289,"label":"Individual landmark designated: 21 West Street Building"},"geometry":{"type":"Polygon","coordinates":[[[-74.016091,40.7058169],[-74.014965,40.7058169],[-74.014965,40.7066761],[-74.016091,40.7066761],[-74.016091,40.7058169]]]}},{"type":"Feature","properties":{"id":"lens-detail-nyc-1998-planning_cell-11","layer":"planning_cell","category":"built_environment","year":1998,"visible_year":1998,"title":"1 source-backed planning and built record","confidence":"documented","confidence_mix":"documented:1","event_count":1,"source_count":1,"source_ids":"buis-pvji","event_ids":"nyc_lpc_individual_landmark_549","event_ids_all":"nyc_lpc_individual_landmark_549","source_urls":"https://data.cityofnewyork.us/resource/buis-pvji.json?objectid=549","geometry_precision_mix":"Row-level point from the adapter; source geocoding precision varies and may be approximate.:1","representation":"planning and built evidence grid cell","timing_note":"Filtered by event effective year. OSM mapped-visibility dates and administrative dates can differ from real-world physical change dates.","caveat":"Planning cells are derived from source-backed event locations; they are not parcel boundaries unless source geometry is separately present.","generated_from":"web/data/city-atlas/cities/nyc/events_1998.json","lifecycle_status":"uncertain","status":"source_record","cell_size_m":95,"intensity":0.289,"label":"Individual landmark designated: St. Mary's Protestant Episcopal Church, Parish House, and Sunday School"},"geometry":{"type":"Polygon","coordinates":[[[-73.956416,40.8149294],[-73.9552901,40.8149294],[-73.9552901,40.8157885],[-73.956416,40.8157885],[-73.956416,40.8149294]]]}},{"type":"Feature","properties":{"id":"lens-detail-nyc-1998-planning_cell-12","layer":"planning_cell","category":"built_environment","year":1998,"visible_year":1998,"title":"1 source-backed planning and built record","confidence":"documented","confidence_mix":"documented:1","event_count":1,"source_count":1,"source_ids":"buis-pvji","event_ids":"nyc_lpc_individual_landmark_580","event_ids_all":"nyc_lpc_individual_landmark_580","source_urls":"https://data.cityofnewyork.us/resource/buis-pvji.json?objectid=580","geometry_precision_mix":"Row-level point from the adapter; source geocoding precision varies and may be approximate.:1","representation":"planning and built evidence grid cell","timing_note":"Filtered by event effective year. OSM mapped-visibility dates and administrative dates can differ from real-world physical change dates.","caveat":"Planning cells are derived from source-backed event locations; they are not parcel boundaries unless source geometry is separately present.","generated_from":"web/data/city-atlas/cities/nyc/events_1998.json","lifecycle_status":"uncertain","status":"source_record","cell_size_m":95,"intensity":0.289,"label":"Individual landmark designated: Temple Court Building and Annex"},"geometry":{"type":"Polygon","coordinates":[[[-74.0070834,40.7109718],[-74.0059575,40.7109718],[-74.0059575,40.711831],[-74.0070834,40.711831],[-74.0070834,40.7109718]]]}},{"type":"Feature","properties":{"id":"lens-detail-nyc-1998-planning_cell-13","layer":"planning_cell","category":"built_environment","year":1998,"visible_year":1998,"title":"1 source-backed planning and built record","confidence":"documented","confidence_mix":"documented:1","event_count":1,"source_count":1,"source_ids":"buis-pvji","event_ids":"nyc_lpc_individual_landmark_596","event_ids_all":"nyc_lpc_individual_landmark_596","source_urls":"https://data.cityofnewyork.us/resource/buis-pvji.json?objectid=596","geometry_precision_mix":"Row-level point from the adapter; source geocoding precision varies and may be approximate.:1","representation":"planning and built evidence grid cell","timing_note":"Filtered by event effective year. OSM mapped-visibility dates and administrative dates can differ from real-world physical change dates.","caveat":"Planning cells are derived from source-backed event locations; they are not parcel boundaries unless source geometry is separately present.","generated_from":"web/data/city-atlas/cities/nyc/events_1998.json","lifecycle_status":"uncertain","status":"source_record","cell_size_m":95,"intensity":0.289,"label":"Individual landmark designated: Fire Engine Company 55"},"geometry":{"type":"Polygon","coordinates":[[[-73.995824,40.7195634],[-73.9946981,40.7195634],[-73.9946981,40.7204225],[-73.995824,40.7204225],[-73.995824,40.7195634]]]}},{"type":"Feature","properties":{"id":"lens-detail-nyc-1998-planning_cell-14","layer":"planning_cell","category":"built_environment","year":1998,"visible_year":1998,"title":"1 source-backed planning and built record","confidence":"documented","confidence_mix":"documented:1","event_count":1,"source_count":1,"source_ids":"buis-pvji","event_ids":"nyc_lpc_individual_landmark_607","event_ids_all":"nyc_lpc_individual_landmark_607","source_urls":"https://data.cityofnewyork.us/resource/buis-pvji.json?objectid=607","geometry_precision_mix":"Row-level point from the adapter; source geocoding precision varies and may be approximate.:1","representation":"planning and built evidence grid cell","timing_note":"Filtered by event effective year. OSM mapped-visibility dates and administrative dates can differ from real-world physical change dates.","caveat":"Planning cells are derived from source-backed event locations; they are not parcel boundaries unless source geometry is separately present.","generated_from":"web/data/city-atlas/cities/nyc/events_1998.json","lifecycle_status":"uncertain","status":"source_record","cell_size_m":95,"intensity":0.289,"label":"Individual landmark designated: Young Men's Institute Building"},"geometry":{"type":"Polygon","coordinates":[[[-73.9946981,40.7212817],[-73.9935721,40.7212817],[-73.9935721,40.7221408],[-73.9946981,40.7221408],[-73.9946981,40.7212817]]]}},{"type":"Feature","properties":{"id":"lens-detail-nyc-1998-planning_cell-15","layer":"planning_cell","category":"built_environment","year":1998,"visible_year":1998,"title":"1 source-backed planning and built record","confidence":"documented","confidence_mix":"documented:1","event_count":1,"source_count":1,"source_ids":"buis-pvji","event_ids":"nyc_lpc_individual_landmark_610","event_ids_all":"nyc_lpc_individual_landmark_610","source_urls":"https://data.cityofnewyork.us/resource/buis-pvji.json?objectid=610","geometry_precision_mix":"Row-level point from the adapter; source geocoding precision varies and may be approximate.:1","representation":"planning and built evidence grid cell","timing_note":"Filtered by event effective year. OSM mapped-visibility dates and administrative dates can differ from real-world physical change dates.","caveat":"Planning cells are derived from source-backed event locations; they are not parcel boundaries unless source geometry is separately present.","generated_from":"web/data/city-atlas/cities/nyc/events_1998.json","lifecycle_status":"uncertain","status":"source_record","cell_size_m":95,"intensity":0.289,"label":"Individual landmark designated: Bank of New York & Trust Company Building"},"geometry":{"type":"Polygon","coordinates":[[[-74.0093353,40.7058169],[-74.0082094,40.7058169],[-74.0082094,40.7066761],[-74.0093353,40.7066761],[-74.0093353,40.7058169]]]}},{"type":"Feature","properties":{"id":"lens-detail-nyc-1998-planning_cell-16","layer":"planning_cell","category":"built_environment","year":1998,"visible_year":1998,"title":"1 source-backed planning and built record","confidence":"documented","confidence_mix":"documented:1","event_count":1,"source_count":1,"source_ids":"buis-pvji","event_ids":"nyc_lpc_individual_landmark_652","event_ids_all":"nyc_lpc_individual_landmark_652","source_urls":"https://data.cityofnewyork.us/resource/buis-pvji.json?objectid=652","geometry_precision_mix":"Row-level point from the adapter; source geocoding precision varies and may be approximate.:1","representation":"planning and built evidence grid cell","timing_note":"Filtered by event effective year. OSM mapped-visibility dates and administrative dates can differ from real-world physical change dates.","caveat":"Planning cells are derived from source-backed event locations; they are not parcel boundaries unless source geometry is separately present.","generated_from":"web/data/city-atlas/cities/nyc/events_1998.json","lifecycle_status":"uncertain","status":"source_record","cell_size_m":95,"intensity":0.289,"label":"Individual landmark designated: East River Savings Bank"},"geometry":{"type":"Polygon","coordinates":[[[-73.9699273,40.7934505],[-73.9688014,40.7934505],[-73.9688014,40.7943097],[-73.9699273,40.7943097],[-73.9699273,40.7934505]]]}},{"type":"Feature","properties":{"id":"lens-detail-nyc-1998-planning_cell-17","layer":"planning_cell","category":"built_environment","year":1998,"visible_year":1998,"title":"1 source-backed planning and built record","confidence":"documented","confidence_mix":"documented:1","event_count":1,"source_count":1,"source_ids":"buis-pvji","event_ids":"nyc_lpc_individual_landmark_691","event_ids_all":"nyc_lpc_individual_landmark_691","source_urls":"https://data.cityofnewyork.us/resource/buis-pvji.json?objectid=691","geometry_precision_mix":"Row-level point from the adapter; source geocoding precision varies and may be approximate.:1","representation":"planning and built evidence grid cell","timing_note":"Filtered by event effective year. OSM mapped-visibility dates and administrative dates can differ from real-world physical change dates.","caveat":"Planning cells are derived from source-backed event locations; they are not parcel boundaries unless source geometry is separately present.","generated_from":"web/data/city-atlas/cities/nyc/events_1998.json","lifecycle_status":"uncertain","status":"source_record","cell_size_m":95,"intensity":0.289,"label":"Individual landmark designated: Fire Engine Company 39 and Ladder Company 16 Station House"},"geometry":{"type":"Polygon","coordinates":[[[-73.9642976,40.7668168],[-73.9631717,40.7668168],[-73.9631717,40.7676759],[-73.9642976,40.7676759],[-73.9642976,40.7668168]]]}},{"type":"Feature","properties":{"id":"lens-detail-nyc-1998-planning_cell-18","layer":"planning_cell","category":"built_environment","year":1998,"visible_year":1998,"title":"1 source-backed planning and built record","confidence":"documented","confidence_mix":"documented:1","event_count":1,"source_count":1,"source_ids":"buis-pvji","event_ids":"nyc_lpc_individual_landmark_732","event_ids_all":"nyc_lpc_individual_landmark_732","source_urls":"https://data.cityofnewyork.us/resource/buis-pvji.json?objectid=732","geometry_precision_mix":"Row-level point from the adapter; source geocoding precision varies and may be approximate.:1","representation":"planning and built evidence grid cell","timing_note":"Filtered by event effective year. OSM mapped-visibility dates and administrative dates can differ from real-world physical change dates.","caveat":"Planning cells are derived from source-backed event locations; they are not parcel boundaries unless source geometry is separately present.","generated_from":"web/data/city-atlas/cities/nyc/events_1998.json","lifecycle_status":"uncertain","status":"source_record","cell_size_m":95,"intensity":0.289,"label":"Individual landmark designated: 23rd Police Precinct Station House"},"geometry":{"type":"Polygon","coordinates":[[[-73.9924462,40.7470563],[-73.9913202,40.7470563],[-73.9913202,40.7479154],[-73.9924462,40.7479154],[-73.9924462,40.7470563]]]}},{"type":"Feature","properties":{"id":"lens-detail-nyc-1998-planning_cell-19","layer":"planning_cell","category":"built_environment","year":1998,"visible_year":1998,"title":"1 source-backed planning and built record","confidence":"documented","confidence_mix":"documented:1","event_count":1,"source_count":1,"source_ids":"buis-pvji","event_ids":"nyc_lpc_individual_landmark_733","event_ids_all":"nyc_lpc_individual_landmark_733","source_urls":"https://data.cityofnewyork.us/resource/buis-pvji.json?objectid=733","geometry_precision_mix":"Row-level point from the adapter; source geocoding precision varies and may be approximate.:1","representation":"planning and built evidence grid cell","timing_note":"Filtered by event effective year. OSM mapped-visibility dates and administrative dates can differ from real-world physical change dates.","caveat":"Planning cells are derived from source-backed event locations; they are not parcel boundaries unless source geometry is separately present.","generated_from":"web/data/city-atlas/cities/nyc/events_1998.json","lifecycle_status":"uncertain","status":"source_record","cell_size_m":95,"intensity":0.289,"label":"Individual landmark designated: Young Men's Christian Association Building, 135th Street Branch"},"geometry":{"type":"Polygon","coordinates":[[[-73.9440306,40.8140702],[-73.9429047,40.8140702],[-73.9429047,40.8149294],[-73.9440306,40.8149294],[-73.9440306,40.8140702]]]}},{"type":"Feature","properties":{"id":"lens-detail-nyc-1998-planning_cell-2","layer":"planning_cell","category":"built_environment","year":1998,"visible_year":1998,"title":"1 source-backed planning and built record","confidence":"documented","confidence_mix":"documented:1","event_count":1,"source_count":1,"source_ids":"buis-pvji","event_ids":"nyc_lpc_individual_landmark_1292","event_ids_all":"nyc_lpc_individual_landmark_1292","source_urls":"https://data.cityofnewyork.us/resource/buis-pvji.json?objectid=1292","geometry_precision_mix":"Row-level point from the adapter; source geocoding precision varies and may be approximate.:1","representation":"planning and built evidence grid cell","timing_note":"Filtered by event effective year. OSM mapped-visibility dates and administrative dates can differ from real-world physical change dates.","caveat":"Planning cells are derived from source-backed event locations; they are not parcel boundaries unless source geometry is separately present.","generated_from":"web/data/city-atlas/cities/nyc/events_1998.json","lifecycle_status":"uncertain","status":"source_record","cell_size_m":95,"intensity":0.289,"label":"Individual landmark designated: Public School 28"},"geometry":{"type":"Polygon","coordinates":[[[-74.1444484,40.5700707],[-74.1433225,40.5700707],[-74.1433225,40.5709299],[-74.1444484,40.5709299],[-74.1444484,40.5700707]]]}},{"type":"Feature","properties":{"id":"lens-detail-nyc-1998-planning_cell-20","layer":"planning_cell","category":"built_environment","year":1998,"visible_year":1998,"title":"1 source-backed planning and built record","confidence":"documented","confidence_mix":"documented:1","event_count":1,"source_count":1,"source_ids":"buis-pvji","event_ids":"nyc_lpc_individual_landmark_791","event_ids_all":"nyc_lpc_individual_landmark_791","source_urls":"https://data.cityofnewyork.us/resource/buis-pvji.json?objectid=791","geometry_precision_mix":"Row-level point from the adapter; source geocoding precision varies and may be approximate.:1","representation":"planning and built evidence grid cell","timing_note":"Filtered by event effective year. OSM mapped-visibility dates and administrative dates can differ from real-world physical change dates.","caveat":"Planning cells are derived from source-backed event locations; they are not parcel boundaries unless source geometry is separately present.","generated_from":"web/data/city-atlas/cities/nyc/events_1998.json","lifecycle_status":"uncertain","status":"source_record","cell_size_m":95,"intensity":0.289,"label":"Individual landmark designated: Panhellenic Tower"},"geometry":{"type":"Polygon","coordinates":[[[-73.9665495,40.7530703],[-73.9654235,40.7530703],[-73.9654235,40.7539295],[-73.9665495,40.7539295],[-73.9665495,40.7530703]]]}},{"type":"Feature","properties":{"id":"lens-detail-nyc-1998-planning_cell-21","layer":"planning_cell","category":"built_environment","year":1998,"visible_year":1998,"title":"1 source-backed planning and built record","confidence":"documented","confidence_mix":"documented:1","event_count":1,"source_count":1,"source_ids":"buis-pvji","event_ids":"nyc_lpc_individual_landmark_814","event_ids_all":"nyc_lpc_individual_landmark_814","source_urls":"https://data.cityofnewyork.us/resource/buis-pvji.json?objectid=814","geometry_precision_mix":"Row-level point from the adapter; source geocoding precision varies and may be approximate.:1","representation":"planning and built evidence grid cell","timing_note":"Filtered by event effective year. OSM mapped-visibility dates and administrative dates can differ from real-world physical change dates.","caveat":"Planning cells are derived from source-backed event locations; they are not parcel boundaries unless source geometry is separately present.","generated_from":"web/data/city-atlas/cities/nyc/events_1998.json","lifecycle_status":"uncertain","status":"source_record","cell_size_m":95,"intensity":0.289,"label":"Individual landmark designated: 14th Regiment Armory"},"geometry":{"type":"Polygon","coordinates":[[[-73.9834386,40.6628593],[-73.9823127,40.6628593],[-73.9823127,40.6637184],[-73.9834386,40.6637184],[-73.9834386,40.6628593]]]}},{"type":"Feature","properties":{"id":"lens-detail-nyc-1998-planning_cell-22","layer":"planning_cell","category":"built_environment","year":1998,"visible_year":1998,"title":"1 source-backed planning and built record","confidence":"documented","confidence_mix":"documented:1","event_count":1,"source_count":1,"source_ids":"buis-pvji","event_ids":"nyc_lpc_individual_landmark_852","event_ids_all":"nyc_lpc_individual_landmark_852","source_urls":"https://data.cityofnewyork.us/resource/buis-pvji.json?objectid=852","geometry_precision_mix":"Row-level point from the adapter; source geocoding precision varies and may be approximate.:1","representation":"planning and built evidence grid cell","timing_note":"Filtered by event effective year. OSM mapped-visibility dates and administrative dates can differ from real-world physical change dates.","caveat":"Planning cells are derived from source-backed event locations; they are not parcel boundaries unless source geometry is separately present.","generated_from":"web/data/city-atlas/cities/nyc/events_1998.json","lifecycle_status":"uncertain","status":"source_record","cell_size_m":95,"intensity":0.289,"label":"Individual landmark designated: Brooklyn Public Library, Park Slope Branch"},"geometry":{"type":"Polygon","coordinates":[[[-73.9834386,40.6680142],[-73.9823127,40.6680142],[-73.9823127,40.6688733],[-73.9834386,40.6688733],[-73.9834386,40.6680142]]]}},{"type":"Feature","properties":{"id":"lens-detail-nyc-1998-planning_cell-23","layer":"planning_cell","category":"built_environment","year":1998,"visible_year":1998,"title":"1 source-backed planning and built record","confidence":"documented","confidence_mix":"documented:1","event_count":1,"source_count":1,"source_ids":"buis-pvji","event_ids":"nyc_lpc_individual_landmark_853","event_ids_all":"nyc_lpc_individual_landmark_853","source_urls":"https://data.cityofnewyork.us/resource/buis-pvji.json?objectid=853","geometry_precision_mix":"Row-level point from the adapter; source geocoding precision varies and may be approximate.:1","representation":"planning and built evidence grid cell","timing_note":"Filtered by event effective year. OSM mapped-visibility dates and administrative dates can differ from real-world physical change dates.","caveat":"Planning cells are derived from source-backed event locations; they are not parcel boundaries unless source geometry is separately present.","generated_from":"web/data/city-atlas/cities/nyc/events_1998.json","lifecycle_status":"uncertain","status":"source_record","cell_size_m":95,"intensity":0.289,"label":"Individual landmark designated: New Utrecht Reformed Dutch Church and Parish House, Expanded Landmark Site"},"geometry":{"type":"Polygon","coordinates":[[[-74.0014537,40.6078735],[-74.0003278,40.6078735],[-74.0003278,40.6087326],[-74.0014537,40.6087326],[-74.0014537,40.6078735]]]}},{"type":"Feature","properties":{"id":"lens-detail-nyc-1998-planning_cell-24","layer":"planning_cell","category":"built_environment","year":1998,"visible_year":1998,"title":"1 source-backed planning and built record","confidence":"documented","confidence_mix":"documented:1","event_count":1,"source_count":1,"source_ids":"buis-pvji","event_ids":"nyc_lpc_individual_landmark_856","event_ids_all":"nyc_lpc_individual_landmark_856","source_urls":"https://data.cityofnewyork.us/resource/buis-pvji.json?objectid=856","geometry_precision_mix":"Row-level point from the adapter; source geocoding precision varies and may be approximate.:1","representation":"planning and built evidence grid cell","timing_note":"Filtered by event effective year. OSM mapped-visibility dates and administrative dates can differ from real-world physical change dates.","caveat":"Planning cells are derived from source-backed event locations; they are not parcel boundaries unless source geometry is separately present.","generated_from":"web/data/city-atlas/cities/nyc/events_1998.json","lifecycle_status":"uncertain","status":"source_record","cell_size_m":95,"intensity":0.289,"label":"Individual landmark designated: New Utrecht Reformed Dutch Church Cemetery"},"geometry":{"type":"Polygon","coordinates":[[[-74.0059575,40.6104509],[-74.0048315,40.6104509],[-74.0048315,40.6113101],[-74.0059575,40.6113101],[-74.0059575,40.6104509]]]}},{"type":"Feature","properties":{"id":"lens-detail-nyc-1998-planning_cell-25","layer":"planning_cell","category":"built_environment","year":1998,"visible_year":1998,"title":"1 source-backed planning and built record","confidence":"documented","confidence_mix":"documented:1","event_count":1,"source_count":1,"source_ids":"buis-pvji","event_ids":"nyc_lpc_individual_landmark_862","event_ids_all":"nyc_lpc_individual_landmark_862","source_urls":"https://data.cityofnewyork.us/resource/buis-pvji.json?objectid=862","geometry_precision_mix":"Row-level point from the adapter; source geocoding precision varies and may be approximate.:1","representation":"planning and built evidence grid cell","timing_note":"Filtered by event effective year. OSM mapped-visibility dates and administrative dates can differ from real-world physical change dates.","caveat":"Planning cells are derived from source-backed event locations; they are not parcel boundaries unless source geometry is separately present.","generated_from":"web/data/city-atlas/cities/nyc/events_1998.json","lifecycle_status":"uncertain","status":"source_record","cell_size_m":95,"intensity":0.289,"label":"Individual landmark designated: Fire Engine Company 253"},"geometry":{"type":"Polygon","coordinates":[[[-73.9890683,40.5984228],[-73.9879424,40.5984228],[-73.9879424,40.5992819],[-73.9890683,40.5992819],[-73.9890683,40.5984228]]]}},{"type":"Feature","properties":{"id":"lens-detail-nyc-1998-planning_cell-26","layer":"planning_cell","category":"built_environment","year":1998,"visible_year":1998,"title":"1 source-backed planning and built record","confidence":"documented","confidence_mix":"documented:1","event_count":1,"source_count":1,"source_ids":"buis-pvji","event_ids":"nyc_lpc_individual_landmark_927","event_ids_all":"nyc_lpc_individual_landmark_927","source_urls":"https://data.cityofnewyork.us/resource/buis-pvji.json?objectid=927","geometry_precision_mix":"Row-level point from the adapter; source geocoding precision varies and may be approximate.:1","representation":"planning and built evidence grid cell","timing_note":"Filtered by event effective year. OSM mapped-visibility dates and administrative dates can differ from real-world physical change dates.","caveat":"Planning cells are derived from source-backed event locations; they are not parcel boundaries unless source geometry is separately present.","generated_from":"web/data/city-atlas/cities/nyc/events_1998.json","lifecycle_status":"uncertain","status":"source_record","cell_size_m":95,"intensity":0.289,"label":"Individual landmark designated: Colored School No. 3"},"geometry":{"type":"Polygon","coordinates":[[[-73.9507863,40.7083944],[-73.9496604,40.7083944],[-73.9496604,40.7092535],[-73.9507863,40.7092535],[-73.9507863,40.7083944]]]}},{"type":"Feature","properties":{"id":"lens-detail-nyc-1998-planning_cell-27","layer":"planning_cell","category":"built_environment","year":1998,"visible_year":1998,"title":"1 source-backed planning and built record","confidence":"documented","confidence_mix":"documented:1","event_count":1,"source_count":1,"source_ids":"buis-pvji","event_ids":"nyc_lpc_individual_landmark_957","event_ids_all":"nyc_lpc_individual_landmark_957","source_urls":"https://data.cityofnewyork.us/resource/buis-pvji.json?objectid=957","geometry_precision_mix":"Row-level point from the adapter; source geocoding precision varies and may be approximate.:1","representation":"planning and built evidence grid cell","timing_note":"Filtered by event effective year. OSM mapped-visibility dates and administrative dates can differ from real-world physical change dates.","caveat":"Planning cells are derived from source-backed event locations; they are not parcel boundaries unless source geometry is separately present.","generated_from":"web/data/city-atlas/cities/nyc/events_1998.json","lifecycle_status":"uncertain","status":"source_record","cell_size_m":95,"intensity":0.289,"label":"Individual landmark designated: New York Public Library, Morrisania Branch"},"geometry":{"type":"Polygon","coordinates":[[[-73.9023708,40.8312533],[-73.9012448,40.8312533],[-73.9012448,40.8321124],[-73.9023708,40.8321124],[-73.9023708,40.8312533]]]}},{"type":"Feature","properties":{"id":"lens-detail-nyc-1998-planning_cell-4","layer":"planning_cell","category":"built_environment","year":1998,"visible_year":1998,"title":"1 source-backed planning and built record","confidence":"documented","confidence_mix":"documented:1","event_count":1,"source_count":1,"source_ids":"buis-pvji","event_ids":"nyc_lpc_individual_landmark_234","event_ids_all":"nyc_lpc_individual_landmark_234","source_urls":"https://data.cityofnewyork.us/resource/buis-pvji.json?objectid=234","geometry_precision_mix":"Row-level point from the adapter; source geocoding precision varies and may be approximate.:1","representation":"planning and built evidence grid cell","timing_note":"Filtered by event effective year. OSM mapped-visibility dates and administrative dates can differ from real-world physical change dates.","caveat":"Planning cells are derived from source-backed event locations; they are not parcel boundaries unless source geometry is separately present.","generated_from":"web/data/city-atlas/cities/nyc/events_1998.json","lifecycle_status":"uncertain","status":"source_record","cell_size_m":95,"intensity":0.289,"label":"Individual landmark designated: Hotel Martinique"},"geometry":{"type":"Polygon","coordinates":[[[-73.9879424,40.7479154],[-73.9868165,40.7479154],[-73.9868165,40.7487746],[-73.9879424,40.7487746],[-73.9879424,40.7479154]]]}},{"type":"Feature","properties":{"id":"lens-detail-nyc-1998-planning_cell-5","layer":"planning_cell","category":"built_environment","year":1998,"visible_year":1998,"title":"1 source-backed planning and built record","confidence":"documented","confidence_mix":"documented:1","event_count":1,"source_count":1,"source_ids":"buis-pvji","event_ids":"nyc_lpc_individual_landmark_251","event_ids_all":"nyc_lpc_individual_landmark_251","source_urls":"https://data.cityofnewyork.us/resource/buis-pvji.json?objectid=251","geometry_precision_mix":"Row-level point from the adapter; source geocoding precision varies and may be approximate.:1","representation":"planning and built evidence grid cell","timing_note":"Filtered by event effective year. OSM mapped-visibility dates and administrative dates can differ from real-world physical change dates.","caveat":"Planning cells are derived from source-backed event locations; they are not parcel boundaries unless source geometry is separately present.","generated_from":"web/data/city-atlas/cities/nyc/events_1998.json","lifecycle_status":"uncertain","status":"source_record","cell_size_m":95,"intensity":0.289,"label":"Individual landmark designated: Gorham Building"},"geometry":{"type":"Polygon","coordinates":[[[-73.9845646,40.7496337],[-73.9834386,40.7496337],[-73.9834386,40.7504929],[-73.9845646,40.7504929],[-73.9845646,40.7496337]]]}},{"type":"Feature","properties":{"id":"lens-detail-nyc-1998-planning_cell-6","layer":"planning_cell","category":"built_environment","year":1998,"visible_year":1998,"title":"1 source-backed planning and built record","confidence":"documented","confidence_mix":"documented:1","event_count":1,"source_count":1,"source_ids":"buis-pvji","event_ids":"nyc_lpc_individual_landmark_292","event_ids_all":"nyc_lpc_individual_landmark_292","source_urls":"https://data.cityofnewyork.us/resource/buis-pvji.json?objectid=292","geometry_precision_mix":"Row-level point from the adapter; source geocoding precision varies and may be approximate.:1","representation":"planning and built evidence grid cell","timing_note":"Filtered by event effective year. OSM mapped-visibility dates and administrative dates can differ from real-world physical change dates.","caveat":"Planning cells are derived from source-backed event locations; they are not parcel boundaries unless source geometry is separately present.","generated_from":"web/data/city-atlas/cities/nyc/events_1998.json","lifecycle_status":"uncertain","status":"source_record","cell_size_m":95,"intensity":0.289,"label":"Individual landmark designated: West Street Building"},"geometry":{"type":"Polygon","coordinates":[[[-74.014965,40.7092535],[-74.0138391,40.7092535],[-74.0138391,40.7101127],[-74.014965,40.7101127],[-74.014965,40.7092535]]]}},{"type":"Feature","properties":{"id":"lens-detail-nyc-1998-planning_cell-7","layer":"planning_cell","category":"built_environment","year":1998,"visible_year":1998,"title":"1 source-backed planning and built record","confidence":"documented","confidence_mix":"documented:1","event_count":1,"source_count":1,"source_ids":"buis-pvji","event_ids":"nyc_lpc_individual_landmark_320","event_ids_all":"nyc_lpc_individual_landmark_320","source_urls":"https://data.cityofnewyork.us/resource/buis-pvji.json?objectid=320","geometry_precision_mix":"Row-level point from the adapter; source geocoding precision varies and may be approximate.:1","representation":"planning and built evidence grid cell","timing_note":"Filtered by event effective year. OSM mapped-visibility dates and administrative dates can differ from real-world physical change dates.","caveat":"Planning cells are derived from source-backed event locations; they are not parcel boundaries unless source geometry is separately present.","generated_from":"web/data/city-atlas/cities/nyc/events_1998.json","lifecycle_status":"uncertain","status":"source_record","cell_size_m":95,"intensity":0.289,"label":"Individual landmark designated: James Hampden Robb and Cornelia Van Rennselaer Robb House"},"geometry":{"type":"Polygon","coordinates":[[[-73.9811867,40.7470563],[-73.9800608,40.7470563],[-73.9800608,40.7479154],[-73.9811867,40.7479154],[-73.9811867,40.7470563]]]}},{"type":"Feature","properties":{"id":"lens-detail-nyc-1998-planning_cell-8","layer":"planning_cell","category":"built_environment","year":1998,"visible_year":1998,"title":"1 source-backed planning and built record","confidence":"documented","confidence_mix":"documented:1","event_count":1,"source_count":1,"source_ids":"buis-pvji","event_ids":"nyc_lpc_individual_landmark_42","event_ids_all":"nyc_lpc_individual_landmark_42","source_urls":"https://data.cityofnewyork.us/resource/buis-pvji.json?objectid=42","geometry_precision_mix":"Row-level point from the adapter; source geocoding precision varies and may be approximate.:1","representation":"planning and built evidence grid cell","timing_note":"Filtered by event effective year. OSM mapped-visibility dates and administrative dates can differ from real-world physical change dates.","caveat":"Planning cells are derived from source-backed event locations; they are not parcel boundaries unless source geometry is separately present.","generated_from":"web/data/city-atlas/cities/nyc/events_1998.json","lifecycle_status":"uncertain","status":"source_record","cell_size_m":95,"intensity":0.289,"label":"Individual landmark designated: New York Public Library, Port Richmond Branch"},"geometry":{"type":"Polygon","coordinates":[[[-74.1320631,40.6370847],[-74.1309371,40.6370847],[-74.1309371,40.6379438],[-74.1320631,40.6379438],[-74.1320631,40.6370847]]]}},{"type":"Feature","properties":{"id":"lens-detail-nyc-1998-planning_cell-9","layer":"planning_cell","category":"built_environment","year":1998,"visible_year":1998,"title":"1 source-backed planning and built record","confidence":"documented","confidence_mix":"documented:1","event_count":1,"source_count":1,"source_ids":"buis-pvji","event_ids":"nyc_lpc_individual_landmark_485","event_ids_all":"nyc_lpc_individual_landmark_485","source_urls":"https://data.cityofnewyork.us/resource/buis-pvji.json?objectid=485","geometry_precision_mix":"Row-level point from the adapter; source geocoding precision varies and may be approximate.:1","representation":"planning and built evidence grid cell","timing_note":"Filtered by event effective year. OSM mapped-visibility dates and administrative dates can differ from real-world physical change dates.","caveat":"Planning cells are derived from source-backed event locations; they are not parcel boundaries unless source geometry is separately present.","generated_from":"web/data/city-atlas/cities/nyc/events_1998.json","lifecycle_status":"uncertain","status":"source_record","cell_size_m":95,"intensity":0.289,"label":"Individual landmark designated: Police Athletic League Building"},"geometry":{"type":"Polygon","coordinates":[[[-73.9924462,40.7333098],[-73.9913202,40.7333098],[-73.9913202,40.734169],[-73.9924462,40.734169],[-73.9924462,40.7333098]]]}}]}
