{"type":"FeatureCollection","name":"nyc_lens_detail_1993","metadata":{"schema_version":"1.0.0","city_id":"nyc","year":1993,"generated_at":"2026-05-27T18:21:36.357Z","source_paths":["web/data/city-atlas/cities/nyc/events_1993.json","web/data/city-atlas/cities/nyc/events.json","web/data/city-atlas/cities/nyc/transport_roads_base.geojson"],"method":"Derived OpenCityLog lens geometry built from source-backed event points plus existing OSM road/detail geometry. Grid cells aggregate events by effective year. Trace lines reuse nearest mapped road geometry for context.","caveats":["Derived cells are evidence grids, not surveyed parcels, catchments, zones, or administrative boundaries.","Trace lines are nearest mapped street or work-location context, not surveyed utility networks, measured traffic speed, spend, vacancy, or service quality. No capacity data is inferred.","When a lens/year has no same-category source-backed records, faint coverage-context grids keep the lens visible while explicitly recording the source gap. Those context features are not city-change events and are excluded from headline counts.","Borough, citywide, statistical, corridor, and multi-site records are excluded from site-like lens geometry; they remain available in the event list and evidence records.","OSM mapped-visibility dates and administrative decision dates can differ from real-world physical change dates."],"feature_layers":{"planning_cell":18,"economy_activity_cell":25,"utility_trace":12},"excluded_non_site_record_count":0,"excluded_non_site_reasons":{}},"features":[{"type":"Feature","properties":{"id":"lens-detail-nyc-1993-planning_cell-8","layer":"planning_cell","category":"built_environment","year":1993,"visible_year":1993,"title":"2 source-backed planning and built records","confidence":"documented","confidence_mix":"documented:2","event_count":2,"source_count":1,"source_ids":"buis-pvji","event_ids":"nyc_lpc_individual_landmark_512,nyc_lpc_individual_landmark_719","event_ids_all":"nyc_lpc_individual_landmark_512,nyc_lpc_individual_landmark_719","source_urls":"https://data.cityofnewyork.us/resource/buis-pvji.json?objectid=512,https://data.cityofnewyork.us/resource/buis-pvji.json?objectid=719","geometry_precision_mix":"Row-level point from the adapter; source geocoding precision varies and may be approximate.:2","representation":"planning and built evidence grid cell","timing_note":"Filtered by event effective year. OSM mapped-visibility dates and administrative dates can differ from real-world physical change dates.","caveat":"Planning cells are derived from source-backed event locations; they are not parcel boundaries unless source geometry is separately present.","generated_from":"web/data/city-atlas/cities/nyc/events_1993.json","lifecycle_status":"uncertain","status":"source_record","cell_size_m":95,"intensity":0.458,"label":"Individual landmark designated: Mother African Methodist Episcopal Zion Church"},"geometry":{"type":"Polygon","coordinates":[[[-73.9419767,40.8157885],[-73.94085,40.8157885],[-73.94085,40.8166477],[-73.9419767,40.8166477],[-73.9419767,40.8157885]]]}},{"type":"Feature","properties":{"id":"lens-detail-nyc-1993-planning_cell-0","layer":"planning_cell","category":"built_environment","year":1993,"visible_year":1993,"title":"1 source-backed planning and built record","confidence":"documented","confidence_mix":"documented:1","event_count":1,"source_count":1,"source_ids":"skyk-mpzq","event_ids":"nyc_lpc_historic_district_lp-01831","event_ids_all":"nyc_lpc_historic_district_lp-01831","source_urls":"https://data.cityofnewyork.us/resource/skyk-mpzq.json?lp_number=LP-01831","geometry_precision_mix":"Row-level point from the adapter; source geocoding precision varies and may be approximate.:1","representation":"planning and built evidence grid cell","timing_note":"Filtered by event effective year. OSM mapped-visibility dates and administrative dates can differ from real-world physical change dates.","caveat":"Planning cells are derived from source-backed event locations; they are not parcel boundaries unless source geometry is separately present.","generated_from":"web/data/city-atlas/cities/nyc/events_1993.json","lifecycle_status":"uncertain","status":"source_record","cell_size_m":95,"intensity":0.289,"label":"Historic district designated: Jackson Heights Historic District"},"geometry":{"type":"Polygon","coordinates":[[[-73.8856442,40.751352],[-73.8845176,40.751352],[-73.8845176,40.7522112],[-73.8856442,40.7522112],[-73.8856442,40.751352]]]}},{"type":"Feature","properties":{"id":"lens-detail-nyc-1993-planning_cell-1","layer":"planning_cell","category":"built_environment","year":1993,"visible_year":1993,"title":"1 source-backed planning and built record","confidence":"documented","confidence_mix":"documented:1","event_count":1,"source_count":1,"source_ids":"skyk-mpzq","event_ids":"nyc_lpc_historic_district_lp-01834","event_ids_all":"nyc_lpc_historic_district_lp-01834","source_urls":"https://data.cityofnewyork.us/resource/skyk-mpzq.json?lp_number=LP-01834","geometry_precision_mix":"Row-level point from the adapter; source geocoding precision varies and may be approximate.:1","representation":"planning and built evidence grid cell","timing_note":"Filtered by event effective year. OSM mapped-visibility dates and administrative dates can differ from real-world physical change dates.","caveat":"Planning cells are derived from source-backed event locations; they are not parcel boundaries unless source geometry is separately present.","generated_from":"web/data/city-atlas/cities/nyc/events_1993.json","lifecycle_status":"uncertain","status":"source_record","cell_size_m":95,"intensity":0.289,"label":"Historic district designated: Expanded Carnegie Hill Historic District"},"geometry":{"type":"Polygon","coordinates":[[[-73.9554964,40.7839999],[-73.9543698,40.7839999],[-73.9543698,40.784859],[-73.9554964,40.784859],[-73.9554964,40.7839999]]]}},{"type":"Feature","properties":{"id":"lens-detail-nyc-1993-planning_cell-10","layer":"planning_cell","category":"built_environment","year":1993,"visible_year":1993,"title":"1 source-backed planning and built record","confidence":"documented","confidence_mix":"documented:1","event_count":1,"source_count":1,"source_ids":"buis-pvji","event_ids":"nyc_lpc_individual_landmark_586","event_ids_all":"nyc_lpc_individual_landmark_586","source_urls":"https://data.cityofnewyork.us/resource/buis-pvji.json?objectid=586","geometry_precision_mix":"Row-level point from the adapter; source geocoding precision varies and may be approximate.:1","representation":"planning and built evidence grid cell","timing_note":"Filtered by event effective year. OSM mapped-visibility dates and administrative dates can differ from real-world physical change dates.","caveat":"Planning cells are derived from source-backed event locations; they are not parcel boundaries unless source geometry is separately present.","generated_from":"web/data/city-atlas/cities/nyc/events_1993.json","lifecycle_status":"uncertain","status":"source_record","cell_size_m":95,"intensity":0.289,"label":"Individual landmark designated: Washington Apartments"},"geometry":{"type":"Polygon","coordinates":[[[-73.9509898,40.8063378],[-73.9498632,40.8063378],[-73.9498632,40.807197],[-73.9509898,40.807197],[-73.9509898,40.8063378]]]}},{"type":"Feature","properties":{"id":"lens-detail-nyc-1993-planning_cell-11","layer":"planning_cell","category":"built_environment","year":1993,"visible_year":1993,"title":"1 source-backed planning and built record","confidence":"documented","confidence_mix":"documented:1","event_count":1,"source_count":1,"source_ids":"buis-pvji","event_ids":"nyc_lpc_individual_landmark_593","event_ids_all":"nyc_lpc_individual_landmark_593","source_urls":"https://data.cityofnewyork.us/resource/buis-pvji.json?objectid=593","geometry_precision_mix":"Row-level point from the adapter; source geocoding precision varies and may be approximate.:1","representation":"planning and built evidence grid cell","timing_note":"Filtered by event effective year. OSM mapped-visibility dates and administrative dates can differ from real-world physical change dates.","caveat":"Planning cells are derived from source-backed event locations; they are not parcel boundaries unless source geometry is separately present.","generated_from":"web/data/city-atlas/cities/nyc/events_1993.json","lifecycle_status":"uncertain","status":"source_record","cell_size_m":95,"intensity":0.289,"label":"Individual landmark designated: Louis N. Jaffe Art Theater (Yiddish Art Theater/Yiddish Folks Theater)"},"geometry":{"type":"Polygon","coordinates":[[[-73.9870426,40.7307324],[-73.985916,40.7307324],[-73.985916,40.7315915],[-73.9870426,40.7315915],[-73.9870426,40.7307324]]]}},{"type":"Feature","properties":{"id":"lens-detail-nyc-1993-planning_cell-12","layer":"planning_cell","category":"built_environment","year":1993,"visible_year":1993,"title":"1 source-backed planning and built record","confidence":"documented","confidence_mix":"documented:1","event_count":1,"source_count":1,"source_ids":"buis-pvji","event_ids":"nyc_lpc_individual_landmark_615","event_ids_all":"nyc_lpc_individual_landmark_615","source_urls":"https://data.cityofnewyork.us/resource/buis-pvji.json?objectid=615","geometry_precision_mix":"Row-level point from the adapter; source geocoding precision varies and may be approximate.:1","representation":"planning and built evidence grid cell","timing_note":"Filtered by event effective year. OSM mapped-visibility dates and administrative dates can differ from real-world physical change dates.","caveat":"Planning cells are derived from source-backed event locations; they are not parcel boundaries unless source geometry is separately present.","generated_from":"web/data/city-atlas/cities/nyc/events_1993.json","lifecycle_status":"uncertain","status":"source_record","cell_size_m":95,"intensity":0.289,"label":"Individual landmark designated: Waldorf-Astoria Hotel"},"geometry":{"type":"Polygon","coordinates":[[[-73.9735228,40.7556478],[-73.9723962,40.7556478],[-73.9723962,40.756507],[-73.9735228,40.756507],[-73.9735228,40.7556478]]]}},{"type":"Feature","properties":{"id":"lens-detail-nyc-1993-planning_cell-13","layer":"planning_cell","category":"built_environment","year":1993,"visible_year":1993,"title":"1 source-backed planning and built record","confidence":"documented","confidence_mix":"documented:1","event_count":1,"source_count":1,"source_ids":"buis-pvji","event_ids":"nyc_lpc_individual_landmark_617","event_ids_all":"nyc_lpc_individual_landmark_617","source_urls":"https://data.cityofnewyork.us/resource/buis-pvji.json?objectid=617","geometry_precision_mix":"Row-level point from the adapter; source geocoding precision varies and may be approximate.:1","representation":"planning and built evidence grid cell","timing_note":"Filtered by event effective year. OSM mapped-visibility dates and administrative dates can differ from real-world physical change dates.","caveat":"Planning cells are derived from source-backed event locations; they are not parcel boundaries unless source geometry is separately present.","generated_from":"web/data/city-atlas/cities/nyc/events_1993.json","lifecycle_status":"uncertain","status":"source_record","cell_size_m":95,"intensity":0.289,"label":"Individual landmark designated: Saint Philip's Protestant Episcopal Church"},"geometry":{"type":"Polygon","coordinates":[[[-73.9453566,40.8140702],[-73.94423,40.8140702],[-73.94423,40.8149294],[-73.9453566,40.8149294],[-73.9453566,40.8140702]]]}},{"type":"Feature","properties":{"id":"lens-detail-nyc-1993-planning_cell-14","layer":"planning_cell","category":"built_environment","year":1993,"visible_year":1993,"title":"1 source-backed planning and built record","confidence":"documented","confidence_mix":"documented:1","event_count":1,"source_count":1,"source_ids":"buis-pvji","event_ids":"nyc_lpc_individual_landmark_628","event_ids_all":"nyc_lpc_individual_landmark_628","source_urls":"https://data.cityofnewyork.us/resource/buis-pvji.json?objectid=628","geometry_precision_mix":"Row-level point from the adapter; source geocoding precision varies and may be approximate.:1","representation":"planning and built evidence grid cell","timing_note":"Filtered by event effective year. OSM mapped-visibility dates and administrative dates can differ from real-world physical change dates.","caveat":"Planning cells are derived from source-backed event locations; they are not parcel boundaries unless source geometry is separately present.","generated_from":"web/data/city-atlas/cities/nyc/events_1993.json","lifecycle_status":"uncertain","status":"source_record","cell_size_m":95,"intensity":0.289,"label":"Individual landmark designated: Mount Morris Bank Building"},"geometry":{"type":"Polygon","coordinates":[[[-73.9397234,40.8046195],[-73.9385967,40.8046195],[-73.9385967,40.8054787],[-73.9397234,40.8054787],[-73.9397234,40.8046195]]]}},{"type":"Feature","properties":{"id":"lens-detail-nyc-1993-planning_cell-15","layer":"planning_cell","category":"built_environment","year":1993,"visible_year":1993,"title":"1 source-backed planning and built record","confidence":"documented","confidence_mix":"documented:1","event_count":1,"source_count":1,"source_ids":"buis-pvji","event_ids":"nyc_lpc_individual_landmark_647","event_ids_all":"nyc_lpc_individual_landmark_647","source_urls":"https://data.cityofnewyork.us/resource/buis-pvji.json?objectid=647","geometry_precision_mix":"Row-level point from the adapter; source geocoding precision varies and may be approximate.:1","representation":"planning and built evidence grid cell","timing_note":"Filtered by event effective year. OSM mapped-visibility dates and administrative dates can differ from real-world physical change dates.","caveat":"Planning cells are derived from source-backed event locations; they are not parcel boundaries unless source geometry is separately present.","generated_from":"web/data/city-atlas/cities/nyc/events_1993.json","lifecycle_status":"uncertain","status":"source_record","cell_size_m":95,"intensity":0.289,"label":"Individual landmark designated: Hotel Theresa"},"geometry":{"type":"Polygon","coordinates":[[[-73.9498632,40.8080561],[-73.9487365,40.8080561],[-73.9487365,40.8089153],[-73.9498632,40.8089153],[-73.9498632,40.8080561]]]}},{"type":"Feature","properties":{"id":"lens-detail-nyc-1993-planning_cell-16","layer":"planning_cell","category":"built_environment","year":1993,"visible_year":1993,"title":"1 source-backed planning and built record","confidence":"documented","confidence_mix":"documented:1","event_count":1,"source_count":1,"source_ids":"buis-pvji","event_ids":"nyc_lpc_individual_landmark_925","event_ids_all":"nyc_lpc_individual_landmark_925","source_urls":"https://data.cityofnewyork.us/resource/buis-pvji.json?objectid=925","geometry_precision_mix":"Row-level point from the adapter; source geocoding precision varies and may be approximate.:1","representation":"planning and built evidence grid cell","timing_note":"Filtered by event effective year. OSM mapped-visibility dates and administrative dates can differ from real-world physical change dates.","caveat":"Planning cells are derived from source-backed event locations; they are not parcel boundaries unless source geometry is separately present.","generated_from":"web/data/city-atlas/cities/nyc/events_1993.json","lifecycle_status":"uncertain","status":"source_record","cell_size_m":95,"intensity":0.289,"label":"Individual landmark designated: 19th Police Precinct Station House and Stable"},"geometry":{"type":"Polygon","coordinates":[[[-73.94423,40.7195634],[-73.9431033,40.7195634],[-73.9431033,40.7204225],[-73.94423,40.7204225],[-73.94423,40.7195634]]]}},{"type":"Feature","properties":{"id":"lens-detail-nyc-1993-planning_cell-17","layer":"planning_cell","category":"built_environment","year":1993,"visible_year":1993,"title":"1 source-backed planning and built record","confidence":"documented","confidence_mix":"documented:1","event_count":1,"source_count":1,"source_ids":"buis-pvji","event_ids":"nyc_lpc_individual_landmark_980","event_ids_all":"nyc_lpc_individual_landmark_980","source_urls":"https://data.cityofnewyork.us/resource/buis-pvji.json?objectid=980","geometry_precision_mix":"Row-level point from the adapter; source geocoding precision varies and may be approximate.:1","representation":"planning and built evidence grid cell","timing_note":"Filtered by event effective year. OSM mapped-visibility dates and administrative dates can differ from real-world physical change dates.","caveat":"Planning cells are derived from source-backed event locations; they are not parcel boundaries unless source geometry is separately present.","generated_from":"web/data/city-atlas/cities/nyc/events_1993.json","lifecycle_status":"uncertain","status":"source_record","cell_size_m":95,"intensity":0.289,"label":"Individual landmark designated: Anthony Campagna Estate"},"geometry":{"type":"Polygon","coordinates":[[[-73.9115571,40.8965489],[-73.9104305,40.8965489],[-73.9104305,40.8974081],[-73.9115571,40.8974081],[-73.9115571,40.8965489]]]}},{"type":"Feature","properties":{"id":"lens-detail-nyc-1993-planning_cell-2","layer":"planning_cell","category":"built_environment","year":1993,"visible_year":1993,"title":"1 source-backed planning and built record","confidence":"documented","confidence_mix":"documented:1","event_count":1,"source_count":1,"source_ids":"skyk-mpzq","event_ids":"nyc_lpc_historic_district_lp-01901","event_ids_all":"nyc_lpc_historic_district_lp-01901","source_urls":"https://data.cityofnewyork.us/resource/skyk-mpzq.json?lp_number=LP-01901","geometry_precision_mix":"Row-level point from the adapter; source geocoding precision varies and may be approximate.:1","representation":"planning and built evidence grid cell","timing_note":"Filtered by event effective year. OSM mapped-visibility dates and administrative dates can differ from real-world physical change dates.","caveat":"Planning cells are derived from source-backed event locations; they are not parcel boundaries unless source geometry is separately present.","generated_from":"web/data/city-atlas/cities/nyc/events_1993.json","lifecycle_status":"uncertain","status":"source_record","cell_size_m":95,"intensity":0.289,"label":"Historic district designated: African Burial Ground & The Commons Historic District"},"geometry":{"type":"Polygon","coordinates":[[[-74.0061956,40.7126901],[-74.005069,40.7126901],[-74.005069,40.7135493],[-74.0061956,40.7135493],[-74.0061956,40.7126901]]]}},{"type":"Feature","properties":{"id":"lens-detail-nyc-1993-planning_cell-3","layer":"planning_cell","category":"built_environment","year":1993,"visible_year":1993,"title":"1 source-backed planning and built record","confidence":"documented","confidence_mix":"documented:1","event_count":1,"source_count":1,"source_ids":"skyk-mpzq","event_ids":"nyc_lpc_historic_district_lp-01902","event_ids_all":"nyc_lpc_historic_district_lp-01902","source_urls":"https://data.cityofnewyork.us/resource/skyk-mpzq.json?lp_number=LP-01902","geometry_precision_mix":"Row-level point from the adapter; source geocoding precision varies and may be approximate.:1","representation":"planning and built evidence grid cell","timing_note":"Filtered by event effective year. OSM mapped-visibility dates and administrative dates can differ from real-world physical change dates.","caveat":"Planning cells are derived from source-backed event locations; they are not parcel boundaries unless source geometry is separately present.","generated_from":"web/data/city-atlas/cities/nyc/events_1993.json","lifecycle_status":"uncertain","status":"source_record","cell_size_m":95,"intensity":0.289,"label":"Historic district designated: Ellis Island Historic District"},"geometry":{"type":"Polygon","coordinates":[[[-74.0411218,40.6980845],[-74.0399951,40.6980845],[-74.0399951,40.6989437],[-74.0411218,40.6989437],[-74.0411218,40.6980845]]]}},{"type":"Feature","properties":{"id":"lens-detail-nyc-1993-planning_cell-4","layer":"planning_cell","category":"built_environment","year":1993,"visible_year":1993,"title":"1 source-backed planning and built record","confidence":"documented","confidence_mix":"documented:1","event_count":1,"source_count":1,"source_ids":"buis-pvji","event_ids":"nyc_lpc_individual_landmark_1278","event_ids_all":"nyc_lpc_individual_landmark_1278","source_urls":"https://data.cityofnewyork.us/resource/buis-pvji.json?objectid=1278","geometry_precision_mix":"Row-level point from the adapter; source geocoding precision varies and may be approximate.:1","representation":"planning and built evidence grid cell","timing_note":"Filtered by event effective year. OSM mapped-visibility dates and administrative dates can differ from real-world physical change dates.","caveat":"Planning cells are derived from source-backed event locations; they are not parcel boundaries unless source geometry is separately present.","generated_from":"web/data/city-atlas/cities/nyc/events_1993.json","lifecycle_status":"uncertain","status":"source_record","cell_size_m":95,"intensity":0.289,"label":"Individual landmark designated: 409 Edgecombe Avenue Apartments"},"geometry":{"type":"Polygon","coordinates":[[[-73.94085,40.8286758],[-73.9397234,40.8286758],[-73.9397234,40.829535],[-73.94085,40.829535],[-73.94085,40.8286758]]]}},{"type":"Feature","properties":{"id":"lens-detail-nyc-1993-planning_cell-5","layer":"planning_cell","category":"built_environment","year":1993,"visible_year":1993,"title":"1 source-backed planning and built record","confidence":"documented","confidence_mix":"documented:1","event_count":1,"source_count":1,"source_ids":"buis-pvji","event_ids":"nyc_lpc_individual_landmark_170","event_ids_all":"nyc_lpc_individual_landmark_170","source_urls":"https://data.cityofnewyork.us/resource/buis-pvji.json?objectid=170","geometry_precision_mix":"Row-level point from the adapter; source geocoding precision varies and may be approximate.:1","representation":"planning and built evidence grid cell","timing_note":"Filtered by event effective year. OSM mapped-visibility dates and administrative dates can differ from real-world physical change dates.","caveat":"Planning cells are derived from source-backed event locations; they are not parcel boundaries unless source geometry is separately present.","generated_from":"web/data/city-atlas/cities/nyc/events_1993.json","lifecycle_status":"uncertain","status":"source_record","cell_size_m":95,"intensity":0.289,"label":"Individual landmark designated: Century Assocation Building"},"geometry":{"type":"Polygon","coordinates":[[[-73.9892959,40.7350281],[-73.9881693,40.7350281],[-73.9881693,40.7358873],[-73.9892959,40.7358873],[-73.9892959,40.7350281]]]}},{"type":"Feature","properties":{"id":"lens-detail-nyc-1993-planning_cell-6","layer":"planning_cell","category":"built_environment","year":1993,"visible_year":1993,"title":"1 source-backed planning and built record","confidence":"documented","confidence_mix":"documented:1","event_count":1,"source_count":1,"source_ids":"buis-pvji","event_ids":"nyc_lpc_individual_landmark_354","event_ids_all":"nyc_lpc_individual_landmark_354","source_urls":"https://data.cityofnewyork.us/resource/buis-pvji.json?objectid=354","geometry_precision_mix":"Row-level point from the adapter; source geocoding precision varies and may be approximate.:1","representation":"planning and built evidence grid cell","timing_note":"Filtered by event effective year. OSM mapped-visibility dates and administrative dates can differ from real-world physical change dates.","caveat":"Planning cells are derived from source-backed event locations; they are not parcel boundaries unless source geometry is separately present.","generated_from":"web/data/city-atlas/cities/nyc/events_1993.json","lifecycle_status":"uncertain","status":"source_record","cell_size_m":95,"intensity":0.289,"label":"Individual landmark designated: Fire Engine Company No. 7/Hook & Ladder Company No. 1"},"geometry":{"type":"Polygon","coordinates":[[[-74.0073223,40.7152676],[-74.0061956,40.7152676],[-74.0061956,40.7161268],[-74.0073223,40.7161268],[-74.0073223,40.7152676]]]}},{"type":"Feature","properties":{"id":"lens-detail-nyc-1993-planning_cell-7","layer":"planning_cell","category":"built_environment","year":1993,"visible_year":1993,"title":"1 source-backed planning and built record","confidence":"documented","confidence_mix":"documented:1","event_count":1,"source_count":1,"source_ids":"buis-pvji","event_ids":"nyc_lpc_individual_landmark_479","event_ids_all":"nyc_lpc_individual_landmark_479","source_urls":"https://data.cityofnewyork.us/resource/buis-pvji.json?objectid=479","geometry_precision_mix":"Row-level point from the adapter; source geocoding precision varies and may be approximate.:1","representation":"planning and built evidence grid cell","timing_note":"Filtered by event effective year. OSM mapped-visibility dates and administrative dates can differ from real-world physical change dates.","caveat":"Planning cells are derived from source-backed event locations; they are not parcel boundaries unless source geometry is separately present.","generated_from":"web/data/city-atlas/cities/nyc/events_1993.json","lifecycle_status":"uncertain","status":"source_record","cell_size_m":95,"intensity":0.289,"label":"Individual landmark designated: Joseph Loth & Company Silk Ribbon Mill"},"geometry":{"type":"Polygon","coordinates":[[[-73.9464832,40.8286758],[-73.9453566,40.8286758],[-73.9453566,40.829535],[-73.9464832,40.829535],[-73.9464832,40.8286758]]]}},{"type":"Feature","properties":{"id":"lens-detail-nyc-1993-planning_cell-9","layer":"planning_cell","category":"built_environment","year":1993,"visible_year":1993,"title":"1 source-backed planning and built record","confidence":"documented","confidence_mix":"documented:1","event_count":1,"source_count":1,"source_ids":"buis-pvji","event_ids":"nyc_lpc_individual_landmark_516","event_ids_all":"nyc_lpc_individual_landmark_516","source_urls":"https://data.cityofnewyork.us/resource/buis-pvji.json?objectid=516","geometry_precision_mix":"Row-level point from the adapter; source geocoding precision varies and may be approximate.:1","representation":"planning and built evidence grid cell","timing_note":"Filtered by event effective year. OSM mapped-visibility dates and administrative dates can differ from real-world physical change dates.","caveat":"Planning cells are derived from source-backed event locations; they are not parcel boundaries unless source geometry is separately present.","generated_from":"web/data/city-atlas/cities/nyc/events_1993.json","lifecycle_status":"uncertain","status":"source_record","cell_size_m":95,"intensity":0.289,"label":"Individual landmark designated: 555 Edgecombe Avenue Apartments"},"geometry":{"type":"Polygon","coordinates":[[[-73.9397234,40.8329716],[-73.9385967,40.8329716],[-73.9385967,40.8338307],[-73.9397234,40.8338307],[-73.9397234,40.8329716]]]}},{"type":"Feature","properties":{"id":"lens-detail-nyc-1993-economy_activity_cell-coverage-context-0","layer":"economy_activity_cell","category":"economy","year":1993,"visible_year":1993,"title":"New York City, New York 1993 economy coverage context","confidence":"inferred","confidence_mix":"inferred:1","event_count":0,"source_count":3,"source_ids":"as9z-kwsh,skyk-mpzq,buis-pvji","event_ids":"","event_ids_all":"","source_urls":"","geometry_precision_mix":"configured atlas coverage grid from official scope sources","representation":"economy lens coverage context","timing_note":"No license-compatible economy records are currently ingested for 1993; this lens geometry marks source coverage context only.","caveat":"Coverage context is not a city-change event, not a measured condition, and is excluded from headline counts.","generated_from":"web/data/city-atlas/cities/nyc/events_1993.json","coverage_status":"no_same_category_records","evidence_role":"context_not_year_specific_change_evidence","source_kind":"official_scope_context","headline_count_excluded":true,"intensity":0.16,"label":"No same-lens economy records currently ingested","sector":"coverage_context","activity_status":"no_year_records","status":"no_year_records"},"geometry":{"type":"Polygon","coordinates":[[[-74.2591,40.4774],[-74.14736,40.4774],[-74.14736,40.56544],[-74.2591,40.56544],[-74.2591,40.4774]]]}},{"type":"Feature","properties":{"id":"lens-detail-nyc-1993-economy_activity_cell-coverage-context-1","layer":"economy_activity_cell","category":"economy","year":1993,"visible_year":1993,"title":"New York City, New York 1993 economy coverage context","confidence":"inferred","confidence_mix":"inferred:1","event_count":0,"source_count":3,"source_ids":"as9z-kwsh,skyk-mpzq,buis-pvji","event_ids":"","event_ids_all":"","source_urls":"","geometry_precision_mix":"configured atlas coverage grid from official scope sources","representation":"economy lens coverage context","timing_note":"No license-compatible economy records are currently ingested for 1993; this lens geometry marks source coverage context only.","caveat":"Coverage context is not a city-change event, not a measured condition, and is excluded from headline counts.","generated_from":"web/data/city-atlas/cities/nyc/events_1993.json","coverage_status":"no_same_category_records","evidence_role":"context_not_year_specific_change_evidence","source_kind":"official_scope_context","headline_count_excluded":true,"intensity":0.16,"label":"No same-lens economy records currently ingested","sector":"coverage_context","activity_status":"no_year_records","status":"no_year_records"},"geometry":{"type":"Polygon","coordinates":[[[-74.14736,40.4774],[-74.03562,40.4774],[-74.03562,40.56544],[-74.14736,40.56544],[-74.14736,40.4774]]]}},{"type":"Feature","properties":{"id":"lens-detail-nyc-1993-economy_activity_cell-coverage-context-2","layer":"economy_activity_cell","category":"economy","year":1993,"visible_year":1993,"title":"New York City, New York 1993 economy coverage context","confidence":"inferred","confidence_mix":"inferred:1","event_count":0,"source_count":3,"source_ids":"as9z-kwsh,skyk-mpzq,buis-pvji","event_ids":"","event_ids_all":"","source_urls":"","geometry_precision_mix":"configured atlas coverage grid from official scope sources","representation":"economy lens coverage context","timing_note":"No license-compatible economy records are currently ingested for 1993; this lens geometry marks source coverage context only.","caveat":"Coverage context is not a city-change event, not a measured condition, and is excluded from headline counts.","generated_from":"web/data/city-atlas/cities/nyc/events_1993.json","coverage_status":"no_same_category_records","evidence_role":"context_not_year_specific_change_evidence","source_kind":"official_scope_context","headline_count_excluded":true,"intensity":0.16,"label":"No same-lens economy records currently ingested","sector":"coverage_context","activity_status":"no_year_records","status":"no_year_records"},"geometry":{"type":"Polygon","coordinates":[[[-74.03562,40.4774],[-73.92388,40.4774],[-73.92388,40.56544],[-74.03562,40.56544],[-74.03562,40.4774]]]}},{"type":"Feature","properties":{"id":"lens-detail-nyc-1993-economy_activity_cell-coverage-context-3","layer":"economy_activity_cell","category":"economy","year":1993,"visible_year":1993,"title":"New York City, New York 1993 economy coverage context","confidence":"inferred","confidence_mix":"inferred:1","event_count":0,"source_count":3,"source_ids":"as9z-kwsh,skyk-mpzq,buis-pvji","event_ids":"","event_ids_all":"","source_urls":"","geometry_precision_mix":"configured atlas coverage grid from official scope sources","representation":"economy lens coverage context","timing_note":"No license-compatible economy records are currently ingested for 1993; this lens geometry marks source coverage context only.","caveat":"Coverage context is not a city-change event, not a measured condition, and is excluded from headline counts.","generated_from":"web/data/city-atlas/cities/nyc/events_1993.json","coverage_status":"no_same_category_records","evidence_role":"context_not_year_specific_change_evidence","source_kind":"official_scope_context","headline_count_excluded":true,"intensity":0.16,"label":"No same-lens economy records currently ingested","sector":"coverage_context","activity_status":"no_year_records","status":"no_year_records"},"geometry":{"type":"Polygon","coordinates":[[[-73.92388,40.4774],[-73.81214,40.4774],[-73.81214,40.56544],[-73.92388,40.56544],[-73.92388,40.4774]]]}},{"type":"Feature","properties":{"id":"lens-detail-nyc-1993-economy_activity_cell-coverage-context-4","layer":"economy_activity_cell","category":"economy","year":1993,"visible_year":1993,"title":"New York City, New York 1993 economy coverage context","confidence":"inferred","confidence_mix":"inferred:1","event_count":0,"source_count":3,"source_ids":"as9z-kwsh,skyk-mpzq,buis-pvji","event_ids":"","event_ids_all":"","source_urls":"","geometry_precision_mix":"configured atlas coverage grid from official scope sources","representation":"economy lens coverage context","timing_note":"No license-compatible economy records are currently ingested for 1993; this lens geometry marks source coverage context only.","caveat":"Coverage context is not a city-change event, not a measured condition, and is excluded from headline counts.","generated_from":"web/data/city-atlas/cities/nyc/events_1993.json","coverage_status":"no_same_category_records","evidence_role":"context_not_year_specific_change_evidence","source_kind":"official_scope_context","headline_count_excluded":true,"intensity":0.16,"label":"No same-lens economy records currently ingested","sector":"coverage_context","activity_status":"no_year_records","status":"no_year_records"},"geometry":{"type":"Polygon","coordinates":[[[-73.81214,40.4774],[-73.7004,40.4774],[-73.7004,40.56544],[-73.81214,40.56544],[-73.81214,40.4774]]]}},{"type":"Feature","properties":{"id":"lens-detail-nyc-1993-economy_activity_cell-coverage-context-5","layer":"economy_activity_cell","category":"economy","year":1993,"visible_year":1993,"title":"New York City, New York 1993 economy coverage context","confidence":"inferred","confidence_mix":"inferred:1","event_count":0,"source_count":3,"source_ids":"as9z-kwsh,skyk-mpzq,buis-pvji","event_ids":"","event_ids_all":"","source_urls":"","geometry_precision_mix":"configured atlas coverage grid from official scope sources","representation":"economy lens coverage context","timing_note":"No license-compatible economy records are currently ingested for 1993; this lens geometry marks source coverage context only.","caveat":"Coverage context is not a city-change event, not a measured condition, and is excluded from headline counts.","generated_from":"web/data/city-atlas/cities/nyc/events_1993.json","coverage_status":"no_same_category_records","evidence_role":"context_not_year_specific_change_evidence","source_kind":"official_scope_context","headline_count_excluded":true,"intensity":0.16,"label":"No same-lens economy records currently ingested","sector":"coverage_context","activity_status":"no_year_records","status":"no_year_records"},"geometry":{"type":"Polygon","coordinates":[[[-74.2591,40.56544],[-74.14736,40.56544],[-74.14736,40.65348],[-74.2591,40.65348],[-74.2591,40.56544]]]}},{"type":"Feature","properties":{"id":"lens-detail-nyc-1993-economy_activity_cell-coverage-context-6","layer":"economy_activity_cell","category":"economy","year":1993,"visible_year":1993,"title":"New York City, New York 1993 economy coverage context","confidence":"inferred","confidence_mix":"inferred:1","event_count":0,"source_count":3,"source_ids":"as9z-kwsh,skyk-mpzq,buis-pvji","event_ids":"","event_ids_all":"","source_urls":"","geometry_precision_mix":"configured atlas coverage grid from official scope sources","representation":"economy lens coverage context","timing_note":"No license-compatible economy records are currently ingested for 1993; this lens geometry marks source coverage context only.","caveat":"Coverage context is not a city-change event, not a measured condition, and is excluded from headline counts.","generated_from":"web/data/city-atlas/cities/nyc/events_1993.json","coverage_status":"no_same_category_records","evidence_role":"context_not_year_specific_change_evidence","source_kind":"official_scope_context","headline_count_excluded":true,"intensity":0.16,"label":"No same-lens economy records currently ingested","sector":"coverage_context","activity_status":"no_year_records","status":"no_year_records"},"geometry":{"type":"Polygon","coordinates":[[[-74.14736,40.56544],[-74.03562,40.56544],[-74.03562,40.65348],[-74.14736,40.65348],[-74.14736,40.56544]]]}},{"type":"Feature","properties":{"id":"lens-detail-nyc-1993-economy_activity_cell-coverage-context-7","layer":"economy_activity_cell","category":"economy","year":1993,"visible_year":1993,"title":"New York City, New York 1993 economy coverage context","confidence":"inferred","confidence_mix":"inferred:1","event_count":0,"source_count":3,"source_ids":"as9z-kwsh,skyk-mpzq,buis-pvji","event_ids":"","event_ids_all":"","source_urls":"","geometry_precision_mix":"configured atlas coverage grid from official scope sources","representation":"economy lens coverage context","timing_note":"No license-compatible economy records are currently ingested for 1993; this lens geometry marks source coverage context only.","caveat":"Coverage context is not a city-change event, not a measured condition, and is excluded from headline counts.","generated_from":"web/data/city-atlas/cities/nyc/events_1993.json","coverage_status":"no_same_category_records","evidence_role":"context_not_year_specific_change_evidence","source_kind":"official_scope_context","headline_count_excluded":true,"intensity":0.16,"label":"No same-lens economy records currently ingested","sector":"coverage_context","activity_status":"no_year_records","status":"no_year_records"},"geometry":{"type":"Polygon","coordinates":[[[-74.03562,40.56544],[-73.92388,40.56544],[-73.92388,40.65348],[-74.03562,40.65348],[-74.03562,40.56544]]]}},{"type":"Feature","properties":{"id":"lens-detail-nyc-1993-economy_activity_cell-coverage-context-8","layer":"economy_activity_cell","category":"economy","year":1993,"visible_year":1993,"title":"New York City, New York 1993 economy coverage context","confidence":"inferred","confidence_mix":"inferred:1","event_count":0,"source_count":3,"source_ids":"as9z-kwsh,skyk-mpzq,buis-pvji","event_ids":"","event_ids_all":"","source_urls":"","geometry_precision_mix":"configured atlas coverage grid from official scope sources","representation":"economy lens coverage context","timing_note":"No license-compatible economy records are currently ingested for 1993; this lens geometry marks source coverage context only.","caveat":"Coverage context is not a city-change event, not a measured condition, and is excluded from headline counts.","generated_from":"web/data/city-atlas/cities/nyc/events_1993.json","coverage_status":"no_same_category_records","evidence_role":"context_not_year_specific_change_evidence","source_kind":"official_scope_context","headline_count_excluded":true,"intensity":0.16,"label":"No same-lens economy records currently ingested","sector":"coverage_context","activity_status":"no_year_records","status":"no_year_records"},"geometry":{"type":"Polygon","coordinates":[[[-73.92388,40.56544],[-73.81214,40.56544],[-73.81214,40.65348],[-73.92388,40.65348],[-73.92388,40.56544]]]}},{"type":"Feature","properties":{"id":"lens-detail-nyc-1993-economy_activity_cell-coverage-context-9","layer":"economy_activity_cell","category":"economy","year":1993,"visible_year":1993,"title":"New York City, New York 1993 economy coverage context","confidence":"inferred","confidence_mix":"inferred:1","event_count":0,"source_count":3,"source_ids":"as9z-kwsh,skyk-mpzq,buis-pvji","event_ids":"","event_ids_all":"","source_urls":"","geometry_precision_mix":"configured atlas coverage grid from official scope sources","representation":"economy lens coverage context","timing_note":"No license-compatible economy records are currently ingested for 1993; this lens geometry marks source coverage context only.","caveat":"Coverage context is not a city-change event, not a measured condition, and is excluded from headline counts.","generated_from":"web/data/city-atlas/cities/nyc/events_1993.json","coverage_status":"no_same_category_records","evidence_role":"context_not_year_specific_change_evidence","source_kind":"official_scope_context","headline_count_excluded":true,"intensity":0.16,"label":"No same-lens economy records currently ingested","sector":"coverage_context","activity_status":"no_year_records","status":"no_year_records"},"geometry":{"type":"Polygon","coordinates":[[[-73.81214,40.56544],[-73.7004,40.56544],[-73.7004,40.65348],[-73.81214,40.65348],[-73.81214,40.56544]]]}},{"type":"Feature","properties":{"id":"lens-detail-nyc-1993-economy_activity_cell-coverage-context-10","layer":"economy_activity_cell","category":"economy","year":1993,"visible_year":1993,"title":"New York City, New York 1993 economy coverage context","confidence":"inferred","confidence_mix":"inferred:1","event_count":0,"source_count":3,"source_ids":"as9z-kwsh,skyk-mpzq,buis-pvji","event_ids":"","event_ids_all":"","source_urls":"","geometry_precision_mix":"configured atlas coverage grid from official scope sources","representation":"economy lens coverage context","timing_note":"No license-compatible economy records are currently ingested for 1993; this lens geometry marks source coverage context only.","caveat":"Coverage context is not a city-change event, not a measured condition, and is excluded from headline counts.","generated_from":"web/data/city-atlas/cities/nyc/events_1993.json","coverage_status":"no_same_category_records","evidence_role":"context_not_year_specific_change_evidence","source_kind":"official_scope_context","headline_count_excluded":true,"intensity":0.16,"label":"No same-lens economy records currently ingested","sector":"coverage_context","activity_status":"no_year_records","status":"no_year_records"},"geometry":{"type":"Polygon","coordinates":[[[-74.2591,40.65348],[-74.14736,40.65348],[-74.14736,40.74152],[-74.2591,40.74152],[-74.2591,40.65348]]]}},{"type":"Feature","properties":{"id":"lens-detail-nyc-1993-economy_activity_cell-coverage-context-11","layer":"economy_activity_cell","category":"economy","year":1993,"visible_year":1993,"title":"New York City, New York 1993 economy coverage context","confidence":"inferred","confidence_mix":"inferred:1","event_count":0,"source_count":3,"source_ids":"as9z-kwsh,skyk-mpzq,buis-pvji","event_ids":"","event_ids_all":"","source_urls":"","geometry_precision_mix":"configured atlas coverage grid from official scope sources","representation":"economy lens coverage context","timing_note":"No license-compatible economy records are currently ingested for 1993; this lens geometry marks source coverage context only.","caveat":"Coverage context is not a city-change event, not a measured condition, and is excluded from headline counts.","generated_from":"web/data/city-atlas/cities/nyc/events_1993.json","coverage_status":"no_same_category_records","evidence_role":"context_not_year_specific_change_evidence","source_kind":"official_scope_context","headline_count_excluded":true,"intensity":0.16,"label":"No same-lens economy records currently ingested","sector":"coverage_context","activity_status":"no_year_records","status":"no_year_records"},"geometry":{"type":"Polygon","coordinates":[[[-74.14736,40.65348],[-74.03562,40.65348],[-74.03562,40.74152],[-74.14736,40.74152],[-74.14736,40.65348]]]}},{"type":"Feature","properties":{"id":"lens-detail-nyc-1993-economy_activity_cell-coverage-context-12","layer":"economy_activity_cell","category":"economy","year":1993,"visible_year":1993,"title":"New York City, New York 1993 economy coverage context","confidence":"inferred","confidence_mix":"inferred:1","event_count":0,"source_count":3,"source_ids":"as9z-kwsh,skyk-mpzq,buis-pvji","event_ids":"","event_ids_all":"","source_urls":"","geometry_precision_mix":"configured atlas coverage grid from official scope sources","representation":"economy lens coverage context","timing_note":"No license-compatible economy records are currently ingested for 1993; this lens geometry marks source coverage context only.","caveat":"Coverage context is not a city-change event, not a measured condition, and is excluded from headline counts.","generated_from":"web/data/city-atlas/cities/nyc/events_1993.json","coverage_status":"no_same_category_records","evidence_role":"context_not_year_specific_change_evidence","source_kind":"official_scope_context","headline_count_excluded":true,"intensity":0.16,"label":"No same-lens economy records currently ingested","sector":"coverage_context","activity_status":"no_year_records","status":"no_year_records"},"geometry":{"type":"Polygon","coordinates":[[[-74.03562,40.65348],[-73.92388,40.65348],[-73.92388,40.74152],[-74.03562,40.74152],[-74.03562,40.65348]]]}},{"type":"Feature","properties":{"id":"lens-detail-nyc-1993-economy_activity_cell-coverage-context-13","layer":"economy_activity_cell","category":"economy","year":1993,"visible_year":1993,"title":"New York City, New York 1993 economy coverage context","confidence":"inferred","confidence_mix":"inferred:1","event_count":0,"source_count":3,"source_ids":"as9z-kwsh,skyk-mpzq,buis-pvji","event_ids":"","event_ids_all":"","source_urls":"","geometry_precision_mix":"configured atlas coverage grid from official scope sources","representation":"economy lens coverage context","timing_note":"No license-compatible economy records are currently ingested for 1993; this lens geometry marks source coverage context only.","caveat":"Coverage context is not a city-change event, not a measured condition, and is excluded from headline counts.","generated_from":"web/data/city-atlas/cities/nyc/events_1993.json","coverage_status":"no_same_category_records","evidence_role":"context_not_year_specific_change_evidence","source_kind":"official_scope_context","headline_count_excluded":true,"intensity":0.16,"label":"No same-lens economy records currently ingested","sector":"coverage_context","activity_status":"no_year_records","status":"no_year_records"},"geometry":{"type":"Polygon","coordinates":[[[-73.92388,40.65348],[-73.81214,40.65348],[-73.81214,40.74152],[-73.92388,40.74152],[-73.92388,40.65348]]]}},{"type":"Feature","properties":{"id":"lens-detail-nyc-1993-economy_activity_cell-coverage-context-14","layer":"economy_activity_cell","category":"economy","year":1993,"visible_year":1993,"title":"New York City, New York 1993 economy coverage context","confidence":"inferred","confidence_mix":"inferred:1","event_count":0,"source_count":3,"source_ids":"as9z-kwsh,skyk-mpzq,buis-pvji","event_ids":"","event_ids_all":"","source_urls":"","geometry_precision_mix":"configured atlas coverage grid from official scope sources","representation":"economy lens coverage context","timing_note":"No license-compatible economy records are currently ingested for 1993; this lens geometry marks source coverage context only.","caveat":"Coverage context is not a city-change event, not a measured condition, and is excluded from headline counts.","generated_from":"web/data/city-atlas/cities/nyc/events_1993.json","coverage_status":"no_same_category_records","evidence_role":"context_not_year_specific_change_evidence","source_kind":"official_scope_context","headline_count_excluded":true,"intensity":0.16,"label":"No same-lens economy records currently ingested","sector":"coverage_context","activity_status":"no_year_records","status":"no_year_records"},"geometry":{"type":"Polygon","coordinates":[[[-73.81214,40.65348],[-73.7004,40.65348],[-73.7004,40.74152],[-73.81214,40.74152],[-73.81214,40.65348]]]}},{"type":"Feature","properties":{"id":"lens-detail-nyc-1993-economy_activity_cell-coverage-context-15","layer":"economy_activity_cell","category":"economy","year":1993,"visible_year":1993,"title":"New York City, New York 1993 economy coverage context","confidence":"inferred","confidence_mix":"inferred:1","event_count":0,"source_count":3,"source_ids":"as9z-kwsh,skyk-mpzq,buis-pvji","event_ids":"","event_ids_all":"","source_urls":"","geometry_precision_mix":"configured atlas coverage grid from official scope sources","representation":"economy lens coverage context","timing_note":"No license-compatible economy records are currently ingested for 1993; this lens geometry marks source coverage context only.","caveat":"Coverage context is not a city-change event, not a measured condition, and is excluded from headline counts.","generated_from":"web/data/city-atlas/cities/nyc/events_1993.json","coverage_status":"no_same_category_records","evidence_role":"context_not_year_specific_change_evidence","source_kind":"official_scope_context","headline_count_excluded":true,"intensity":0.16,"label":"No same-lens economy records currently ingested","sector":"coverage_context","activity_status":"no_year_records","status":"no_year_records"},"geometry":{"type":"Polygon","coordinates":[[[-74.2591,40.74152],[-74.14736,40.74152],[-74.14736,40.82956],[-74.2591,40.82956],[-74.2591,40.74152]]]}},{"type":"Feature","properties":{"id":"lens-detail-nyc-1993-economy_activity_cell-coverage-context-16","layer":"economy_activity_cell","category":"economy","year":1993,"visible_year":1993,"title":"New York City, New York 1993 economy coverage context","confidence":"inferred","confidence_mix":"inferred:1","event_count":0,"source_count":3,"source_ids":"as9z-kwsh,skyk-mpzq,buis-pvji","event_ids":"","event_ids_all":"","source_urls":"","geometry_precision_mix":"configured atlas coverage grid from official scope sources","representation":"economy lens coverage context","timing_note":"No license-compatible economy records are currently ingested for 1993; this lens geometry marks source coverage context only.","caveat":"Coverage context is not a city-change event, not a measured condition, and is excluded from headline counts.","generated_from":"web/data/city-atlas/cities/nyc/events_1993.json","coverage_status":"no_same_category_records","evidence_role":"context_not_year_specific_change_evidence","source_kind":"official_scope_context","headline_count_excluded":true,"intensity":0.16,"label":"No same-lens economy records currently ingested","sector":"coverage_context","activity_status":"no_year_records","status":"no_year_records"},"geometry":{"type":"Polygon","coordinates":[[[-74.14736,40.74152],[-74.03562,40.74152],[-74.03562,40.82956],[-74.14736,40.82956],[-74.14736,40.74152]]]}},{"type":"Feature","properties":{"id":"lens-detail-nyc-1993-economy_activity_cell-coverage-context-17","layer":"economy_activity_cell","category":"economy","year":1993,"visible_year":1993,"title":"New York City, New York 1993 economy coverage context","confidence":"inferred","confidence_mix":"inferred:1","event_count":0,"source_count":3,"source_ids":"as9z-kwsh,skyk-mpzq,buis-pvji","event_ids":"","event_ids_all":"","source_urls":"","geometry_precision_mix":"configured atlas coverage grid from official scope sources","representation":"economy lens coverage context","timing_note":"No license-compatible economy records are currently ingested for 1993; this lens geometry marks source coverage context only.","caveat":"Coverage context is not a city-change event, not a measured condition, and is excluded from headline counts.","generated_from":"web/data/city-atlas/cities/nyc/events_1993.json","coverage_status":"no_same_category_records","evidence_role":"context_not_year_specific_change_evidence","source_kind":"official_scope_context","headline_count_excluded":true,"intensity":0.16,"label":"No same-lens economy records currently ingested","sector":"coverage_context","activity_status":"no_year_records","status":"no_year_records"},"geometry":{"type":"Polygon","coordinates":[[[-74.03562,40.74152],[-73.92388,40.74152],[-73.92388,40.82956],[-74.03562,40.82956],[-74.03562,40.74152]]]}},{"type":"Feature","properties":{"id":"lens-detail-nyc-1993-economy_activity_cell-coverage-context-18","layer":"economy_activity_cell","category":"economy","year":1993,"visible_year":1993,"title":"New York City, New York 1993 economy coverage context","confidence":"inferred","confidence_mix":"inferred:1","event_count":0,"source_count":3,"source_ids":"as9z-kwsh,skyk-mpzq,buis-pvji","event_ids":"","event_ids_all":"","source_urls":"","geometry_precision_mix":"configured atlas coverage grid from official scope sources","representation":"economy lens coverage context","timing_note":"No license-compatible economy records are currently ingested for 1993; this lens geometry marks source coverage context only.","caveat":"Coverage context is not a city-change event, not a measured condition, and is excluded from headline counts.","generated_from":"web/data/city-atlas/cities/nyc/events_1993.json","coverage_status":"no_same_category_records","evidence_role":"context_not_year_specific_change_evidence","source_kind":"official_scope_context","headline_count_excluded":true,"intensity":0.16,"label":"No same-lens economy records currently ingested","sector":"coverage_context","activity_status":"no_year_records","status":"no_year_records"},"geometry":{"type":"Polygon","coordinates":[[[-73.92388,40.74152],[-73.81214,40.74152],[-73.81214,40.82956],[-73.92388,40.82956],[-73.92388,40.74152]]]}},{"type":"Feature","properties":{"id":"lens-detail-nyc-1993-economy_activity_cell-coverage-context-19","layer":"economy_activity_cell","category":"economy","year":1993,"visible_year":1993,"title":"New York City, New York 1993 economy coverage context","confidence":"inferred","confidence_mix":"inferred:1","event_count":0,"source_count":3,"source_ids":"as9z-kwsh,skyk-mpzq,buis-pvji","event_ids":"","event_ids_all":"","source_urls":"","geometry_precision_mix":"configured atlas coverage grid from official scope sources","representation":"economy lens coverage context","timing_note":"No license-compatible economy records are currently ingested for 1993; this lens geometry marks source coverage context only.","caveat":"Coverage context is not a city-change event, not a measured condition, and is excluded from headline counts.","generated_from":"web/data/city-atlas/cities/nyc/events_1993.json","coverage_status":"no_same_category_records","evidence_role":"context_not_year_specific_change_evidence","source_kind":"official_scope_context","headline_count_excluded":true,"intensity":0.16,"label":"No same-lens economy records currently ingested","sector":"coverage_context","activity_status":"no_year_records","status":"no_year_records"},"geometry":{"type":"Polygon","coordinates":[[[-73.81214,40.74152],[-73.7004,40.74152],[-73.7004,40.82956],[-73.81214,40.82956],[-73.81214,40.74152]]]}},{"type":"Feature","properties":{"id":"lens-detail-nyc-1993-economy_activity_cell-coverage-context-20","layer":"economy_activity_cell","category":"economy","year":1993,"visible_year":1993,"title":"New York City, New York 1993 economy coverage context","confidence":"inferred","confidence_mix":"inferred:1","event_count":0,"source_count":3,"source_ids":"as9z-kwsh,skyk-mpzq,buis-pvji","event_ids":"","event_ids_all":"","source_urls":"","geometry_precision_mix":"configured atlas coverage grid from official scope sources","representation":"economy lens coverage context","timing_note":"No license-compatible economy records are currently ingested for 1993; this lens geometry marks source coverage context only.","caveat":"Coverage context is not a city-change event, not a measured condition, and is excluded from headline counts.","generated_from":"web/data/city-atlas/cities/nyc/events_1993.json","coverage_status":"no_same_category_records","evidence_role":"context_not_year_specific_change_evidence","source_kind":"official_scope_context","headline_count_excluded":true,"intensity":0.16,"label":"No same-lens economy records currently ingested","sector":"coverage_context","activity_status":"no_year_records","status":"no_year_records"},"geometry":{"type":"Polygon","coordinates":[[[-74.2591,40.82956],[-74.14736,40.82956],[-74.14736,40.9176],[-74.2591,40.9176],[-74.2591,40.82956]]]}},{"type":"Feature","properties":{"id":"lens-detail-nyc-1993-economy_activity_cell-coverage-context-21","layer":"economy_activity_cell","category":"economy","year":1993,"visible_year":1993,"title":"New York City, New York 1993 economy coverage context","confidence":"inferred","confidence_mix":"inferred:1","event_count":0,"source_count":3,"source_ids":"as9z-kwsh,skyk-mpzq,buis-pvji","event_ids":"","event_ids_all":"","source_urls":"","geometry_precision_mix":"configured atlas coverage grid from official scope sources","representation":"economy lens coverage context","timing_note":"No license-compatible economy records are currently ingested for 1993; this lens geometry marks source coverage context only.","caveat":"Coverage context is not a city-change event, not a measured condition, and is excluded from headline counts.","generated_from":"web/data/city-atlas/cities/nyc/events_1993.json","coverage_status":"no_same_category_records","evidence_role":"context_not_year_specific_change_evidence","source_kind":"official_scope_context","headline_count_excluded":true,"intensity":0.16,"label":"No same-lens economy records currently ingested","sector":"coverage_context","activity_status":"no_year_records","status":"no_year_records"},"geometry":{"type":"Polygon","coordinates":[[[-74.14736,40.82956],[-74.03562,40.82956],[-74.03562,40.9176],[-74.14736,40.9176],[-74.14736,40.82956]]]}},{"type":"Feature","properties":{"id":"lens-detail-nyc-1993-economy_activity_cell-coverage-context-22","layer":"economy_activity_cell","category":"economy","year":1993,"visible_year":1993,"title":"New York City, New York 1993 economy coverage context","confidence":"inferred","confidence_mix":"inferred:1","event_count":0,"source_count":3,"source_ids":"as9z-kwsh,skyk-mpzq,buis-pvji","event_ids":"","event_ids_all":"","source_urls":"","geometry_precision_mix":"configured atlas coverage grid from official scope sources","representation":"economy lens coverage context","timing_note":"No license-compatible economy records are currently ingested for 1993; this lens geometry marks source coverage context only.","caveat":"Coverage context is not a city-change event, not a measured condition, and is excluded from headline counts.","generated_from":"web/data/city-atlas/cities/nyc/events_1993.json","coverage_status":"no_same_category_records","evidence_role":"context_not_year_specific_change_evidence","source_kind":"official_scope_context","headline_count_excluded":true,"intensity":0.16,"label":"No same-lens economy records currently ingested","sector":"coverage_context","activity_status":"no_year_records","status":"no_year_records"},"geometry":{"type":"Polygon","coordinates":[[[-74.03562,40.82956],[-73.92388,40.82956],[-73.92388,40.9176],[-74.03562,40.9176],[-74.03562,40.82956]]]}},{"type":"Feature","properties":{"id":"lens-detail-nyc-1993-economy_activity_cell-coverage-context-23","layer":"economy_activity_cell","category":"economy","year":1993,"visible_year":1993,"title":"New York City, New York 1993 economy coverage context","confidence":"inferred","confidence_mix":"inferred:1","event_count":0,"source_count":3,"source_ids":"as9z-kwsh,skyk-mpzq,buis-pvji","event_ids":"","event_ids_all":"","source_urls":"","geometry_precision_mix":"configured atlas coverage grid from official scope sources","representation":"economy lens coverage context","timing_note":"No license-compatible economy records are currently ingested for 1993; this lens geometry marks source coverage context only.","caveat":"Coverage context is not a city-change event, not a measured condition, and is excluded from headline counts.","generated_from":"web/data/city-atlas/cities/nyc/events_1993.json","coverage_status":"no_same_category_records","evidence_role":"context_not_year_specific_change_evidence","source_kind":"official_scope_context","headline_count_excluded":true,"intensity":0.16,"label":"No same-lens economy records currently ingested","sector":"coverage_context","activity_status":"no_year_records","status":"no_year_records"},"geometry":{"type":"Polygon","coordinates":[[[-73.92388,40.82956],[-73.81214,40.82956],[-73.81214,40.9176],[-73.92388,40.9176],[-73.92388,40.82956]]]}},{"type":"Feature","properties":{"id":"lens-detail-nyc-1993-economy_activity_cell-coverage-context-24","layer":"economy_activity_cell","category":"economy","year":1993,"visible_year":1993,"title":"New York City, New York 1993 economy coverage context","confidence":"inferred","confidence_mix":"inferred:1","event_count":0,"source_count":3,"source_ids":"as9z-kwsh,skyk-mpzq,buis-pvji","event_ids":"","event_ids_all":"","source_urls":"","geometry_precision_mix":"configured atlas coverage grid from official scope sources","representation":"economy lens coverage context","timing_note":"No license-compatible economy records are currently ingested for 1993; this lens geometry marks source coverage context only.","caveat":"Coverage context is not a city-change event, not a measured condition, and is excluded from headline counts.","generated_from":"web/data/city-atlas/cities/nyc/events_1993.json","coverage_status":"no_same_category_records","evidence_role":"context_not_year_specific_change_evidence","source_kind":"official_scope_context","headline_count_excluded":true,"intensity":0.16,"label":"No same-lens economy records currently ingested","sector":"coverage_context","activity_status":"no_year_records","status":"no_year_records"},"geometry":{"type":"Polygon","coordinates":[[[-73.81214,40.82956],[-73.7004,40.82956],[-73.7004,40.9176],[-73.81214,40.9176],[-73.81214,40.82956]]]}},{"type":"Feature","properties":{"id":"lens-detail-nyc-1993-utility_trace-coverage-context-0","layer":"utility_trace","category":"utilities","year":1993,"visible_year":1993,"title":"New York City, New York 1993 utility coverage context","confidence":"inferred","confidence_mix":"inferred:1","event_count":0,"source_count":3,"source_ids":"as9z-kwsh,skyk-mpzq,buis-pvji","event_ids":"","event_ids_all":"","source_urls":"","geometry_precision_mix":"configured atlas coverage grid from official scope sources","representation":"utility lens coverage context","timing_note":"No license-compatible utility records are currently ingested for 1993; this lens geometry marks source coverage context only.","caveat":"Coverage context is not a city-change event, not a measured condition, and is excluded from headline counts.","generated_from":"web/data/city-atlas/cities/nyc/events_1993.json","coverage_status":"no_same_category_records","evidence_role":"context_not_year_specific_change_evidence","source_kind":"official_scope_context","headline_count_excluded":true,"intensity":0.16,"label":"No same-lens utility records currently ingested","utility_type":"coverage_context","work_status":"no_year_records","status":"no_year_records"},"geometry":{"type":"LineString","coordinates":[[-74.1792857,40.4774],[-74.1792857,40.9176]]}},{"type":"Feature","properties":{"id":"lens-detail-nyc-1993-utility_trace-coverage-context-1","layer":"utility_trace","category":"utilities","year":1993,"visible_year":1993,"title":"New York City, New York 1993 utility coverage context","confidence":"inferred","confidence_mix":"inferred:1","event_count":0,"source_count":3,"source_ids":"as9z-kwsh,skyk-mpzq,buis-pvji","event_ids":"","event_ids_all":"","source_urls":"","geometry_precision_mix":"configured atlas coverage grid from official scope sources","representation":"utility lens coverage context","timing_note":"No license-compatible utility records are currently ingested for 1993; this lens geometry marks source coverage context only.","caveat":"Coverage context is not a city-change event, not a measured condition, and is excluded from headline counts.","generated_from":"web/data/city-atlas/cities/nyc/events_1993.json","coverage_status":"no_same_category_records","evidence_role":"context_not_year_specific_change_evidence","source_kind":"official_scope_context","headline_count_excluded":true,"intensity":0.16,"label":"No same-lens utility records currently ingested","utility_type":"coverage_context","work_status":"no_year_records","status":"no_year_records"},"geometry":{"type":"LineString","coordinates":[[-74.0994714,40.4774],[-74.0994714,40.9176]]}},{"type":"Feature","properties":{"id":"lens-detail-nyc-1993-utility_trace-coverage-context-2","layer":"utility_trace","category":"utilities","year":1993,"visible_year":1993,"title":"New York City, New York 1993 utility coverage context","confidence":"inferred","confidence_mix":"inferred:1","event_count":0,"source_count":3,"source_ids":"as9z-kwsh,skyk-mpzq,buis-pvji","event_ids":"","event_ids_all":"","source_urls":"","geometry_precision_mix":"configured atlas coverage grid from official scope sources","representation":"utility lens coverage context","timing_note":"No license-compatible utility records are currently ingested for 1993; this lens geometry marks source coverage context only.","caveat":"Coverage context is not a city-change event, not a measured condition, and is excluded from headline counts.","generated_from":"web/data/city-atlas/cities/nyc/events_1993.json","coverage_status":"no_same_category_records","evidence_role":"context_not_year_specific_change_evidence","source_kind":"official_scope_context","headline_count_excluded":true,"intensity":0.16,"label":"No same-lens utility records currently ingested","utility_type":"coverage_context","work_status":"no_year_records","status":"no_year_records"},"geometry":{"type":"LineString","coordinates":[[-74.0196571,40.4774],[-74.0196571,40.9176]]}},{"type":"Feature","properties":{"id":"lens-detail-nyc-1993-utility_trace-coverage-context-3","layer":"utility_trace","category":"utilities","year":1993,"visible_year":1993,"title":"New York City, New York 1993 utility coverage context","confidence":"inferred","confidence_mix":"inferred:1","event_count":0,"source_count":3,"source_ids":"as9z-kwsh,skyk-mpzq,buis-pvji","event_ids":"","event_ids_all":"","source_urls":"","geometry_precision_mix":"configured atlas coverage grid from official scope sources","representation":"utility lens coverage context","timing_note":"No license-compatible utility records are currently ingested for 1993; this lens geometry marks source coverage context only.","caveat":"Coverage context is not a city-change event, not a measured condition, and is excluded from headline counts.","generated_from":"web/data/city-atlas/cities/nyc/events_1993.json","coverage_status":"no_same_category_records","evidence_role":"context_not_year_specific_change_evidence","source_kind":"official_scope_context","headline_count_excluded":true,"intensity":0.16,"label":"No same-lens utility records currently ingested","utility_type":"coverage_context","work_status":"no_year_records","status":"no_year_records"},"geometry":{"type":"LineString","coordinates":[[-73.9398429,40.4774],[-73.9398429,40.9176]]}},{"type":"Feature","properties":{"id":"lens-detail-nyc-1993-utility_trace-coverage-context-4","layer":"utility_trace","category":"utilities","year":1993,"visible_year":1993,"title":"New York City, New York 1993 utility coverage context","confidence":"inferred","confidence_mix":"inferred:1","event_count":0,"source_count":3,"source_ids":"as9z-kwsh,skyk-mpzq,buis-pvji","event_ids":"","event_ids_all":"","source_urls":"","geometry_precision_mix":"configured atlas coverage grid from official scope sources","representation":"utility lens coverage context","timing_note":"No license-compatible utility records are currently ingested for 1993; this lens geometry marks source coverage context only.","caveat":"Coverage context is not a city-change event, not a measured condition, and is excluded from headline counts.","generated_from":"web/data/city-atlas/cities/nyc/events_1993.json","coverage_status":"no_same_category_records","evidence_role":"context_not_year_specific_change_evidence","source_kind":"official_scope_context","headline_count_excluded":true,"intensity":0.16,"label":"No same-lens utility records currently ingested","utility_type":"coverage_context","work_status":"no_year_records","status":"no_year_records"},"geometry":{"type":"LineString","coordinates":[[-73.8600286,40.4774],[-73.8600286,40.9176]]}},{"type":"Feature","properties":{"id":"lens-detail-nyc-1993-utility_trace-coverage-context-5","layer":"utility_trace","category":"utilities","year":1993,"visible_year":1993,"title":"New York City, New York 1993 utility coverage context","confidence":"inferred","confidence_mix":"inferred:1","event_count":0,"source_count":3,"source_ids":"as9z-kwsh,skyk-mpzq,buis-pvji","event_ids":"","event_ids_all":"","source_urls":"","geometry_precision_mix":"configured atlas coverage grid from official scope sources","representation":"utility lens coverage context","timing_note":"No license-compatible utility records are currently ingested for 1993; this lens geometry marks source coverage context only.","caveat":"Coverage context is not a city-change event, not a measured condition, and is excluded from headline counts.","generated_from":"web/data/city-atlas/cities/nyc/events_1993.json","coverage_status":"no_same_category_records","evidence_role":"context_not_year_specific_change_evidence","source_kind":"official_scope_context","headline_count_excluded":true,"intensity":0.16,"label":"No same-lens utility records currently ingested","utility_type":"coverage_context","work_status":"no_year_records","status":"no_year_records"},"geometry":{"type":"LineString","coordinates":[[-73.7802143,40.4774],[-73.7802143,40.9176]]}},{"type":"Feature","properties":{"id":"lens-detail-nyc-1993-utility_trace-coverage-context-6","layer":"utility_trace","category":"utilities","year":1993,"visible_year":1993,"title":"New York City, New York 1993 utility coverage context","confidence":"inferred","confidence_mix":"inferred:1","event_count":0,"source_count":3,"source_ids":"as9z-kwsh,skyk-mpzq,buis-pvji","event_ids":"","event_ids_all":"","source_urls":"","geometry_precision_mix":"configured atlas coverage grid from official scope sources","representation":"utility lens coverage context","timing_note":"No license-compatible utility records are currently ingested for 1993; this lens geometry marks source coverage context only.","caveat":"Coverage context is not a city-change event, not a measured condition, and is excluded from headline counts.","generated_from":"web/data/city-atlas/cities/nyc/events_1993.json","coverage_status":"no_same_category_records","evidence_role":"context_not_year_specific_change_evidence","source_kind":"official_scope_context","headline_count_excluded":true,"intensity":0.16,"label":"No same-lens utility records currently ingested","utility_type":"coverage_context","work_status":"no_year_records","status":"no_year_records"},"geometry":{"type":"LineString","coordinates":[[-74.2591,40.5402857],[-73.7004,40.5402857]]}},{"type":"Feature","properties":{"id":"lens-detail-nyc-1993-utility_trace-coverage-context-7","layer":"utility_trace","category":"utilities","year":1993,"visible_year":1993,"title":"New York City, New York 1993 utility coverage context","confidence":"inferred","confidence_mix":"inferred:1","event_count":0,"source_count":3,"source_ids":"as9z-kwsh,skyk-mpzq,buis-pvji","event_ids":"","event_ids_all":"","source_urls":"","geometry_precision_mix":"configured atlas coverage grid from official scope sources","representation":"utility lens coverage context","timing_note":"No license-compatible utility records are currently ingested for 1993; this lens geometry marks source coverage context only.","caveat":"Coverage context is not a city-change event, not a measured condition, and is excluded from headline counts.","generated_from":"web/data/city-atlas/cities/nyc/events_1993.json","coverage_status":"no_same_category_records","evidence_role":"context_not_year_specific_change_evidence","source_kind":"official_scope_context","headline_count_excluded":true,"intensity":0.16,"label":"No same-lens utility records currently ingested","utility_type":"coverage_context","work_status":"no_year_records","status":"no_year_records"},"geometry":{"type":"LineString","coordinates":[[-74.2591,40.6031714],[-73.7004,40.6031714]]}},{"type":"Feature","properties":{"id":"lens-detail-nyc-1993-utility_trace-coverage-context-8","layer":"utility_trace","category":"utilities","year":1993,"visible_year":1993,"title":"New York City, New York 1993 utility coverage context","confidence":"inferred","confidence_mix":"inferred:1","event_count":0,"source_count":3,"source_ids":"as9z-kwsh,skyk-mpzq,buis-pvji","event_ids":"","event_ids_all":"","source_urls":"","geometry_precision_mix":"configured atlas coverage grid from official scope sources","representation":"utility lens coverage context","timing_note":"No license-compatible utility records are currently ingested for 1993; this lens geometry marks source coverage context only.","caveat":"Coverage context is not a city-change event, not a measured condition, and is excluded from headline counts.","generated_from":"web/data/city-atlas/cities/nyc/events_1993.json","coverage_status":"no_same_category_records","evidence_role":"context_not_year_specific_change_evidence","source_kind":"official_scope_context","headline_count_excluded":true,"intensity":0.16,"label":"No same-lens utility records currently ingested","utility_type":"coverage_context","work_status":"no_year_records","status":"no_year_records"},"geometry":{"type":"LineString","coordinates":[[-74.2591,40.6660571],[-73.7004,40.6660571]]}},{"type":"Feature","properties":{"id":"lens-detail-nyc-1993-utility_trace-coverage-context-9","layer":"utility_trace","category":"utilities","year":1993,"visible_year":1993,"title":"New York City, New York 1993 utility coverage context","confidence":"inferred","confidence_mix":"inferred:1","event_count":0,"source_count":3,"source_ids":"as9z-kwsh,skyk-mpzq,buis-pvji","event_ids":"","event_ids_all":"","source_urls":"","geometry_precision_mix":"configured atlas coverage grid from official scope sources","representation":"utility lens coverage context","timing_note":"No license-compatible utility records are currently ingested for 1993; this lens geometry marks source coverage context only.","caveat":"Coverage context is not a city-change event, not a measured condition, and is excluded from headline counts.","generated_from":"web/data/city-atlas/cities/nyc/events_1993.json","coverage_status":"no_same_category_records","evidence_role":"context_not_year_specific_change_evidence","source_kind":"official_scope_context","headline_count_excluded":true,"intensity":0.16,"label":"No same-lens utility records currently ingested","utility_type":"coverage_context","work_status":"no_year_records","status":"no_year_records"},"geometry":{"type":"LineString","coordinates":[[-74.2591,40.7289429],[-73.7004,40.7289429]]}},{"type":"Feature","properties":{"id":"lens-detail-nyc-1993-utility_trace-coverage-context-10","layer":"utility_trace","category":"utilities","year":1993,"visible_year":1993,"title":"New York City, New York 1993 utility coverage context","confidence":"inferred","confidence_mix":"inferred:1","event_count":0,"source_count":3,"source_ids":"as9z-kwsh,skyk-mpzq,buis-pvji","event_ids":"","event_ids_all":"","source_urls":"","geometry_precision_mix":"configured atlas coverage grid from official scope sources","representation":"utility lens coverage context","timing_note":"No license-compatible utility records are currently ingested for 1993; this lens geometry marks source coverage context only.","caveat":"Coverage context is not a city-change event, not a measured condition, and is excluded from headline counts.","generated_from":"web/data/city-atlas/cities/nyc/events_1993.json","coverage_status":"no_same_category_records","evidence_role":"context_not_year_specific_change_evidence","source_kind":"official_scope_context","headline_count_excluded":true,"intensity":0.16,"label":"No same-lens utility records currently ingested","utility_type":"coverage_context","work_status":"no_year_records","status":"no_year_records"},"geometry":{"type":"LineString","coordinates":[[-74.2591,40.7918286],[-73.7004,40.7918286]]}},{"type":"Feature","properties":{"id":"lens-detail-nyc-1993-utility_trace-coverage-context-11","layer":"utility_trace","category":"utilities","year":1993,"visible_year":1993,"title":"New York City, New York 1993 utility coverage context","confidence":"inferred","confidence_mix":"inferred:1","event_count":0,"source_count":3,"source_ids":"as9z-kwsh,skyk-mpzq,buis-pvji","event_ids":"","event_ids_all":"","source_urls":"","geometry_precision_mix":"configured atlas coverage grid from official scope sources","representation":"utility lens coverage context","timing_note":"No license-compatible utility records are currently ingested for 1993; this lens geometry marks source coverage context only.","caveat":"Coverage context is not a city-change event, not a measured condition, and is excluded from headline counts.","generated_from":"web/data/city-atlas/cities/nyc/events_1993.json","coverage_status":"no_same_category_records","evidence_role":"context_not_year_specific_change_evidence","source_kind":"official_scope_context","headline_count_excluded":true,"intensity":0.16,"label":"No same-lens utility records currently ingested","utility_type":"coverage_context","work_status":"no_year_records","status":"no_year_records"},"geometry":{"type":"LineString","coordinates":[[-74.2591,40.8547143],[-73.7004,40.8547143]]}}]}
