{"type":"FeatureCollection","name":"nyc_lens_detail_1965","metadata":{"schema_version":"1.0.0","city_id":"nyc","year":1965,"generated_at":"2026-06-03T17:31:50.363Z","source_paths":["web/data/city-atlas/cities/nyc/events_1965.json","web/data/city-atlas/cities/nyc/events.json","web/data/city-atlas/cities/nyc/transport_roads_base.geojson"],"method":"Derived OpenCityLog lens geometry built from source-backed event points plus existing OSM road/detail geometry. Grid cells aggregate events by effective year. Trace lines reuse nearest mapped road geometry for context.","caveats":["Derived cells are evidence grids, not surveyed parcels, catchments, zones, or administrative boundaries.","Trace lines are nearest mapped street or work-location context, not surveyed utility networks, measured traffic speed, spend, vacancy, or service quality. No capacity data is inferred.","When a lens/year has no same-category source-backed records, no coverage geometry is generated; sparse data remains sparse.","Borough, citywide, statistical, corridor, and multi-site records are excluded from site-like lens geometry; they remain available in the event list and evidence records.","OSM mapped-visibility dates and administrative decision dates can differ from real-world physical change dates."],"feature_layers":{"planning_cell":26},"excluded_non_site_record_count":0,"excluded_non_site_reasons":{}},"features":[{"type":"Feature","properties":{"id":"lens-detail-nyc-1965-planning_cell-6","layer":"planning_cell","category":"built_environment","year":1965,"visible_year":1965,"title":"4 source-backed planning and built records","confidence":"documented","confidence_mix":"documented:4","event_count":4,"source_count":1,"source_ids":"buis-pvji","event_ids":"nyc_lpc_individual_landmark_139,nyc_lpc_individual_landmark_167,nyc_lpc_individual_landmark_395,nyc_lpc_individual_landmark_487","event_ids_all":"nyc_lpc_individual_landmark_139,nyc_lpc_individual_landmark_167,nyc_lpc_individual_landmark_395,nyc_lpc_individual_landmark_487","source_urls":"https://data.cityofnewyork.us/resource/buis-pvji.json?objectid=139,https://data.cityofnewyork.us/resource/buis-pvji.json?objectid=167,https://data.cityofnewyork.us/resource/buis-pvji.json?objectid=395,https://data.cityofnewyork.us/resource/buis-pvji.json?objectid=487","geometry_precision_mix":"Row-level point from the adapter; source geocoding precision varies and may be approximate.:4","representation":"planning and built evidence grid cell","timing_note":"Filtered by event effective year. OSM mapped-visibility dates and administrative dates can differ from real-world physical change dates.","caveat":"Planning cells are derived from source-backed event locations; they are not parcel boundaries unless source geometry is separately present.","generated_from":"web/data/city-atlas/cities/nyc/events_1965.json","lifecycle_status":"uncertain","status":"source_record","cell_size_m":95,"intensity":0.671,"label":"Individual landmark designated: 432 Lafayette Street Building"},"geometry":{"type":"Polygon","coordinates":[[[-73.9926759,40.7290141],[-73.9915492,40.7290141],[-73.9915492,40.7298732],[-73.9926759,40.7298732],[-73.9926759,40.7290141]]]}},{"type":"Feature","properties":{"id":"lens-detail-nyc-1965-planning_cell-13","layer":"planning_cell","category":"built_environment","year":1965,"visible_year":1965,"title":"3 source-backed planning and built records","confidence":"documented","confidence_mix":"documented:3","event_count":3,"source_count":1,"source_ids":"buis-pvji","event_ids":"nyc_lpc_individual_landmark_249,nyc_lpc_individual_landmark_341,nyc_lpc_individual_landmark_407","event_ids_all":"nyc_lpc_individual_landmark_249,nyc_lpc_individual_landmark_341,nyc_lpc_individual_landmark_407","source_urls":"https://data.cityofnewyork.us/resource/buis-pvji.json?objectid=249,https://data.cityofnewyork.us/resource/buis-pvji.json?objectid=341,https://data.cityofnewyork.us/resource/buis-pvji.json?objectid=407","geometry_precision_mix":"Row-level point from the adapter; source geocoding precision varies and may be approximate.:3","representation":"planning and built evidence grid cell","timing_note":"Filtered by event effective year. OSM mapped-visibility dates and administrative dates can differ from real-world physical change dates.","caveat":"Planning cells are derived from source-backed event locations; they are not parcel boundaries unless source geometry is separately present.","generated_from":"web/data/city-atlas/cities/nyc/events_1965.json","lifecycle_status":"uncertain","status":"source_record","cell_size_m":95,"intensity":0.578,"label":"Individual landmark designated: New York County Lawyers' Association Building"},"geometry":{"type":"Polygon","coordinates":[[[-74.0095756,40.711831],[-74.0084489,40.711831],[-74.0084489,40.7126901],[-74.0095756,40.7126901],[-74.0095756,40.711831]]]}},{"type":"Feature","properties":{"id":"lens-detail-nyc-1965-planning_cell-21","layer":"planning_cell","category":"built_environment","year":1965,"visible_year":1965,"title":"3 source-backed planning and built records","confidence":"documented","confidence_mix":"documented:3","event_count":3,"source_count":1,"source_ids":"buis-pvji","event_ids":"nyc_lpc_individual_landmark_989,nyc_lpc_individual_landmark_990,nyc_lpc_individual_landmark_991","event_ids_all":"nyc_lpc_individual_landmark_989,nyc_lpc_individual_landmark_990,nyc_lpc_individual_landmark_991","source_urls":"https://data.cityofnewyork.us/resource/buis-pvji.json?objectid=989,https://data.cityofnewyork.us/resource/buis-pvji.json?objectid=990,https://data.cityofnewyork.us/resource/buis-pvji.json?objectid=991","geometry_precision_mix":"Row-level point from the adapter; source geocoding precision varies and may be approximate.:3","representation":"planning and built evidence grid cell","timing_note":"Filtered by event effective year. OSM mapped-visibility dates and administrative dates can differ from real-world physical change dates.","caveat":"Planning cells are derived from source-backed event locations; they are not parcel boundaries unless source geometry is separately present.","generated_from":"web/data/city-atlas/cities/nyc/events_1965.json","lifecycle_status":"uncertain","status":"source_record","cell_size_m":95,"intensity":0.578,"label":"Individual landmark designated: Sailors' Snug Harbor, Building B"},"geometry":{"type":"Polygon","coordinates":[[[-74.1030875,40.6439579],[-74.1019608,40.6439579],[-74.1019608,40.644817],[-74.1030875,40.644817],[-74.1030875,40.6439579]]]}},{"type":"Feature","properties":{"id":"lens-detail-nyc-1965-planning_cell-14","layer":"planning_cell","category":"built_environment","year":1965,"visible_year":1965,"title":"2 source-backed planning and built records","confidence":"documented","confidence_mix":"documented:2","event_count":2,"source_count":1,"source_ids":"buis-pvji","event_ids":"nyc_lpc_individual_landmark_301,nyc_lpc_individual_landmark_997","event_ids_all":"nyc_lpc_individual_landmark_301,nyc_lpc_individual_landmark_997","source_urls":"https://data.cityofnewyork.us/resource/buis-pvji.json?objectid=301,https://data.cityofnewyork.us/resource/buis-pvji.json?objectid=997","geometry_precision_mix":"Row-level point from the adapter; source geocoding precision varies and may be approximate.:2","representation":"planning and built evidence grid cell","timing_note":"Filtered by event effective year. OSM mapped-visibility dates and administrative dates can differ from real-world physical change dates.","caveat":"Planning cells are derived from source-backed event locations; they are not parcel boundaries unless source geometry is separately present.","generated_from":"web/data/city-atlas/cities/nyc/events_1965.json","lifecycle_status":"uncertain","status":"source_record","cell_size_m":95,"intensity":0.458,"label":"Individual landmark designated: United States Custom House — Manhattan · 301"},"geometry":{"type":"Polygon","coordinates":[[[-74.0107022,40.7066761],[-74.0095756,40.7066761],[-74.0095756,40.7075352],[-74.0107022,40.7075352],[-74.0107022,40.7066761]]]}},{"type":"Feature","properties":{"id":"lens-detail-nyc-1965-planning_cell-22","layer":"planning_cell","category":"built_environment","year":1965,"visible_year":1965,"title":"2 source-backed planning and built records","confidence":"documented","confidence_mix":"documented:2","event_count":2,"source_count":1,"source_ids":"buis-pvji","event_ids":"nyc_lpc_individual_landmark_992,nyc_lpc_individual_landmark_993","event_ids_all":"nyc_lpc_individual_landmark_992,nyc_lpc_individual_landmark_993","source_urls":"https://data.cityofnewyork.us/resource/buis-pvji.json?objectid=992,https://data.cityofnewyork.us/resource/buis-pvji.json?objectid=993","geometry_precision_mix":"Row-level point from the adapter; source geocoding precision varies and may be approximate.:2","representation":"planning and built evidence grid cell","timing_note":"Filtered by event effective year. OSM mapped-visibility dates and administrative dates can differ from real-world physical change dates.","caveat":"Planning cells are derived from source-backed event locations; they are not parcel boundaries unless source geometry is separately present.","generated_from":"web/data/city-atlas/cities/nyc/events_1965.json","lifecycle_status":"uncertain","status":"source_record","cell_size_m":95,"intensity":0.458,"label":"Individual landmark designated: Sailors' Snug Harbor, Building D"},"geometry":{"type":"Polygon","coordinates":[[[-74.1019608,40.6439579],[-74.1008342,40.6439579],[-74.1008342,40.644817],[-74.1019608,40.644817],[-74.1019608,40.6439579]]]}},{"type":"Feature","properties":{"id":"lens-detail-nyc-1965-planning_cell-0","layer":"planning_cell","category":"built_environment","year":1965,"visible_year":1965,"title":"1 source-backed planning and built record","confidence":"documented","confidence_mix":"documented:1","event_count":1,"source_count":1,"source_ids":"skyk-mpzq","event_ids":"nyc_lpc_historic_district_lp-00099","event_ids_all":"nyc_lpc_historic_district_lp-00099","source_urls":"https://data.cityofnewyork.us/resource/skyk-mpzq.json?lp_number=LP-00099","geometry_precision_mix":"Row-level point from the adapter; source geocoding precision varies and may be approximate.:1","representation":"planning and built evidence grid cell","timing_note":"Filtered by event effective year. OSM mapped-visibility dates and administrative dates can differ from real-world physical change dates.","caveat":"Planning cells are derived from source-backed event locations; they are not parcel boundaries unless source geometry is separately present.","generated_from":"web/data/city-atlas/cities/nyc/events_1965.json","lifecycle_status":"uncertain","status":"source_record","cell_size_m":95,"intensity":0.289,"label":"Historic district designated: Brooklyn Heights Historic District"},"geometry":{"type":"Polygon","coordinates":[[[-73.9949292,40.6946479],[-73.9938025,40.6946479],[-73.9938025,40.6955071],[-73.9949292,40.6955071],[-73.9949292,40.6946479]]]}},{"type":"Feature","properties":{"id":"lens-detail-nyc-1965-planning_cell-1","layer":"planning_cell","category":"built_environment","year":1965,"visible_year":1965,"title":"1 source-backed planning and built record","confidence":"documented","confidence_mix":"documented:1","event_count":1,"source_count":1,"source_ids":"buis-pvji","event_ids":"nyc_lpc_individual_landmark_1068","event_ids_all":"nyc_lpc_individual_landmark_1068","source_urls":"https://data.cityofnewyork.us/resource/buis-pvji.json?objectid=1068","geometry_precision_mix":"Row-level point from the adapter; source geocoding precision varies and may be approximate.:1","representation":"planning and built evidence grid cell","timing_note":"Filtered by event effective year. OSM mapped-visibility dates and administrative dates can differ from real-world physical change dates.","caveat":"Planning cells are derived from source-backed event locations; they are not parcel boundaries unless source geometry is separately present.","generated_from":"web/data/city-atlas/cities/nyc/events_1965.json","lifecycle_status":"uncertain","status":"source_record","cell_size_m":95,"intensity":0.289,"label":"Individual landmark designated: Pieter Claesen Wyckoff House"},"geometry":{"type":"Polygon","coordinates":[[[-73.921697,40.6439579],[-73.9205703,40.6439579],[-73.9205703,40.644817],[-73.921697,40.644817],[-73.921697,40.6439579]]]}},{"type":"Feature","properties":{"id":"lens-detail-nyc-1965-planning_cell-10","layer":"planning_cell","category":"built_environment","year":1965,"visible_year":1965,"title":"1 source-backed planning and built record","confidence":"documented","confidence_mix":"documented:1","event_count":1,"source_count":1,"source_ids":"buis-pvji","event_ids":"nyc_lpc_individual_landmark_214","event_ids_all":"nyc_lpc_individual_landmark_214","source_urls":"https://data.cityofnewyork.us/resource/buis-pvji.json?objectid=214","geometry_precision_mix":"Row-level point from the adapter; source geocoding precision varies and may be approximate.:1","representation":"planning and built evidence grid cell","timing_note":"Filtered by event effective year. OSM mapped-visibility dates and administrative dates can differ from real-world physical change dates.","caveat":"Planning cells are derived from source-backed event locations; they are not parcel boundaries unless source geometry is separately present.","generated_from":"web/data/city-atlas/cities/nyc/events_1965.json","lifecycle_status":"uncertain","status":"source_record","cell_size_m":95,"intensity":0.289,"label":"Individual landmark designated: Federal Reserve Bank of New York"},"geometry":{"type":"Polygon","coordinates":[[[-74.0095756,40.7075352],[-74.0084489,40.7075352],[-74.0084489,40.7083944],[-74.0095756,40.7083944],[-74.0095756,40.7075352]]]}},{"type":"Feature","properties":{"id":"lens-detail-nyc-1965-planning_cell-11","layer":"planning_cell","category":"built_environment","year":1965,"visible_year":1965,"title":"1 source-backed planning and built record","confidence":"documented","confidence_mix":"documented:1","event_count":1,"source_count":1,"source_ids":"buis-pvji","event_ids":"nyc_lpc_individual_landmark_228","event_ids_all":"nyc_lpc_individual_landmark_228","source_urls":"https://data.cityofnewyork.us/resource/buis-pvji.json?objectid=228","geometry_precision_mix":"Row-level point from the adapter; source geocoding precision varies and may be approximate.:1","representation":"planning and built evidence grid cell","timing_note":"Filtered by event effective year. OSM mapped-visibility dates and administrative dates can differ from real-world physical change dates.","caveat":"Planning cells are derived from source-backed event locations; they are not parcel boundaries unless source geometry is separately present.","generated_from":"web/data/city-atlas/cities/nyc/events_1965.json","lifecycle_status":"uncertain","status":"source_record","cell_size_m":95,"intensity":0.289,"label":"Individual landmark designated: Friends Meeting House"},"geometry":{"type":"Polygon","coordinates":[[[-73.985916,40.7367464],[-73.9847893,40.7367464],[-73.9847893,40.7376056],[-73.985916,40.7376056],[-73.985916,40.7367464]]]}},{"type":"Feature","properties":{"id":"lens-detail-nyc-1965-planning_cell-12","layer":"planning_cell","category":"built_environment","year":1965,"visible_year":1965,"title":"1 source-backed planning and built record","confidence":"documented","confidence_mix":"documented:1","event_count":1,"source_count":1,"source_ids":"buis-pvji","event_ids":"nyc_lpc_individual_landmark_238","event_ids_all":"nyc_lpc_individual_landmark_238","source_urls":"https://data.cityofnewyork.us/resource/buis-pvji.json?objectid=238","geometry_precision_mix":"Row-level point from the adapter; source geocoding precision varies and may be approximate.:1","representation":"planning and built evidence grid cell","timing_note":"Filtered by event effective year. OSM mapped-visibility dates and administrative dates can differ from real-world physical change dates.","caveat":"Planning cells are derived from source-backed event locations; they are not parcel boundaries unless source geometry is separately present.","generated_from":"web/data/city-atlas/cities/nyc/events_1965.json","lifecycle_status":"uncertain","status":"source_record","cell_size_m":95,"intensity":0.289,"label":"Individual landmark designated: E. V. Haughwout Building"},"geometry":{"type":"Polygon","coordinates":[[[-73.9994358,40.7212817],[-73.9983091,40.7212817],[-73.9983091,40.7221408],[-73.9994358,40.7221408],[-73.9994358,40.7212817]]]}},{"type":"Feature","properties":{"id":"lens-detail-nyc-1965-planning_cell-15","layer":"planning_cell","category":"built_environment","year":1965,"visible_year":1965,"title":"1 source-backed planning and built record","confidence":"documented","confidence_mix":"documented:1","event_count":1,"source_count":1,"source_ids":"buis-pvji","event_ids":"nyc_lpc_individual_landmark_314","event_ids_all":"nyc_lpc_individual_landmark_314","source_urls":"https://data.cityofnewyork.us/resource/buis-pvji.json?objectid=314","geometry_precision_mix":"Row-level point from the adapter; source geocoding precision varies and may be approximate.:1","representation":"planning and built evidence grid cell","timing_note":"Filtered by event effective year. OSM mapped-visibility dates and administrative dates can differ from real-world physical change dates.","caveat":"Planning cells are derived from source-backed event locations; they are not parcel boundaries unless source geometry is separately present.","generated_from":"web/data/city-atlas/cities/nyc/events_1965.json","lifecycle_status":"uncertain","status":"source_record","cell_size_m":95,"intensity":0.289,"label":"Individual landmark designated: Old Merchant's House"},"geometry":{"type":"Polygon","coordinates":[[[-73.9926759,40.7272957],[-73.9915492,40.7272957],[-73.9915492,40.7281549],[-73.9926759,40.7281549],[-73.9926759,40.7272957]]]}},{"type":"Feature","properties":{"id":"lens-detail-nyc-1965-planning_cell-16","layer":"planning_cell","category":"built_environment","year":1965,"visible_year":1965,"title":"1 source-backed planning and built record","confidence":"documented","confidence_mix":"documented:1","event_count":1,"source_count":1,"source_ids":"buis-pvji","event_ids":"nyc_lpc_individual_landmark_756","event_ids_all":"nyc_lpc_individual_landmark_756","source_urls":"https://data.cityofnewyork.us/resource/buis-pvji.json?objectid=756","geometry_precision_mix":"Row-level point from the adapter; source geocoding precision varies and may be approximate.:1","representation":"planning and built evidence grid cell","timing_note":"Filtered by event effective year. OSM mapped-visibility dates and administrative dates can differ from real-world physical change dates.","caveat":"Planning cells are derived from source-backed event locations; they are not parcel boundaries unless source geometry is separately present.","generated_from":"web/data/city-atlas/cities/nyc/events_1965.json","lifecycle_status":"uncertain","status":"source_record","cell_size_m":95,"intensity":0.289,"label":"Individual landmark designated: William and Rosamond Clark House"},"geometry":{"type":"Polygon","coordinates":[[[-73.9949292,40.7109718],[-73.9938025,40.7109718],[-73.9938025,40.711831],[-73.9949292,40.711831],[-73.9949292,40.7109718]]]}},{"type":"Feature","properties":{"id":"lens-detail-nyc-1965-planning_cell-17","layer":"planning_cell","category":"built_environment","year":1965,"visible_year":1965,"title":"1 source-backed planning and built record","confidence":"documented","confidence_mix":"documented:1","event_count":1,"source_count":1,"source_ids":"buis-pvji","event_ids":"nyc_lpc_individual_landmark_764","event_ids_all":"nyc_lpc_individual_landmark_764","source_urls":"https://data.cityofnewyork.us/resource/buis-pvji.json?objectid=764","geometry_precision_mix":"Row-level point from the adapter; source geocoding precision varies and may be approximate.:1","representation":"planning and built evidence grid cell","timing_note":"Filtered by event effective year. OSM mapped-visibility dates and administrative dates can differ from real-world physical change dates.","caveat":"Planning cells are derived from source-backed event locations; they are not parcel boundaries unless source geometry is separately present.","generated_from":"web/data/city-atlas/cities/nyc/events_1965.json","lifecycle_status":"uncertain","status":"source_record","cell_size_m":95,"intensity":0.289,"label":"Individual landmark designated: National City Bank Building"},"geometry":{"type":"Polygon","coordinates":[[[-74.0095756,40.7058169],[-74.0084489,40.7058169],[-74.0084489,40.7066761],[-74.0095756,40.7066761],[-74.0095756,40.7058169]]]}},{"type":"Feature","properties":{"id":"lens-detail-nyc-1965-planning_cell-18","layer":"planning_cell","category":"built_environment","year":1965,"visible_year":1965,"title":"1 source-backed planning and built record","confidence":"documented","confidence_mix":"documented:1","event_count":1,"source_count":1,"source_ids":"buis-pvji","event_ids":"nyc_lpc_individual_landmark_832","event_ids_all":"nyc_lpc_individual_landmark_832","source_urls":"https://data.cityofnewyork.us/resource/buis-pvji.json?objectid=832","geometry_precision_mix":"Row-level point from the adapter; source geocoding precision varies and may be approximate.:1","representation":"planning and built evidence grid cell","timing_note":"Filtered by event effective year. OSM mapped-visibility dates and administrative dates can differ from real-world physical change dates.","caveat":"Planning cells are derived from source-backed event locations; they are not parcel boundaries unless source geometry is separately present.","generated_from":"web/data/city-atlas/cities/nyc/events_1965.json","lifecycle_status":"uncertain","status":"source_record","cell_size_m":95,"intensity":0.289,"label":"Individual landmark designated: Commandant's House"},"geometry":{"type":"Polygon","coordinates":[[[-73.9814094,40.7023803],[-73.9802827,40.7023803],[-73.9802827,40.7032395],[-73.9814094,40.7032395],[-73.9814094,40.7023803]]]}},{"type":"Feature","properties":{"id":"lens-detail-nyc-1965-planning_cell-19","layer":"planning_cell","category":"built_environment","year":1965,"visible_year":1965,"title":"1 source-backed planning and built record","confidence":"documented","confidence_mix":"documented:1","event_count":1,"source_count":1,"source_ids":"buis-pvji","event_ids":"nyc_lpc_individual_landmark_986","event_ids_all":"nyc_lpc_individual_landmark_986","source_urls":"https://data.cityofnewyork.us/resource/buis-pvji.json?objectid=986","geometry_precision_mix":"Row-level point from the adapter; source geocoding precision varies and may be approximate.:1","representation":"planning and built evidence grid cell","timing_note":"Filtered by event effective year. OSM mapped-visibility dates and administrative dates can differ from real-world physical change dates.","caveat":"Planning cells are derived from source-backed event locations; they are not parcel boundaries unless source geometry is separately present.","generated_from":"web/data/city-atlas/cities/nyc/events_1965.json","lifecycle_status":"uncertain","status":"source_record","cell_size_m":95,"intensity":0.289,"label":"Individual landmark designated: Old United States Naval Hospital, Brooklyn Navy Yard"},"geometry":{"type":"Polygon","coordinates":[[[-73.9656363,40.6980845],[-73.9645096,40.6980845],[-73.9645096,40.6989437],[-73.9656363,40.6989437],[-73.9656363,40.6980845]]]}},{"type":"Feature","properties":{"id":"lens-detail-nyc-1965-planning_cell-2","layer":"planning_cell","category":"built_environment","year":1965,"visible_year":1965,"title":"1 source-backed planning and built record","confidence":"documented","confidence_mix":"documented:1","event_count":1,"source_count":1,"source_ids":"buis-pvji","event_ids":"nyc_lpc_individual_landmark_115","event_ids_all":"nyc_lpc_individual_landmark_115","source_urls":"https://data.cityofnewyork.us/resource/buis-pvji.json?objectid=115","geometry_precision_mix":"Row-level point from the adapter; source geocoding precision varies and may be approximate.:1","representation":"planning and built evidence grid cell","timing_note":"Filtered by event effective year. OSM mapped-visibility dates and administrative dates can differ from real-world physical change dates.","caveat":"Planning cells are derived from source-backed event locations; they are not parcel boundaries unless source geometry is separately present.","generated_from":"web/data/city-atlas/cities/nyc/events_1965.json","lifecycle_status":"uncertain","status":"source_record","cell_size_m":95,"intensity":0.289,"label":"Individual landmark designated: Hanover Bank"},"geometry":{"type":"Polygon","coordinates":[[[-74.0107022,40.7040986],[-74.0095756,40.7040986],[-74.0095756,40.7049578],[-74.0107022,40.7049578],[-74.0107022,40.7040986]]]}},{"type":"Feature","properties":{"id":"lens-detail-nyc-1965-planning_cell-20","layer":"planning_cell","category":"built_environment","year":1965,"visible_year":1965,"title":"1 source-backed planning and built record","confidence":"documented","confidence_mix":"documented:1","event_count":1,"source_count":1,"source_ids":"buis-pvji","event_ids":"nyc_lpc_individual_landmark_988","event_ids_all":"nyc_lpc_individual_landmark_988","source_urls":"https://data.cityofnewyork.us/resource/buis-pvji.json?objectid=988","geometry_precision_mix":"Row-level point from the adapter; source geocoding precision varies and may be approximate.:1","representation":"planning and built evidence grid cell","timing_note":"Filtered by event effective year. OSM mapped-visibility dates and administrative dates can differ from real-world physical change dates.","caveat":"Planning cells are derived from source-backed event locations; they are not parcel boundaries unless source geometry is separately present.","generated_from":"web/data/city-atlas/cities/nyc/events_1965.json","lifecycle_status":"uncertain","status":"source_record","cell_size_m":95,"intensity":0.289,"label":"Individual landmark designated: Boat House on the Lullwater of the Lake in Prospect Park"},"geometry":{"type":"Polygon","coordinates":[[[-73.9656363,40.6602818],[-73.9645096,40.6602818],[-73.9645096,40.661141],[-73.9656363,40.661141],[-73.9656363,40.6602818]]]}},{"type":"Feature","properties":{"id":"lens-detail-nyc-1965-planning_cell-23","layer":"planning_cell","category":"built_environment","year":1965,"visible_year":1965,"title":"1 source-backed planning and built record","confidence":"documented","confidence_mix":"documented:1","event_count":1,"source_count":1,"source_ids":"buis-pvji","event_ids":"nyc_lpc_individual_landmark_994","event_ids_all":"nyc_lpc_individual_landmark_994","source_urls":"https://data.cityofnewyork.us/resource/buis-pvji.json?objectid=994","geometry_precision_mix":"Row-level point from the adapter; source geocoding precision varies and may be approximate.:1","representation":"planning and built evidence grid cell","timing_note":"Filtered by event effective year. OSM mapped-visibility dates and administrative dates can differ from real-world physical change dates.","caveat":"Planning cells are derived from source-backed event locations; they are not parcel boundaries unless source geometry is separately present.","generated_from":"web/data/city-atlas/cities/nyc/events_1965.json","lifecycle_status":"uncertain","status":"source_record","cell_size_m":95,"intensity":0.289,"label":"Individual landmark designated: Sailors' Snug Harbor, Chapel"},"geometry":{"type":"Polygon","coordinates":[[[-74.1019608,40.6430987],[-74.1008342,40.6430987],[-74.1008342,40.6439579],[-74.1019608,40.6439579],[-74.1019608,40.6430987]]]}},{"type":"Feature","properties":{"id":"lens-detail-nyc-1965-planning_cell-24","layer":"planning_cell","category":"built_environment","year":1965,"visible_year":1965,"title":"1 source-backed planning and built record","confidence":"documented","confidence_mix":"documented:1","event_count":1,"source_count":1,"source_ids":"buis-pvji","event_ids":"nyc_lpc_individual_landmark_995","event_ids_all":"nyc_lpc_individual_landmark_995","source_urls":"https://data.cityofnewyork.us/resource/buis-pvji.json?objectid=995","geometry_precision_mix":"Row-level point from the adapter; source geocoding precision varies and may be approximate.:1","representation":"planning and built evidence grid cell","timing_note":"Filtered by event effective year. OSM mapped-visibility dates and administrative dates can differ from real-world physical change dates.","caveat":"Planning cells are derived from source-backed event locations; they are not parcel boundaries unless source geometry is separately present.","generated_from":"web/data/city-atlas/cities/nyc/events_1965.json","lifecycle_status":"uncertain","status":"source_record","cell_size_m":95,"intensity":0.289,"label":"Individual landmark designated: Castle Clinton"},"geometry":{"type":"Polygon","coordinates":[[[-74.0174621,40.7032395],[-74.0163355,40.7032395],[-74.0163355,40.7040986],[-74.0174621,40.7040986],[-74.0174621,40.7032395]]]}},{"type":"Feature","properties":{"id":"lens-detail-nyc-1965-planning_cell-25","layer":"planning_cell","category":"built_environment","year":1965,"visible_year":1965,"title":"1 source-backed planning and built record","confidence":"documented","confidence_mix":"documented:1","event_count":1,"source_count":1,"source_ids":"buis-pvji","event_ids":"nyc_lpc_individual_landmark_996","event_ids_all":"nyc_lpc_individual_landmark_996","source_urls":"https://data.cityofnewyork.us/resource/buis-pvji.json?objectid=996","geometry_precision_mix":"Row-level point from the adapter; source geocoding precision varies and may be approximate.:1","representation":"planning and built evidence grid cell","timing_note":"Filtered by event effective year. OSM mapped-visibility dates and administrative dates can differ from real-world physical change dates.","caveat":"Planning cells are derived from source-backed event locations; they are not parcel boundaries unless source geometry is separately present.","generated_from":"web/data/city-atlas/cities/nyc/events_1965.json","lifecycle_status":"uncertain","status":"source_record","cell_size_m":95,"intensity":0.289,"label":"Individual landmark designated: James Watson House"},"geometry":{"type":"Polygon","coordinates":[[[-74.0140822,40.7023803],[-74.0129555,40.7023803],[-74.0129555,40.7032395],[-74.0140822,40.7032395],[-74.0140822,40.7023803]]]}},{"type":"Feature","properties":{"id":"lens-detail-nyc-1965-planning_cell-3","layer":"planning_cell","category":"built_environment","year":1965,"visible_year":1965,"title":"1 source-backed planning and built record","confidence":"documented","confidence_mix":"documented:1","event_count":1,"source_count":1,"source_ids":"buis-pvji","event_ids":"nyc_lpc_individual_landmark_117","event_ids_all":"nyc_lpc_individual_landmark_117","source_urls":"https://data.cityofnewyork.us/resource/buis-pvji.json?objectid=117","geometry_precision_mix":"Row-level point from the adapter; source geocoding precision varies and may be approximate.:1","representation":"planning and built evidence grid cell","timing_note":"Filtered by event effective year. OSM mapped-visibility dates and administrative dates can differ from real-world physical change dates.","caveat":"Planning cells are derived from source-backed event locations; they are not parcel boundaries unless source geometry is separately present.","generated_from":"web/data/city-atlas/cities/nyc/events_1965.json","lifecycle_status":"uncertain","status":"source_record","cell_size_m":95,"intensity":0.289,"label":"Individual landmark designated: United States Custom House — Manhattan"},"geometry":{"type":"Polygon","coordinates":[[[-74.0140822,40.7040986],[-74.0129555,40.7040986],[-74.0129555,40.7049578],[-74.0140822,40.7049578],[-74.0140822,40.7040986]]]}},{"type":"Feature","properties":{"id":"lens-detail-nyc-1965-planning_cell-4","layer":"planning_cell","category":"built_environment","year":1965,"visible_year":1965,"title":"1 source-backed planning and built record","confidence":"documented","confidence_mix":"documented:1","event_count":1,"source_count":1,"source_ids":"buis-pvji","event_ids":"nyc_lpc_individual_landmark_120","event_ids_all":"nyc_lpc_individual_landmark_120","source_urls":"https://data.cityofnewyork.us/resource/buis-pvji.json?objectid=120","geometry_precision_mix":"Row-level point from the adapter; source geocoding precision varies and may be approximate.:1","representation":"planning and built evidence grid cell","timing_note":"Filtered by event effective year. OSM mapped-visibility dates and administrative dates can differ from real-world physical change dates.","caveat":"Planning cells are derived from source-backed event locations; they are not parcel boundaries unless source geometry is separately present.","generated_from":"web/data/city-atlas/cities/nyc/events_1965.json","lifecycle_status":"uncertain","status":"source_record","cell_size_m":95,"intensity":0.289,"label":"Individual landmark designated: Fraunces Tavern"},"geometry":{"type":"Polygon","coordinates":[[[-74.0118289,40.7032395],[-74.0107022,40.7032395],[-74.0107022,40.7040986],[-74.0118289,40.7040986],[-74.0118289,40.7032395]]]}},{"type":"Feature","properties":{"id":"lens-detail-nyc-1965-planning_cell-5","layer":"planning_cell","category":"built_environment","year":1965,"visible_year":1965,"title":"1 source-backed planning and built record","confidence":"documented","confidence_mix":"documented:1","event_count":1,"source_count":1,"source_ids":"buis-pvji","event_ids":"nyc_lpc_individual_landmark_1346","event_ids_all":"nyc_lpc_individual_landmark_1346","source_urls":"https://data.cityofnewyork.us/resource/buis-pvji.json?objectid=1346","geometry_precision_mix":"Row-level point from the adapter; source geocoding precision varies and may be approximate.:1","representation":"planning and built evidence grid cell","timing_note":"Filtered by event effective year. OSM mapped-visibility dates and administrative dates can differ from real-world physical change dates.","caveat":"Planning cells are derived from source-backed event locations; they are not parcel boundaries unless source geometry is separately present.","generated_from":"web/data/city-atlas/cities/nyc/events_1965.json","lifecycle_status":"uncertain","status":"source_record","cell_size_m":95,"intensity":0.289,"label":"Individual landmark designated: Kingsland Homestead, Amendment to Landmark Site"},"geometry":{"type":"Polygon","coordinates":[[[-73.8248052,40.7633802],[-73.8236785,40.7633802],[-73.8236785,40.7642393],[-73.8248052,40.7642393],[-73.8248052,40.7633802]]]}},{"type":"Feature","properties":{"id":"lens-detail-nyc-1965-planning_cell-7","layer":"planning_cell","category":"built_environment","year":1965,"visible_year":1965,"title":"1 source-backed planning and built record","confidence":"documented","confidence_mix":"documented:1","event_count":1,"source_count":1,"source_ids":"buis-pvji","event_ids":"nyc_lpc_individual_landmark_140","event_ids_all":"nyc_lpc_individual_landmark_140","source_urls":"https://data.cityofnewyork.us/resource/buis-pvji.json?objectid=140","geometry_precision_mix":"Row-level point from the adapter; source geocoding precision varies and may be approximate.:1","representation":"planning and built evidence grid cell","timing_note":"Filtered by event effective year. OSM mapped-visibility dates and administrative dates can differ from real-world physical change dates.","caveat":"Planning cells are derived from source-backed event locations; they are not parcel boundaries unless source geometry is separately present.","generated_from":"web/data/city-atlas/cities/nyc/events_1965.json","lifecycle_status":"uncertain","status":"source_record","cell_size_m":95,"intensity":0.289,"label":"Individual landmark designated: Astor Library"},"geometry":{"type":"Polygon","coordinates":[[[-73.9926759,40.7281549],[-73.9915492,40.7281549],[-73.9915492,40.7290141],[-73.9926759,40.7290141],[-73.9926759,40.7281549]]]}},{"type":"Feature","properties":{"id":"lens-detail-nyc-1965-planning_cell-8","layer":"planning_cell","category":"built_environment","year":1965,"visible_year":1965,"title":"1 source-backed planning and built record","confidence":"documented","confidence_mix":"documented:1","event_count":1,"source_count":1,"source_ids":"buis-pvji","event_ids":"nyc_lpc_individual_landmark_166","event_ids_all":"nyc_lpc_individual_landmark_166","source_urls":"https://data.cityofnewyork.us/resource/buis-pvji.json?objectid=166","geometry_precision_mix":"Row-level point from the adapter; source geocoding precision varies and may be approximate.:1","representation":"planning and built evidence grid cell","timing_note":"Filtered by event effective year. OSM mapped-visibility dates and administrative dates can differ from real-world physical change dates.","caveat":"Planning cells are derived from source-backed event locations; they are not parcel boundaries unless source geometry is separately present.","generated_from":"web/data/city-atlas/cities/nyc/events_1965.json","lifecycle_status":"uncertain","status":"source_record","cell_size_m":95,"intensity":0.289,"label":"Individual landmark designated: John Street Methodist Church"},"geometry":{"type":"Polygon","coordinates":[[[-74.0084489,40.7083944],[-74.0073223,40.7083944],[-74.0073223,40.7092535],[-74.0084489,40.7092535],[-74.0084489,40.7083944]]]}},{"type":"Feature","properties":{"id":"lens-detail-nyc-1965-planning_cell-9","layer":"planning_cell","category":"built_environment","year":1965,"visible_year":1965,"title":"1 source-backed planning and built record","confidence":"documented","confidence_mix":"documented:1","event_count":1,"source_count":1,"source_ids":"buis-pvji","event_ids":"nyc_lpc_individual_landmark_203","event_ids_all":"nyc_lpc_individual_landmark_203","source_urls":"https://data.cityofnewyork.us/resource/buis-pvji.json?objectid=203","geometry_precision_mix":"Row-level point from the adapter; source geocoding precision varies and may be approximate.:1","representation":"planning and built evidence grid cell","timing_note":"Filtered by event effective year. OSM mapped-visibility dates and administrative dates can differ from real-world physical change dates.","caveat":"Planning cells are derived from source-backed event locations; they are not parcel boundaries unless source geometry is separately present.","generated_from":"web/data/city-atlas/cities/nyc/events_1965.json","lifecycle_status":"uncertain","status":"source_record","cell_size_m":95,"intensity":0.289,"label":"Individual landmark designated: Nicholas and Elizabeth Stuyvesant Fish House"},"geometry":{"type":"Polygon","coordinates":[[[-73.9892959,40.7298732],[-73.9881693,40.7298732],[-73.9881693,40.7307324],[-73.9892959,40.7307324],[-73.9892959,40.7298732]]]}}]}
