{"type":"FeatureCollection","name":"nyc_lens_detail_1985","metadata":{"schema_version":"1.0.0","city_id":"nyc","year":1985,"generated_at":"2026-05-27T18:21:36.281Z","source_paths":["web/data/city-atlas/cities/nyc/events_1985.json","web/data/city-atlas/cities/nyc/events.json","web/data/city-atlas/cities/nyc/transport_roads_base.geojson"],"method":"Derived OpenCityLog lens geometry built from source-backed event points plus existing OSM road/detail geometry. Grid cells aggregate events by effective year. Trace lines reuse nearest mapped road geometry for context.","caveats":["Derived cells are evidence grids, not surveyed parcels, catchments, zones, or administrative boundaries.","Trace lines are nearest mapped street or work-location context, not surveyed utility networks, measured traffic speed, spend, vacancy, or service quality. No capacity data is inferred.","When a lens/year has no same-category source-backed records, faint coverage-context grids keep the lens visible while explicitly recording the source gap. Those context features are not city-change events and are excluded from headline counts.","Borough, citywide, statistical, corridor, and multi-site records are excluded from site-like lens geometry; they remain available in the event list and evidence records.","OSM mapped-visibility dates and administrative decision dates can differ from real-world physical change dates."],"feature_layers":{"planning_cell":19,"economy_activity_cell":25},"excluded_non_site_record_count":0,"excluded_non_site_reasons":{}},"features":[{"type":"Feature","properties":{"id":"lens-detail-nyc-1985-planning_cell-10","layer":"planning_cell","category":"built_environment","year":1985,"visible_year":1985,"title":"2 source-backed planning and built records","confidence":"documented","confidence_mix":"documented:2","event_count":2,"source_count":1,"source_ids":"buis-pvji","event_ids":"nyc_lpc_individual_landmark_226,nyc_lpc_individual_landmark_608","event_ids_all":"nyc_lpc_individual_landmark_226,nyc_lpc_individual_landmark_608","source_urls":"https://data.cityofnewyork.us/resource/buis-pvji.json?objectid=226,https://data.cityofnewyork.us/resource/buis-pvji.json?objectid=608","geometry_precision_mix":"Row-level point from the adapter; source geocoding precision varies and may be approximate.:2","representation":"planning and built evidence grid cell","timing_note":"Filtered by event effective year. OSM mapped-visibility dates and administrative dates can differ from real-world physical change dates.","caveat":"Planning cells are derived from source-backed event locations; they are not parcel boundaries unless source geometry is separately present.","generated_from":"web/data/city-atlas/cities/nyc/events_1985.json","lifecycle_status":"uncertain","status":"source_record","cell_size_m":95,"intensity":0.458,"label":"Individual landmark designated: Alvin Theater"},"geometry":{"type":"Polygon","coordinates":[[[-73.9847893,40.762521],[-73.9836627,40.762521],[-73.9836627,40.7633802],[-73.9847893,40.7633802],[-73.9847893,40.762521]]]}},{"type":"Feature","properties":{"id":"lens-detail-nyc-1985-planning_cell-9","layer":"planning_cell","category":"built_environment","year":1985,"visible_year":1985,"title":"2 source-backed planning and built records","confidence":"documented","confidence_mix":"documented:2","event_count":2,"source_count":1,"source_ids":"buis-pvji","event_ids":"nyc_lpc_individual_landmark_1265,nyc_lpc_individual_landmark_1266","event_ids_all":"nyc_lpc_individual_landmark_1265,nyc_lpc_individual_landmark_1266","source_urls":"https://data.cityofnewyork.us/resource/buis-pvji.json?objectid=1265,https://data.cityofnewyork.us/resource/buis-pvji.json?objectid=1266","geometry_precision_mix":"Row-level point from the adapter; source geocoding precision varies and may be approximate.:2","representation":"planning and built evidence grid cell","timing_note":"Filtered by event effective year. OSM mapped-visibility dates and administrative dates can differ from real-world physical change dates.","caveat":"Planning cells are derived from source-backed event locations; they are not parcel boundaries unless source geometry is separately present.","generated_from":"web/data/city-atlas/cities/nyc/events_1985.json","lifecycle_status":"uncertain","status":"source_record","cell_size_m":95,"intensity":0.458,"label":"Individual landmark designated: 712 Fifth Avenue Building"},"geometry":{"type":"Polygon","coordinates":[[[-73.9757761,40.7616619],[-73.9746495,40.7616619],[-73.9746495,40.762521],[-73.9757761,40.762521],[-73.9757761,40.7616619]]]}},{"type":"Feature","properties":{"id":"lens-detail-nyc-1985-planning_cell-0","layer":"planning_cell","category":"built_environment","year":1985,"visible_year":1985,"title":"1 source-backed planning and built record","confidence":"documented","confidence_mix":"documented:1","event_count":1,"source_count":1,"source_ids":"skyk-mpzq","event_ids":"nyc_lpc_historic_district_lp-01408","event_ids_all":"nyc_lpc_historic_district_lp-01408","source_urls":"https://data.cityofnewyork.us/resource/skyk-mpzq.json?lp_number=LP-01408","geometry_precision_mix":"Row-level point from the adapter; source geocoding precision varies and may be approximate.:1","representation":"planning and built evidence grid cell","timing_note":"Filtered by event effective year. OSM mapped-visibility dates and administrative dates can differ from real-world physical change dates.","caveat":"Planning cells are derived from source-backed event locations; they are not parcel boundaries unless source geometry is separately present.","generated_from":"web/data/city-atlas/cities/nyc/events_1985.json","lifecycle_status":"uncertain","status":"source_record","cell_size_m":95,"intensity":0.289,"label":"Historic district designated: New York City Farm Colony- Seaview Hospital Historic District"},"geometry":{"type":"Polygon","coordinates":[[[-74.133507,40.5932679],[-74.1323803,40.5932679],[-74.1323803,40.594127],[-74.133507,40.594127],[-74.133507,40.5932679]]]}},{"type":"Feature","properties":{"id":"lens-detail-nyc-1985-planning_cell-1","layer":"planning_cell","category":"built_environment","year":1985,"visible_year":1985,"title":"1 source-backed planning and built record","confidence":"documented","confidence_mix":"documented:1","event_count":1,"source_count":1,"source_ids":"skyk-mpzq","event_ids":"nyc_lpc_historic_district_lp-01429","event_ids_all":"nyc_lpc_historic_district_lp-01429","source_urls":"https://data.cityofnewyork.us/resource/skyk-mpzq.json?lp_number=LP-01429","geometry_precision_mix":"Row-level point from the adapter; source geocoding precision varies and may be approximate.:1","representation":"planning and built evidence grid cell","timing_note":"Filtered by event effective year. OSM mapped-visibility dates and administrative dates can differ from real-world physical change dates.","caveat":"Planning cells are derived from source-backed event locations; they are not parcel boundaries unless source geometry is separately present.","generated_from":"web/data/city-atlas/cities/nyc/events_1985.json","lifecycle_status":"uncertain","status":"source_record","cell_size_m":95,"intensity":0.289,"label":"Historic district designated: Riverside Drive-West 80th-81st Street Historic District"},"geometry":{"type":"Polygon","coordinates":[[[-73.982536,40.784859],[-73.9814094,40.784859],[-73.9814094,40.7857182],[-73.982536,40.7857182],[-73.982536,40.784859]]]}},{"type":"Feature","properties":{"id":"lens-detail-nyc-1985-planning_cell-11","layer":"planning_cell","category":"built_environment","year":1985,"visible_year":1985,"title":"1 source-backed planning and built record","confidence":"documented","confidence_mix":"documented:1","event_count":1,"source_count":1,"source_ids":"buis-pvji","event_ids":"nyc_lpc_individual_landmark_342","event_ids_all":"nyc_lpc_individual_landmark_342","source_urls":"https://data.cityofnewyork.us/resource/buis-pvji.json?objectid=342","geometry_precision_mix":"Row-level point from the adapter; source geocoding precision varies and may be approximate.:1","representation":"planning and built evidence grid cell","timing_note":"Filtered by event effective year. OSM mapped-visibility dates and administrative dates can differ from real-world physical change dates.","caveat":"Planning cells are derived from source-backed event locations; they are not parcel boundaries unless source geometry is separately present.","generated_from":"web/data/city-atlas/cities/nyc/events_1985.json","lifecycle_status":"uncertain","status":"source_record","cell_size_m":95,"intensity":0.289,"label":"Individual landmark designated: Normandy Apartments"},"geometry":{"type":"Polygon","coordinates":[[[-73.9802827,40.7900139],[-73.9791561,40.7900139],[-73.9791561,40.7908731],[-73.9802827,40.7908731],[-73.9802827,40.7900139]]]}},{"type":"Feature","properties":{"id":"lens-detail-nyc-1985-planning_cell-12","layer":"planning_cell","category":"built_environment","year":1985,"visible_year":1985,"title":"1 source-backed planning and built record","confidence":"documented","confidence_mix":"documented:1","event_count":1,"source_count":1,"source_ids":"buis-pvji","event_ids":"nyc_lpc_individual_landmark_350","event_ids_all":"nyc_lpc_individual_landmark_350","source_urls":"https://data.cityofnewyork.us/resource/buis-pvji.json?objectid=350","geometry_precision_mix":"Row-level point from the adapter; source geocoding precision varies and may be approximate.:1","representation":"planning and built evidence grid cell","timing_note":"Filtered by event effective year. OSM mapped-visibility dates and administrative dates can differ from real-world physical change dates.","caveat":"Planning cells are derived from source-backed event locations; they are not parcel boundaries unless source geometry is separately present.","generated_from":"web/data/city-atlas/cities/nyc/events_1985.json","lifecycle_status":"uncertain","status":"source_record","cell_size_m":95,"intensity":0.289,"label":"Individual landmark designated: B. Altman & Co. Department Store"},"geometry":{"type":"Polygon","coordinates":[[[-73.9836627,40.7479154],[-73.982536,40.7479154],[-73.982536,40.7487746],[-73.9836627,40.7487746],[-73.9836627,40.7479154]]]}},{"type":"Feature","properties":{"id":"lens-detail-nyc-1985-planning_cell-13","layer":"planning_cell","category":"built_environment","year":1985,"visible_year":1985,"title":"1 source-backed planning and built record","confidence":"documented","confidence_mix":"documented:1","event_count":1,"source_count":1,"source_ids":"buis-pvji","event_ids":"nyc_lpc_individual_landmark_488","event_ids_all":"nyc_lpc_individual_landmark_488","source_urls":"https://data.cityofnewyork.us/resource/buis-pvji.json?objectid=488","geometry_precision_mix":"Row-level point from the adapter; source geocoding precision varies and may be approximate.:1","representation":"planning and built evidence grid cell","timing_note":"Filtered by event effective year. OSM mapped-visibility dates and administrative dates can differ from real-world physical change dates.","caveat":"Planning cells are derived from source-backed event locations; they are not parcel boundaries unless source geometry is separately present.","generated_from":"web/data/city-atlas/cities/nyc/events_1985.json","lifecycle_status":"uncertain","status":"source_record","cell_size_m":95,"intensity":0.289,"label":"Individual landmark designated: 254-260 Canal Street"},"geometry":{"type":"Polygon","coordinates":[[[-74.0016891,40.7178451],[-74.0005624,40.7178451],[-74.0005624,40.7187042],[-74.0016891,40.7187042],[-74.0016891,40.7178451]]]}},{"type":"Feature","properties":{"id":"lens-detail-nyc-1985-planning_cell-14","layer":"planning_cell","category":"built_environment","year":1985,"visible_year":1985,"title":"1 source-backed planning and built record","confidence":"documented","confidence_mix":"documented:1","event_count":1,"source_count":1,"source_ids":"buis-pvji","event_ids":"nyc_lpc_individual_landmark_49","event_ids_all":"nyc_lpc_individual_landmark_49","source_urls":"https://data.cityofnewyork.us/resource/buis-pvji.json?objectid=49","geometry_precision_mix":"Row-level point from the adapter; source geocoding precision varies and may be approximate.:1","representation":"planning and built evidence grid cell","timing_note":"Filtered by event effective year. OSM mapped-visibility dates and administrative dates can differ from real-world physical change dates.","caveat":"Planning cells are derived from source-backed event locations; they are not parcel boundaries unless source geometry is separately present.","generated_from":"web/data/city-atlas/cities/nyc/events_1985.json","lifecycle_status":"uncertain","status":"source_record","cell_size_m":95,"intensity":0.289,"label":"Individual landmark designated: Rossville A.M.E. Zion Church Cemetery"},"geometry":{"type":"Polygon","coordinates":[[[-74.220259,40.5408595],[-74.2191323,40.5408595],[-74.2191323,40.5417187],[-74.220259,40.5417187],[-74.220259,40.5408595]]]}},{"type":"Feature","properties":{"id":"lens-detail-nyc-1985-planning_cell-15","layer":"planning_cell","category":"built_environment","year":1985,"visible_year":1985,"title":"1 source-backed planning and built record","confidence":"documented","confidence_mix":"documented:1","event_count":1,"source_count":1,"source_ids":"buis-pvji","event_ids":"nyc_lpc_individual_landmark_560","event_ids_all":"nyc_lpc_individual_landmark_560","source_urls":"https://data.cityofnewyork.us/resource/buis-pvji.json?objectid=560","geometry_precision_mix":"Row-level point from the adapter; source geocoding precision varies and may be approximate.:1","representation":"planning and built evidence grid cell","timing_note":"Filtered by event effective year. OSM mapped-visibility dates and administrative dates can differ from real-world physical change dates.","caveat":"Planning cells are derived from source-backed event locations; they are not parcel boundaries unless source geometry is separately present.","generated_from":"web/data/city-atlas/cities/nyc/events_1985.json","lifecycle_status":"uncertain","status":"source_record","cell_size_m":95,"intensity":0.289,"label":"Individual landmark designated: 369th Regiment Armory"},"geometry":{"type":"Polygon","coordinates":[[[-73.9352168,40.8175068],[-73.9340901,40.8175068],[-73.9340901,40.818366],[-73.9352168,40.818366],[-73.9352168,40.8175068]]]}},{"type":"Feature","properties":{"id":"lens-detail-nyc-1985-planning_cell-16","layer":"planning_cell","category":"built_environment","year":1985,"visible_year":1985,"title":"1 source-backed planning and built record","confidence":"documented","confidence_mix":"documented:1","event_count":1,"source_count":1,"source_ids":"buis-pvji","event_ids":"nyc_lpc_individual_landmark_591","event_ids_all":"nyc_lpc_individual_landmark_591","source_urls":"https://data.cityofnewyork.us/resource/buis-pvji.json?objectid=591","geometry_precision_mix":"Row-level point from the adapter; source geocoding precision varies and may be approximate.:1","representation":"planning and built evidence grid cell","timing_note":"Filtered by event effective year. OSM mapped-visibility dates and administrative dates can differ from real-world physical change dates.","caveat":"Planning cells are derived from source-backed event locations; they are not parcel boundaries unless source geometry is separately present.","generated_from":"web/data/city-atlas/cities/nyc/events_1985.json","lifecycle_status":"uncertain","status":"source_record","cell_size_m":95,"intensity":0.289,"label":"Individual landmark designated: Century Apartments"},"geometry":{"type":"Polygon","coordinates":[[[-73.9814094,40.7702534],[-73.9802827,40.7702534],[-73.9802827,40.7711126],[-73.9814094,40.7711126],[-73.9814094,40.7702534]]]}},{"type":"Feature","properties":{"id":"lens-detail-nyc-1985-planning_cell-17","layer":"planning_cell","category":"built_environment","year":1985,"visible_year":1985,"title":"1 source-backed planning and built record","confidence":"documented","confidence_mix":"documented:1","event_count":1,"source_count":1,"source_ids":"buis-pvji","event_ids":"nyc_lpc_individual_landmark_731","event_ids_all":"nyc_lpc_individual_landmark_731","source_urls":"https://data.cityofnewyork.us/resource/buis-pvji.json?objectid=731","geometry_precision_mix":"Row-level point from the adapter; source geocoding precision varies and may be approximate.:1","representation":"planning and built evidence grid cell","timing_note":"Filtered by event effective year. OSM mapped-visibility dates and administrative dates can differ from real-world physical change dates.","caveat":"Planning cells are derived from source-backed event locations; they are not parcel boundaries unless source geometry is separately present.","generated_from":"web/data/city-atlas/cities/nyc/events_1985.json","lifecycle_status":"uncertain","status":"source_record","cell_size_m":95,"intensity":0.289,"label":"Individual landmark designated: General Electric Building"},"geometry":{"type":"Polygon","coordinates":[[[-73.9735228,40.756507],[-73.9723962,40.756507],[-73.9723962,40.7573661],[-73.9735228,40.7573661],[-73.9735228,40.756507]]]}},{"type":"Feature","properties":{"id":"lens-detail-nyc-1985-planning_cell-18","layer":"planning_cell","category":"built_environment","year":1985,"visible_year":1985,"title":"1 source-backed planning and built record","confidence":"documented","confidence_mix":"documented:1","event_count":1,"source_count":1,"source_ids":"buis-pvji","event_ids":"nyc_lpc_individual_landmark_746","event_ids_all":"nyc_lpc_individual_landmark_746","source_urls":"https://data.cityofnewyork.us/resource/buis-pvji.json?objectid=746","geometry_precision_mix":"Row-level point from the adapter; source geocoding precision varies and may be approximate.:1","representation":"planning and built evidence grid cell","timing_note":"Filtered by event effective year. OSM mapped-visibility dates and administrative dates can differ from real-world physical change dates.","caveat":"Planning cells are derived from source-backed event locations; they are not parcel boundaries unless source geometry is separately present.","generated_from":"web/data/city-atlas/cities/nyc/events_1985.json","lifecycle_status":"uncertain","status":"source_record","cell_size_m":95,"intensity":0.289,"label":"Individual landmark designated: Eldorado Apartments"},"geometry":{"type":"Polygon","coordinates":[[[-73.9678896,40.7882956],[-73.9667629,40.7882956],[-73.9667629,40.7891548],[-73.9678896,40.7891548],[-73.9678896,40.7882956]]]}},{"type":"Feature","properties":{"id":"lens-detail-nyc-1985-planning_cell-2","layer":"planning_cell","category":"built_environment","year":1985,"visible_year":1985,"title":"1 source-backed planning and built record","confidence":"documented","confidence_mix":"documented:1","event_count":1,"source_count":1,"source_ids":"buis-pvji","event_ids":"nyc_lpc_individual_landmark_1064","event_ids_all":"nyc_lpc_individual_landmark_1064","source_urls":"https://data.cityofnewyork.us/resource/buis-pvji.json?objectid=1064","geometry_precision_mix":"Row-level point from the adapter; source geocoding precision varies and may be approximate.:1","representation":"planning and built evidence grid cell","timing_note":"Filtered by event effective year. OSM mapped-visibility dates and administrative dates can differ from real-world physical change dates.","caveat":"Planning cells are derived from source-backed event locations; they are not parcel boundaries unless source geometry is separately present.","generated_from":"web/data/city-atlas/cities/nyc/events_1985.json","lifecycle_status":"uncertain","status":"source_record","cell_size_m":95,"intensity":0.289,"label":"Individual landmark designated: Manufacturers Hanover Trust Building"},"geometry":{"type":"Polygon","coordinates":[[[-73.9791561,40.7573661],[-73.9780294,40.7573661],[-73.9780294,40.7582253],[-73.9791561,40.7582253],[-73.9791561,40.7573661]]]}},{"type":"Feature","properties":{"id":"lens-detail-nyc-1985-planning_cell-3","layer":"planning_cell","category":"built_environment","year":1985,"visible_year":1985,"title":"1 source-backed planning and built record","confidence":"documented","confidence_mix":"documented:1","event_count":1,"source_count":1,"source_ids":"buis-pvji","event_ids":"nyc_lpc_individual_landmark_1065","event_ids_all":"nyc_lpc_individual_landmark_1065","source_urls":"https://data.cityofnewyork.us/resource/buis-pvji.json?objectid=1065","geometry_precision_mix":"Row-level point from the adapter; source geocoding precision varies and may be approximate.:1","representation":"planning and built evidence grid cell","timing_note":"Filtered by event effective year. OSM mapped-visibility dates and administrative dates can differ from real-world physical change dates.","caveat":"Planning cells are derived from source-backed event locations; they are not parcel boundaries unless source geometry is separately present.","generated_from":"web/data/city-atlas/cities/nyc/events_1985.json","lifecycle_status":"uncertain","status":"source_record","cell_size_m":95,"intensity":0.289,"label":"Individual landmark designated: Rockefeller Center"},"geometry":{"type":"Polygon","coordinates":[[[-73.9791561,40.7590844],[-73.9780294,40.7590844],[-73.9780294,40.7599436],[-73.9791561,40.7599436],[-73.9791561,40.7590844]]]}},{"type":"Feature","properties":{"id":"lens-detail-nyc-1985-planning_cell-4","layer":"planning_cell","category":"built_environment","year":1985,"visible_year":1985,"title":"1 source-backed planning and built record","confidence":"documented","confidence_mix":"documented:1","event_count":1,"source_count":1,"source_ids":"buis-pvji","event_ids":"nyc_lpc_individual_landmark_1256","event_ids_all":"nyc_lpc_individual_landmark_1256","source_urls":"https://data.cityofnewyork.us/resource/buis-pvji.json?objectid=1256","geometry_precision_mix":"Row-level point from the adapter; source geocoding precision varies and may be approximate.:1","representation":"planning and built evidence grid cell","timing_note":"Filtered by event effective year. OSM mapped-visibility dates and administrative dates can differ from real-world physical change dates.","caveat":"Planning cells are derived from source-backed event locations; they are not parcel boundaries unless source geometry is separately present.","generated_from":"web/data/city-atlas/cities/nyc/events_1985.json","lifecycle_status":"uncertain","status":"source_record","cell_size_m":95,"intensity":0.289,"label":"Individual landmark designated: Seaman's Retreat, Main Building"},"geometry":{"type":"Polygon","coordinates":[[[-74.0760479,40.6224791],[-74.0749212,40.6224791],[-74.0749212,40.6233382],[-74.0760479,40.6233382],[-74.0760479,40.6224791]]]}},{"type":"Feature","properties":{"id":"lens-detail-nyc-1985-planning_cell-5","layer":"planning_cell","category":"built_environment","year":1985,"visible_year":1985,"title":"1 source-backed planning and built record","confidence":"documented","confidence_mix":"documented:1","event_count":1,"source_count":1,"source_ids":"buis-pvji","event_ids":"nyc_lpc_individual_landmark_1257","event_ids_all":"nyc_lpc_individual_landmark_1257","source_urls":"https://data.cityofnewyork.us/resource/buis-pvji.json?objectid=1257","geometry_precision_mix":"Row-level point from the adapter; source geocoding precision varies and may be approximate.:1","representation":"planning and built evidence grid cell","timing_note":"Filtered by event effective year. OSM mapped-visibility dates and administrative dates can differ from real-world physical change dates.","caveat":"Planning cells are derived from source-backed event locations; they are not parcel boundaries unless source geometry is separately present.","generated_from":"web/data/city-atlas/cities/nyc/events_1985.json","lifecycle_status":"uncertain","status":"source_record","cell_size_m":95,"intensity":0.289,"label":"Individual landmark designated: Seaman's Retreat, Physician-in-Chief's Residence"},"geometry":{"type":"Polygon","coordinates":[[[-74.0749212,40.6233382],[-74.0737946,40.6233382],[-74.0737946,40.6241974],[-74.0749212,40.6241974],[-74.0749212,40.6233382]]]}},{"type":"Feature","properties":{"id":"lens-detail-nyc-1985-planning_cell-6","layer":"planning_cell","category":"built_environment","year":1985,"visible_year":1985,"title":"1 source-backed planning and built record","confidence":"documented","confidence_mix":"documented:1","event_count":1,"source_count":1,"source_ids":"buis-pvji","event_ids":"nyc_lpc_individual_landmark_1261","event_ids_all":"nyc_lpc_individual_landmark_1261","source_urls":"https://data.cityofnewyork.us/resource/buis-pvji.json?objectid=1261","geometry_precision_mix":"Row-level point from the adapter; source geocoding precision varies and may be approximate.:1","representation":"planning and built evidence grid cell","timing_note":"Filtered by event effective year. OSM mapped-visibility dates and administrative dates can differ from real-world physical change dates.","caveat":"Planning cells are derived from source-backed event locations; they are not parcel boundaries unless source geometry is separately present.","generated_from":"web/data/city-atlas/cities/nyc/events_1985.json","lifecycle_status":"uncertain","status":"source_record","cell_size_m":95,"intensity":0.289,"label":"Individual landmark designated: Emigrant Industrial Savings Bank Building"},"geometry":{"type":"Polygon","coordinates":[[[-74.005069,40.7135493],[-74.0039424,40.7135493],[-74.0039424,40.7144085],[-74.005069,40.7144085],[-74.005069,40.7135493]]]}},{"type":"Feature","properties":{"id":"lens-detail-nyc-1985-planning_cell-7","layer":"planning_cell","category":"built_environment","year":1985,"visible_year":1985,"title":"1 source-backed planning and built record","confidence":"documented","confidence_mix":"documented:1","event_count":1,"source_count":1,"source_ids":"buis-pvji","event_ids":"nyc_lpc_individual_landmark_1263","event_ids_all":"nyc_lpc_individual_landmark_1263","source_urls":"https://data.cityofnewyork.us/resource/buis-pvji.json?objectid=1263","geometry_precision_mix":"Row-level point from the adapter; source geocoding precision varies and may be approximate.:1","representation":"planning and built evidence grid cell","timing_note":"Filtered by event effective year. OSM mapped-visibility dates and administrative dates can differ from real-world physical change dates.","caveat":"Planning cells are derived from source-backed event locations; they are not parcel boundaries unless source geometry is separately present.","generated_from":"web/data/city-atlas/cities/nyc/events_1985.json","lifecycle_status":"uncertain","status":"source_record","cell_size_m":95,"intensity":0.289,"label":"Individual landmark designated: East River Houses"},"geometry":{"type":"Polygon","coordinates":[[[-73.9509898,40.7693943],[-73.9498632,40.7693943],[-73.9498632,40.7702534],[-73.9509898,40.7702534],[-73.9509898,40.7693943]]]}},{"type":"Feature","properties":{"id":"lens-detail-nyc-1985-planning_cell-8","layer":"planning_cell","category":"built_environment","year":1985,"visible_year":1985,"title":"1 source-backed planning and built record","confidence":"documented","confidence_mix":"documented:1","event_count":1,"source_count":1,"source_ids":"buis-pvji","event_ids":"nyc_lpc_individual_landmark_1264","event_ids_all":"nyc_lpc_individual_landmark_1264","source_urls":"https://data.cityofnewyork.us/resource/buis-pvji.json?objectid=1264","geometry_precision_mix":"Row-level point from the adapter; source geocoding precision varies and may be approximate.:1","representation":"planning and built evidence grid cell","timing_note":"Filtered by event effective year. OSM mapped-visibility dates and administrative dates can differ from real-world physical change dates.","caveat":"Planning cells are derived from source-backed event locations; they are not parcel boundaries unless source geometry is separately present.","generated_from":"web/data/city-atlas/cities/nyc/events_1985.json","lifecycle_status":"uncertain","status":"source_record","cell_size_m":95,"intensity":0.289,"label":"Individual landmark designated: New York Stock Exchange"},"geometry":{"type":"Polygon","coordinates":[[[-74.0118289,40.7066761],[-74.0107022,40.7066761],[-74.0107022,40.7075352],[-74.0118289,40.7075352],[-74.0118289,40.7066761]]]}},{"type":"Feature","properties":{"id":"lens-detail-nyc-1985-economy_activity_cell-coverage-context-0","layer":"economy_activity_cell","category":"economy","year":1985,"visible_year":1985,"title":"New York City, New York 1985 economy coverage context","confidence":"inferred","confidence_mix":"inferred:1","event_count":0,"source_count":3,"source_ids":"as9z-kwsh,skyk-mpzq,buis-pvji","event_ids":"","event_ids_all":"","source_urls":"","geometry_precision_mix":"configured atlas coverage grid from official scope sources","representation":"economy lens coverage context","timing_note":"No license-compatible economy records are currently ingested for 1985; this lens geometry marks source coverage context only.","caveat":"Coverage context is not a city-change event, not a measured condition, and is excluded from headline counts.","generated_from":"web/data/city-atlas/cities/nyc/events_1985.json","coverage_status":"no_same_category_records","evidence_role":"context_not_year_specific_change_evidence","source_kind":"official_scope_context","headline_count_excluded":true,"intensity":0.16,"label":"No same-lens economy records currently ingested","sector":"coverage_context","activity_status":"no_year_records","status":"no_year_records"},"geometry":{"type":"Polygon","coordinates":[[[-74.2591,40.4774],[-74.14736,40.4774],[-74.14736,40.56544],[-74.2591,40.56544],[-74.2591,40.4774]]]}},{"type":"Feature","properties":{"id":"lens-detail-nyc-1985-economy_activity_cell-coverage-context-1","layer":"economy_activity_cell","category":"economy","year":1985,"visible_year":1985,"title":"New York City, New York 1985 economy coverage context","confidence":"inferred","confidence_mix":"inferred:1","event_count":0,"source_count":3,"source_ids":"as9z-kwsh,skyk-mpzq,buis-pvji","event_ids":"","event_ids_all":"","source_urls":"","geometry_precision_mix":"configured atlas coverage grid from official scope sources","representation":"economy lens coverage context","timing_note":"No license-compatible economy records are currently ingested for 1985; this lens geometry marks source coverage context only.","caveat":"Coverage context is not a city-change event, not a measured condition, and is excluded from headline counts.","generated_from":"web/data/city-atlas/cities/nyc/events_1985.json","coverage_status":"no_same_category_records","evidence_role":"context_not_year_specific_change_evidence","source_kind":"official_scope_context","headline_count_excluded":true,"intensity":0.16,"label":"No same-lens economy records currently ingested","sector":"coverage_context","activity_status":"no_year_records","status":"no_year_records"},"geometry":{"type":"Polygon","coordinates":[[[-74.14736,40.4774],[-74.03562,40.4774],[-74.03562,40.56544],[-74.14736,40.56544],[-74.14736,40.4774]]]}},{"type":"Feature","properties":{"id":"lens-detail-nyc-1985-economy_activity_cell-coverage-context-2","layer":"economy_activity_cell","category":"economy","year":1985,"visible_year":1985,"title":"New York City, New York 1985 economy coverage context","confidence":"inferred","confidence_mix":"inferred:1","event_count":0,"source_count":3,"source_ids":"as9z-kwsh,skyk-mpzq,buis-pvji","event_ids":"","event_ids_all":"","source_urls":"","geometry_precision_mix":"configured atlas coverage grid from official scope sources","representation":"economy lens coverage context","timing_note":"No license-compatible economy records are currently ingested for 1985; this lens geometry marks source coverage context only.","caveat":"Coverage context is not a city-change event, not a measured condition, and is excluded from headline counts.","generated_from":"web/data/city-atlas/cities/nyc/events_1985.json","coverage_status":"no_same_category_records","evidence_role":"context_not_year_specific_change_evidence","source_kind":"official_scope_context","headline_count_excluded":true,"intensity":0.16,"label":"No same-lens economy records currently ingested","sector":"coverage_context","activity_status":"no_year_records","status":"no_year_records"},"geometry":{"type":"Polygon","coordinates":[[[-74.03562,40.4774],[-73.92388,40.4774],[-73.92388,40.56544],[-74.03562,40.56544],[-74.03562,40.4774]]]}},{"type":"Feature","properties":{"id":"lens-detail-nyc-1985-economy_activity_cell-coverage-context-3","layer":"economy_activity_cell","category":"economy","year":1985,"visible_year":1985,"title":"New York City, New York 1985 economy coverage context","confidence":"inferred","confidence_mix":"inferred:1","event_count":0,"source_count":3,"source_ids":"as9z-kwsh,skyk-mpzq,buis-pvji","event_ids":"","event_ids_all":"","source_urls":"","geometry_precision_mix":"configured atlas coverage grid from official scope sources","representation":"economy lens coverage context","timing_note":"No license-compatible economy records are currently ingested for 1985; this lens geometry marks source coverage context only.","caveat":"Coverage context is not a city-change event, not a measured condition, and is excluded from headline counts.","generated_from":"web/data/city-atlas/cities/nyc/events_1985.json","coverage_status":"no_same_category_records","evidence_role":"context_not_year_specific_change_evidence","source_kind":"official_scope_context","headline_count_excluded":true,"intensity":0.16,"label":"No same-lens economy records currently ingested","sector":"coverage_context","activity_status":"no_year_records","status":"no_year_records"},"geometry":{"type":"Polygon","coordinates":[[[-73.92388,40.4774],[-73.81214,40.4774],[-73.81214,40.56544],[-73.92388,40.56544],[-73.92388,40.4774]]]}},{"type":"Feature","properties":{"id":"lens-detail-nyc-1985-economy_activity_cell-coverage-context-4","layer":"economy_activity_cell","category":"economy","year":1985,"visible_year":1985,"title":"New York City, New York 1985 economy coverage context","confidence":"inferred","confidence_mix":"inferred:1","event_count":0,"source_count":3,"source_ids":"as9z-kwsh,skyk-mpzq,buis-pvji","event_ids":"","event_ids_all":"","source_urls":"","geometry_precision_mix":"configured atlas coverage grid from official scope sources","representation":"economy lens coverage context","timing_note":"No license-compatible economy records are currently ingested for 1985; this lens geometry marks source coverage context only.","caveat":"Coverage context is not a city-change event, not a measured condition, and is excluded from headline counts.","generated_from":"web/data/city-atlas/cities/nyc/events_1985.json","coverage_status":"no_same_category_records","evidence_role":"context_not_year_specific_change_evidence","source_kind":"official_scope_context","headline_count_excluded":true,"intensity":0.16,"label":"No same-lens economy records currently ingested","sector":"coverage_context","activity_status":"no_year_records","status":"no_year_records"},"geometry":{"type":"Polygon","coordinates":[[[-73.81214,40.4774],[-73.7004,40.4774],[-73.7004,40.56544],[-73.81214,40.56544],[-73.81214,40.4774]]]}},{"type":"Feature","properties":{"id":"lens-detail-nyc-1985-economy_activity_cell-coverage-context-5","layer":"economy_activity_cell","category":"economy","year":1985,"visible_year":1985,"title":"New York City, New York 1985 economy coverage context","confidence":"inferred","confidence_mix":"inferred:1","event_count":0,"source_count":3,"source_ids":"as9z-kwsh,skyk-mpzq,buis-pvji","event_ids":"","event_ids_all":"","source_urls":"","geometry_precision_mix":"configured atlas coverage grid from official scope sources","representation":"economy lens coverage context","timing_note":"No license-compatible economy records are currently ingested for 1985; this lens geometry marks source coverage context only.","caveat":"Coverage context is not a city-change event, not a measured condition, and is excluded from headline counts.","generated_from":"web/data/city-atlas/cities/nyc/events_1985.json","coverage_status":"no_same_category_records","evidence_role":"context_not_year_specific_change_evidence","source_kind":"official_scope_context","headline_count_excluded":true,"intensity":0.16,"label":"No same-lens economy records currently ingested","sector":"coverage_context","activity_status":"no_year_records","status":"no_year_records"},"geometry":{"type":"Polygon","coordinates":[[[-74.2591,40.56544],[-74.14736,40.56544],[-74.14736,40.65348],[-74.2591,40.65348],[-74.2591,40.56544]]]}},{"type":"Feature","properties":{"id":"lens-detail-nyc-1985-economy_activity_cell-coverage-context-6","layer":"economy_activity_cell","category":"economy","year":1985,"visible_year":1985,"title":"New York City, New York 1985 economy coverage context","confidence":"inferred","confidence_mix":"inferred:1","event_count":0,"source_count":3,"source_ids":"as9z-kwsh,skyk-mpzq,buis-pvji","event_ids":"","event_ids_all":"","source_urls":"","geometry_precision_mix":"configured atlas coverage grid from official scope sources","representation":"economy lens coverage context","timing_note":"No license-compatible economy records are currently ingested for 1985; this lens geometry marks source coverage context only.","caveat":"Coverage context is not a city-change event, not a measured condition, and is excluded from headline counts.","generated_from":"web/data/city-atlas/cities/nyc/events_1985.json","coverage_status":"no_same_category_records","evidence_role":"context_not_year_specific_change_evidence","source_kind":"official_scope_context","headline_count_excluded":true,"intensity":0.16,"label":"No same-lens economy records currently ingested","sector":"coverage_context","activity_status":"no_year_records","status":"no_year_records"},"geometry":{"type":"Polygon","coordinates":[[[-74.14736,40.56544],[-74.03562,40.56544],[-74.03562,40.65348],[-74.14736,40.65348],[-74.14736,40.56544]]]}},{"type":"Feature","properties":{"id":"lens-detail-nyc-1985-economy_activity_cell-coverage-context-7","layer":"economy_activity_cell","category":"economy","year":1985,"visible_year":1985,"title":"New York City, New York 1985 economy coverage context","confidence":"inferred","confidence_mix":"inferred:1","event_count":0,"source_count":3,"source_ids":"as9z-kwsh,skyk-mpzq,buis-pvji","event_ids":"","event_ids_all":"","source_urls":"","geometry_precision_mix":"configured atlas coverage grid from official scope sources","representation":"economy lens coverage context","timing_note":"No license-compatible economy records are currently ingested for 1985; this lens geometry marks source coverage context only.","caveat":"Coverage context is not a city-change event, not a measured condition, and is excluded from headline counts.","generated_from":"web/data/city-atlas/cities/nyc/events_1985.json","coverage_status":"no_same_category_records","evidence_role":"context_not_year_specific_change_evidence","source_kind":"official_scope_context","headline_count_excluded":true,"intensity":0.16,"label":"No same-lens economy records currently ingested","sector":"coverage_context","activity_status":"no_year_records","status":"no_year_records"},"geometry":{"type":"Polygon","coordinates":[[[-74.03562,40.56544],[-73.92388,40.56544],[-73.92388,40.65348],[-74.03562,40.65348],[-74.03562,40.56544]]]}},{"type":"Feature","properties":{"id":"lens-detail-nyc-1985-economy_activity_cell-coverage-context-8","layer":"economy_activity_cell","category":"economy","year":1985,"visible_year":1985,"title":"New York City, New York 1985 economy coverage context","confidence":"inferred","confidence_mix":"inferred:1","event_count":0,"source_count":3,"source_ids":"as9z-kwsh,skyk-mpzq,buis-pvji","event_ids":"","event_ids_all":"","source_urls":"","geometry_precision_mix":"configured atlas coverage grid from official scope sources","representation":"economy lens coverage context","timing_note":"No license-compatible economy records are currently ingested for 1985; this lens geometry marks source coverage context only.","caveat":"Coverage context is not a city-change event, not a measured condition, and is excluded from headline counts.","generated_from":"web/data/city-atlas/cities/nyc/events_1985.json","coverage_status":"no_same_category_records","evidence_role":"context_not_year_specific_change_evidence","source_kind":"official_scope_context","headline_count_excluded":true,"intensity":0.16,"label":"No same-lens economy records currently ingested","sector":"coverage_context","activity_status":"no_year_records","status":"no_year_records"},"geometry":{"type":"Polygon","coordinates":[[[-73.92388,40.56544],[-73.81214,40.56544],[-73.81214,40.65348],[-73.92388,40.65348],[-73.92388,40.56544]]]}},{"type":"Feature","properties":{"id":"lens-detail-nyc-1985-economy_activity_cell-coverage-context-9","layer":"economy_activity_cell","category":"economy","year":1985,"visible_year":1985,"title":"New York City, New York 1985 economy coverage context","confidence":"inferred","confidence_mix":"inferred:1","event_count":0,"source_count":3,"source_ids":"as9z-kwsh,skyk-mpzq,buis-pvji","event_ids":"","event_ids_all":"","source_urls":"","geometry_precision_mix":"configured atlas coverage grid from official scope sources","representation":"economy lens coverage context","timing_note":"No license-compatible economy records are currently ingested for 1985; this lens geometry marks source coverage context only.","caveat":"Coverage context is not a city-change event, not a measured condition, and is excluded from headline counts.","generated_from":"web/data/city-atlas/cities/nyc/events_1985.json","coverage_status":"no_same_category_records","evidence_role":"context_not_year_specific_change_evidence","source_kind":"official_scope_context","headline_count_excluded":true,"intensity":0.16,"label":"No same-lens economy records currently ingested","sector":"coverage_context","activity_status":"no_year_records","status":"no_year_records"},"geometry":{"type":"Polygon","coordinates":[[[-73.81214,40.56544],[-73.7004,40.56544],[-73.7004,40.65348],[-73.81214,40.65348],[-73.81214,40.56544]]]}},{"type":"Feature","properties":{"id":"lens-detail-nyc-1985-economy_activity_cell-coverage-context-10","layer":"economy_activity_cell","category":"economy","year":1985,"visible_year":1985,"title":"New York City, New York 1985 economy coverage context","confidence":"inferred","confidence_mix":"inferred:1","event_count":0,"source_count":3,"source_ids":"as9z-kwsh,skyk-mpzq,buis-pvji","event_ids":"","event_ids_all":"","source_urls":"","geometry_precision_mix":"configured atlas coverage grid from official scope sources","representation":"economy lens coverage context","timing_note":"No license-compatible economy records are currently ingested for 1985; this lens geometry marks source coverage context only.","caveat":"Coverage context is not a city-change event, not a measured condition, and is excluded from headline counts.","generated_from":"web/data/city-atlas/cities/nyc/events_1985.json","coverage_status":"no_same_category_records","evidence_role":"context_not_year_specific_change_evidence","source_kind":"official_scope_context","headline_count_excluded":true,"intensity":0.16,"label":"No same-lens economy records currently ingested","sector":"coverage_context","activity_status":"no_year_records","status":"no_year_records"},"geometry":{"type":"Polygon","coordinates":[[[-74.2591,40.65348],[-74.14736,40.65348],[-74.14736,40.74152],[-74.2591,40.74152],[-74.2591,40.65348]]]}},{"type":"Feature","properties":{"id":"lens-detail-nyc-1985-economy_activity_cell-coverage-context-11","layer":"economy_activity_cell","category":"economy","year":1985,"visible_year":1985,"title":"New York City, New York 1985 economy coverage context","confidence":"inferred","confidence_mix":"inferred:1","event_count":0,"source_count":3,"source_ids":"as9z-kwsh,skyk-mpzq,buis-pvji","event_ids":"","event_ids_all":"","source_urls":"","geometry_precision_mix":"configured atlas coverage grid from official scope sources","representation":"economy lens coverage context","timing_note":"No license-compatible economy records are currently ingested for 1985; this lens geometry marks source coverage context only.","caveat":"Coverage context is not a city-change event, not a measured condition, and is excluded from headline counts.","generated_from":"web/data/city-atlas/cities/nyc/events_1985.json","coverage_status":"no_same_category_records","evidence_role":"context_not_year_specific_change_evidence","source_kind":"official_scope_context","headline_count_excluded":true,"intensity":0.16,"label":"No same-lens economy records currently ingested","sector":"coverage_context","activity_status":"no_year_records","status":"no_year_records"},"geometry":{"type":"Polygon","coordinates":[[[-74.14736,40.65348],[-74.03562,40.65348],[-74.03562,40.74152],[-74.14736,40.74152],[-74.14736,40.65348]]]}},{"type":"Feature","properties":{"id":"lens-detail-nyc-1985-economy_activity_cell-coverage-context-12","layer":"economy_activity_cell","category":"economy","year":1985,"visible_year":1985,"title":"New York City, New York 1985 economy coverage context","confidence":"inferred","confidence_mix":"inferred:1","event_count":0,"source_count":3,"source_ids":"as9z-kwsh,skyk-mpzq,buis-pvji","event_ids":"","event_ids_all":"","source_urls":"","geometry_precision_mix":"configured atlas coverage grid from official scope sources","representation":"economy lens coverage context","timing_note":"No license-compatible economy records are currently ingested for 1985; this lens geometry marks source coverage context only.","caveat":"Coverage context is not a city-change event, not a measured condition, and is excluded from headline counts.","generated_from":"web/data/city-atlas/cities/nyc/events_1985.json","coverage_status":"no_same_category_records","evidence_role":"context_not_year_specific_change_evidence","source_kind":"official_scope_context","headline_count_excluded":true,"intensity":0.16,"label":"No same-lens economy records currently ingested","sector":"coverage_context","activity_status":"no_year_records","status":"no_year_records"},"geometry":{"type":"Polygon","coordinates":[[[-74.03562,40.65348],[-73.92388,40.65348],[-73.92388,40.74152],[-74.03562,40.74152],[-74.03562,40.65348]]]}},{"type":"Feature","properties":{"id":"lens-detail-nyc-1985-economy_activity_cell-coverage-context-13","layer":"economy_activity_cell","category":"economy","year":1985,"visible_year":1985,"title":"New York City, New York 1985 economy coverage context","confidence":"inferred","confidence_mix":"inferred:1","event_count":0,"source_count":3,"source_ids":"as9z-kwsh,skyk-mpzq,buis-pvji","event_ids":"","event_ids_all":"","source_urls":"","geometry_precision_mix":"configured atlas coverage grid from official scope sources","representation":"economy lens coverage context","timing_note":"No license-compatible economy records are currently ingested for 1985; this lens geometry marks source coverage context only.","caveat":"Coverage context is not a city-change event, not a measured condition, and is excluded from headline counts.","generated_from":"web/data/city-atlas/cities/nyc/events_1985.json","coverage_status":"no_same_category_records","evidence_role":"context_not_year_specific_change_evidence","source_kind":"official_scope_context","headline_count_excluded":true,"intensity":0.16,"label":"No same-lens economy records currently ingested","sector":"coverage_context","activity_status":"no_year_records","status":"no_year_records"},"geometry":{"type":"Polygon","coordinates":[[[-73.92388,40.65348],[-73.81214,40.65348],[-73.81214,40.74152],[-73.92388,40.74152],[-73.92388,40.65348]]]}},{"type":"Feature","properties":{"id":"lens-detail-nyc-1985-economy_activity_cell-coverage-context-14","layer":"economy_activity_cell","category":"economy","year":1985,"visible_year":1985,"title":"New York City, New York 1985 economy coverage context","confidence":"inferred","confidence_mix":"inferred:1","event_count":0,"source_count":3,"source_ids":"as9z-kwsh,skyk-mpzq,buis-pvji","event_ids":"","event_ids_all":"","source_urls":"","geometry_precision_mix":"configured atlas coverage grid from official scope sources","representation":"economy lens coverage context","timing_note":"No license-compatible economy records are currently ingested for 1985; this lens geometry marks source coverage context only.","caveat":"Coverage context is not a city-change event, not a measured condition, and is excluded from headline counts.","generated_from":"web/data/city-atlas/cities/nyc/events_1985.json","coverage_status":"no_same_category_records","evidence_role":"context_not_year_specific_change_evidence","source_kind":"official_scope_context","headline_count_excluded":true,"intensity":0.16,"label":"No same-lens economy records currently ingested","sector":"coverage_context","activity_status":"no_year_records","status":"no_year_records"},"geometry":{"type":"Polygon","coordinates":[[[-73.81214,40.65348],[-73.7004,40.65348],[-73.7004,40.74152],[-73.81214,40.74152],[-73.81214,40.65348]]]}},{"type":"Feature","properties":{"id":"lens-detail-nyc-1985-economy_activity_cell-coverage-context-15","layer":"economy_activity_cell","category":"economy","year":1985,"visible_year":1985,"title":"New York City, New York 1985 economy coverage context","confidence":"inferred","confidence_mix":"inferred:1","event_count":0,"source_count":3,"source_ids":"as9z-kwsh,skyk-mpzq,buis-pvji","event_ids":"","event_ids_all":"","source_urls":"","geometry_precision_mix":"configured atlas coverage grid from official scope sources","representation":"economy lens coverage context","timing_note":"No license-compatible economy records are currently ingested for 1985; this lens geometry marks source coverage context only.","caveat":"Coverage context is not a city-change event, not a measured condition, and is excluded from headline counts.","generated_from":"web/data/city-atlas/cities/nyc/events_1985.json","coverage_status":"no_same_category_records","evidence_role":"context_not_year_specific_change_evidence","source_kind":"official_scope_context","headline_count_excluded":true,"intensity":0.16,"label":"No same-lens economy records currently ingested","sector":"coverage_context","activity_status":"no_year_records","status":"no_year_records"},"geometry":{"type":"Polygon","coordinates":[[[-74.2591,40.74152],[-74.14736,40.74152],[-74.14736,40.82956],[-74.2591,40.82956],[-74.2591,40.74152]]]}},{"type":"Feature","properties":{"id":"lens-detail-nyc-1985-economy_activity_cell-coverage-context-16","layer":"economy_activity_cell","category":"economy","year":1985,"visible_year":1985,"title":"New York City, New York 1985 economy coverage context","confidence":"inferred","confidence_mix":"inferred:1","event_count":0,"source_count":3,"source_ids":"as9z-kwsh,skyk-mpzq,buis-pvji","event_ids":"","event_ids_all":"","source_urls":"","geometry_precision_mix":"configured atlas coverage grid from official scope sources","representation":"economy lens coverage context","timing_note":"No license-compatible economy records are currently ingested for 1985; this lens geometry marks source coverage context only.","caveat":"Coverage context is not a city-change event, not a measured condition, and is excluded from headline counts.","generated_from":"web/data/city-atlas/cities/nyc/events_1985.json","coverage_status":"no_same_category_records","evidence_role":"context_not_year_specific_change_evidence","source_kind":"official_scope_context","headline_count_excluded":true,"intensity":0.16,"label":"No same-lens economy records currently ingested","sector":"coverage_context","activity_status":"no_year_records","status":"no_year_records"},"geometry":{"type":"Polygon","coordinates":[[[-74.14736,40.74152],[-74.03562,40.74152],[-74.03562,40.82956],[-74.14736,40.82956],[-74.14736,40.74152]]]}},{"type":"Feature","properties":{"id":"lens-detail-nyc-1985-economy_activity_cell-coverage-context-17","layer":"economy_activity_cell","category":"economy","year":1985,"visible_year":1985,"title":"New York City, New York 1985 economy coverage context","confidence":"inferred","confidence_mix":"inferred:1","event_count":0,"source_count":3,"source_ids":"as9z-kwsh,skyk-mpzq,buis-pvji","event_ids":"","event_ids_all":"","source_urls":"","geometry_precision_mix":"configured atlas coverage grid from official scope sources","representation":"economy lens coverage context","timing_note":"No license-compatible economy records are currently ingested for 1985; this lens geometry marks source coverage context only.","caveat":"Coverage context is not a city-change event, not a measured condition, and is excluded from headline counts.","generated_from":"web/data/city-atlas/cities/nyc/events_1985.json","coverage_status":"no_same_category_records","evidence_role":"context_not_year_specific_change_evidence","source_kind":"official_scope_context","headline_count_excluded":true,"intensity":0.16,"label":"No same-lens economy records currently ingested","sector":"coverage_context","activity_status":"no_year_records","status":"no_year_records"},"geometry":{"type":"Polygon","coordinates":[[[-74.03562,40.74152],[-73.92388,40.74152],[-73.92388,40.82956],[-74.03562,40.82956],[-74.03562,40.74152]]]}},{"type":"Feature","properties":{"id":"lens-detail-nyc-1985-economy_activity_cell-coverage-context-18","layer":"economy_activity_cell","category":"economy","year":1985,"visible_year":1985,"title":"New York City, New York 1985 economy coverage context","confidence":"inferred","confidence_mix":"inferred:1","event_count":0,"source_count":3,"source_ids":"as9z-kwsh,skyk-mpzq,buis-pvji","event_ids":"","event_ids_all":"","source_urls":"","geometry_precision_mix":"configured atlas coverage grid from official scope sources","representation":"economy lens coverage context","timing_note":"No license-compatible economy records are currently ingested for 1985; this lens geometry marks source coverage context only.","caveat":"Coverage context is not a city-change event, not a measured condition, and is excluded from headline counts.","generated_from":"web/data/city-atlas/cities/nyc/events_1985.json","coverage_status":"no_same_category_records","evidence_role":"context_not_year_specific_change_evidence","source_kind":"official_scope_context","headline_count_excluded":true,"intensity":0.16,"label":"No same-lens economy records currently ingested","sector":"coverage_context","activity_status":"no_year_records","status":"no_year_records"},"geometry":{"type":"Polygon","coordinates":[[[-73.92388,40.74152],[-73.81214,40.74152],[-73.81214,40.82956],[-73.92388,40.82956],[-73.92388,40.74152]]]}},{"type":"Feature","properties":{"id":"lens-detail-nyc-1985-economy_activity_cell-coverage-context-19","layer":"economy_activity_cell","category":"economy","year":1985,"visible_year":1985,"title":"New York City, New York 1985 economy coverage context","confidence":"inferred","confidence_mix":"inferred:1","event_count":0,"source_count":3,"source_ids":"as9z-kwsh,skyk-mpzq,buis-pvji","event_ids":"","event_ids_all":"","source_urls":"","geometry_precision_mix":"configured atlas coverage grid from official scope sources","representation":"economy lens coverage context","timing_note":"No license-compatible economy records are currently ingested for 1985; this lens geometry marks source coverage context only.","caveat":"Coverage context is not a city-change event, not a measured condition, and is excluded from headline counts.","generated_from":"web/data/city-atlas/cities/nyc/events_1985.json","coverage_status":"no_same_category_records","evidence_role":"context_not_year_specific_change_evidence","source_kind":"official_scope_context","headline_count_excluded":true,"intensity":0.16,"label":"No same-lens economy records currently ingested","sector":"coverage_context","activity_status":"no_year_records","status":"no_year_records"},"geometry":{"type":"Polygon","coordinates":[[[-73.81214,40.74152],[-73.7004,40.74152],[-73.7004,40.82956],[-73.81214,40.82956],[-73.81214,40.74152]]]}},{"type":"Feature","properties":{"id":"lens-detail-nyc-1985-economy_activity_cell-coverage-context-20","layer":"economy_activity_cell","category":"economy","year":1985,"visible_year":1985,"title":"New York City, New York 1985 economy coverage context","confidence":"inferred","confidence_mix":"inferred:1","event_count":0,"source_count":3,"source_ids":"as9z-kwsh,skyk-mpzq,buis-pvji","event_ids":"","event_ids_all":"","source_urls":"","geometry_precision_mix":"configured atlas coverage grid from official scope sources","representation":"economy lens coverage context","timing_note":"No license-compatible economy records are currently ingested for 1985; this lens geometry marks source coverage context only.","caveat":"Coverage context is not a city-change event, not a measured condition, and is excluded from headline counts.","generated_from":"web/data/city-atlas/cities/nyc/events_1985.json","coverage_status":"no_same_category_records","evidence_role":"context_not_year_specific_change_evidence","source_kind":"official_scope_context","headline_count_excluded":true,"intensity":0.16,"label":"No same-lens economy records currently ingested","sector":"coverage_context","activity_status":"no_year_records","status":"no_year_records"},"geometry":{"type":"Polygon","coordinates":[[[-74.2591,40.82956],[-74.14736,40.82956],[-74.14736,40.9176],[-74.2591,40.9176],[-74.2591,40.82956]]]}},{"type":"Feature","properties":{"id":"lens-detail-nyc-1985-economy_activity_cell-coverage-context-21","layer":"economy_activity_cell","category":"economy","year":1985,"visible_year":1985,"title":"New York City, New York 1985 economy coverage context","confidence":"inferred","confidence_mix":"inferred:1","event_count":0,"source_count":3,"source_ids":"as9z-kwsh,skyk-mpzq,buis-pvji","event_ids":"","event_ids_all":"","source_urls":"","geometry_precision_mix":"configured atlas coverage grid from official scope sources","representation":"economy lens coverage context","timing_note":"No license-compatible economy records are currently ingested for 1985; this lens geometry marks source coverage context only.","caveat":"Coverage context is not a city-change event, not a measured condition, and is excluded from headline counts.","generated_from":"web/data/city-atlas/cities/nyc/events_1985.json","coverage_status":"no_same_category_records","evidence_role":"context_not_year_specific_change_evidence","source_kind":"official_scope_context","headline_count_excluded":true,"intensity":0.16,"label":"No same-lens economy records currently ingested","sector":"coverage_context","activity_status":"no_year_records","status":"no_year_records"},"geometry":{"type":"Polygon","coordinates":[[[-74.14736,40.82956],[-74.03562,40.82956],[-74.03562,40.9176],[-74.14736,40.9176],[-74.14736,40.82956]]]}},{"type":"Feature","properties":{"id":"lens-detail-nyc-1985-economy_activity_cell-coverage-context-22","layer":"economy_activity_cell","category":"economy","year":1985,"visible_year":1985,"title":"New York City, New York 1985 economy coverage context","confidence":"inferred","confidence_mix":"inferred:1","event_count":0,"source_count":3,"source_ids":"as9z-kwsh,skyk-mpzq,buis-pvji","event_ids":"","event_ids_all":"","source_urls":"","geometry_precision_mix":"configured atlas coverage grid from official scope sources","representation":"economy lens coverage context","timing_note":"No license-compatible economy records are currently ingested for 1985; this lens geometry marks source coverage context only.","caveat":"Coverage context is not a city-change event, not a measured condition, and is excluded from headline counts.","generated_from":"web/data/city-atlas/cities/nyc/events_1985.json","coverage_status":"no_same_category_records","evidence_role":"context_not_year_specific_change_evidence","source_kind":"official_scope_context","headline_count_excluded":true,"intensity":0.16,"label":"No same-lens economy records currently ingested","sector":"coverage_context","activity_status":"no_year_records","status":"no_year_records"},"geometry":{"type":"Polygon","coordinates":[[[-74.03562,40.82956],[-73.92388,40.82956],[-73.92388,40.9176],[-74.03562,40.9176],[-74.03562,40.82956]]]}},{"type":"Feature","properties":{"id":"lens-detail-nyc-1985-economy_activity_cell-coverage-context-23","layer":"economy_activity_cell","category":"economy","year":1985,"visible_year":1985,"title":"New York City, New York 1985 economy coverage context","confidence":"inferred","confidence_mix":"inferred:1","event_count":0,"source_count":3,"source_ids":"as9z-kwsh,skyk-mpzq,buis-pvji","event_ids":"","event_ids_all":"","source_urls":"","geometry_precision_mix":"configured atlas coverage grid from official scope sources","representation":"economy lens coverage context","timing_note":"No license-compatible economy records are currently ingested for 1985; this lens geometry marks source coverage context only.","caveat":"Coverage context is not a city-change event, not a measured condition, and is excluded from headline counts.","generated_from":"web/data/city-atlas/cities/nyc/events_1985.json","coverage_status":"no_same_category_records","evidence_role":"context_not_year_specific_change_evidence","source_kind":"official_scope_context","headline_count_excluded":true,"intensity":0.16,"label":"No same-lens economy records currently ingested","sector":"coverage_context","activity_status":"no_year_records","status":"no_year_records"},"geometry":{"type":"Polygon","coordinates":[[[-73.92388,40.82956],[-73.81214,40.82956],[-73.81214,40.9176],[-73.92388,40.9176],[-73.92388,40.82956]]]}},{"type":"Feature","properties":{"id":"lens-detail-nyc-1985-economy_activity_cell-coverage-context-24","layer":"economy_activity_cell","category":"economy","year":1985,"visible_year":1985,"title":"New York City, New York 1985 economy coverage context","confidence":"inferred","confidence_mix":"inferred:1","event_count":0,"source_count":3,"source_ids":"as9z-kwsh,skyk-mpzq,buis-pvji","event_ids":"","event_ids_all":"","source_urls":"","geometry_precision_mix":"configured atlas coverage grid from official scope sources","representation":"economy lens coverage context","timing_note":"No license-compatible economy records are currently ingested for 1985; this lens geometry marks source coverage context only.","caveat":"Coverage context is not a city-change event, not a measured condition, and is excluded from headline counts.","generated_from":"web/data/city-atlas/cities/nyc/events_1985.json","coverage_status":"no_same_category_records","evidence_role":"context_not_year_specific_change_evidence","source_kind":"official_scope_context","headline_count_excluded":true,"intensity":0.16,"label":"No same-lens economy records currently ingested","sector":"coverage_context","activity_status":"no_year_records","status":"no_year_records"},"geometry":{"type":"Polygon","coordinates":[[[-73.81214,40.82956],[-73.7004,40.82956],[-73.7004,40.9176],[-73.81214,40.9176],[-73.81214,40.82956]]]}}]}
