{"type":"FeatureCollection","name":"nyc_lens_detail_2001","metadata":{"schema_version":"1.0.0","city_id":"nyc","year":2001,"generated_at":"2026-05-27T02:12:13.541Z","source_paths":["web/data/city-atlas/cities/nyc/events_2001.json","web/data/city-atlas/cities/nyc/events.json","web/data/city-atlas/cities/nyc/transport_roads_base.geojson"],"method":"Derived OpenCityLog lens geometry built from source-backed event points plus existing OSM road/detail geometry. Grid cells aggregate events by effective year. Trace lines reuse nearest mapped road geometry for context.","caveats":["Derived cells are evidence grids, not surveyed parcels, catchments, zones, or administrative boundaries.","Trace lines are nearest mapped street or work-location context, not surveyed utility networks, measured traffic speed, spend, vacancy, or service quality. No capacity data is inferred.","When a lens/year has no same-category source-backed records, faint coverage-context grids keep the lens visible while explicitly recording the source gap. Those context features are not city-change events and are excluded from headline counts.","Borough, citywide, statistical, corridor, and multi-site records are excluded from site-like lens geometry; they remain available in the event list and evidence records.","OSM mapped-visibility dates and administrative decision dates can differ from real-world physical change dates."],"feature_layers":{"planning_cell":26,"economy_activity_cell":25,"utility_trace":12},"excluded_non_site_record_count":0,"excluded_non_site_reasons":{}},"features":[{"type":"Feature","properties":{"id":"lens-detail-nyc-2001-planning_cell-18","layer":"planning_cell","category":"built_environment","year":2001,"visible_year":2001,"title":"2 source-backed planning and built records","confidence":"documented","confidence_mix":"documented:2","event_count":2,"source_count":1,"source_ids":"buis-pvji","event_ids":"nyc_lpc_individual_landmark_649,nyc_lpc_individual_landmark_743","event_ids_all":"nyc_lpc_individual_landmark_649,nyc_lpc_individual_landmark_743","source_urls":"https://data.cityofnewyork.us/resource/buis-pvji.json?objectid=649,https://data.cityofnewyork.us/resource/buis-pvji.json?objectid=743","geometry_precision_mix":"Row-level point from the adapter; source geocoding precision varies and may be approximate.:2","representation":"planning and built evidence grid cell","timing_note":"Filtered by event effective year. OSM mapped-visibility dates and administrative dates can differ from real-world physical change dates.","caveat":"Planning cells are derived from source-backed event locations; they are not parcel boundaries unless source geometry is separately present.","generated_from":"web/data/city-atlas/cities/nyc/events_2001.json","lifecycle_status":"uncertain","status":"source_record","cell_size_m":95,"intensity":0.458,"label":"Individual landmark designated: William and Helen Ziegler, Jr. House"},"geometry":{"type":"Polygon","coordinates":[[[-73.9712695,40.7590844],[-73.9701429,40.7590844],[-73.9701429,40.7599436],[-73.9712695,40.7599436],[-73.9712695,40.7590844]]]}},{"type":"Feature","properties":{"id":"lens-detail-nyc-2001-planning_cell-0","layer":"planning_cell","category":"built_environment","year":2001,"visible_year":2001,"title":"1 source-backed planning and built record","confidence":"documented","confidence_mix":"documented:1","event_count":1,"source_count":1,"source_ids":"skyk-mpzq","event_ids":"nyc_lpc_historic_district_lp-02097","event_ids_all":"nyc_lpc_historic_district_lp-02097","source_urls":"https://data.cityofnewyork.us/resource/skyk-mpzq.json?lp_number=LP-02097","geometry_precision_mix":"Row-level point from the adapter; source geocoding precision varies and may be approximate.:1","representation":"planning and built evidence grid cell","timing_note":"Filtered by event effective year. OSM mapped-visibility dates and administrative dates can differ from real-world physical change dates.","caveat":"Planning cells are derived from source-backed event locations; they are not parcel boundaries unless source geometry is separately present.","generated_from":"web/data/city-atlas/cities/nyc/events_2001.json","lifecycle_status":"uncertain","status":"source_record","cell_size_m":95,"intensity":0.289,"label":"Historic district designated: Madison Square North Historic District"},"geometry":{"type":"Polygon","coordinates":[[[-73.9881693,40.7436197],[-73.9870426,40.7436197],[-73.9870426,40.7444788],[-73.9881693,40.7444788],[-73.9881693,40.7436197]]]}},{"type":"Feature","properties":{"id":"lens-detail-nyc-2001-planning_cell-1","layer":"planning_cell","category":"built_environment","year":2001,"visible_year":2001,"title":"1 source-backed planning and built record","confidence":"documented","confidence_mix":"documented:1","event_count":1,"source_count":1,"source_ids":"skyk-mpzq","event_ids":"nyc_lpc_historic_district_lp-02103","event_ids_all":"nyc_lpc_historic_district_lp-02103","source_urls":"https://data.cityofnewyork.us/resource/skyk-mpzq.json?lp_number=LP-02103","geometry_precision_mix":"Row-level point from the adapter; source geocoding precision varies and may be approximate.:1","representation":"planning and built evidence grid cell","timing_note":"Filtered by event effective year. OSM mapped-visibility dates and administrative dates can differ from real-world physical change dates.","caveat":"Planning cells are derived from source-backed event locations; they are not parcel boundaries unless source geometry is separately present.","generated_from":"web/data/city-atlas/cities/nyc/events_2001.json","lifecycle_status":"uncertain","status":"source_record","cell_size_m":95,"intensity":0.289,"label":"Historic district designated: Hamilton Heights/Sugar Hill Historic District Extension"},"geometry":{"type":"Polygon","coordinates":[[[-73.9431033,40.8269575],[-73.9419767,40.8269575],[-73.9419767,40.8278167],[-73.9431033,40.8278167],[-73.9431033,40.8269575]]]}},{"type":"Feature","properties":{"id":"lens-detail-nyc-2001-planning_cell-10","layer":"planning_cell","category":"built_environment","year":2001,"visible_year":2001,"title":"1 source-backed planning and built record","confidence":"documented","confidence_mix":"documented:1","event_count":1,"source_count":1,"source_ids":"buis-pvji","event_ids":"nyc_lpc_individual_landmark_1301","event_ids_all":"nyc_lpc_individual_landmark_1301","source_urls":"https://data.cityofnewyork.us/resource/buis-pvji.json?objectid=1301","geometry_precision_mix":"Row-level point from the adapter; source geocoding precision varies and may be approximate.:1","representation":"planning and built evidence grid cell","timing_note":"Filtered by event effective year. OSM mapped-visibility dates and administrative dates can differ from real-world physical change dates.","caveat":"Planning cells are derived from source-backed event locations; they are not parcel boundaries unless source geometry is separately present.","generated_from":"web/data/city-atlas/cities/nyc/events_2001.json","lifecycle_status":"uncertain","status":"source_record","cell_size_m":95,"intensity":0.289,"label":"Individual landmark designated: Benevolent and Protective Order of Elks, Lodge Number 878"},"geometry":{"type":"Polygon","coordinates":[[[-73.8822643,40.7367464],[-73.8811376,40.7367464],[-73.8811376,40.7376056],[-73.8822643,40.7376056],[-73.8822643,40.7367464]]]}},{"type":"Feature","properties":{"id":"lens-detail-nyc-2001-planning_cell-11","layer":"planning_cell","category":"built_environment","year":2001,"visible_year":2001,"title":"1 source-backed planning and built record","confidence":"documented","confidence_mix":"documented:1","event_count":1,"source_count":1,"source_ids":"buis-pvji","event_ids":"nyc_lpc_individual_landmark_1303","event_ids_all":"nyc_lpc_individual_landmark_1303","source_urls":"https://data.cityofnewyork.us/resource/buis-pvji.json?objectid=1303","geometry_precision_mix":"Row-level point from the adapter; source geocoding precision varies and may be approximate.:1","representation":"planning and built evidence grid cell","timing_note":"Filtered by event effective year. OSM mapped-visibility dates and administrative dates can differ from real-world physical change dates.","caveat":"Planning cells are derived from source-backed event locations; they are not parcel boundaries unless source geometry is separately present.","generated_from":"web/data/city-atlas/cities/nyc/events_2001.json","lifecycle_status":"uncertain","status":"source_record","cell_size_m":95,"intensity":0.289,"label":"Individual landmark designated: New York Times Building"},"geometry":{"type":"Polygon","coordinates":[[[-73.9881693,40.7573661],[-73.9870426,40.7573661],[-73.9870426,40.7582253],[-73.9881693,40.7582253],[-73.9881693,40.7573661]]]}},{"type":"Feature","properties":{"id":"lens-detail-nyc-2001-planning_cell-12","layer":"planning_cell","category":"built_environment","year":2001,"visible_year":2001,"title":"1 source-backed planning and built record","confidence":"documented","confidence_mix":"documented:1","event_count":1,"source_count":1,"source_ids":"buis-pvji","event_ids":"nyc_lpc_individual_landmark_1304","event_ids_all":"nyc_lpc_individual_landmark_1304","source_urls":"https://data.cityofnewyork.us/resource/buis-pvji.json?objectid=1304","geometry_precision_mix":"Row-level point from the adapter; source geocoding precision varies and may be approximate.:1","representation":"planning and built evidence grid cell","timing_note":"Filtered by event effective year. OSM mapped-visibility dates and administrative dates can differ from real-world physical change dates.","caveat":"Planning cells are derived from source-backed event locations; they are not parcel boundaries unless source geometry is separately present.","generated_from":"web/data/city-atlas/cities/nyc/events_2001.json","lifecycle_status":"uncertain","status":"source_record","cell_size_m":95,"intensity":0.289,"label":"Individual landmark designated: Steinway Hall"},"geometry":{"type":"Polygon","coordinates":[[[-73.9780294,40.7642393],[-73.9769028,40.7642393],[-73.9769028,40.7650985],[-73.9780294,40.7650985],[-73.9780294,40.7642393]]]}},{"type":"Feature","properties":{"id":"lens-detail-nyc-2001-planning_cell-13","layer":"planning_cell","category":"built_environment","year":2001,"visible_year":2001,"title":"1 source-backed planning and built record","confidence":"documented","confidence_mix":"documented:1","event_count":1,"source_count":1,"source_ids":"buis-pvji","event_ids":"nyc_lpc_individual_landmark_143","event_ids_all":"nyc_lpc_individual_landmark_143","source_urls":"https://data.cityofnewyork.us/resource/buis-pvji.json?objectid=143","geometry_precision_mix":"Row-level point from the adapter; source geocoding precision varies and may be approximate.:1","representation":"planning and built evidence grid cell","timing_note":"Filtered by event effective year. OSM mapped-visibility dates and administrative dates can differ from real-world physical change dates.","caveat":"Planning cells are derived from source-backed event locations; they are not parcel boundaries unless source geometry is separately present.","generated_from":"web/data/city-atlas/cities/nyc/events_2001.json","lifecycle_status":"uncertain","status":"source_record","cell_size_m":95,"intensity":0.289,"label":"Individual landmark designated: New York Public Library, Chatham Square Branch"},"geometry":{"type":"Polygon","coordinates":[[[-73.9971825,40.7126901],[-73.9960558,40.7126901],[-73.9960558,40.7135493],[-73.9971825,40.7135493],[-73.9971825,40.7126901]]]}},{"type":"Feature","properties":{"id":"lens-detail-nyc-2001-planning_cell-14","layer":"planning_cell","category":"built_environment","year":2001,"visible_year":2001,"title":"1 source-backed planning and built record","confidence":"documented","confidence_mix":"documented:1","event_count":1,"source_count":1,"source_ids":"buis-pvji","event_ids":"nyc_lpc_individual_landmark_153","event_ids_all":"nyc_lpc_individual_landmark_153","source_urls":"https://data.cityofnewyork.us/resource/buis-pvji.json?objectid=153","geometry_precision_mix":"Row-level point from the adapter; source geocoding precision varies and may be approximate.:1","representation":"planning and built evidence grid cell","timing_note":"Filtered by event effective year. OSM mapped-visibility dates and administrative dates can differ from real-world physical change dates.","caveat":"Planning cells are derived from source-backed event locations; they are not parcel boundaries unless source geometry is separately present.","generated_from":"web/data/city-atlas/cities/nyc/events_2001.json","lifecycle_status":"uncertain","status":"source_record","cell_size_m":95,"intensity":0.289,"label":"Individual landmark designated: German-American Shooting Society Clubhouse"},"geometry":{"type":"Polygon","coordinates":[[[-73.9892959,40.7290141],[-73.9881693,40.7290141],[-73.9881693,40.7298732],[-73.9892959,40.7298732],[-73.9892959,40.7290141]]]}},{"type":"Feature","properties":{"id":"lens-detail-nyc-2001-planning_cell-15","layer":"planning_cell","category":"built_environment","year":2001,"visible_year":2001,"title":"1 source-backed planning and built record","confidence":"documented","confidence_mix":"documented:1","event_count":1,"source_count":1,"source_ids":"buis-pvji","event_ids":"nyc_lpc_individual_landmark_195","event_ids_all":"nyc_lpc_individual_landmark_195","source_urls":"https://data.cityofnewyork.us/resource/buis-pvji.json?objectid=195","geometry_precision_mix":"Row-level point from the adapter; source geocoding precision varies and may be approximate.:1","representation":"planning and built evidence grid cell","timing_note":"Filtered by event effective year. OSM mapped-visibility dates and administrative dates can differ from real-world physical change dates.","caveat":"Planning cells are derived from source-backed event locations; they are not parcel boundaries unless source geometry is separately present.","generated_from":"web/data/city-atlas/cities/nyc/events_2001.json","lifecycle_status":"uncertain","status":"source_record","cell_size_m":95,"intensity":0.289,"label":"Individual landmark designated: 94-100 Lafayette Street Building"},"geometry":{"type":"Polygon","coordinates":[[[-74.0016891,40.7169859],[-74.0005624,40.7169859],[-74.0005624,40.7178451],[-74.0016891,40.7178451],[-74.0016891,40.7169859]]]}},{"type":"Feature","properties":{"id":"lens-detail-nyc-2001-planning_cell-16","layer":"planning_cell","category":"built_environment","year":2001,"visible_year":2001,"title":"1 source-backed planning and built record","confidence":"documented","confidence_mix":"documented:1","event_count":1,"source_count":1,"source_ids":"buis-pvji","event_ids":"nyc_lpc_individual_landmark_21","event_ids_all":"nyc_lpc_individual_landmark_21","source_urls":"https://data.cityofnewyork.us/resource/buis-pvji.json?objectid=21","geometry_precision_mix":"Row-level point from the adapter; source geocoding precision varies and may be approximate.:1","representation":"planning and built evidence grid cell","timing_note":"Filtered by event effective year. OSM mapped-visibility dates and administrative dates can differ from real-world physical change dates.","caveat":"Planning cells are derived from source-backed event locations; they are not parcel boundaries unless source geometry is separately present.","generated_from":"web/data/city-atlas/cities/nyc/events_2001.json","lifecycle_status":"uncertain","status":"source_record","cell_size_m":95,"intensity":0.289,"label":"Individual landmark designated: August and Augusta Schoverling House"},"geometry":{"type":"Polygon","coordinates":[[[-74.0828078,40.638803],[-74.0816811,40.638803],[-74.0816811,40.6396621],[-74.0828078,40.6396621],[-74.0828078,40.638803]]]}},{"type":"Feature","properties":{"id":"lens-detail-nyc-2001-planning_cell-17","layer":"planning_cell","category":"built_environment","year":2001,"visible_year":2001,"title":"1 source-backed planning and built record","confidence":"documented","confidence_mix":"documented:1","event_count":1,"source_count":1,"source_ids":"buis-pvji","event_ids":"nyc_lpc_individual_landmark_282","event_ids_all":"nyc_lpc_individual_landmark_282","source_urls":"https://data.cityofnewyork.us/resource/buis-pvji.json?objectid=282","geometry_precision_mix":"Row-level point from the adapter; source geocoding precision varies and may be approximate.:1","representation":"planning and built evidence grid cell","timing_note":"Filtered by event effective year. OSM mapped-visibility dates and administrative dates can differ from real-world physical change dates.","caveat":"Planning cells are derived from source-backed event locations; they are not parcel boundaries unless source geometry is separately present.","generated_from":"web/data/city-atlas/cities/nyc/events_2001.json","lifecycle_status":"uncertain","status":"source_record","cell_size_m":95,"intensity":0.289,"label":"Individual landmark designated: 130 West 30th Street Building"},"geometry":{"type":"Polygon","coordinates":[[[-73.9915492,40.7470563],[-73.9904226,40.7470563],[-73.9904226,40.7479154],[-73.9915492,40.7479154],[-73.9915492,40.7470563]]]}},{"type":"Feature","properties":{"id":"lens-detail-nyc-2001-planning_cell-19","layer":"planning_cell","category":"built_environment","year":2001,"visible_year":2001,"title":"1 source-backed planning and built record","confidence":"documented","confidence_mix":"documented:1","event_count":1,"source_count":1,"source_ids":"buis-pvji","event_ids":"nyc_lpc_individual_landmark_754","event_ids_all":"nyc_lpc_individual_landmark_754","source_urls":"https://data.cityofnewyork.us/resource/buis-pvji.json?objectid=754","geometry_precision_mix":"Row-level point from the adapter; source geocoding precision varies and may be approximate.:1","representation":"planning and built evidence grid cell","timing_note":"Filtered by event effective year. OSM mapped-visibility dates and administrative dates can differ from real-world physical change dates.","caveat":"Planning cells are derived from source-backed event locations; they are not parcel boundaries unless source geometry is separately present.","generated_from":"web/data/city-atlas/cities/nyc/events_2001.json","lifecycle_status":"uncertain","status":"source_record","cell_size_m":95,"intensity":0.289,"label":"Individual landmark designated: Aberdeen Hotel"},"geometry":{"type":"Polygon","coordinates":[[[-73.9870426,40.7470563],[-73.985916,40.7470563],[-73.985916,40.7479154],[-73.9870426,40.7479154],[-73.9870426,40.7470563]]]}},{"type":"Feature","properties":{"id":"lens-detail-nyc-2001-planning_cell-2","layer":"planning_cell","category":"built_environment","year":2001,"visible_year":2001,"title":"1 source-backed planning and built record","confidence":"documented","confidence_mix":"documented:1","event_count":1,"source_count":1,"source_ids":"skyk-mpzq","event_ids":"nyc_lpc_historic_district_lp-02104","event_ids_all":"nyc_lpc_historic_district_lp-02104","source_urls":"https://data.cityofnewyork.us/resource/skyk-mpzq.json?lp_number=LP-02104","geometry_precision_mix":"Row-level point from the adapter; source geocoding precision varies and may be approximate.:1","representation":"planning and built evidence grid cell","timing_note":"Filtered by event effective year. OSM mapped-visibility dates and administrative dates can differ from real-world physical change dates.","caveat":"Planning cells are derived from source-backed event locations; they are not parcel boundaries unless source geometry is separately present.","generated_from":"web/data/city-atlas/cities/nyc/events_2001.json","lifecycle_status":"uncertain","status":"source_record","cell_size_m":95,"intensity":0.289,"label":"Historic district designated: Hamilton Heights/Sugar Hill Northeast Historic District"},"geometry":{"type":"Polygon","coordinates":[[[-73.94085,40.8286758],[-73.9397234,40.8286758],[-73.9397234,40.829535],[-73.94085,40.829535],[-73.94085,40.8286758]]]}},{"type":"Feature","properties":{"id":"lens-detail-nyc-2001-planning_cell-20","layer":"planning_cell","category":"built_environment","year":2001,"visible_year":2001,"title":"1 source-backed planning and built record","confidence":"documented","confidence_mix":"documented:1","event_count":1,"source_count":1,"source_ids":"buis-pvji","event_ids":"nyc_lpc_individual_landmark_772","event_ids_all":"nyc_lpc_individual_landmark_772","source_urls":"https://data.cityofnewyork.us/resource/buis-pvji.json?objectid=772","geometry_precision_mix":"Row-level point from the adapter; source geocoding precision varies and may be approximate.:1","representation":"planning and built evidence grid cell","timing_note":"Filtered by event effective year. OSM mapped-visibility dates and administrative dates can differ from real-world physical change dates.","caveat":"Planning cells are derived from source-backed event locations; they are not parcel boundaries unless source geometry is separately present.","generated_from":"web/data/city-atlas/cities/nyc/events_2001.json","lifecycle_status":"uncertain","status":"source_record","cell_size_m":95,"intensity":0.289,"label":"Individual landmark designated: Fire Engine Company No. 67"},"geometry":{"type":"Polygon","coordinates":[[[-73.9374701,40.840704],[-73.9363434,40.840704],[-73.9363434,40.8415631],[-73.9374701,40.8415631],[-73.9374701,40.840704]]]}},{"type":"Feature","properties":{"id":"lens-detail-nyc-2001-planning_cell-21","layer":"planning_cell","category":"built_environment","year":2001,"visible_year":2001,"title":"1 source-backed planning and built record","confidence":"documented","confidence_mix":"documented:1","event_count":1,"source_count":1,"source_ids":"buis-pvji","event_ids":"nyc_lpc_individual_landmark_834","event_ids_all":"nyc_lpc_individual_landmark_834","source_urls":"https://data.cityofnewyork.us/resource/buis-pvji.json?objectid=834","geometry_precision_mix":"Row-level point from the adapter; source geocoding precision varies and may be approximate.:1","representation":"planning and built evidence grid cell","timing_note":"Filtered by event effective year. OSM mapped-visibility dates and administrative dates can differ from real-world physical change dates.","caveat":"Planning cells are derived from source-backed event locations; they are not parcel boundaries unless source geometry is separately present.","generated_from":"web/data/city-atlas/cities/nyc/events_2001.json","lifecycle_status":"uncertain","status":"source_record","cell_size_m":95,"intensity":0.289,"label":"Individual landmark designated: Brooklyn Clay Retort and Fire Brick Works Storehouse"},"geometry":{"type":"Polygon","coordinates":[[[-74.0140822,40.6748874],[-74.0129555,40.6748874],[-74.0129555,40.6757466],[-74.0140822,40.6757466],[-74.0140822,40.6748874]]]}},{"type":"Feature","properties":{"id":"lens-detail-nyc-2001-planning_cell-22","layer":"planning_cell","category":"built_environment","year":2001,"visible_year":2001,"title":"1 source-backed planning and built record","confidence":"documented","confidence_mix":"documented:1","event_count":1,"source_count":1,"source_ids":"buis-pvji","event_ids":"nyc_lpc_individual_landmark_836","event_ids_all":"nyc_lpc_individual_landmark_836","source_urls":"https://data.cityofnewyork.us/resource/buis-pvji.json?objectid=836","geometry_precision_mix":"Row-level point from the adapter; source geocoding precision varies and may be approximate.:1","representation":"planning and built evidence grid cell","timing_note":"Filtered by event effective year. OSM mapped-visibility dates and administrative dates can differ from real-world physical change dates.","caveat":"Planning cells are derived from source-backed event locations; they are not parcel boundaries unless source geometry is separately present.","generated_from":"web/data/city-atlas/cities/nyc/events_2001.json","lifecycle_status":"uncertain","status":"source_record","cell_size_m":95,"intensity":0.289,"label":"Individual landmark designated: Sunset Park Court House"},"geometry":{"type":"Polygon","coordinates":[[[-74.0084489,40.649972],[-74.0073223,40.649972],[-74.0073223,40.6508311],[-74.0084489,40.6508311],[-74.0084489,40.649972]]]}},{"type":"Feature","properties":{"id":"lens-detail-nyc-2001-planning_cell-23","layer":"planning_cell","category":"built_environment","year":2001,"visible_year":2001,"title":"1 source-backed planning and built record","confidence":"documented","confidence_mix":"documented:1","event_count":1,"source_count":1,"source_ids":"buis-pvji","event_ids":"nyc_lpc_individual_landmark_851","event_ids_all":"nyc_lpc_individual_landmark_851","source_urls":"https://data.cityofnewyork.us/resource/buis-pvji.json?objectid=851","geometry_precision_mix":"Row-level point from the adapter; source geocoding precision varies and may be approximate.:1","representation":"planning and built evidence grid cell","timing_note":"Filtered by event effective year. OSM mapped-visibility dates and administrative dates can differ from real-world physical change dates.","caveat":"Planning cells are derived from source-backed event locations; they are not parcel boundaries unless source geometry is separately present.","generated_from":"web/data/city-atlas/cities/nyc/events_2001.json","lifecycle_status":"uncertain","status":"source_record","cell_size_m":95,"intensity":0.289,"label":"Individual landmark designated: Duffield Street Houses"},"geometry":{"type":"Polygon","coordinates":[[[-73.9847893,40.6920705],[-73.9836627,40.6920705],[-73.9836627,40.6929296],[-73.9847893,40.6929296],[-73.9847893,40.6920705]]]}},{"type":"Feature","properties":{"id":"lens-detail-nyc-2001-planning_cell-24","layer":"planning_cell","category":"built_environment","year":2001,"visible_year":2001,"title":"1 source-backed planning and built record","confidence":"documented","confidence_mix":"documented:1","event_count":1,"source_count":1,"source_ids":"buis-pvji","event_ids":"nyc_lpc_individual_landmark_857","event_ids_all":"nyc_lpc_individual_landmark_857","source_urls":"https://data.cityofnewyork.us/resource/buis-pvji.json?objectid=857","geometry_precision_mix":"Row-level point from the adapter; source geocoding precision varies and may be approximate.:1","representation":"planning and built evidence grid cell","timing_note":"Filtered by event effective year. OSM mapped-visibility dates and administrative dates can differ from real-world physical change dates.","caveat":"Planning cells are derived from source-backed event locations; they are not parcel boundaries unless source geometry is separately present.","generated_from":"web/data/city-atlas/cities/nyc/events_2001.json","lifecycle_status":"uncertain","status":"source_record","cell_size_m":95,"intensity":0.289,"label":"Individual landmark designated: Magen David Synagogue"},"geometry":{"type":"Polygon","coordinates":[[[-73.9870426,40.6147467],[-73.985916,40.6147467],[-73.985916,40.6156058],[-73.9870426,40.6156058],[-73.9870426,40.6147467]]]}},{"type":"Feature","properties":{"id":"lens-detail-nyc-2001-planning_cell-25","layer":"planning_cell","category":"built_environment","year":2001,"visible_year":2001,"title":"1 source-backed planning and built record","confidence":"documented","confidence_mix":"documented:1","event_count":1,"source_count":1,"source_ids":"buis-pvji","event_ids":"nyc_lpc_individual_landmark_871","event_ids_all":"nyc_lpc_individual_landmark_871","source_urls":"https://data.cityofnewyork.us/resource/buis-pvji.json?objectid=871","geometry_precision_mix":"Row-level point from the adapter; source geocoding precision varies and may be approximate.:1","representation":"planning and built evidence grid cell","timing_note":"Filtered by event effective year. OSM mapped-visibility dates and administrative dates can differ from real-world physical change dates.","caveat":"Planning cells are derived from source-backed event locations; they are not parcel boundaries unless source geometry is separately present.","generated_from":"web/data/city-atlas/cities/nyc/events_2001.json","lifecycle_status":"uncertain","status":"source_record","cell_size_m":95,"intensity":0.289,"label":"Individual landmark designated: Lefferts-Laidlaw House"},"geometry":{"type":"Polygon","coordinates":[[[-73.9701429,40.6937888],[-73.9690162,40.6937888],[-73.9690162,40.6946479],[-73.9701429,40.6946479],[-73.9701429,40.6937888]]]}},{"type":"Feature","properties":{"id":"lens-detail-nyc-2001-planning_cell-3","layer":"planning_cell","category":"built_environment","year":2001,"visible_year":2001,"title":"1 source-backed planning and built record","confidence":"documented","confidence_mix":"documented:1","event_count":1,"source_count":1,"source_ids":"buis-pvji","event_ids":"nyc_lpc_individual_landmark_103","event_ids_all":"nyc_lpc_individual_landmark_103","source_urls":"https://data.cityofnewyork.us/resource/buis-pvji.json?objectid=103","geometry_precision_mix":"Row-level point from the adapter; source geocoding precision varies and may be approximate.:1","representation":"planning and built evidence grid cell","timing_note":"Filtered by event effective year. OSM mapped-visibility dates and administrative dates can differ from real-world physical change dates.","caveat":"Planning cells are derived from source-backed event locations; they are not parcel boundaries unless source geometry is separately present.","generated_from":"web/data/city-atlas/cities/nyc/events_2001.json","lifecycle_status":"uncertain","status":"source_record","cell_size_m":95,"intensity":0.289,"label":"Individual landmark designated: Suffolk Title and Guarantee Company Build"},"geometry":{"type":"Polygon","coordinates":[[[-73.8000189,40.7049578],[-73.7988922,40.7049578],[-73.7988922,40.7058169],[-73.8000189,40.7058169],[-73.8000189,40.7049578]]]}},{"type":"Feature","properties":{"id":"lens-detail-nyc-2001-planning_cell-4","layer":"planning_cell","category":"built_environment","year":2001,"visible_year":2001,"title":"1 source-backed planning and built record","confidence":"documented","confidence_mix":"documented:1","event_count":1,"source_count":1,"source_ids":"buis-pvji","event_ids":"nyc_lpc_individual_landmark_11","event_ids_all":"nyc_lpc_individual_landmark_11","source_urls":"https://data.cityofnewyork.us/resource/buis-pvji.json?objectid=11","geometry_precision_mix":"Row-level point from the adapter; source geocoding precision varies and may be approximate.:1","representation":"planning and built evidence grid cell","timing_note":"Filtered by event effective year. OSM mapped-visibility dates and administrative dates can differ from real-world physical change dates.","caveat":"Planning cells are derived from source-backed event locations; they are not parcel boundaries unless source geometry is separately present.","generated_from":"web/data/city-atlas/cities/nyc/events_2001.json","lifecycle_status":"uncertain","status":"source_record","cell_size_m":95,"intensity":0.289,"label":"Individual landmark designated: Staten Island Family Courthouse"},"geometry":{"type":"Polygon","coordinates":[[[-74.0783012,40.644817],[-74.0771745,40.644817],[-74.0771745,40.6456762],[-74.0783012,40.6456762],[-74.0783012,40.644817]]]}},{"type":"Feature","properties":{"id":"lens-detail-nyc-2001-planning_cell-5","layer":"planning_cell","category":"built_environment","year":2001,"visible_year":2001,"title":"1 source-backed planning and built record","confidence":"documented","confidence_mix":"documented:1","event_count":1,"source_count":1,"source_ids":"buis-pvji","event_ids":"nyc_lpc_individual_landmark_1112","event_ids_all":"nyc_lpc_individual_landmark_1112","source_urls":"https://data.cityofnewyork.us/resource/buis-pvji.json?objectid=1112","geometry_precision_mix":"Row-level point from the adapter; source geocoding precision varies and may be approximate.:1","representation":"planning and built evidence grid cell","timing_note":"Filtered by event effective year. OSM mapped-visibility dates and administrative dates can differ from real-world physical change dates.","caveat":"Planning cells are derived from source-backed event locations; they are not parcel boundaries unless source geometry is separately present.","generated_from":"web/data/city-atlas/cities/nyc/events_2001.json","lifecycle_status":"uncertain","status":"source_record","cell_size_m":95,"intensity":0.289,"label":"Individual landmark designated: Edwards-Barton House"},"geometry":{"type":"Polygon","coordinates":[[[-74.1470268,40.5709299],[-74.1459001,40.5709299],[-74.1459001,40.571789],[-74.1470268,40.571789],[-74.1470268,40.5709299]]]}},{"type":"Feature","properties":{"id":"lens-detail-nyc-2001-planning_cell-6","layer":"planning_cell","category":"built_environment","year":2001,"visible_year":2001,"title":"1 source-backed planning and built record","confidence":"documented","confidence_mix":"documented:1","event_count":1,"source_count":1,"source_ids":"buis-pvji","event_ids":"nyc_lpc_individual_landmark_127","event_ids_all":"nyc_lpc_individual_landmark_127","source_urls":"https://data.cityofnewyork.us/resource/buis-pvji.json?objectid=127","geometry_precision_mix":"Row-level point from the adapter; source geocoding precision varies and may be approximate.:1","representation":"planning and built evidence grid cell","timing_note":"Filtered by event effective year. OSM mapped-visibility dates and administrative dates can differ from real-world physical change dates.","caveat":"Planning cells are derived from source-backed event locations; they are not parcel boundaries unless source geometry is separately present.","generated_from":"web/data/city-atlas/cities/nyc/events_2001.json","lifecycle_status":"uncertain","status":"source_record","cell_size_m":95,"intensity":0.289,"label":"Individual landmark designated: New York Public Library, Muhlenberg Branch"},"geometry":{"type":"Polygon","coordinates":[[[-73.9960558,40.7444788],[-73.9949292,40.7444788],[-73.9949292,40.745338],[-73.9960558,40.745338],[-73.9960558,40.7444788]]]}},{"type":"Feature","properties":{"id":"lens-detail-nyc-2001-planning_cell-7","layer":"planning_cell","category":"built_environment","year":2001,"visible_year":2001,"title":"1 source-backed planning and built record","confidence":"documented","confidence_mix":"documented:1","event_count":1,"source_count":1,"source_ids":"buis-pvji","event_ids":"nyc_lpc_individual_landmark_128","event_ids_all":"nyc_lpc_individual_landmark_128","source_urls":"https://data.cityofnewyork.us/resource/buis-pvji.json?objectid=128","geometry_precision_mix":"Row-level point from the adapter; source geocoding precision varies and may be approximate.:1","representation":"planning and built evidence grid cell","timing_note":"Filtered by event effective year. OSM mapped-visibility dates and administrative dates can differ from real-world physical change dates.","caveat":"Planning cells are derived from source-backed event locations; they are not parcel boundaries unless source geometry is separately present.","generated_from":"web/data/city-atlas/cities/nyc/events_2001.json","lifecycle_status":"uncertain","status":"source_record","cell_size_m":95,"intensity":0.289,"label":"Individual landmark designated: Catholic Apostolic Church"},"geometry":{"type":"Polygon","coordinates":[[[-73.9870426,40.7676759],[-73.985916,40.7676759],[-73.985916,40.7685351],[-73.9870426,40.7685351],[-73.9870426,40.7676759]]]}},{"type":"Feature","properties":{"id":"lens-detail-nyc-2001-planning_cell-8","layer":"planning_cell","category":"built_environment","year":2001,"visible_year":2001,"title":"1 source-backed planning and built record","confidence":"documented","confidence_mix":"documented:1","event_count":1,"source_count":1,"source_ids":"buis-pvji","event_ids":"nyc_lpc_individual_landmark_1293","event_ids_all":"nyc_lpc_individual_landmark_1293","source_urls":"https://data.cityofnewyork.us/resource/buis-pvji.json?objectid=1293","geometry_precision_mix":"Row-level point from the adapter; source geocoding precision varies and may be approximate.:1","representation":"planning and built evidence grid cell","timing_note":"Filtered by event effective year. OSM mapped-visibility dates and administrative dates can differ from real-world physical change dates.","caveat":"Planning cells are derived from source-backed event locations; they are not parcel boundaries unless source geometry is separately present.","generated_from":"web/data/city-atlas/cities/nyc/events_2001.json","lifecycle_status":"uncertain","status":"source_record","cell_size_m":95,"intensity":0.289,"label":"Individual landmark designated: 1 Wall Street Building"},"geometry":{"type":"Polygon","coordinates":[[[-74.0118289,40.7066761],[-74.0107022,40.7066761],[-74.0107022,40.7075352],[-74.0118289,40.7075352],[-74.0118289,40.7066761]]]}},{"type":"Feature","properties":{"id":"lens-detail-nyc-2001-planning_cell-9","layer":"planning_cell","category":"built_environment","year":2001,"visible_year":2001,"title":"1 source-backed planning and built record","confidence":"documented","confidence_mix":"documented:1","event_count":1,"source_count":1,"source_ids":"buis-pvji","event_ids":"nyc_lpc_individual_landmark_1299","event_ids_all":"nyc_lpc_individual_landmark_1299","source_urls":"https://data.cityofnewyork.us/resource/buis-pvji.json?objectid=1299","geometry_precision_mix":"Row-level point from the adapter; source geocoding precision varies and may be approximate.:1","representation":"planning and built evidence grid cell","timing_note":"Filtered by event effective year. OSM mapped-visibility dates and administrative dates can differ from real-world physical change dates.","caveat":"Planning cells are derived from source-backed event locations; they are not parcel boundaries unless source geometry is separately present.","generated_from":"web/data/city-atlas/cities/nyc/events_2001.json","lifecycle_status":"uncertain","status":"source_record","cell_size_m":95,"intensity":0.289,"label":"Individual landmark designated: Louis A. and Laura Stirn House"},"geometry":{"type":"Polygon","coordinates":[[[-74.088441,40.6284931],[-74.0873144,40.6284931],[-74.0873144,40.6293523],[-74.088441,40.6293523],[-74.088441,40.6284931]]]}},{"type":"Feature","properties":{"id":"lens-detail-nyc-2001-economy_activity_cell-coverage-context-0","layer":"economy_activity_cell","category":"economy","year":2001,"visible_year":2001,"title":"New York City, New York 2001 economy coverage context","confidence":"inferred","confidence_mix":"inferred:1","event_count":0,"source_count":3,"source_ids":"as9z-kwsh,skyk-mpzq,buis-pvji","event_ids":"","event_ids_all":"","source_urls":"","geometry_precision_mix":"configured atlas coverage grid from official scope sources","representation":"economy lens coverage context","timing_note":"No license-compatible economy records are currently ingested for 2001; this lens geometry marks source coverage context only.","caveat":"Coverage context is not a city-change event, not a measured condition, and is excluded from headline counts.","generated_from":"web/data/city-atlas/cities/nyc/events_2001.json","coverage_status":"no_same_category_records","evidence_role":"context_not_year_specific_change_evidence","source_kind":"official_scope_context","headline_count_excluded":true,"intensity":0.16,"label":"No same-lens economy records currently ingested","sector":"coverage_context","activity_status":"no_year_records","status":"no_year_records"},"geometry":{"type":"Polygon","coordinates":[[[-74.2591,40.4774],[-74.14736,40.4774],[-74.14736,40.56544],[-74.2591,40.56544],[-74.2591,40.4774]]]}},{"type":"Feature","properties":{"id":"lens-detail-nyc-2001-economy_activity_cell-coverage-context-1","layer":"economy_activity_cell","category":"economy","year":2001,"visible_year":2001,"title":"New York City, New York 2001 economy coverage context","confidence":"inferred","confidence_mix":"inferred:1","event_count":0,"source_count":3,"source_ids":"as9z-kwsh,skyk-mpzq,buis-pvji","event_ids":"","event_ids_all":"","source_urls":"","geometry_precision_mix":"configured atlas coverage grid from official scope sources","representation":"economy lens coverage context","timing_note":"No license-compatible economy records are currently ingested for 2001; this lens geometry marks source coverage context only.","caveat":"Coverage context is not a city-change event, not a measured condition, and is excluded from headline counts.","generated_from":"web/data/city-atlas/cities/nyc/events_2001.json","coverage_status":"no_same_category_records","evidence_role":"context_not_year_specific_change_evidence","source_kind":"official_scope_context","headline_count_excluded":true,"intensity":0.16,"label":"No same-lens economy records currently ingested","sector":"coverage_context","activity_status":"no_year_records","status":"no_year_records"},"geometry":{"type":"Polygon","coordinates":[[[-74.14736,40.4774],[-74.03562,40.4774],[-74.03562,40.56544],[-74.14736,40.56544],[-74.14736,40.4774]]]}},{"type":"Feature","properties":{"id":"lens-detail-nyc-2001-economy_activity_cell-coverage-context-2","layer":"economy_activity_cell","category":"economy","year":2001,"visible_year":2001,"title":"New York City, New York 2001 economy coverage context","confidence":"inferred","confidence_mix":"inferred:1","event_count":0,"source_count":3,"source_ids":"as9z-kwsh,skyk-mpzq,buis-pvji","event_ids":"","event_ids_all":"","source_urls":"","geometry_precision_mix":"configured atlas coverage grid from official scope sources","representation":"economy lens coverage context","timing_note":"No license-compatible economy records are currently ingested for 2001; this lens geometry marks source coverage context only.","caveat":"Coverage context is not a city-change event, not a measured condition, and is excluded from headline counts.","generated_from":"web/data/city-atlas/cities/nyc/events_2001.json","coverage_status":"no_same_category_records","evidence_role":"context_not_year_specific_change_evidence","source_kind":"official_scope_context","headline_count_excluded":true,"intensity":0.16,"label":"No same-lens economy records currently ingested","sector":"coverage_context","activity_status":"no_year_records","status":"no_year_records"},"geometry":{"type":"Polygon","coordinates":[[[-74.03562,40.4774],[-73.92388,40.4774],[-73.92388,40.56544],[-74.03562,40.56544],[-74.03562,40.4774]]]}},{"type":"Feature","properties":{"id":"lens-detail-nyc-2001-economy_activity_cell-coverage-context-3","layer":"economy_activity_cell","category":"economy","year":2001,"visible_year":2001,"title":"New York City, New York 2001 economy coverage context","confidence":"inferred","confidence_mix":"inferred:1","event_count":0,"source_count":3,"source_ids":"as9z-kwsh,skyk-mpzq,buis-pvji","event_ids":"","event_ids_all":"","source_urls":"","geometry_precision_mix":"configured atlas coverage grid from official scope sources","representation":"economy lens coverage context","timing_note":"No license-compatible economy records are currently ingested for 2001; this lens geometry marks source coverage context only.","caveat":"Coverage context is not a city-change event, not a measured condition, and is excluded from headline counts.","generated_from":"web/data/city-atlas/cities/nyc/events_2001.json","coverage_status":"no_same_category_records","evidence_role":"context_not_year_specific_change_evidence","source_kind":"official_scope_context","headline_count_excluded":true,"intensity":0.16,"label":"No same-lens economy records currently ingested","sector":"coverage_context","activity_status":"no_year_records","status":"no_year_records"},"geometry":{"type":"Polygon","coordinates":[[[-73.92388,40.4774],[-73.81214,40.4774],[-73.81214,40.56544],[-73.92388,40.56544],[-73.92388,40.4774]]]}},{"type":"Feature","properties":{"id":"lens-detail-nyc-2001-economy_activity_cell-coverage-context-4","layer":"economy_activity_cell","category":"economy","year":2001,"visible_year":2001,"title":"New York City, New York 2001 economy coverage context","confidence":"inferred","confidence_mix":"inferred:1","event_count":0,"source_count":3,"source_ids":"as9z-kwsh,skyk-mpzq,buis-pvji","event_ids":"","event_ids_all":"","source_urls":"","geometry_precision_mix":"configured atlas coverage grid from official scope sources","representation":"economy lens coverage context","timing_note":"No license-compatible economy records are currently ingested for 2001; this lens geometry marks source coverage context only.","caveat":"Coverage context is not a city-change event, not a measured condition, and is excluded from headline counts.","generated_from":"web/data/city-atlas/cities/nyc/events_2001.json","coverage_status":"no_same_category_records","evidence_role":"context_not_year_specific_change_evidence","source_kind":"official_scope_context","headline_count_excluded":true,"intensity":0.16,"label":"No same-lens economy records currently ingested","sector":"coverage_context","activity_status":"no_year_records","status":"no_year_records"},"geometry":{"type":"Polygon","coordinates":[[[-73.81214,40.4774],[-73.7004,40.4774],[-73.7004,40.56544],[-73.81214,40.56544],[-73.81214,40.4774]]]}},{"type":"Feature","properties":{"id":"lens-detail-nyc-2001-economy_activity_cell-coverage-context-5","layer":"economy_activity_cell","category":"economy","year":2001,"visible_year":2001,"title":"New York City, New York 2001 economy coverage context","confidence":"inferred","confidence_mix":"inferred:1","event_count":0,"source_count":3,"source_ids":"as9z-kwsh,skyk-mpzq,buis-pvji","event_ids":"","event_ids_all":"","source_urls":"","geometry_precision_mix":"configured atlas coverage grid from official scope sources","representation":"economy lens coverage context","timing_note":"No license-compatible economy records are currently ingested for 2001; this lens geometry marks source coverage context only.","caveat":"Coverage context is not a city-change event, not a measured condition, and is excluded from headline counts.","generated_from":"web/data/city-atlas/cities/nyc/events_2001.json","coverage_status":"no_same_category_records","evidence_role":"context_not_year_specific_change_evidence","source_kind":"official_scope_context","headline_count_excluded":true,"intensity":0.16,"label":"No same-lens economy records currently ingested","sector":"coverage_context","activity_status":"no_year_records","status":"no_year_records"},"geometry":{"type":"Polygon","coordinates":[[[-74.2591,40.56544],[-74.14736,40.56544],[-74.14736,40.65348],[-74.2591,40.65348],[-74.2591,40.56544]]]}},{"type":"Feature","properties":{"id":"lens-detail-nyc-2001-economy_activity_cell-coverage-context-6","layer":"economy_activity_cell","category":"economy","year":2001,"visible_year":2001,"title":"New York City, New York 2001 economy coverage context","confidence":"inferred","confidence_mix":"inferred:1","event_count":0,"source_count":3,"source_ids":"as9z-kwsh,skyk-mpzq,buis-pvji","event_ids":"","event_ids_all":"","source_urls":"","geometry_precision_mix":"configured atlas coverage grid from official scope sources","representation":"economy lens coverage context","timing_note":"No license-compatible economy records are currently ingested for 2001; this lens geometry marks source coverage context only.","caveat":"Coverage context is not a city-change event, not a measured condition, and is excluded from headline counts.","generated_from":"web/data/city-atlas/cities/nyc/events_2001.json","coverage_status":"no_same_category_records","evidence_role":"context_not_year_specific_change_evidence","source_kind":"official_scope_context","headline_count_excluded":true,"intensity":0.16,"label":"No same-lens economy records currently ingested","sector":"coverage_context","activity_status":"no_year_records","status":"no_year_records"},"geometry":{"type":"Polygon","coordinates":[[[-74.14736,40.56544],[-74.03562,40.56544],[-74.03562,40.65348],[-74.14736,40.65348],[-74.14736,40.56544]]]}},{"type":"Feature","properties":{"id":"lens-detail-nyc-2001-economy_activity_cell-coverage-context-7","layer":"economy_activity_cell","category":"economy","year":2001,"visible_year":2001,"title":"New York City, New York 2001 economy coverage context","confidence":"inferred","confidence_mix":"inferred:1","event_count":0,"source_count":3,"source_ids":"as9z-kwsh,skyk-mpzq,buis-pvji","event_ids":"","event_ids_all":"","source_urls":"","geometry_precision_mix":"configured atlas coverage grid from official scope sources","representation":"economy lens coverage context","timing_note":"No license-compatible economy records are currently ingested for 2001; this lens geometry marks source coverage context only.","caveat":"Coverage context is not a city-change event, not a measured condition, and is excluded from headline counts.","generated_from":"web/data/city-atlas/cities/nyc/events_2001.json","coverage_status":"no_same_category_records","evidence_role":"context_not_year_specific_change_evidence","source_kind":"official_scope_context","headline_count_excluded":true,"intensity":0.16,"label":"No same-lens economy records currently ingested","sector":"coverage_context","activity_status":"no_year_records","status":"no_year_records"},"geometry":{"type":"Polygon","coordinates":[[[-74.03562,40.56544],[-73.92388,40.56544],[-73.92388,40.65348],[-74.03562,40.65348],[-74.03562,40.56544]]]}},{"type":"Feature","properties":{"id":"lens-detail-nyc-2001-economy_activity_cell-coverage-context-8","layer":"economy_activity_cell","category":"economy","year":2001,"visible_year":2001,"title":"New York City, New York 2001 economy coverage context","confidence":"inferred","confidence_mix":"inferred:1","event_count":0,"source_count":3,"source_ids":"as9z-kwsh,skyk-mpzq,buis-pvji","event_ids":"","event_ids_all":"","source_urls":"","geometry_precision_mix":"configured atlas coverage grid from official scope sources","representation":"economy lens coverage context","timing_note":"No license-compatible economy records are currently ingested for 2001; this lens geometry marks source coverage context only.","caveat":"Coverage context is not a city-change event, not a measured condition, and is excluded from headline counts.","generated_from":"web/data/city-atlas/cities/nyc/events_2001.json","coverage_status":"no_same_category_records","evidence_role":"context_not_year_specific_change_evidence","source_kind":"official_scope_context","headline_count_excluded":true,"intensity":0.16,"label":"No same-lens economy records currently ingested","sector":"coverage_context","activity_status":"no_year_records","status":"no_year_records"},"geometry":{"type":"Polygon","coordinates":[[[-73.92388,40.56544],[-73.81214,40.56544],[-73.81214,40.65348],[-73.92388,40.65348],[-73.92388,40.56544]]]}},{"type":"Feature","properties":{"id":"lens-detail-nyc-2001-economy_activity_cell-coverage-context-9","layer":"economy_activity_cell","category":"economy","year":2001,"visible_year":2001,"title":"New York City, New York 2001 economy coverage context","confidence":"inferred","confidence_mix":"inferred:1","event_count":0,"source_count":3,"source_ids":"as9z-kwsh,skyk-mpzq,buis-pvji","event_ids":"","event_ids_all":"","source_urls":"","geometry_precision_mix":"configured atlas coverage grid from official scope sources","representation":"economy lens coverage context","timing_note":"No license-compatible economy records are currently ingested for 2001; this lens geometry marks source coverage context only.","caveat":"Coverage context is not a city-change event, not a measured condition, and is excluded from headline counts.","generated_from":"web/data/city-atlas/cities/nyc/events_2001.json","coverage_status":"no_same_category_records","evidence_role":"context_not_year_specific_change_evidence","source_kind":"official_scope_context","headline_count_excluded":true,"intensity":0.16,"label":"No same-lens economy records currently ingested","sector":"coverage_context","activity_status":"no_year_records","status":"no_year_records"},"geometry":{"type":"Polygon","coordinates":[[[-73.81214,40.56544],[-73.7004,40.56544],[-73.7004,40.65348],[-73.81214,40.65348],[-73.81214,40.56544]]]}},{"type":"Feature","properties":{"id":"lens-detail-nyc-2001-economy_activity_cell-coverage-context-10","layer":"economy_activity_cell","category":"economy","year":2001,"visible_year":2001,"title":"New York City, New York 2001 economy coverage context","confidence":"inferred","confidence_mix":"inferred:1","event_count":0,"source_count":3,"source_ids":"as9z-kwsh,skyk-mpzq,buis-pvji","event_ids":"","event_ids_all":"","source_urls":"","geometry_precision_mix":"configured atlas coverage grid from official scope sources","representation":"economy lens coverage context","timing_note":"No license-compatible economy records are currently ingested for 2001; this lens geometry marks source coverage context only.","caveat":"Coverage context is not a city-change event, not a measured condition, and is excluded from headline counts.","generated_from":"web/data/city-atlas/cities/nyc/events_2001.json","coverage_status":"no_same_category_records","evidence_role":"context_not_year_specific_change_evidence","source_kind":"official_scope_context","headline_count_excluded":true,"intensity":0.16,"label":"No same-lens economy records currently ingested","sector":"coverage_context","activity_status":"no_year_records","status":"no_year_records"},"geometry":{"type":"Polygon","coordinates":[[[-74.2591,40.65348],[-74.14736,40.65348],[-74.14736,40.74152],[-74.2591,40.74152],[-74.2591,40.65348]]]}},{"type":"Feature","properties":{"id":"lens-detail-nyc-2001-economy_activity_cell-coverage-context-11","layer":"economy_activity_cell","category":"economy","year":2001,"visible_year":2001,"title":"New York City, New York 2001 economy coverage context","confidence":"inferred","confidence_mix":"inferred:1","event_count":0,"source_count":3,"source_ids":"as9z-kwsh,skyk-mpzq,buis-pvji","event_ids":"","event_ids_all":"","source_urls":"","geometry_precision_mix":"configured atlas coverage grid from official scope sources","representation":"economy lens coverage context","timing_note":"No license-compatible economy records are currently ingested for 2001; this lens geometry marks source coverage context only.","caveat":"Coverage context is not a city-change event, not a measured condition, and is excluded from headline counts.","generated_from":"web/data/city-atlas/cities/nyc/events_2001.json","coverage_status":"no_same_category_records","evidence_role":"context_not_year_specific_change_evidence","source_kind":"official_scope_context","headline_count_excluded":true,"intensity":0.16,"label":"No same-lens economy records currently ingested","sector":"coverage_context","activity_status":"no_year_records","status":"no_year_records"},"geometry":{"type":"Polygon","coordinates":[[[-74.14736,40.65348],[-74.03562,40.65348],[-74.03562,40.74152],[-74.14736,40.74152],[-74.14736,40.65348]]]}},{"type":"Feature","properties":{"id":"lens-detail-nyc-2001-economy_activity_cell-coverage-context-12","layer":"economy_activity_cell","category":"economy","year":2001,"visible_year":2001,"title":"New York City, New York 2001 economy coverage context","confidence":"inferred","confidence_mix":"inferred:1","event_count":0,"source_count":3,"source_ids":"as9z-kwsh,skyk-mpzq,buis-pvji","event_ids":"","event_ids_all":"","source_urls":"","geometry_precision_mix":"configured atlas coverage grid from official scope sources","representation":"economy lens coverage context","timing_note":"No license-compatible economy records are currently ingested for 2001; this lens geometry marks source coverage context only.","caveat":"Coverage context is not a city-change event, not a measured condition, and is excluded from headline counts.","generated_from":"web/data/city-atlas/cities/nyc/events_2001.json","coverage_status":"no_same_category_records","evidence_role":"context_not_year_specific_change_evidence","source_kind":"official_scope_context","headline_count_excluded":true,"intensity":0.16,"label":"No same-lens economy records currently ingested","sector":"coverage_context","activity_status":"no_year_records","status":"no_year_records"},"geometry":{"type":"Polygon","coordinates":[[[-74.03562,40.65348],[-73.92388,40.65348],[-73.92388,40.74152],[-74.03562,40.74152],[-74.03562,40.65348]]]}},{"type":"Feature","properties":{"id":"lens-detail-nyc-2001-economy_activity_cell-coverage-context-13","layer":"economy_activity_cell","category":"economy","year":2001,"visible_year":2001,"title":"New York City, New York 2001 economy coverage context","confidence":"inferred","confidence_mix":"inferred:1","event_count":0,"source_count":3,"source_ids":"as9z-kwsh,skyk-mpzq,buis-pvji","event_ids":"","event_ids_all":"","source_urls":"","geometry_precision_mix":"configured atlas coverage grid from official scope sources","representation":"economy lens coverage context","timing_note":"No license-compatible economy records are currently ingested for 2001; this lens geometry marks source coverage context only.","caveat":"Coverage context is not a city-change event, not a measured condition, and is excluded from headline counts.","generated_from":"web/data/city-atlas/cities/nyc/events_2001.json","coverage_status":"no_same_category_records","evidence_role":"context_not_year_specific_change_evidence","source_kind":"official_scope_context","headline_count_excluded":true,"intensity":0.16,"label":"No same-lens economy records currently ingested","sector":"coverage_context","activity_status":"no_year_records","status":"no_year_records"},"geometry":{"type":"Polygon","coordinates":[[[-73.92388,40.65348],[-73.81214,40.65348],[-73.81214,40.74152],[-73.92388,40.74152],[-73.92388,40.65348]]]}},{"type":"Feature","properties":{"id":"lens-detail-nyc-2001-economy_activity_cell-coverage-context-14","layer":"economy_activity_cell","category":"economy","year":2001,"visible_year":2001,"title":"New York City, New York 2001 economy coverage context","confidence":"inferred","confidence_mix":"inferred:1","event_count":0,"source_count":3,"source_ids":"as9z-kwsh,skyk-mpzq,buis-pvji","event_ids":"","event_ids_all":"","source_urls":"","geometry_precision_mix":"configured atlas coverage grid from official scope sources","representation":"economy lens coverage context","timing_note":"No license-compatible economy records are currently ingested for 2001; this lens geometry marks source coverage context only.","caveat":"Coverage context is not a city-change event, not a measured condition, and is excluded from headline counts.","generated_from":"web/data/city-atlas/cities/nyc/events_2001.json","coverage_status":"no_same_category_records","evidence_role":"context_not_year_specific_change_evidence","source_kind":"official_scope_context","headline_count_excluded":true,"intensity":0.16,"label":"No same-lens economy records currently ingested","sector":"coverage_context","activity_status":"no_year_records","status":"no_year_records"},"geometry":{"type":"Polygon","coordinates":[[[-73.81214,40.65348],[-73.7004,40.65348],[-73.7004,40.74152],[-73.81214,40.74152],[-73.81214,40.65348]]]}},{"type":"Feature","properties":{"id":"lens-detail-nyc-2001-economy_activity_cell-coverage-context-15","layer":"economy_activity_cell","category":"economy","year":2001,"visible_year":2001,"title":"New York City, New York 2001 economy coverage context","confidence":"inferred","confidence_mix":"inferred:1","event_count":0,"source_count":3,"source_ids":"as9z-kwsh,skyk-mpzq,buis-pvji","event_ids":"","event_ids_all":"","source_urls":"","geometry_precision_mix":"configured atlas coverage grid from official scope sources","representation":"economy lens coverage context","timing_note":"No license-compatible economy records are currently ingested for 2001; this lens geometry marks source coverage context only.","caveat":"Coverage context is not a city-change event, not a measured condition, and is excluded from headline counts.","generated_from":"web/data/city-atlas/cities/nyc/events_2001.json","coverage_status":"no_same_category_records","evidence_role":"context_not_year_specific_change_evidence","source_kind":"official_scope_context","headline_count_excluded":true,"intensity":0.16,"label":"No same-lens economy records currently ingested","sector":"coverage_context","activity_status":"no_year_records","status":"no_year_records"},"geometry":{"type":"Polygon","coordinates":[[[-74.2591,40.74152],[-74.14736,40.74152],[-74.14736,40.82956],[-74.2591,40.82956],[-74.2591,40.74152]]]}},{"type":"Feature","properties":{"id":"lens-detail-nyc-2001-economy_activity_cell-coverage-context-16","layer":"economy_activity_cell","category":"economy","year":2001,"visible_year":2001,"title":"New York City, New York 2001 economy coverage context","confidence":"inferred","confidence_mix":"inferred:1","event_count":0,"source_count":3,"source_ids":"as9z-kwsh,skyk-mpzq,buis-pvji","event_ids":"","event_ids_all":"","source_urls":"","geometry_precision_mix":"configured atlas coverage grid from official scope sources","representation":"economy lens coverage context","timing_note":"No license-compatible economy records are currently ingested for 2001; this lens geometry marks source coverage context only.","caveat":"Coverage context is not a city-change event, not a measured condition, and is excluded from headline counts.","generated_from":"web/data/city-atlas/cities/nyc/events_2001.json","coverage_status":"no_same_category_records","evidence_role":"context_not_year_specific_change_evidence","source_kind":"official_scope_context","headline_count_excluded":true,"intensity":0.16,"label":"No same-lens economy records currently ingested","sector":"coverage_context","activity_status":"no_year_records","status":"no_year_records"},"geometry":{"type":"Polygon","coordinates":[[[-74.14736,40.74152],[-74.03562,40.74152],[-74.03562,40.82956],[-74.14736,40.82956],[-74.14736,40.74152]]]}},{"type":"Feature","properties":{"id":"lens-detail-nyc-2001-economy_activity_cell-coverage-context-17","layer":"economy_activity_cell","category":"economy","year":2001,"visible_year":2001,"title":"New York City, New York 2001 economy coverage context","confidence":"inferred","confidence_mix":"inferred:1","event_count":0,"source_count":3,"source_ids":"as9z-kwsh,skyk-mpzq,buis-pvji","event_ids":"","event_ids_all":"","source_urls":"","geometry_precision_mix":"configured atlas coverage grid from official scope sources","representation":"economy lens coverage context","timing_note":"No license-compatible economy records are currently ingested for 2001; this lens geometry marks source coverage context only.","caveat":"Coverage context is not a city-change event, not a measured condition, and is excluded from headline counts.","generated_from":"web/data/city-atlas/cities/nyc/events_2001.json","coverage_status":"no_same_category_records","evidence_role":"context_not_year_specific_change_evidence","source_kind":"official_scope_context","headline_count_excluded":true,"intensity":0.16,"label":"No same-lens economy records currently ingested","sector":"coverage_context","activity_status":"no_year_records","status":"no_year_records"},"geometry":{"type":"Polygon","coordinates":[[[-74.03562,40.74152],[-73.92388,40.74152],[-73.92388,40.82956],[-74.03562,40.82956],[-74.03562,40.74152]]]}},{"type":"Feature","properties":{"id":"lens-detail-nyc-2001-economy_activity_cell-coverage-context-18","layer":"economy_activity_cell","category":"economy","year":2001,"visible_year":2001,"title":"New York City, New York 2001 economy coverage context","confidence":"inferred","confidence_mix":"inferred:1","event_count":0,"source_count":3,"source_ids":"as9z-kwsh,skyk-mpzq,buis-pvji","event_ids":"","event_ids_all":"","source_urls":"","geometry_precision_mix":"configured atlas coverage grid from official scope sources","representation":"economy lens coverage context","timing_note":"No license-compatible economy records are currently ingested for 2001; this lens geometry marks source coverage context only.","caveat":"Coverage context is not a city-change event, not a measured condition, and is excluded from headline counts.","generated_from":"web/data/city-atlas/cities/nyc/events_2001.json","coverage_status":"no_same_category_records","evidence_role":"context_not_year_specific_change_evidence","source_kind":"official_scope_context","headline_count_excluded":true,"intensity":0.16,"label":"No same-lens economy records currently ingested","sector":"coverage_context","activity_status":"no_year_records","status":"no_year_records"},"geometry":{"type":"Polygon","coordinates":[[[-73.92388,40.74152],[-73.81214,40.74152],[-73.81214,40.82956],[-73.92388,40.82956],[-73.92388,40.74152]]]}},{"type":"Feature","properties":{"id":"lens-detail-nyc-2001-economy_activity_cell-coverage-context-19","layer":"economy_activity_cell","category":"economy","year":2001,"visible_year":2001,"title":"New York City, New York 2001 economy coverage context","confidence":"inferred","confidence_mix":"inferred:1","event_count":0,"source_count":3,"source_ids":"as9z-kwsh,skyk-mpzq,buis-pvji","event_ids":"","event_ids_all":"","source_urls":"","geometry_precision_mix":"configured atlas coverage grid from official scope sources","representation":"economy lens coverage context","timing_note":"No license-compatible economy records are currently ingested for 2001; this lens geometry marks source coverage context only.","caveat":"Coverage context is not a city-change event, not a measured condition, and is excluded from headline counts.","generated_from":"web/data/city-atlas/cities/nyc/events_2001.json","coverage_status":"no_same_category_records","evidence_role":"context_not_year_specific_change_evidence","source_kind":"official_scope_context","headline_count_excluded":true,"intensity":0.16,"label":"No same-lens economy records currently ingested","sector":"coverage_context","activity_status":"no_year_records","status":"no_year_records"},"geometry":{"type":"Polygon","coordinates":[[[-73.81214,40.74152],[-73.7004,40.74152],[-73.7004,40.82956],[-73.81214,40.82956],[-73.81214,40.74152]]]}},{"type":"Feature","properties":{"id":"lens-detail-nyc-2001-economy_activity_cell-coverage-context-20","layer":"economy_activity_cell","category":"economy","year":2001,"visible_year":2001,"title":"New York City, New York 2001 economy coverage context","confidence":"inferred","confidence_mix":"inferred:1","event_count":0,"source_count":3,"source_ids":"as9z-kwsh,skyk-mpzq,buis-pvji","event_ids":"","event_ids_all":"","source_urls":"","geometry_precision_mix":"configured atlas coverage grid from official scope sources","representation":"economy lens coverage context","timing_note":"No license-compatible economy records are currently ingested for 2001; this lens geometry marks source coverage context only.","caveat":"Coverage context is not a city-change event, not a measured condition, and is excluded from headline counts.","generated_from":"web/data/city-atlas/cities/nyc/events_2001.json","coverage_status":"no_same_category_records","evidence_role":"context_not_year_specific_change_evidence","source_kind":"official_scope_context","headline_count_excluded":true,"intensity":0.16,"label":"No same-lens economy records currently ingested","sector":"coverage_context","activity_status":"no_year_records","status":"no_year_records"},"geometry":{"type":"Polygon","coordinates":[[[-74.2591,40.82956],[-74.14736,40.82956],[-74.14736,40.9176],[-74.2591,40.9176],[-74.2591,40.82956]]]}},{"type":"Feature","properties":{"id":"lens-detail-nyc-2001-economy_activity_cell-coverage-context-21","layer":"economy_activity_cell","category":"economy","year":2001,"visible_year":2001,"title":"New York City, New York 2001 economy coverage context","confidence":"inferred","confidence_mix":"inferred:1","event_count":0,"source_count":3,"source_ids":"as9z-kwsh,skyk-mpzq,buis-pvji","event_ids":"","event_ids_all":"","source_urls":"","geometry_precision_mix":"configured atlas coverage grid from official scope sources","representation":"economy lens coverage context","timing_note":"No license-compatible economy records are currently ingested for 2001; this lens geometry marks source coverage context only.","caveat":"Coverage context is not a city-change event, not a measured condition, and is excluded from headline counts.","generated_from":"web/data/city-atlas/cities/nyc/events_2001.json","coverage_status":"no_same_category_records","evidence_role":"context_not_year_specific_change_evidence","source_kind":"official_scope_context","headline_count_excluded":true,"intensity":0.16,"label":"No same-lens economy records currently ingested","sector":"coverage_context","activity_status":"no_year_records","status":"no_year_records"},"geometry":{"type":"Polygon","coordinates":[[[-74.14736,40.82956],[-74.03562,40.82956],[-74.03562,40.9176],[-74.14736,40.9176],[-74.14736,40.82956]]]}},{"type":"Feature","properties":{"id":"lens-detail-nyc-2001-economy_activity_cell-coverage-context-22","layer":"economy_activity_cell","category":"economy","year":2001,"visible_year":2001,"title":"New York City, New York 2001 economy coverage context","confidence":"inferred","confidence_mix":"inferred:1","event_count":0,"source_count":3,"source_ids":"as9z-kwsh,skyk-mpzq,buis-pvji","event_ids":"","event_ids_all":"","source_urls":"","geometry_precision_mix":"configured atlas coverage grid from official scope sources","representation":"economy lens coverage context","timing_note":"No license-compatible economy records are currently ingested for 2001; this lens geometry marks source coverage context only.","caveat":"Coverage context is not a city-change event, not a measured condition, and is excluded from headline counts.","generated_from":"web/data/city-atlas/cities/nyc/events_2001.json","coverage_status":"no_same_category_records","evidence_role":"context_not_year_specific_change_evidence","source_kind":"official_scope_context","headline_count_excluded":true,"intensity":0.16,"label":"No same-lens economy records currently ingested","sector":"coverage_context","activity_status":"no_year_records","status":"no_year_records"},"geometry":{"type":"Polygon","coordinates":[[[-74.03562,40.82956],[-73.92388,40.82956],[-73.92388,40.9176],[-74.03562,40.9176],[-74.03562,40.82956]]]}},{"type":"Feature","properties":{"id":"lens-detail-nyc-2001-economy_activity_cell-coverage-context-23","layer":"economy_activity_cell","category":"economy","year":2001,"visible_year":2001,"title":"New York City, New York 2001 economy coverage context","confidence":"inferred","confidence_mix":"inferred:1","event_count":0,"source_count":3,"source_ids":"as9z-kwsh,skyk-mpzq,buis-pvji","event_ids":"","event_ids_all":"","source_urls":"","geometry_precision_mix":"configured atlas coverage grid from official scope sources","representation":"economy lens coverage context","timing_note":"No license-compatible economy records are currently ingested for 2001; this lens geometry marks source coverage context only.","caveat":"Coverage context is not a city-change event, not a measured condition, and is excluded from headline counts.","generated_from":"web/data/city-atlas/cities/nyc/events_2001.json","coverage_status":"no_same_category_records","evidence_role":"context_not_year_specific_change_evidence","source_kind":"official_scope_context","headline_count_excluded":true,"intensity":0.16,"label":"No same-lens economy records currently ingested","sector":"coverage_context","activity_status":"no_year_records","status":"no_year_records"},"geometry":{"type":"Polygon","coordinates":[[[-73.92388,40.82956],[-73.81214,40.82956],[-73.81214,40.9176],[-73.92388,40.9176],[-73.92388,40.82956]]]}},{"type":"Feature","properties":{"id":"lens-detail-nyc-2001-economy_activity_cell-coverage-context-24","layer":"economy_activity_cell","category":"economy","year":2001,"visible_year":2001,"title":"New York City, New York 2001 economy coverage context","confidence":"inferred","confidence_mix":"inferred:1","event_count":0,"source_count":3,"source_ids":"as9z-kwsh,skyk-mpzq,buis-pvji","event_ids":"","event_ids_all":"","source_urls":"","geometry_precision_mix":"configured atlas coverage grid from official scope sources","representation":"economy lens coverage context","timing_note":"No license-compatible economy records are currently ingested for 2001; this lens geometry marks source coverage context only.","caveat":"Coverage context is not a city-change event, not a measured condition, and is excluded from headline counts.","generated_from":"web/data/city-atlas/cities/nyc/events_2001.json","coverage_status":"no_same_category_records","evidence_role":"context_not_year_specific_change_evidence","source_kind":"official_scope_context","headline_count_excluded":true,"intensity":0.16,"label":"No same-lens economy records currently ingested","sector":"coverage_context","activity_status":"no_year_records","status":"no_year_records"},"geometry":{"type":"Polygon","coordinates":[[[-73.81214,40.82956],[-73.7004,40.82956],[-73.7004,40.9176],[-73.81214,40.9176],[-73.81214,40.82956]]]}},{"type":"Feature","properties":{"id":"lens-detail-nyc-2001-utility_trace-coverage-context-0","layer":"utility_trace","category":"utilities","year":2001,"visible_year":2001,"title":"New York City, New York 2001 utility coverage context","confidence":"inferred","confidence_mix":"inferred:1","event_count":0,"source_count":3,"source_ids":"as9z-kwsh,skyk-mpzq,buis-pvji","event_ids":"","event_ids_all":"","source_urls":"","geometry_precision_mix":"configured atlas coverage grid from official scope sources","representation":"utility lens coverage context","timing_note":"No license-compatible utility records are currently ingested for 2001; this lens geometry marks source coverage context only.","caveat":"Coverage context is not a city-change event, not a measured condition, and is excluded from headline counts.","generated_from":"web/data/city-atlas/cities/nyc/events_2001.json","coverage_status":"no_same_category_records","evidence_role":"context_not_year_specific_change_evidence","source_kind":"official_scope_context","headline_count_excluded":true,"intensity":0.16,"label":"No same-lens utility records currently ingested","utility_type":"coverage_context","work_status":"no_year_records","status":"no_year_records"},"geometry":{"type":"LineString","coordinates":[[-74.1792857,40.4774],[-74.1792857,40.9176]]}},{"type":"Feature","properties":{"id":"lens-detail-nyc-2001-utility_trace-coverage-context-1","layer":"utility_trace","category":"utilities","year":2001,"visible_year":2001,"title":"New York City, New York 2001 utility coverage context","confidence":"inferred","confidence_mix":"inferred:1","event_count":0,"source_count":3,"source_ids":"as9z-kwsh,skyk-mpzq,buis-pvji","event_ids":"","event_ids_all":"","source_urls":"","geometry_precision_mix":"configured atlas coverage grid from official scope sources","representation":"utility lens coverage context","timing_note":"No license-compatible utility records are currently ingested for 2001; this lens geometry marks source coverage context only.","caveat":"Coverage context is not a city-change event, not a measured condition, and is excluded from headline counts.","generated_from":"web/data/city-atlas/cities/nyc/events_2001.json","coverage_status":"no_same_category_records","evidence_role":"context_not_year_specific_change_evidence","source_kind":"official_scope_context","headline_count_excluded":true,"intensity":0.16,"label":"No same-lens utility records currently ingested","utility_type":"coverage_context","work_status":"no_year_records","status":"no_year_records"},"geometry":{"type":"LineString","coordinates":[[-74.0994714,40.4774],[-74.0994714,40.9176]]}},{"type":"Feature","properties":{"id":"lens-detail-nyc-2001-utility_trace-coverage-context-2","layer":"utility_trace","category":"utilities","year":2001,"visible_year":2001,"title":"New York City, New York 2001 utility coverage context","confidence":"inferred","confidence_mix":"inferred:1","event_count":0,"source_count":3,"source_ids":"as9z-kwsh,skyk-mpzq,buis-pvji","event_ids":"","event_ids_all":"","source_urls":"","geometry_precision_mix":"configured atlas coverage grid from official scope sources","representation":"utility lens coverage context","timing_note":"No license-compatible utility records are currently ingested for 2001; this lens geometry marks source coverage context only.","caveat":"Coverage context is not a city-change event, not a measured condition, and is excluded from headline counts.","generated_from":"web/data/city-atlas/cities/nyc/events_2001.json","coverage_status":"no_same_category_records","evidence_role":"context_not_year_specific_change_evidence","source_kind":"official_scope_context","headline_count_excluded":true,"intensity":0.16,"label":"No same-lens utility records currently ingested","utility_type":"coverage_context","work_status":"no_year_records","status":"no_year_records"},"geometry":{"type":"LineString","coordinates":[[-74.0196571,40.4774],[-74.0196571,40.9176]]}},{"type":"Feature","properties":{"id":"lens-detail-nyc-2001-utility_trace-coverage-context-3","layer":"utility_trace","category":"utilities","year":2001,"visible_year":2001,"title":"New York City, New York 2001 utility coverage context","confidence":"inferred","confidence_mix":"inferred:1","event_count":0,"source_count":3,"source_ids":"as9z-kwsh,skyk-mpzq,buis-pvji","event_ids":"","event_ids_all":"","source_urls":"","geometry_precision_mix":"configured atlas coverage grid from official scope sources","representation":"utility lens coverage context","timing_note":"No license-compatible utility records are currently ingested for 2001; this lens geometry marks source coverage context only.","caveat":"Coverage context is not a city-change event, not a measured condition, and is excluded from headline counts.","generated_from":"web/data/city-atlas/cities/nyc/events_2001.json","coverage_status":"no_same_category_records","evidence_role":"context_not_year_specific_change_evidence","source_kind":"official_scope_context","headline_count_excluded":true,"intensity":0.16,"label":"No same-lens utility records currently ingested","utility_type":"coverage_context","work_status":"no_year_records","status":"no_year_records"},"geometry":{"type":"LineString","coordinates":[[-73.9398429,40.4774],[-73.9398429,40.9176]]}},{"type":"Feature","properties":{"id":"lens-detail-nyc-2001-utility_trace-coverage-context-4","layer":"utility_trace","category":"utilities","year":2001,"visible_year":2001,"title":"New York City, New York 2001 utility coverage context","confidence":"inferred","confidence_mix":"inferred:1","event_count":0,"source_count":3,"source_ids":"as9z-kwsh,skyk-mpzq,buis-pvji","event_ids":"","event_ids_all":"","source_urls":"","geometry_precision_mix":"configured atlas coverage grid from official scope sources","representation":"utility lens coverage context","timing_note":"No license-compatible utility records are currently ingested for 2001; this lens geometry marks source coverage context only.","caveat":"Coverage context is not a city-change event, not a measured condition, and is excluded from headline counts.","generated_from":"web/data/city-atlas/cities/nyc/events_2001.json","coverage_status":"no_same_category_records","evidence_role":"context_not_year_specific_change_evidence","source_kind":"official_scope_context","headline_count_excluded":true,"intensity":0.16,"label":"No same-lens utility records currently ingested","utility_type":"coverage_context","work_status":"no_year_records","status":"no_year_records"},"geometry":{"type":"LineString","coordinates":[[-73.8600286,40.4774],[-73.8600286,40.9176]]}},{"type":"Feature","properties":{"id":"lens-detail-nyc-2001-utility_trace-coverage-context-5","layer":"utility_trace","category":"utilities","year":2001,"visible_year":2001,"title":"New York City, New York 2001 utility coverage context","confidence":"inferred","confidence_mix":"inferred:1","event_count":0,"source_count":3,"source_ids":"as9z-kwsh,skyk-mpzq,buis-pvji","event_ids":"","event_ids_all":"","source_urls":"","geometry_precision_mix":"configured atlas coverage grid from official scope sources","representation":"utility lens coverage context","timing_note":"No license-compatible utility records are currently ingested for 2001; this lens geometry marks source coverage context only.","caveat":"Coverage context is not a city-change event, not a measured condition, and is excluded from headline counts.","generated_from":"web/data/city-atlas/cities/nyc/events_2001.json","coverage_status":"no_same_category_records","evidence_role":"context_not_year_specific_change_evidence","source_kind":"official_scope_context","headline_count_excluded":true,"intensity":0.16,"label":"No same-lens utility records currently ingested","utility_type":"coverage_context","work_status":"no_year_records","status":"no_year_records"},"geometry":{"type":"LineString","coordinates":[[-73.7802143,40.4774],[-73.7802143,40.9176]]}},{"type":"Feature","properties":{"id":"lens-detail-nyc-2001-utility_trace-coverage-context-6","layer":"utility_trace","category":"utilities","year":2001,"visible_year":2001,"title":"New York City, New York 2001 utility coverage context","confidence":"inferred","confidence_mix":"inferred:1","event_count":0,"source_count":3,"source_ids":"as9z-kwsh,skyk-mpzq,buis-pvji","event_ids":"","event_ids_all":"","source_urls":"","geometry_precision_mix":"configured atlas coverage grid from official scope sources","representation":"utility lens coverage context","timing_note":"No license-compatible utility records are currently ingested for 2001; this lens geometry marks source coverage context only.","caveat":"Coverage context is not a city-change event, not a measured condition, and is excluded from headline counts.","generated_from":"web/data/city-atlas/cities/nyc/events_2001.json","coverage_status":"no_same_category_records","evidence_role":"context_not_year_specific_change_evidence","source_kind":"official_scope_context","headline_count_excluded":true,"intensity":0.16,"label":"No same-lens utility records currently ingested","utility_type":"coverage_context","work_status":"no_year_records","status":"no_year_records"},"geometry":{"type":"LineString","coordinates":[[-74.2591,40.5402857],[-73.7004,40.5402857]]}},{"type":"Feature","properties":{"id":"lens-detail-nyc-2001-utility_trace-coverage-context-7","layer":"utility_trace","category":"utilities","year":2001,"visible_year":2001,"title":"New York City, New York 2001 utility coverage context","confidence":"inferred","confidence_mix":"inferred:1","event_count":0,"source_count":3,"source_ids":"as9z-kwsh,skyk-mpzq,buis-pvji","event_ids":"","event_ids_all":"","source_urls":"","geometry_precision_mix":"configured atlas coverage grid from official scope sources","representation":"utility lens coverage context","timing_note":"No license-compatible utility records are currently ingested for 2001; this lens geometry marks source coverage context only.","caveat":"Coverage context is not a city-change event, not a measured condition, and is excluded from headline counts.","generated_from":"web/data/city-atlas/cities/nyc/events_2001.json","coverage_status":"no_same_category_records","evidence_role":"context_not_year_specific_change_evidence","source_kind":"official_scope_context","headline_count_excluded":true,"intensity":0.16,"label":"No same-lens utility records currently ingested","utility_type":"coverage_context","work_status":"no_year_records","status":"no_year_records"},"geometry":{"type":"LineString","coordinates":[[-74.2591,40.6031714],[-73.7004,40.6031714]]}},{"type":"Feature","properties":{"id":"lens-detail-nyc-2001-utility_trace-coverage-context-8","layer":"utility_trace","category":"utilities","year":2001,"visible_year":2001,"title":"New York City, New York 2001 utility coverage context","confidence":"inferred","confidence_mix":"inferred:1","event_count":0,"source_count":3,"source_ids":"as9z-kwsh,skyk-mpzq,buis-pvji","event_ids":"","event_ids_all":"","source_urls":"","geometry_precision_mix":"configured atlas coverage grid from official scope sources","representation":"utility lens coverage context","timing_note":"No license-compatible utility records are currently ingested for 2001; this lens geometry marks source coverage context only.","caveat":"Coverage context is not a city-change event, not a measured condition, and is excluded from headline counts.","generated_from":"web/data/city-atlas/cities/nyc/events_2001.json","coverage_status":"no_same_category_records","evidence_role":"context_not_year_specific_change_evidence","source_kind":"official_scope_context","headline_count_excluded":true,"intensity":0.16,"label":"No same-lens utility records currently ingested","utility_type":"coverage_context","work_status":"no_year_records","status":"no_year_records"},"geometry":{"type":"LineString","coordinates":[[-74.2591,40.6660571],[-73.7004,40.6660571]]}},{"type":"Feature","properties":{"id":"lens-detail-nyc-2001-utility_trace-coverage-context-9","layer":"utility_trace","category":"utilities","year":2001,"visible_year":2001,"title":"New York City, New York 2001 utility coverage context","confidence":"inferred","confidence_mix":"inferred:1","event_count":0,"source_count":3,"source_ids":"as9z-kwsh,skyk-mpzq,buis-pvji","event_ids":"","event_ids_all":"","source_urls":"","geometry_precision_mix":"configured atlas coverage grid from official scope sources","representation":"utility lens coverage context","timing_note":"No license-compatible utility records are currently ingested for 2001; this lens geometry marks source coverage context only.","caveat":"Coverage context is not a city-change event, not a measured condition, and is excluded from headline counts.","generated_from":"web/data/city-atlas/cities/nyc/events_2001.json","coverage_status":"no_same_category_records","evidence_role":"context_not_year_specific_change_evidence","source_kind":"official_scope_context","headline_count_excluded":true,"intensity":0.16,"label":"No same-lens utility records currently ingested","utility_type":"coverage_context","work_status":"no_year_records","status":"no_year_records"},"geometry":{"type":"LineString","coordinates":[[-74.2591,40.7289429],[-73.7004,40.7289429]]}},{"type":"Feature","properties":{"id":"lens-detail-nyc-2001-utility_trace-coverage-context-10","layer":"utility_trace","category":"utilities","year":2001,"visible_year":2001,"title":"New York City, New York 2001 utility coverage context","confidence":"inferred","confidence_mix":"inferred:1","event_count":0,"source_count":3,"source_ids":"as9z-kwsh,skyk-mpzq,buis-pvji","event_ids":"","event_ids_all":"","source_urls":"","geometry_precision_mix":"configured atlas coverage grid from official scope sources","representation":"utility lens coverage context","timing_note":"No license-compatible utility records are currently ingested for 2001; this lens geometry marks source coverage context only.","caveat":"Coverage context is not a city-change event, not a measured condition, and is excluded from headline counts.","generated_from":"web/data/city-atlas/cities/nyc/events_2001.json","coverage_status":"no_same_category_records","evidence_role":"context_not_year_specific_change_evidence","source_kind":"official_scope_context","headline_count_excluded":true,"intensity":0.16,"label":"No same-lens utility records currently ingested","utility_type":"coverage_context","work_status":"no_year_records","status":"no_year_records"},"geometry":{"type":"LineString","coordinates":[[-74.2591,40.7918286],[-73.7004,40.7918286]]}},{"type":"Feature","properties":{"id":"lens-detail-nyc-2001-utility_trace-coverage-context-11","layer":"utility_trace","category":"utilities","year":2001,"visible_year":2001,"title":"New York City, New York 2001 utility coverage context","confidence":"inferred","confidence_mix":"inferred:1","event_count":0,"source_count":3,"source_ids":"as9z-kwsh,skyk-mpzq,buis-pvji","event_ids":"","event_ids_all":"","source_urls":"","geometry_precision_mix":"configured atlas coverage grid from official scope sources","representation":"utility lens coverage context","timing_note":"No license-compatible utility records are currently ingested for 2001; this lens geometry marks source coverage context only.","caveat":"Coverage context is not a city-change event, not a measured condition, and is excluded from headline counts.","generated_from":"web/data/city-atlas/cities/nyc/events_2001.json","coverage_status":"no_same_category_records","evidence_role":"context_not_year_specific_change_evidence","source_kind":"official_scope_context","headline_count_excluded":true,"intensity":0.16,"label":"No same-lens utility records currently ingested","utility_type":"coverage_context","work_status":"no_year_records","status":"no_year_records"},"geometry":{"type":"LineString","coordinates":[[-74.2591,40.8547143],[-73.7004,40.8547143]]}}]}
