{"type":"FeatureCollection","name":"nyc_lens_detail_1982","metadata":{"schema_version":"1.0.0","city_id":"nyc","year":1982,"generated_at":"2026-06-03T20:35:14.629Z","source_paths":["web/data/city-atlas/cities/nyc/events_1982.json","web/data/city-atlas/cities/nyc/events.json","web/data/city-atlas/cities/nyc/transport_roads_base.geojson"],"method":"Derived OpenCityLog lens geometry built from source-backed event points plus existing OSM road/detail geometry. Grid cells aggregate events by effective year. Trace lines reuse nearest mapped road geometry for context.","caveats":["Derived cells are evidence grids, not surveyed parcels, catchments, zones, or administrative boundaries.","Trace lines are nearest mapped street or work-location context, not surveyed utility networks, measured traffic speed, spend, vacancy, or service quality. No capacity data is inferred.","When a lens/year has no same-category source-backed records, no coverage geometry is generated; sparse data remains sparse.","Borough, citywide, statistical, corridor, and multi-site records are excluded from site-like lens geometry; they remain available in the event list and evidence records.","OSM mapped-visibility dates and administrative decision dates can differ from real-world physical change dates."],"feature_layers":{"planning_cell":26},"excluded_non_site_record_count":0,"excluded_non_site_reasons":{}},"features":[{"type":"Feature","properties":{"id":"lens-detail-nyc-1982-planning_cell-0","layer":"planning_cell","category":"built_environment","year":1982,"visible_year":1982,"title":"1 source-backed planning and built record","confidence":"documented","confidence_mix":"documented:1","event_count":1,"source_count":1,"source_ids":"skyk-mpzq","event_ids":"nyc_lpc_historic_district_lp-01248","event_ids_all":"nyc_lpc_historic_district_lp-01248","source_urls":"https://data.cityofnewyork.us/resource/skyk-mpzq.json?lp_number=LP-01248","geometry_precision_mix":"Row-level point from the adapter; source geocoding precision varies and may be approximate.:1","representation":"planning and built evidence grid cell","timing_note":"Filtered by event effective year. OSM mapped-visibility dates and administrative dates can differ from real-world physical change dates.","caveat":"Planning cells are derived from source-backed event locations; they are not parcel boundaries unless source geometry is separately present.","generated_from":"web/data/city-atlas/cities/nyc/events_1982.json","lifecycle_status":"uncertain","status":"source_record","cell_size_m":95,"intensity":0.289,"label":"Historic district designated: Greenpoint Historic District"},"geometry":{"type":"Polygon","coordinates":[[[-73.9566231,40.7290141],[-73.9554964,40.7290141],[-73.9554964,40.7298732],[-73.9566231,40.7298732],[-73.9566231,40.7290141]]]}},{"type":"Feature","properties":{"id":"lens-detail-nyc-1982-planning_cell-1","layer":"planning_cell","category":"built_environment","year":1982,"visible_year":1982,"title":"1 source-backed planning and built record","confidence":"documented","confidence_mix":"documented:1","event_count":1,"source_count":1,"source_ids":"skyk-mpzq","event_ids":"nyc_lpc_historic_district_lp-01258","event_ids_all":"nyc_lpc_historic_district_lp-01258","source_urls":"https://data.cityofnewyork.us/resource/skyk-mpzq.json?lp_number=LP-01258","geometry_precision_mix":"Row-level point from the adapter; source geocoding precision varies and may be approximate.:1","representation":"planning and built evidence grid cell","timing_note":"Filtered by event effective year. OSM mapped-visibility dates and administrative dates can differ from real-world physical change dates.","caveat":"Planning cells are derived from source-backed event locations; they are not parcel boundaries unless source geometry is separately present.","generated_from":"web/data/city-atlas/cities/nyc/events_1982.json","lifecycle_status":"uncertain","status":"source_record","cell_size_m":95,"intensity":0.289,"label":"Historic district designated: Morris High School Historic District"},"geometry":{"type":"Polygon","coordinates":[[[-73.9036706,40.8269575],[-73.9025439,40.8269575],[-73.9025439,40.8278167],[-73.9036706,40.8278167],[-73.9036706,40.8269575]]]}},{"type":"Feature","properties":{"id":"lens-detail-nyc-1982-planning_cell-10","layer":"planning_cell","category":"built_environment","year":1982,"visible_year":1982,"title":"1 source-backed planning and built record","confidence":"documented","confidence_mix":"documented:1","event_count":1,"source_count":1,"source_ids":"buis-pvji","event_ids":"nyc_lpc_individual_landmark_200","event_ids_all":"nyc_lpc_individual_landmark_200","source_urls":"https://data.cityofnewyork.us/resource/buis-pvji.json?objectid=200","geometry_precision_mix":"Row-level point from the adapter; source geocoding precision varies and may be approximate.:1","representation":"planning and built evidence grid cell","timing_note":"Filtered by event effective year. OSM mapped-visibility dates and administrative dates can differ from real-world physical change dates.","caveat":"Planning cells are derived from source-backed event locations; they are not parcel boundaries unless source geometry is separately present.","generated_from":"web/data/city-atlas/cities/nyc/events_1982.json","lifecycle_status":"uncertain","status":"source_record","cell_size_m":95,"intensity":0.289,"label":"Individual landmark designated: Hotel Gerard"},"geometry":{"type":"Polygon","coordinates":[[[-73.9847893,40.756507],[-73.9836627,40.756507],[-73.9836627,40.7573661],[-73.9847893,40.7573661],[-73.9847893,40.756507]]]}},{"type":"Feature","properties":{"id":"lens-detail-nyc-1982-planning_cell-11","layer":"planning_cell","category":"built_environment","year":1982,"visible_year":1982,"title":"1 source-backed planning and built record","confidence":"documented","confidence_mix":"documented:1","event_count":1,"source_count":1,"source_ids":"buis-pvji","event_ids":"nyc_lpc_individual_landmark_271","event_ids_all":"nyc_lpc_individual_landmark_271","source_urls":"https://data.cityofnewyork.us/resource/buis-pvji.json?objectid=271","geometry_precision_mix":"Row-level point from the adapter; source geocoding precision varies and may be approximate.:1","representation":"planning and built evidence grid cell","timing_note":"Filtered by event effective year. OSM mapped-visibility dates and administrative dates can differ from real-world physical change dates.","caveat":"Planning cells are derived from source-backed event locations; they are not parcel boundaries unless source geometry is separately present.","generated_from":"web/data/city-atlas/cities/nyc/events_1982.json","lifecycle_status":"uncertain","status":"source_record","cell_size_m":95,"intensity":0.289,"label":"Individual landmark designated: Red House"},"geometry":{"type":"Polygon","coordinates":[[[-73.9814094,40.7882956],[-73.9802827,40.7882956],[-73.9802827,40.7891548],[-73.9814094,40.7891548],[-73.9814094,40.7882956]]]}},{"type":"Feature","properties":{"id":"lens-detail-nyc-1982-planning_cell-12","layer":"planning_cell","category":"built_environment","year":1982,"visible_year":1982,"title":"1 source-backed planning and built record","confidence":"documented","confidence_mix":"documented:1","event_count":1,"source_count":1,"source_ids":"buis-pvji","event_ids":"nyc_lpc_individual_landmark_308","event_ids_all":"nyc_lpc_individual_landmark_308","source_urls":"https://data.cityofnewyork.us/resource/buis-pvji.json?objectid=308","geometry_precision_mix":"Row-level point from the adapter; source geocoding precision varies and may be approximate.:1","representation":"planning and built evidence grid cell","timing_note":"Filtered by event effective year. OSM mapped-visibility dates and administrative dates can differ from real-world physical change dates.","caveat":"Planning cells are derived from source-backed event locations; they are not parcel boundaries unless source geometry is separately present.","generated_from":"web/data/city-atlas/cities/nyc/events_1982.json","lifecycle_status":"uncertain","status":"source_record","cell_size_m":95,"intensity":0.289,"label":"Individual landmark designated: 361 Broadway Building"},"geometry":{"type":"Polygon","coordinates":[[[-74.005069,40.7169859],[-74.0039424,40.7169859],[-74.0039424,40.7178451],[-74.005069,40.7178451],[-74.005069,40.7169859]]]}},{"type":"Feature","properties":{"id":"lens-detail-nyc-1982-planning_cell-13","layer":"planning_cell","category":"built_environment","year":1982,"visible_year":1982,"title":"1 source-backed planning and built record","confidence":"documented","confidence_mix":"documented:1","event_count":1,"source_count":1,"source_ids":"buis-pvji","event_ids":"nyc_lpc_individual_landmark_36","event_ids_all":"nyc_lpc_individual_landmark_36","source_urls":"https://data.cityofnewyork.us/resource/buis-pvji.json?objectid=36","geometry_precision_mix":"Row-level point from the adapter; source geocoding precision varies and may be approximate.:1","representation":"planning and built evidence grid cell","timing_note":"Filtered by event effective year. OSM mapped-visibility dates and administrative dates can differ from real-world physical change dates.","caveat":"Planning cells are derived from source-backed event locations; they are not parcel boundaries unless source geometry is separately present.","generated_from":"web/data/city-atlas/cities/nyc/events_1982.json","lifecycle_status":"uncertain","status":"source_record","cell_size_m":95,"intensity":0.289,"label":"Individual landmark designated: Richmond County Courthouse"},"geometry":{"type":"Polygon","coordinates":[[[-74.0771745,40.6422396],[-74.0760479,40.6422396],[-74.0760479,40.6430987],[-74.0771745,40.6430987],[-74.0771745,40.6422396]]]}},{"type":"Feature","properties":{"id":"lens-detail-nyc-1982-planning_cell-14","layer":"planning_cell","category":"built_environment","year":1982,"visible_year":1982,"title":"1 source-backed planning and built record","confidence":"documented","confidence_mix":"documented:1","event_count":1,"source_count":1,"source_ids":"buis-pvji","event_ids":"nyc_lpc_individual_landmark_411","event_ids_all":"nyc_lpc_individual_landmark_411","source_urls":"https://data.cityofnewyork.us/resource/buis-pvji.json?objectid=411","geometry_precision_mix":"Row-level point from the adapter; source geocoding precision varies and may be approximate.:1","representation":"planning and built evidence grid cell","timing_note":"Filtered by event effective year. OSM mapped-visibility dates and administrative dates can differ from real-world physical change dates.","caveat":"Planning cells are derived from source-backed event locations; they are not parcel boundaries unless source geometry is separately present.","generated_from":"web/data/city-atlas/cities/nyc/events_1982.json","lifecycle_status":"uncertain","status":"source_record","cell_size_m":95,"intensity":0.289,"label":"Individual landmark designated: Liberty Tower"},"geometry":{"type":"Polygon","coordinates":[[[-74.0095756,40.7083944],[-74.0084489,40.7083944],[-74.0084489,40.7092535],[-74.0095756,40.7092535],[-74.0095756,40.7083944]]]}},{"type":"Feature","properties":{"id":"lens-detail-nyc-1982-planning_cell-15","layer":"planning_cell","category":"built_environment","year":1982,"visible_year":1982,"title":"1 source-backed planning and built record","confidence":"documented","confidence_mix":"documented:1","event_count":1,"source_count":1,"source_ids":"buis-pvji","event_ids":"nyc_lpc_individual_landmark_412","event_ids_all":"nyc_lpc_individual_landmark_412","source_urls":"https://data.cityofnewyork.us/resource/buis-pvji.json?objectid=412","geometry_precision_mix":"Row-level point from the adapter; source geocoding precision varies and may be approximate.:1","representation":"planning and built evidence grid cell","timing_note":"Filtered by event effective year. OSM mapped-visibility dates and administrative dates can differ from real-world physical change dates.","caveat":"Planning cells are derived from source-backed event locations; they are not parcel boundaries unless source geometry is separately present.","generated_from":"web/data/city-atlas/cities/nyc/events_1982.json","lifecycle_status":"uncertain","status":"source_record","cell_size_m":95,"intensity":0.289,"label":"Individual landmark designated: Cary Building"},"geometry":{"type":"Polygon","coordinates":[[[-74.0084489,40.7144085],[-74.0073223,40.7144085],[-74.0073223,40.7152676],[-74.0084489,40.7152676],[-74.0084489,40.7144085]]]}},{"type":"Feature","properties":{"id":"lens-detail-nyc-1982-planning_cell-16","layer":"planning_cell","category":"built_environment","year":1982,"visible_year":1982,"title":"1 source-backed planning and built record","confidence":"documented","confidence_mix":"documented:1","event_count":1,"source_count":1,"source_ids":"buis-pvji","event_ids":"nyc_lpc_individual_landmark_481","event_ids_all":"nyc_lpc_individual_landmark_481","source_urls":"https://data.cityofnewyork.us/resource/buis-pvji.json?objectid=481","geometry_precision_mix":"Row-level point from the adapter; source geocoding precision varies and may be approximate.:1","representation":"planning and built evidence grid cell","timing_note":"Filtered by event effective year. OSM mapped-visibility dates and administrative dates can differ from real-world physical change dates.","caveat":"Planning cells are derived from source-backed event locations; they are not parcel boundaries unless source geometry is separately present.","generated_from":"web/data/city-atlas/cities/nyc/events_1982.json","lifecycle_status":"uncertain","status":"source_record","cell_size_m":95,"intensity":0.289,"label":"Individual landmark designated: Odd Fellows Hall"},"geometry":{"type":"Polygon","coordinates":[[[-73.9994358,40.7187042],[-73.9983091,40.7187042],[-73.9983091,40.7195634],[-73.9994358,40.7195634],[-73.9994358,40.7187042]]]}},{"type":"Feature","properties":{"id":"lens-detail-nyc-1982-planning_cell-17","layer":"planning_cell","category":"built_environment","year":1982,"visible_year":1982,"title":"1 source-backed planning and built record","confidence":"documented","confidence_mix":"documented:1","event_count":1,"source_count":1,"source_ids":"buis-pvji","event_ids":"nyc_lpc_individual_landmark_538","event_ids_all":"nyc_lpc_individual_landmark_538","source_urls":"https://data.cityofnewyork.us/resource/buis-pvji.json?objectid=538","geometry_precision_mix":"Row-level point from the adapter; source geocoding precision varies and may be approximate.:1","representation":"planning and built evidence grid cell","timing_note":"Filtered by event effective year. OSM mapped-visibility dates and administrative dates can differ from real-world physical change dates.","caveat":"Planning cells are derived from source-backed event locations; they are not parcel boundaries unless source geometry is separately present.","generated_from":"web/data/city-atlas/cities/nyc/events_1982.json","lifecycle_status":"uncertain","status":"source_record","cell_size_m":95,"intensity":0.289,"label":"Individual landmark designated: Lever House"},"geometry":{"type":"Polygon","coordinates":[[[-73.9735228,40.7590844],[-73.9723962,40.7590844],[-73.9723962,40.7599436],[-73.9735228,40.7599436],[-73.9735228,40.7590844]]]}},{"type":"Feature","properties":{"id":"lens-detail-nyc-1982-planning_cell-18","layer":"planning_cell","category":"built_environment","year":1982,"visible_year":1982,"title":"1 source-backed planning and built record","confidence":"documented","confidence_mix":"documented:1","event_count":1,"source_count":1,"source_ids":"buis-pvji","event_ids":"nyc_lpc_individual_landmark_654","event_ids_all":"nyc_lpc_individual_landmark_654","source_urls":"https://data.cityofnewyork.us/resource/buis-pvji.json?objectid=654","geometry_precision_mix":"Row-level point from the adapter; source geocoding precision varies and may be approximate.:1","representation":"planning and built evidence grid cell","timing_note":"Filtered by event effective year. OSM mapped-visibility dates and administrative dates can differ from real-world physical change dates.","caveat":"Planning cells are derived from source-backed event locations; they are not parcel boundaries unless source geometry is separately present.","generated_from":"web/data/city-atlas/cities/nyc/events_1982.json","lifecycle_status":"uncertain","status":"source_record","cell_size_m":95,"intensity":0.289,"label":"Individual landmark designated: Scribner Building"},"geometry":{"type":"Polygon","coordinates":[[[-73.9780294,40.756507],[-73.9769028,40.756507],[-73.9769028,40.7573661],[-73.9780294,40.7573661],[-73.9780294,40.756507]]]}},{"type":"Feature","properties":{"id":"lens-detail-nyc-1982-planning_cell-19","layer":"planning_cell","category":"built_environment","year":1982,"visible_year":1982,"title":"1 source-backed planning and built record","confidence":"documented","confidence_mix":"documented:1","event_count":1,"source_count":1,"source_ids":"buis-pvji","event_ids":"nyc_lpc_individual_landmark_68","event_ids_all":"nyc_lpc_individual_landmark_68","source_urls":"https://data.cityofnewyork.us/resource/buis-pvji.json?objectid=68","geometry_precision_mix":"Row-level point from the adapter; source geocoding precision varies and may be approximate.:1","representation":"planning and built evidence grid cell","timing_note":"Filtered by event effective year. OSM mapped-visibility dates and administrative dates can differ from real-world physical change dates.","caveat":"Planning cells are derived from source-backed event locations; they are not parcel boundaries unless source geometry is separately present.","generated_from":"web/data/city-atlas/cities/nyc/events_1982.json","lifecycle_status":"uncertain","status":"source_record","cell_size_m":95,"intensity":0.289,"label":"Individual landmark designated: New York Architectural Terra Cotta Company Building"},"geometry":{"type":"Polygon","coordinates":[[[-73.9498632,40.7539295],[-73.9487365,40.7539295],[-73.9487365,40.7547886],[-73.9498632,40.7547886],[-73.9498632,40.7539295]]]}},{"type":"Feature","properties":{"id":"lens-detail-nyc-1982-planning_cell-2","layer":"planning_cell","category":"built_environment","year":1982,"visible_year":1982,"title":"1 source-backed planning and built record","confidence":"documented","confidence_mix":"documented:1","event_count":1,"source_count":1,"source_ids":"buis-pvji","event_ids":"nyc_lpc_individual_landmark_1033","event_ids_all":"nyc_lpc_individual_landmark_1033","source_urls":"https://data.cityofnewyork.us/resource/buis-pvji.json?objectid=1033","geometry_precision_mix":"Row-level point from the adapter; source geocoding precision varies and may be approximate.:1","representation":"planning and built evidence grid cell","timing_note":"Filtered by event effective year. OSM mapped-visibility dates and administrative dates can differ from real-world physical change dates.","caveat":"Planning cells are derived from source-backed event locations; they are not parcel boundaries unless source geometry is separately present.","generated_from":"web/data/city-atlas/cities/nyc/events_1982.json","lifecycle_status":"uncertain","status":"source_record","cell_size_m":95,"intensity":0.289,"label":"Individual landmark designated: Hamilton Fish Park Play Center"},"geometry":{"type":"Polygon","coordinates":[[[-73.982536,40.7195634],[-73.9814094,40.7195634],[-73.9814094,40.7204225],[-73.982536,40.7204225],[-73.982536,40.7195634]]]}},{"type":"Feature","properties":{"id":"lens-detail-nyc-1982-planning_cell-20","layer":"planning_cell","category":"built_environment","year":1982,"visible_year":1982,"title":"1 source-backed planning and built record","confidence":"documented","confidence_mix":"documented:1","event_count":1,"source_count":1,"source_ids":"buis-pvji","event_ids":"nyc_lpc_individual_landmark_7","event_ids_all":"nyc_lpc_individual_landmark_7","source_urls":"https://data.cityofnewyork.us/resource/buis-pvji.json?objectid=7","geometry_precision_mix":"Row-level point from the adapter; source geocoding precision varies and may be approximate.:1","representation":"planning and built evidence grid cell","timing_note":"Filtered by event effective year. OSM mapped-visibility dates and administrative dates can differ from real-world physical change dates.","caveat":"Planning cells are derived from source-backed event locations; they are not parcel boundaries unless source geometry is separately present.","generated_from":"web/data/city-atlas/cities/nyc/events_1982.json","lifecycle_status":"uncertain","status":"source_record","cell_size_m":95,"intensity":0.289,"label":"Individual landmark designated: Staten Island Borough Hall"},"geometry":{"type":"Polygon","coordinates":[[[-74.0760479,40.6413804],[-74.0749212,40.6413804],[-74.0749212,40.6422396],[-74.0760479,40.6422396],[-74.0760479,40.6413804]]]}},{"type":"Feature","properties":{"id":"lens-detail-nyc-1982-planning_cell-21","layer":"planning_cell","category":"built_environment","year":1982,"visible_year":1982,"title":"1 source-backed planning and built record","confidence":"documented","confidence_mix":"documented:1","event_count":1,"source_count":1,"source_ids":"buis-pvji","event_ids":"nyc_lpc_individual_landmark_774","event_ids_all":"nyc_lpc_individual_landmark_774","source_urls":"https://data.cityofnewyork.us/resource/buis-pvji.json?objectid=774","geometry_precision_mix":"Row-level point from the adapter; source geocoding precision varies and may be approximate.:1","representation":"planning and built evidence grid cell","timing_note":"Filtered by event effective year. OSM mapped-visibility dates and administrative dates can differ from real-world physical change dates.","caveat":"Planning cells are derived from source-backed event locations; they are not parcel boundaries unless source geometry is separately present.","generated_from":"web/data/city-atlas/cities/nyc/events_1982.json","lifecycle_status":"uncertain","status":"source_record","cell_size_m":95,"intensity":0.289,"label":"Individual landmark designated: 17 East 128th Street House"},"geometry":{"type":"Polygon","coordinates":[[[-73.94085,40.8080561],[-73.9397234,40.8080561],[-73.9397234,40.8089153],[-73.94085,40.8089153],[-73.94085,40.8080561]]]}},{"type":"Feature","properties":{"id":"lens-detail-nyc-1982-planning_cell-22","layer":"planning_cell","category":"built_environment","year":1982,"visible_year":1982,"title":"1 source-backed planning and built record","confidence":"documented","confidence_mix":"documented:1","event_count":1,"source_count":1,"source_ids":"buis-pvji","event_ids":"nyc_lpc_individual_landmark_780","event_ids_all":"nyc_lpc_individual_landmark_780","source_urls":"https://data.cityofnewyork.us/resource/buis-pvji.json?objectid=780","geometry_precision_mix":"Row-level point from the adapter; source geocoding precision varies and may be approximate.:1","representation":"planning and built evidence grid cell","timing_note":"Filtered by event effective year. OSM mapped-visibility dates and administrative dates can differ from real-world physical change dates.","caveat":"Planning cells are derived from source-backed event locations; they are not parcel boundaries unless source geometry is separately present.","generated_from":"web/data/city-atlas/cities/nyc/events_1982.json","lifecycle_status":"uncertain","status":"source_record","cell_size_m":95,"intensity":0.289,"label":"Individual landmark designated: Pomander Walk"},"geometry":{"type":"Polygon","coordinates":[[[-73.9735228,40.7934505],[-73.9723962,40.7934505],[-73.9723962,40.7943097],[-73.9735228,40.7943097],[-73.9735228,40.7934505]]]}},{"type":"Feature","properties":{"id":"lens-detail-nyc-1982-planning_cell-23","layer":"planning_cell","category":"built_environment","year":1982,"visible_year":1982,"title":"1 source-backed planning and built record","confidence":"documented","confidence_mix":"documented:1","event_count":1,"source_count":1,"source_ids":"buis-pvji","event_ids":"nyc_lpc_individual_landmark_829","event_ids_all":"nyc_lpc_individual_landmark_829","source_urls":"https://data.cityofnewyork.us/resource/buis-pvji.json?objectid=829","geometry_precision_mix":"Row-level point from the adapter; source geocoding precision varies and may be approximate.:1","representation":"planning and built evidence grid cell","timing_note":"Filtered by event effective year. OSM mapped-visibility dates and administrative dates can differ from real-world physical change dates.","caveat":"Planning cells are derived from source-backed event locations; they are not parcel boundaries unless source geometry is separately present.","generated_from":"web/data/city-atlas/cities/nyc/events_1982.json","lifecycle_status":"uncertain","status":"source_record","cell_size_m":95,"intensity":0.289,"label":"Individual landmark designated: Weir Greenhouse"},"geometry":{"type":"Polygon","coordinates":[[[-73.9971825,40.6585635],[-73.9960558,40.6585635],[-73.9960558,40.6594226],[-73.9971825,40.6594226],[-73.9971825,40.6585635]]]}},{"type":"Feature","properties":{"id":"lens-detail-nyc-1982-planning_cell-24","layer":"planning_cell","category":"built_environment","year":1982,"visible_year":1982,"title":"1 source-backed planning and built record","confidence":"documented","confidence_mix":"documented:1","event_count":1,"source_count":1,"source_ids":"buis-pvji","event_ids":"nyc_lpc_individual_landmark_84","event_ids_all":"nyc_lpc_individual_landmark_84","source_urls":"https://data.cityofnewyork.us/resource/buis-pvji.json?objectid=84","geometry_precision_mix":"Row-level point from the adapter; source geocoding precision varies and may be approximate.:1","representation":"planning and built evidence grid cell","timing_note":"Filtered by event effective year. OSM mapped-visibility dates and administrative dates can differ from real-world physical change dates.","caveat":"Planning cells are derived from source-backed event locations; they are not parcel boundaries unless source geometry is separately present.","generated_from":"web/data/city-atlas/cities/nyc/events_1982.json","lifecycle_status":"uncertain","status":"source_record","cell_size_m":95,"intensity":0.289,"label":"Individual landmark designated: Arthur and Dorothy Dalton Hammerstein House, Wildflower"},"geometry":{"type":"Polygon","coordinates":[[[-73.7955123,40.7943097],[-73.7943856,40.7943097],[-73.7943856,40.7951688],[-73.7955123,40.7951688],[-73.7955123,40.7943097]]]}},{"type":"Feature","properties":{"id":"lens-detail-nyc-1982-planning_cell-25","layer":"planning_cell","category":"built_environment","year":1982,"visible_year":1982,"title":"1 source-backed planning and built record","confidence":"documented","confidence_mix":"documented:1","event_count":1,"source_count":1,"source_ids":"buis-pvji","event_ids":"nyc_lpc_individual_landmark_946","event_ids_all":"nyc_lpc_individual_landmark_946","source_urls":"https://data.cityofnewyork.us/resource/buis-pvji.json?objectid=946","geometry_precision_mix":"Row-level point from the adapter; source geocoding precision varies and may be approximate.:1","representation":"planning and built evidence grid cell","timing_note":"Filtered by event effective year. OSM mapped-visibility dates and administrative dates can differ from real-world physical change dates.","caveat":"Planning cells are derived from source-backed event locations; they are not parcel boundaries unless source geometry is separately present.","generated_from":"web/data/city-atlas/cities/nyc/events_1982.json","lifecycle_status":"uncertain","status":"source_record","cell_size_m":95,"intensity":0.289,"label":"Individual landmark designated: Bronx Grit Chamber"},"geometry":{"type":"Polygon","coordinates":[[[-73.9194437,40.8020421],[-73.918317,40.8020421],[-73.918317,40.8029012],[-73.9194437,40.8029012],[-73.9194437,40.8020421]]]}},{"type":"Feature","properties":{"id":"lens-detail-nyc-1982-planning_cell-3","layer":"planning_cell","category":"built_environment","year":1982,"visible_year":1982,"title":"1 source-backed planning and built record","confidence":"documented","confidence_mix":"documented:1","event_count":1,"source_count":1,"source_ids":"buis-pvji","event_ids":"nyc_lpc_individual_landmark_1075","event_ids_all":"nyc_lpc_individual_landmark_1075","source_urls":"https://data.cityofnewyork.us/resource/buis-pvji.json?objectid=1075","geometry_precision_mix":"Row-level point from the adapter; source geocoding precision varies and may be approximate.:1","representation":"planning and built evidence grid cell","timing_note":"Filtered by event effective year. OSM mapped-visibility dates and administrative dates can differ from real-world physical change dates.","caveat":"Planning cells are derived from source-backed event locations; they are not parcel boundaries unless source geometry is separately present.","generated_from":"web/data/city-atlas/cities/nyc/events_1982.json","lifecycle_status":"uncertain","status":"source_record","cell_size_m":95,"intensity":0.289,"label":"Individual landmark designated: Henry McFarlane House"},"geometry":{"type":"Polygon","coordinates":[[[-74.0636548,40.6147467],[-74.0625281,40.6147467],[-74.0625281,40.6156058],[-74.0636548,40.6156058],[-74.0636548,40.6147467]]]}},{"type":"Feature","properties":{"id":"lens-detail-nyc-1982-planning_cell-4","layer":"planning_cell","category":"built_environment","year":1982,"visible_year":1982,"title":"1 source-backed planning and built record","confidence":"documented","confidence_mix":"documented:1","event_count":1,"source_count":1,"source_ids":"buis-pvji","event_ids":"nyc_lpc_individual_landmark_1246","event_ids_all":"nyc_lpc_individual_landmark_1246","source_urls":"https://data.cityofnewyork.us/resource/buis-pvji.json?objectid=1246","geometry_precision_mix":"Row-level point from the adapter; source geocoding precision varies and may be approximate.:1","representation":"planning and built evidence grid cell","timing_note":"Filtered by event effective year. OSM mapped-visibility dates and administrative dates can differ from real-world physical change dates.","caveat":"Planning cells are derived from source-backed event locations; they are not parcel boundaries unless source geometry is separately present.","generated_from":"web/data/city-atlas/cities/nyc/events_1982.json","lifecycle_status":"uncertain","status":"source_record","cell_size_m":95,"intensity":0.289,"label":"Individual landmark designated: Woodland Cottage"},"geometry":{"type":"Polygon","coordinates":[[[-74.065908,40.6113101],[-74.0647814,40.6113101],[-74.0647814,40.6121692],[-74.065908,40.6121692],[-74.065908,40.6113101]]]}},{"type":"Feature","properties":{"id":"lens-detail-nyc-1982-planning_cell-5","layer":"planning_cell","category":"built_environment","year":1982,"visible_year":1982,"title":"1 source-backed planning and built record","confidence":"documented","confidence_mix":"documented:1","event_count":1,"source_count":1,"source_ids":"buis-pvji","event_ids":"nyc_lpc_individual_landmark_1247","event_ids_all":"nyc_lpc_individual_landmark_1247","source_urls":"https://data.cityofnewyork.us/resource/buis-pvji.json?objectid=1247","geometry_precision_mix":"Row-level point from the adapter; source geocoding precision varies and may be approximate.:1","representation":"planning and built evidence grid cell","timing_note":"Filtered by event effective year. OSM mapped-visibility dates and administrative dates can differ from real-world physical change dates.","caveat":"Planning cells are derived from source-backed event locations; they are not parcel boundaries unless source geometry is separately present.","generated_from":"web/data/city-atlas/cities/nyc/events_1982.json","lifecycle_status":"uncertain","status":"source_record","cell_size_m":95,"intensity":0.289,"label":"Individual landmark designated: Curtis High School"},"geometry":{"type":"Polygon","coordinates":[[[-74.0828078,40.644817],[-74.0816811,40.644817],[-74.0816811,40.6456762],[-74.0828078,40.6456762],[-74.0828078,40.644817]]]}},{"type":"Feature","properties":{"id":"lens-detail-nyc-1982-planning_cell-6","layer":"planning_cell","category":"built_environment","year":1982,"visible_year":1982,"title":"1 source-backed planning and built record","confidence":"documented","confidence_mix":"documented:1","event_count":1,"source_count":1,"source_ids":"buis-pvji","event_ids":"nyc_lpc_individual_landmark_1248","event_ids_all":"nyc_lpc_individual_landmark_1248","source_urls":"https://data.cityofnewyork.us/resource/buis-pvji.json?objectid=1248","geometry_precision_mix":"Row-level point from the adapter; source geocoding precision varies and may be approximate.:1","representation":"planning and built evidence grid cell","timing_note":"Filtered by event effective year. OSM mapped-visibility dates and administrative dates can differ from real-world physical change dates.","caveat":"Planning cells are derived from source-backed event locations; they are not parcel boundaries unless source geometry is separately present.","generated_from":"web/data/city-atlas/cities/nyc/events_1982.json","lifecycle_status":"uncertain","status":"source_record","cell_size_m":95,"intensity":0.289,"label":"Individual landmark designated: Dr. James R. Boardman House"},"geometry":{"type":"Polygon","coordinates":[[[-74.0760479,40.6241974],[-74.0749212,40.6241974],[-74.0749212,40.6250565],[-74.0760479,40.6250565],[-74.0760479,40.6241974]]]}},{"type":"Feature","properties":{"id":"lens-detail-nyc-1982-planning_cell-7","layer":"planning_cell","category":"built_environment","year":1982,"visible_year":1982,"title":"1 source-backed planning and built record","confidence":"documented","confidence_mix":"documented:1","event_count":1,"source_count":1,"source_ids":"buis-pvji","event_ids":"nyc_lpc_individual_landmark_1250","event_ids_all":"nyc_lpc_individual_landmark_1250","source_urls":"https://data.cityofnewyork.us/resource/buis-pvji.json?objectid=1250","geometry_precision_mix":"Row-level point from the adapter; source geocoding precision varies and may be approximate.:1","representation":"planning and built evidence grid cell","timing_note":"Filtered by event effective year. OSM mapped-visibility dates and administrative dates can differ from real-world physical change dates.","caveat":"Planning cells are derived from source-backed event locations; they are not parcel boundaries unless source geometry is separately present.","generated_from":"web/data/city-atlas/cities/nyc/events_1982.json","lifecycle_status":"uncertain","status":"source_record","cell_size_m":95,"intensity":0.289,"label":"Individual landmark designated: South Congregational Church Complex"},"geometry":{"type":"Polygon","coordinates":[[[-73.9971825,40.6817606],[-73.9960558,40.6817606],[-73.9960558,40.6826198],[-73.9971825,40.6826198],[-73.9971825,40.6817606]]]}},{"type":"Feature","properties":{"id":"lens-detail-nyc-1982-planning_cell-8","layer":"planning_cell","category":"built_environment","year":1982,"visible_year":1982,"title":"1 source-backed planning and built record","confidence":"documented","confidence_mix":"documented:1","event_count":1,"source_count":1,"source_ids":"buis-pvji","event_ids":"nyc_lpc_individual_landmark_1347","event_ids_all":"nyc_lpc_individual_landmark_1347","source_urls":"https://data.cityofnewyork.us/resource/buis-pvji.json?objectid=1347","geometry_precision_mix":"Row-level point from the adapter; source geocoding precision varies and may be approximate.:1","representation":"planning and built evidence grid cell","timing_note":"Filtered by event effective year. OSM mapped-visibility dates and administrative dates can differ from real-world physical change dates.","caveat":"Planning cells are derived from source-backed event locations; they are not parcel boundaries unless source geometry is separately present.","generated_from":"web/data/city-atlas/cities/nyc/events_1982.json","lifecycle_status":"uncertain","status":"source_record","cell_size_m":95,"intensity":0.289,"label":"Individual landmark designated: Washington Bridge"},"geometry":{"type":"Polygon","coordinates":[[[-73.9284569,40.8458589],[-73.9273302,40.8458589],[-73.9273302,40.846718],[-73.9284569,40.846718],[-73.9284569,40.8458589]]]}},{"type":"Feature","properties":{"id":"lens-detail-nyc-1982-planning_cell-9","layer":"planning_cell","category":"built_environment","year":1982,"visible_year":1982,"title":"1 source-backed planning and built record","confidence":"documented","confidence_mix":"documented:1","event_count":1,"source_count":1,"source_ids":"buis-pvji","event_ids":"nyc_lpc_individual_landmark_145","event_ids_all":"nyc_lpc_individual_landmark_145","source_urls":"https://data.cityofnewyork.us/resource/buis-pvji.json?objectid=145","geometry_precision_mix":"Row-level point from the adapter; source geocoding precision varies and may be approximate.:1","representation":"planning and built evidence grid cell","timing_note":"Filtered by event effective year. OSM mapped-visibility dates and administrative dates can differ from real-world physical change dates.","caveat":"Planning cells are derived from source-backed event locations; they are not parcel boundaries unless source geometry is separately present.","generated_from":"web/data/city-atlas/cities/nyc/events_1982.json","lifecycle_status":"uncertain","status":"source_record","cell_size_m":95,"intensity":0.289,"label":"Individual landmark designated: Public School 67"},"geometry":{"type":"Polygon","coordinates":[[[-73.9836627,40.7573661],[-73.982536,40.7573661],[-73.982536,40.7582253],[-73.9836627,40.7582253],[-73.9836627,40.7573661]]]}}]}
