{"type":"FeatureCollection","name":"nyc_lens_detail_1797","metadata":{"schema_version":"1.0.0","city_id":"nyc","year":1797,"generated_at":"2026-05-20T01:58:52.589Z","source_paths":["web/data/city-atlas/cities/nyc/events_1797.json","web/data/city-atlas/cities/nyc/events.json","web/data/city-atlas/cities/nyc/transport_roads_base.geojson"],"method":"Derived OpenCityLog lens geometry built from source-backed event points plus existing OSM road/detail geometry. Grid cells aggregate events by effective year. Trace lines reuse nearest mapped road geometry for context.","caveats":["Derived cells are evidence grids, not surveyed parcels, catchments, zones, or administrative boundaries.","Trace lines are nearest mapped street or work-location context, not surveyed utility networks, measured traffic speed, spend, vacancy, or service quality. No capacity data is inferred.","Borough, citywide, statistical, corridor, and multi-site records are excluded from site-like lens geometry; they remain available in the event list and evidence records.","OSM mapped-visibility dates and administrative decision dates can differ from real-world physical change dates."],"feature_layers":{},"excluded_non_site_record_count":0,"excluded_non_site_reasons":{}},"features":[]}
