{"type":"FeatureCollection","name":"nyc_lens_detail_1981","metadata":{"schema_version":"1.0.0","city_id":"nyc","year":1981,"generated_at":"2026-05-20T02:54:27.430Z","source_paths":["web/data/city-atlas/cities/nyc/events_1981.json","web/data/city-atlas/cities/nyc/events.json","web/data/city-atlas/cities/nyc/transport_roads_base.geojson"],"method":"Derived OpenCityLog lens geometry built from source-backed event points plus existing OSM road/detail geometry. Grid cells aggregate events by effective year. Trace lines reuse nearest mapped road geometry for context.","caveats":["Derived cells are evidence grids, not surveyed parcels, catchments, zones, or administrative boundaries.","Trace lines are nearest mapped street or work-location context, not surveyed utility networks, measured traffic speed, spend, vacancy, or service quality. No capacity data is inferred.","Borough, citywide, statistical, corridor, and multi-site records are excluded from site-like lens geometry; they remain available in the event list and evidence records.","OSM mapped-visibility dates and administrative decision dates can differ from real-world physical change dates."],"feature_layers":{"planning_cell":55},"excluded_non_site_record_count":0,"excluded_non_site_reasons":{}},"features":[{"type":"Feature","properties":{"id":"lens-detail-nyc-1981-planning_cell-12","layer":"planning_cell","category":"built_environment","year":1981,"visible_year":1981,"title":"13 source-backed planning and built records","confidence":"documented","confidence_mix":"documented:13","event_count":13,"source_count":1,"source_ids":"buis-pvji","event_ids":"nyc_lpc_individual_landmark_1244,nyc_lpc_individual_landmark_496,nyc_lpc_individual_landmark_522,nyc_lpc_individual_landmark_530,nyc_lpc_individual_landmark_569,nyc_lpc_individual_landmark_571,nyc_lpc_individual_landmark_622,nyc_lpc_individual_landmark_635,nyc_lpc_individual_landmark_689,nyc_lpc_individual_landmark_718","event_ids_all":"nyc_lpc_individual_landmark_1244,nyc_lpc_individual_landmark_496,nyc_lpc_individual_landmark_522,nyc_lpc_individual_landmark_530,nyc_lpc_individual_landmark_569,nyc_lpc_individual_landmark_571,nyc_lpc_individual_landmark_622,nyc_lpc_individual_landmark_635,nyc_lpc_individual_landmark_689,nyc_lpc_individual_landmark_718,nyc_lpc_individual_landmark_734,nyc_lpc_individual_landmark_738,nyc_lpc_individual_landmark_758","source_urls":"https://data.cityofnewyork.us/resource/buis-pvji.json?objectid=1244,https://data.cityofnewyork.us/resource/buis-pvji.json?objectid=496,https://data.cityofnewyork.us/resource/buis-pvji.json?objectid=522,https://data.cityofnewyork.us/resource/buis-pvji.json?objectid=530","geometry_precision_mix":"Row-level point from the adapter; source geocoding precision varies and may be approximate.:13","representation":"planning and built evidence grid cell","timing_note":"Filtered by event effective year. OSM mapped-visibility dates and administrative dates can differ from real-world physical change dates.","caveat":"Planning cells are derived from source-backed event locations; they are not parcel boundaries unless source geometry is separately present.","generated_from":"web/data/city-atlas/cities/nyc/events_1981.json","lifecycle_status":"uncertain","status":"source_record","cell_size_m":95,"intensity":1,"label":"Individual landmark designated: 62 West 130th Street House"},"geometry":{"type":"Polygon","coordinates":[[[-73.9429047,40.8097744],[-73.9417788,40.8097744],[-73.9417788,40.8106336],[-73.9429047,40.8106336],[-73.9429047,40.8097744]]]}},{"type":"Feature","properties":{"id":"lens-detail-nyc-1981-planning_cell-30","layer":"planning_cell","category":"built_environment","year":1981,"visible_year":1981,"title":"10 source-backed planning and built records","confidence":"documented","confidence_mix":"documented:10","event_count":10,"source_count":1,"source_ids":"buis-pvji","event_ids":"nyc_lpc_individual_landmark_528,nyc_lpc_individual_landmark_584,nyc_lpc_individual_landmark_616,nyc_lpc_individual_landmark_625,nyc_lpc_individual_landmark_639,nyc_lpc_individual_landmark_644,nyc_lpc_individual_landmark_669,nyc_lpc_individual_landmark_683,nyc_lpc_individual_landmark_686,nyc_lpc_individual_landmark_809","event_ids_all":"nyc_lpc_individual_landmark_528,nyc_lpc_individual_landmark_584,nyc_lpc_individual_landmark_616,nyc_lpc_individual_landmark_625,nyc_lpc_individual_landmark_639,nyc_lpc_individual_landmark_644,nyc_lpc_individual_landmark_669,nyc_lpc_individual_landmark_683,nyc_lpc_individual_landmark_686,nyc_lpc_individual_landmark_809","source_urls":"https://data.cityofnewyork.us/resource/buis-pvji.json?objectid=528,https://data.cityofnewyork.us/resource/buis-pvji.json?objectid=584,https://data.cityofnewyork.us/resource/buis-pvji.json?objectid=616,https://data.cityofnewyork.us/resource/buis-pvji.json?objectid=625","geometry_precision_mix":"Row-level point from the adapter; source geocoding precision varies and may be approximate.:10","representation":"planning and built evidence grid cell","timing_note":"Filtered by event effective year. OSM mapped-visibility dates and administrative dates can differ from real-world physical change dates.","caveat":"Planning cells are derived from source-backed event locations; they are not parcel boundaries unless source geometry is separately present.","generated_from":"web/data/city-atlas/cities/nyc/events_1981.json","lifecycle_status":"uncertain","status":"source_record","cell_size_m":95,"intensity":0.999,"label":"Individual landmark designated: 24 West 130th Street House"},"geometry":{"type":"Polygon","coordinates":[[[-73.9417788,40.8097744],[-73.9406528,40.8097744],[-73.9406528,40.8106336],[-73.9417788,40.8106336],[-73.9417788,40.8097744]]]}},{"type":"Feature","properties":{"id":"lens-detail-nyc-1981-planning_cell-27","layer":"planning_cell","category":"built_environment","year":1981,"visible_year":1981,"title":"4 source-backed planning and built records","confidence":"documented","confidence_mix":"documented:4","event_count":4,"source_count":1,"source_ids":"buis-pvji","event_ids":"nyc_lpc_individual_landmark_502,nyc_lpc_individual_landmark_641,nyc_lpc_individual_landmark_695,nyc_lpc_individual_landmark_697","event_ids_all":"nyc_lpc_individual_landmark_502,nyc_lpc_individual_landmark_641,nyc_lpc_individual_landmark_695,nyc_lpc_individual_landmark_697","source_urls":"https://data.cityofnewyork.us/resource/buis-pvji.json?objectid=502,https://data.cityofnewyork.us/resource/buis-pvji.json?objectid=641,https://data.cityofnewyork.us/resource/buis-pvji.json?objectid=695,https://data.cityofnewyork.us/resource/buis-pvji.json?objectid=697","geometry_precision_mix":"Row-level point from the adapter; source geocoding precision varies and may be approximate.:4","representation":"planning and built evidence grid cell","timing_note":"Filtered by event effective year. OSM mapped-visibility dates and administrative dates can differ from real-world physical change dates.","caveat":"Planning cells are derived from source-backed event locations; they are not parcel boundaries unless source geometry is separately present.","generated_from":"web/data/city-atlas/cities/nyc/events_1981.json","lifecycle_status":"uncertain","status":"source_record","cell_size_m":95,"intensity":0.671,"label":"Individual landmark designated: 12 West 130th Street House"},"geometry":{"type":"Polygon","coordinates":[[[-73.9417788,40.8089153],[-73.9406528,40.8089153],[-73.9406528,40.8097744],[-73.9417788,40.8097744],[-73.9417788,40.8089153]]]}},{"type":"Feature","properties":{"id":"lens-detail-nyc-1981-planning_cell-25","layer":"planning_cell","category":"built_environment","year":1981,"visible_year":1981,"title":"3 source-backed planning and built records","confidence":"documented","confidence_mix":"documented:3","event_count":3,"source_count":1,"source_ids":"buis-pvji","event_ids":"nyc_lpc_individual_landmark_478,nyc_lpc_individual_landmark_624,nyc_lpc_individual_landmark_687","event_ids_all":"nyc_lpc_individual_landmark_478,nyc_lpc_individual_landmark_624,nyc_lpc_individual_landmark_687","source_urls":"https://data.cityofnewyork.us/resource/buis-pvji.json?objectid=478,https://data.cityofnewyork.us/resource/buis-pvji.json?objectid=624,https://data.cityofnewyork.us/resource/buis-pvji.json?objectid=687","geometry_precision_mix":"Row-level point from the adapter; source geocoding precision varies and may be approximate.:3","representation":"planning and built evidence grid cell","timing_note":"Filtered by event effective year. OSM mapped-visibility dates and administrative dates can differ from real-world physical change dates.","caveat":"Planning cells are derived from source-backed event locations; they are not parcel boundaries unless source geometry is separately present.","generated_from":"web/data/city-atlas/cities/nyc/events_1981.json","lifecycle_status":"uncertain","status":"source_record","cell_size_m":95,"intensity":0.578,"label":"Individual landmark designated: George and Sarah Rives House"},"geometry":{"type":"Polygon","coordinates":[[[-73.9620457,40.7762675],[-73.9609198,40.7762675],[-73.9609198,40.7771266],[-73.9620457,40.7771266],[-73.9620457,40.7762675]]]}},{"type":"Feature","properties":{"id":"lens-detail-nyc-1981-planning_cell-36","layer":"planning_cell","category":"built_environment","year":1981,"visible_year":1981,"title":"3 source-backed planning and built records","confidence":"documented","confidence_mix":"documented:3","event_count":3,"source_count":1,"source_ids":"buis-pvji","event_ids":"nyc_lpc_individual_landmark_657,nyc_lpc_individual_landmark_713,nyc_lpc_individual_landmark_804","event_ids_all":"nyc_lpc_individual_landmark_657,nyc_lpc_individual_landmark_713,nyc_lpc_individual_landmark_804","source_urls":"https://data.cityofnewyork.us/resource/buis-pvji.json?objectid=657,https://data.cityofnewyork.us/resource/buis-pvji.json?objectid=713,https://data.cityofnewyork.us/resource/buis-pvji.json?objectid=804","geometry_precision_mix":"Row-level point from the adapter; source geocoding precision varies and may be approximate.:3","representation":"planning and built evidence grid cell","timing_note":"Filtered by event effective year. OSM mapped-visibility dates and administrative dates can differ from real-world physical change dates.","caveat":"Planning cells are derived from source-backed event locations; they are not parcel boundaries unless source geometry is separately present.","generated_from":"web/data/city-atlas/cities/nyc/events_1981.json","lifecycle_status":"uncertain","status":"source_record","cell_size_m":95,"intensity":0.578,"label":"Individual landmark designated: 15 West 54th Street House"},"geometry":{"type":"Polygon","coordinates":[[[-73.976683,40.7616619],[-73.975557,40.7616619],[-73.975557,40.762521],[-73.976683,40.762521],[-73.976683,40.7616619]]]}},{"type":"Feature","properties":{"id":"lens-detail-nyc-1981-planning_cell-23","layer":"planning_cell","category":"built_environment","year":1981,"visible_year":1981,"title":"2 source-backed planning and built records","confidence":"documented","confidence_mix":"documented:2","event_count":2,"source_count":1,"source_ids":"buis-pvji","event_ids":"nyc_lpc_individual_landmark_1477,nyc_lpc_individual_landmark_1478","event_ids_all":"nyc_lpc_individual_landmark_1477,nyc_lpc_individual_landmark_1478","source_urls":"https://data.cityofnewyork.us/resource/buis-pvji.json?objectid=1477,https://data.cityofnewyork.us/resource/buis-pvji.json?objectid=1478","geometry_precision_mix":"Row-level point from the adapter; source geocoding precision varies and may be approximate.:2","representation":"planning and built evidence grid cell","timing_note":"Filtered by event effective year. OSM mapped-visibility dates and administrative dates can differ from real-world physical change dates.","caveat":"Planning cells are derived from source-backed event locations; they are not parcel boundaries unless source geometry is separately present.","generated_from":"web/data/city-atlas/cities/nyc/events_1981.json","lifecycle_status":"proposed","status":"source_record","cell_size_m":95,"intensity":0.458,"label":"Individual landmark designated: Sidewalk Clock, 161-11 Jamaica Avenue"},"geometry":{"type":"Polygon","coordinates":[[[-73.798784,40.7040986],[-73.7976581,40.7040986],[-73.7976581,40.7049578],[-73.798784,40.7049578],[-73.798784,40.7040986]]]}},{"type":"Feature","properties":{"id":"lens-detail-nyc-1981-planning_cell-32","layer":"planning_cell","category":"built_environment","year":1981,"visible_year":1981,"title":"2 source-backed planning and built records","confidence":"documented","confidence_mix":"documented:2","event_count":2,"source_count":1,"source_ids":"buis-pvji","event_ids":"nyc_lpc_individual_landmark_554,nyc_lpc_individual_landmark_562","event_ids_all":"nyc_lpc_individual_landmark_554,nyc_lpc_individual_landmark_562","source_urls":"https://data.cityofnewyork.us/resource/buis-pvji.json?objectid=554,https://data.cityofnewyork.us/resource/buis-pvji.json?objectid=562","geometry_precision_mix":"Row-level point from the adapter; source geocoding precision varies and may be approximate.:2","representation":"planning and built evidence grid cell","timing_note":"Filtered by event effective year. OSM mapped-visibility dates and administrative dates can differ from real-world physical change dates.","caveat":"Planning cells are derived from source-backed event locations; they are not parcel boundaries unless source geometry is separately present.","generated_from":"web/data/city-atlas/cities/nyc/events_1981.json","lifecycle_status":"uncertain","status":"source_record","cell_size_m":95,"intensity":0.458,"label":"Individual landmark designated: Moses Allen and Alice Dunning Starr House"},"geometry":{"type":"Polygon","coordinates":[[[-73.976683,40.7608027],[-73.975557,40.7608027],[-73.975557,40.7616619],[-73.976683,40.7616619],[-73.976683,40.7608027]]]}},{"type":"Feature","properties":{"id":"lens-detail-nyc-1981-planning_cell-0","layer":"planning_cell","category":"built_environment","year":1981,"visible_year":1981,"title":"1 source-backed planning and built record","confidence":"documented","confidence_mix":"documented:1","event_count":1,"source_count":1,"source_ids":"skyk-mpzq","event_ids":"nyc_lpc_historic_district_lp-01051","event_ids_all":"nyc_lpc_historic_district_lp-01051","source_urls":"https://data.cityofnewyork.us/resource/skyk-mpzq.json?lp_number=LP-01051","geometry_precision_mix":"Row-level point from the adapter; source geocoding precision varies and may be approximate.:1","representation":"planning and built evidence grid cell","timing_note":"Filtered by event effective year. OSM mapped-visibility dates and administrative dates can differ from real-world physical change dates.","caveat":"Planning cells are derived from source-backed event locations; they are not parcel boundaries unless source geometry is separately present.","generated_from":"web/data/city-atlas/cities/nyc/events_1981.json","lifecycle_status":"uncertain","status":"source_record","cell_size_m":95,"intensity":0.289,"label":"Historic district designated: Upper East Side Historic District"},"geometry":{"type":"Polygon","coordinates":[[[-73.9665495,40.7685351],[-73.9654235,40.7685351],[-73.9654235,40.7693943],[-73.9665495,40.7693943],[-73.9665495,40.7685351]]]}},{"type":"Feature","properties":{"id":"lens-detail-nyc-1981-planning_cell-1","layer":"planning_cell","category":"built_environment","year":1981,"visible_year":1981,"title":"1 source-backed planning and built record","confidence":"documented","confidence_mix":"documented:1","event_count":1,"source_count":1,"source_ids":"skyk-mpzq","event_ids":"nyc_lpc_historic_district_lp-01088","event_ids_all":"nyc_lpc_historic_district_lp-01088","source_urls":"https://data.cityofnewyork.us/resource/skyk-mpzq.json?lp_number=LP-01088","geometry_precision_mix":"Row-level point from the adapter; source geocoding precision varies and may be approximate.:1","representation":"planning and built evidence grid cell","timing_note":"Filtered by event effective year. OSM mapped-visibility dates and administrative dates can differ from real-world physical change dates.","caveat":"Planning cells are derived from source-backed event locations; they are not parcel boundaries unless source geometry is separately present.","generated_from":"web/data/city-atlas/cities/nyc/events_1981.json","lifecycle_status":"uncertain","status":"source_record","cell_size_m":95,"intensity":0.289,"label":"Historic district designated: Chelsea Historic District Extension"},"geometry":{"type":"Polygon","coordinates":[[[-74.0025797,40.7461971],[-74.0014537,40.7461971],[-74.0014537,40.7470563],[-74.0025797,40.7470563],[-74.0025797,40.7461971]]]}},{"type":"Feature","properties":{"id":"lens-detail-nyc-1981-planning_cell-10","layer":"planning_cell","category":"built_environment","year":1981,"visible_year":1981,"title":"1 source-backed planning and built record","confidence":"documented","confidence_mix":"documented:1","event_count":1,"source_count":1,"source_ids":"buis-pvji","event_ids":"nyc_lpc_individual_landmark_1240","event_ids_all":"nyc_lpc_individual_landmark_1240","source_urls":"https://data.cityofnewyork.us/resource/buis-pvji.json?objectid=1240","geometry_precision_mix":"Row-level point from the adapter; source geocoding precision varies and may be approximate.:1","representation":"planning and built evidence grid cell","timing_note":"Filtered by event effective year. OSM mapped-visibility dates and administrative dates can differ from real-world physical change dates.","caveat":"Planning cells are derived from source-backed event locations; they are not parcel boundaries unless source geometry is separately present.","generated_from":"web/data/city-atlas/cities/nyc/events_1981.json","lifecycle_status":"uncertain","status":"source_record","cell_size_m":95,"intensity":0.289,"label":"Individual landmark designated: Interborough Rapid Transit System, Manhattan Valley Viaduct"},"geometry":{"type":"Polygon","coordinates":[[[-73.9586679,40.8157885],[-73.957542,40.8157885],[-73.957542,40.8166477],[-73.9586679,40.8166477],[-73.9586679,40.8157885]]]}},{"type":"Feature","properties":{"id":"lens-detail-nyc-1981-planning_cell-11","layer":"planning_cell","category":"built_environment","year":1981,"visible_year":1981,"title":"1 source-backed planning and built record","confidence":"documented","confidence_mix":"documented:1","event_count":1,"source_count":1,"source_ids":"buis-pvji","event_ids":"nyc_lpc_individual_landmark_1243","event_ids_all":"nyc_lpc_individual_landmark_1243","source_urls":"https://data.cityofnewyork.us/resource/buis-pvji.json?objectid=1243","geometry_precision_mix":"Row-level point from the adapter; source geocoding precision varies and may be approximate.:1","representation":"planning and built evidence grid cell","timing_note":"Filtered by event effective year. OSM mapped-visibility dates and administrative dates can differ from real-world physical change dates.","caveat":"Planning cells are derived from source-backed event locations; they are not parcel boundaries unless source geometry is separately present.","generated_from":"web/data/city-atlas/cities/nyc/events_1981.json","lifecycle_status":"uncertain","status":"source_record","cell_size_m":95,"intensity":0.289,"label":"Individual landmark designated: Felix and Frieda S. Warburg House"},"geometry":{"type":"Polygon","coordinates":[[[-73.957542,40.784859],[-73.956416,40.784859],[-73.956416,40.7857182],[-73.957542,40.7857182],[-73.957542,40.784859]]]}},{"type":"Feature","properties":{"id":"lens-detail-nyc-1981-planning_cell-13","layer":"planning_cell","category":"built_environment","year":1981,"visible_year":1981,"title":"1 source-backed planning and built record","confidence":"documented","confidence_mix":"documented:1","event_count":1,"source_count":1,"source_ids":"buis-pvji","event_ids":"nyc_lpc_individual_landmark_1289","event_ids_all":"nyc_lpc_individual_landmark_1289","source_urls":"https://data.cityofnewyork.us/resource/buis-pvji.json?objectid=1289","geometry_precision_mix":"Row-level point from the adapter; source geocoding precision varies and may be approximate.:1","representation":"planning and built evidence grid cell","timing_note":"Filtered by event effective year. OSM mapped-visibility dates and administrative dates can differ from real-world physical change dates.","caveat":"Planning cells are derived from source-backed event locations; they are not parcel boundaries unless source geometry is separately present.","generated_from":"web/data/city-atlas/cities/nyc/events_1981.json","lifecycle_status":"uncertain","status":"source_record","cell_size_m":95,"intensity":0.289,"label":"Individual landmark designated: Friends Meeting House"},"geometry":{"type":"Polygon","coordinates":[[[-73.9901943,40.689493],[-73.9890683,40.689493],[-73.9890683,40.6903522],[-73.9901943,40.6903522],[-73.9901943,40.689493]]]}},{"type":"Feature","properties":{"id":"lens-detail-nyc-1981-planning_cell-14","layer":"planning_cell","category":"built_environment","year":1981,"visible_year":1981,"title":"1 source-backed planning and built record","confidence":"documented","confidence_mix":"documented:1","event_count":1,"source_count":1,"source_ids":"buis-pvji","event_ids":"nyc_lpc_individual_landmark_1290","event_ids_all":"nyc_lpc_individual_landmark_1290","source_urls":"https://data.cityofnewyork.us/resource/buis-pvji.json?objectid=1290","geometry_precision_mix":"Row-level point from the adapter; source geocoding precision varies and may be approximate.:1","representation":"planning and built evidence grid cell","timing_note":"Filtered by event effective year. OSM mapped-visibility dates and administrative dates can differ from real-world physical change dates.","caveat":"Planning cells are derived from source-backed event locations; they are not parcel boundaries unless source geometry is separately present.","generated_from":"web/data/city-atlas/cities/nyc/events_1981.json","lifecycle_status":"uncertain","status":"source_record","cell_size_m":95,"intensity":0.289,"label":"Individual landmark designated: Pratt Institute: Main Building Complex"},"geometry":{"type":"Polygon","coordinates":[[[-73.9642976,40.6912113],[-73.9631717,40.6912113],[-73.9631717,40.6920705],[-73.9642976,40.6920705],[-73.9642976,40.6912113]]]}},{"type":"Feature","properties":{"id":"lens-detail-nyc-1981-planning_cell-15","layer":"planning_cell","category":"built_environment","year":1981,"visible_year":1981,"title":"1 source-backed planning and built record","confidence":"documented","confidence_mix":"documented:1","event_count":1,"source_count":1,"source_ids":"buis-pvji","event_ids":"nyc_lpc_individual_landmark_1291","event_ids_all":"nyc_lpc_individual_landmark_1291","source_urls":"https://data.cityofnewyork.us/resource/buis-pvji.json?objectid=1291","geometry_precision_mix":"Row-level point from the adapter; source geocoding precision varies and may be approximate.:1","representation":"planning and built evidence grid cell","timing_note":"Filtered by event effective year. OSM mapped-visibility dates and administrative dates can differ from real-world physical change dates.","caveat":"Planning cells are derived from source-backed event locations; they are not parcel boundaries unless source geometry is separately present.","generated_from":"web/data/city-atlas/cities/nyc/events_1981.json","lifecycle_status":"uncertain","status":"source_record","cell_size_m":95,"intensity":0.289,"label":"Individual landmark designated: Pratt Institute Library"},"geometry":{"type":"Polygon","coordinates":[[[-73.9654235,40.6903522],[-73.9642976,40.6903522],[-73.9642976,40.6912113],[-73.9654235,40.6912113],[-73.9654235,40.6903522]]]}},{"type":"Feature","properties":{"id":"lens-detail-nyc-1981-planning_cell-16","layer":"planning_cell","category":"built_environment","year":1981,"visible_year":1981,"title":"1 source-backed planning and built record","confidence":"documented","confidence_mix":"documented:1","event_count":1,"source_count":1,"source_ids":"buis-pvji","event_ids":"nyc_lpc_individual_landmark_1470","event_ids_all":"nyc_lpc_individual_landmark_1470","source_urls":"https://data.cityofnewyork.us/resource/buis-pvji.json?objectid=1470","geometry_precision_mix":"Row-level point from the adapter; source geocoding precision varies and may be approximate.:1","representation":"planning and built evidence grid cell","timing_note":"Filtered by event effective year. OSM mapped-visibility dates and administrative dates can differ from real-world physical change dates.","caveat":"Planning cells are derived from source-backed event locations; they are not parcel boundaries unless source geometry is separately present.","generated_from":"web/data/city-atlas/cities/nyc/events_1981.json","lifecycle_status":"uncertain","status":"source_record","cell_size_m":95,"intensity":0.289,"label":"Individual landmark designated: Sidewalk Clock, 1501 Third Avenue"},"geometry":{"type":"Polygon","coordinates":[[[-73.9552901,40.7771266],[-73.9541641,40.7771266],[-73.9541641,40.7779858],[-73.9552901,40.7779858],[-73.9552901,40.7771266]]]}},{"type":"Feature","properties":{"id":"lens-detail-nyc-1981-planning_cell-17","layer":"planning_cell","category":"built_environment","year":1981,"visible_year":1981,"title":"1 source-backed planning and built record","confidence":"documented","confidence_mix":"documented:1","event_count":1,"source_count":1,"source_ids":"buis-pvji","event_ids":"nyc_lpc_individual_landmark_1471","event_ids_all":"nyc_lpc_individual_landmark_1471","source_urls":"https://data.cityofnewyork.us/resource/buis-pvji.json?objectid=1471","geometry_precision_mix":"Row-level point from the adapter; source geocoding precision varies and may be approximate.:1","representation":"planning and built evidence grid cell","timing_note":"Filtered by event effective year. OSM mapped-visibility dates and administrative dates can differ from real-world physical change dates.","caveat":"Planning cells are derived from source-backed event locations; they are not parcel boundaries unless source geometry is separately present.","generated_from":"web/data/city-atlas/cities/nyc/events_1981.json","lifecycle_status":"uncertain","status":"source_record","cell_size_m":95,"intensity":0.289,"label":"Individual landmark designated: Sidewalk Clock, 783 Fifth Avenue"},"geometry":{"type":"Polygon","coordinates":[[[-73.9733051,40.7642393],[-73.9721792,40.7642393],[-73.9721792,40.7650985],[-73.9733051,40.7650985],[-73.9733051,40.7642393]]]}},{"type":"Feature","properties":{"id":"lens-detail-nyc-1981-planning_cell-18","layer":"planning_cell","category":"built_environment","year":1981,"visible_year":1981,"title":"1 source-backed planning and built record","confidence":"documented","confidence_mix":"documented:1","event_count":1,"source_count":1,"source_ids":"buis-pvji","event_ids":"nyc_lpc_individual_landmark_1472","event_ids_all":"nyc_lpc_individual_landmark_1472","source_urls":"https://data.cityofnewyork.us/resource/buis-pvji.json?objectid=1472","geometry_precision_mix":"Row-level point from the adapter; source geocoding precision varies and may be approximate.:1","representation":"planning and built evidence grid cell","timing_note":"Filtered by event effective year. OSM mapped-visibility dates and administrative dates can differ from real-world physical change dates.","caveat":"Planning cells are derived from source-backed event locations; they are not parcel boundaries unless source geometry is separately present.","generated_from":"web/data/city-atlas/cities/nyc/events_1981.json","lifecycle_status":"uncertain","status":"source_record","cell_size_m":95,"intensity":0.289,"label":"Individual landmark designated: Sidewalk Clock, 522 Fifth Avenue"},"geometry":{"type":"Polygon","coordinates":[[[-73.9811867,40.7539295],[-73.9800608,40.7539295],[-73.9800608,40.7547886],[-73.9811867,40.7547886],[-73.9811867,40.7539295]]]}},{"type":"Feature","properties":{"id":"lens-detail-nyc-1981-planning_cell-19","layer":"planning_cell","category":"built_environment","year":1981,"visible_year":1981,"title":"1 source-backed planning and built record","confidence":"documented","confidence_mix":"documented:1","event_count":1,"source_count":1,"source_ids":"buis-pvji","event_ids":"nyc_lpc_individual_landmark_1473","event_ids_all":"nyc_lpc_individual_landmark_1473","source_urls":"https://data.cityofnewyork.us/resource/buis-pvji.json?objectid=1473","geometry_precision_mix":"Row-level point from the adapter; source geocoding precision varies and may be approximate.:1","representation":"planning and built evidence grid cell","timing_note":"Filtered by event effective year. OSM mapped-visibility dates and administrative dates can differ from real-world physical change dates.","caveat":"Planning cells are derived from source-backed event locations; they are not parcel boundaries unless source geometry is separately present.","generated_from":"web/data/city-atlas/cities/nyc/events_1981.json","lifecycle_status":"uncertain","status":"source_record","cell_size_m":95,"intensity":0.289,"label":"Individual landmark designated: Sidewalk Clock, 200 Fifth Avenue"},"geometry":{"type":"Polygon","coordinates":[[[-73.9901943,40.7419014],[-73.9890683,40.7419014],[-73.9890683,40.7427605],[-73.9901943,40.7427605],[-73.9901943,40.7419014]]]}},{"type":"Feature","properties":{"id":"lens-detail-nyc-1981-planning_cell-2","layer":"planning_cell","category":"built_environment","year":1981,"visible_year":1981,"title":"1 source-backed planning and built record","confidence":"documented","confidence_mix":"documented:1","event_count":1,"source_count":1,"source_ids":"skyk-mpzq","event_ids":"nyc_lpc_historic_district_lp-01236","event_ids_all":"nyc_lpc_historic_district_lp-01236","source_urls":"https://data.cityofnewyork.us/resource/skyk-mpzq.json?lp_number=LP-01236","geometry_precision_mix":"Row-level point from the adapter; source geocoding precision varies and may be approximate.:1","representation":"planning and built evidence grid cell","timing_note":"Filtered by event effective year. OSM mapped-visibility dates and administrative dates can differ from real-world physical change dates.","caveat":"Planning cells are derived from source-backed event locations; they are not parcel boundaries unless source geometry is separately present.","generated_from":"web/data/city-atlas/cities/nyc/events_1981.json","lifecycle_status":"uncertain","status":"source_record","cell_size_m":95,"intensity":0.289,"label":"Historic district designated: Ditmas Park Historic District"},"geometry":{"type":"Polygon","coordinates":[[[-73.9609198,40.6379438],[-73.9597938,40.6379438],[-73.9597938,40.638803],[-73.9609198,40.638803],[-73.9609198,40.6379438]]]}},{"type":"Feature","properties":{"id":"lens-detail-nyc-1981-planning_cell-20","layer":"planning_cell","category":"built_environment","year":1981,"visible_year":1981,"title":"1 source-backed planning and built record","confidence":"documented","confidence_mix":"documented:1","event_count":1,"source_count":1,"source_ids":"buis-pvji","event_ids":"nyc_lpc_individual_landmark_1474","event_ids_all":"nyc_lpc_individual_landmark_1474","source_urls":"https://data.cityofnewyork.us/resource/buis-pvji.json?objectid=1474","geometry_precision_mix":"Row-level point from the adapter; source geocoding precision varies and may be approximate.:1","representation":"planning and built evidence grid cell","timing_note":"Filtered by event effective year. OSM mapped-visibility dates and administrative dates can differ from real-world physical change dates.","caveat":"Planning cells are derived from source-backed event locations; they are not parcel boundaries unless source geometry is separately present.","generated_from":"web/data/city-atlas/cities/nyc/events_1981.json","lifecycle_status":"proposed","status":"source_record","cell_size_m":95,"intensity":0.289,"label":"Individual landmark designated: Sidewalk Clock, 753 Manhattan Avenue"},"geometry":{"type":"Polygon","coordinates":[[[-73.9530382,40.7255774],[-73.9519122,40.7255774],[-73.9519122,40.7264366],[-73.9530382,40.7264366],[-73.9530382,40.7255774]]]}},{"type":"Feature","properties":{"id":"lens-detail-nyc-1981-planning_cell-21","layer":"planning_cell","category":"built_environment","year":1981,"visible_year":1981,"title":"1 source-backed planning and built record","confidence":"documented","confidence_mix":"documented:1","event_count":1,"source_count":1,"source_ids":"buis-pvji","event_ids":"nyc_lpc_individual_landmark_1475","event_ids_all":"nyc_lpc_individual_landmark_1475","source_urls":"https://data.cityofnewyork.us/resource/buis-pvji.json?objectid=1475","geometry_precision_mix":"Row-level point from the adapter; source geocoding precision varies and may be approximate.:1","representation":"planning and built evidence grid cell","timing_note":"Filtered by event effective year. OSM mapped-visibility dates and administrative dates can differ from real-world physical change dates.","caveat":"Planning cells are derived from source-backed event locations; they are not parcel boundaries unless source geometry is separately present.","generated_from":"web/data/city-atlas/cities/nyc/events_1981.json","lifecycle_status":"uncertain","status":"source_record","cell_size_m":95,"intensity":0.289,"label":"Individual landmark designated: Sidewalk Clock, 753 Manhattan Avenue"},"geometry":{"type":"Polygon","coordinates":[[[-73.9530382,40.7264366],[-73.9519122,40.7264366],[-73.9519122,40.7272957],[-73.9530382,40.7272957],[-73.9530382,40.7264366]]]}},{"type":"Feature","properties":{"id":"lens-detail-nyc-1981-planning_cell-22","layer":"planning_cell","category":"built_environment","year":1981,"visible_year":1981,"title":"1 source-backed planning and built record","confidence":"documented","confidence_mix":"documented:1","event_count":1,"source_count":1,"source_ids":"buis-pvji","event_ids":"nyc_lpc_individual_landmark_1476","event_ids_all":"nyc_lpc_individual_landmark_1476","source_urls":"https://data.cityofnewyork.us/resource/buis-pvji.json?objectid=1476","geometry_precision_mix":"Row-level point from the adapter; source geocoding precision varies and may be approximate.:1","representation":"planning and built evidence grid cell","timing_note":"Filtered by event effective year. OSM mapped-visibility dates and administrative dates can differ from real-world physical change dates.","caveat":"Planning cells are derived from source-backed event locations; they are not parcel boundaries unless source geometry is separately present.","generated_from":"web/data/city-atlas/cities/nyc/events_1981.json","lifecycle_status":"uncertain","status":"source_record","cell_size_m":95,"intensity":0.289,"label":"Individual landmark designated: Sidewalk Clock, 30-78 Steinway Street"},"geometry":{"type":"Polygon","coordinates":[[[-73.917008,40.7616619],[-73.9158821,40.7616619],[-73.9158821,40.762521],[-73.917008,40.762521],[-73.917008,40.7616619]]]}},{"type":"Feature","properties":{"id":"lens-detail-nyc-1981-planning_cell-24","layer":"planning_cell","category":"built_environment","year":1981,"visible_year":1981,"title":"1 source-backed planning and built record","confidence":"documented","confidence_mix":"documented:1","event_count":1,"source_count":1,"source_ids":"buis-pvji","event_ids":"nyc_lpc_individual_landmark_420","event_ids_all":"nyc_lpc_individual_landmark_420","source_urls":"https://data.cityofnewyork.us/resource/buis-pvji.json?objectid=420","geometry_precision_mix":"Row-level point from the adapter; source geocoding precision varies and may be approximate.:1","representation":"planning and built evidence grid cell","timing_note":"Filtered by event effective year. OSM mapped-visibility dates and administrative dates can differ from real-world physical change dates.","caveat":"Planning cells are derived from source-backed event locations; they are not parcel boundaries unless source geometry is separately present.","generated_from":"web/data/city-atlas/cities/nyc/events_1981.json","lifecycle_status":"uncertain","status":"source_record","cell_size_m":95,"intensity":0.289,"label":"Individual landmark designated: Empire State Building"},"geometry":{"type":"Polygon","coordinates":[[[-73.9868165,40.7479154],[-73.9856905,40.7479154],[-73.9856905,40.7487746],[-73.9868165,40.7487746],[-73.9868165,40.7479154]]]}},{"type":"Feature","properties":{"id":"lens-detail-nyc-1981-planning_cell-26","layer":"planning_cell","category":"built_environment","year":1981,"visible_year":1981,"title":"1 source-backed planning and built record","confidence":"documented","confidence_mix":"documented:1","event_count":1,"source_count":1,"source_ids":"buis-pvji","event_ids":"nyc_lpc_individual_landmark_480","event_ids_all":"nyc_lpc_individual_landmark_480","source_urls":"https://data.cityofnewyork.us/resource/buis-pvji.json?objectid=480","geometry_precision_mix":"Row-level point from the adapter; source geocoding precision varies and may be approximate.:1","representation":"planning and built evidence grid cell","timing_note":"Filtered by event effective year. OSM mapped-visibility dates and administrative dates can differ from real-world physical change dates.","caveat":"Planning cells are derived from source-backed event locations; they are not parcel boundaries unless source geometry is separately present.","generated_from":"web/data/city-atlas/cities/nyc/events_1981.json","lifecycle_status":"uncertain","status":"source_record","cell_size_m":95,"intensity":0.289,"label":"Individual landmark designated: Metropolitan Baptist Church"},"geometry":{"type":"Polygon","coordinates":[[[-73.9474085,40.8106336],[-73.9462825,40.8106336],[-73.9462825,40.8114928],[-73.9474085,40.8114928],[-73.9474085,40.8106336]]]}},{"type":"Feature","properties":{"id":"lens-detail-nyc-1981-planning_cell-28","layer":"planning_cell","category":"built_environment","year":1981,"visible_year":1981,"title":"1 source-backed planning and built record","confidence":"documented","confidence_mix":"documented:1","event_count":1,"source_count":1,"source_ids":"buis-pvji","event_ids":"nyc_lpc_individual_landmark_503","event_ids_all":"nyc_lpc_individual_landmark_503","source_urls":"https://data.cityofnewyork.us/resource/buis-pvji.json?objectid=503","geometry_precision_mix":"Row-level point from the adapter; source geocoding precision varies and may be approximate.:1","representation":"planning and built evidence grid cell","timing_note":"Filtered by event effective year. OSM mapped-visibility dates and administrative dates can differ from real-world physical change dates.","caveat":"Planning cells are derived from source-backed event locations; they are not parcel boundaries unless source geometry is separately present.","generated_from":"web/data/city-atlas/cities/nyc/events_1981.json","lifecycle_status":"uncertain","status":"source_record","cell_size_m":95,"intensity":0.289,"label":"Individual landmark designated: Saint Vincent Ferrer Priory and School"},"geometry":{"type":"Polygon","coordinates":[[[-73.9654235,40.7659576],[-73.9642976,40.7659576],[-73.9642976,40.7668168],[-73.9654235,40.7668168],[-73.9654235,40.7659576]]]}},{"type":"Feature","properties":{"id":"lens-detail-nyc-1981-planning_cell-29","layer":"planning_cell","category":"built_environment","year":1981,"visible_year":1981,"title":"1 source-backed planning and built record","confidence":"documented","confidence_mix":"documented:1","event_count":1,"source_count":1,"source_ids":"buis-pvji","event_ids":"nyc_lpc_individual_landmark_520","event_ids_all":"nyc_lpc_individual_landmark_520","source_urls":"https://data.cityofnewyork.us/resource/buis-pvji.json?objectid=520","geometry_precision_mix":"Row-level point from the adapter; source geocoding precision varies and may be approximate.:1","representation":"planning and built evidence grid cell","timing_note":"Filtered by event effective year. OSM mapped-visibility dates and administrative dates can differ from real-world physical change dates.","caveat":"Planning cells are derived from source-backed event locations; they are not parcel boundaries unless source geometry is separately present.","generated_from":"web/data/city-atlas/cities/nyc/events_1981.json","lifecycle_status":"uncertain","status":"source_record","cell_size_m":95,"intensity":0.289,"label":"Individual landmark designated: 166 East 73rd Street Carriage House"},"geometry":{"type":"Polygon","coordinates":[[[-73.9620457,40.7702534],[-73.9609198,40.7702534],[-73.9609198,40.7711126],[-73.9620457,40.7711126],[-73.9620457,40.7702534]]]}},{"type":"Feature","properties":{"id":"lens-detail-nyc-1981-planning_cell-3","layer":"planning_cell","category":"built_environment","year":1981,"visible_year":1981,"title":"1 source-backed planning and built record","confidence":"documented","confidence_mix":"documented:1","event_count":1,"source_count":1,"source_ids":"skyk-mpzq","event_ids":"nyc_lpc_historic_district_lp-02017","event_ids_all":"nyc_lpc_historic_district_lp-02017","source_urls":"https://data.cityofnewyork.us/resource/skyk-mpzq.json?lp_number=LP-02017","geometry_precision_mix":"Row-level point from the adapter; source geocoding precision varies and may be approximate.:1","representation":"planning and built evidence grid cell","timing_note":"Filtered by event effective year. OSM mapped-visibility dates and administrative dates can differ from real-world physical change dates.","caveat":"Planning cells are derived from source-backed event locations; they are not parcel boundaries unless source geometry is separately present.","generated_from":"web/data/city-atlas/cities/nyc/events_1981.json","lifecycle_status":"uncertain","status":"source_record","cell_size_m":95,"intensity":0.289,"label":"Historic district designated: Clinton Hill Historic District"},"geometry":{"type":"Polygon","coordinates":[[[-73.9665495,40.6869155],[-73.9654235,40.6869155],[-73.9654235,40.6877747],[-73.9665495,40.6877747],[-73.9665495,40.6869155]]]}},{"type":"Feature","properties":{"id":"lens-detail-nyc-1981-planning_cell-31","layer":"planning_cell","category":"built_environment","year":1981,"visible_year":1981,"title":"1 source-backed planning and built record","confidence":"documented","confidence_mix":"documented:1","event_count":1,"source_count":1,"source_ids":"buis-pvji","event_ids":"nyc_lpc_individual_landmark_532","event_ids_all":"nyc_lpc_individual_landmark_532","source_urls":"https://data.cityofnewyork.us/resource/buis-pvji.json?objectid=532","geometry_precision_mix":"Row-level point from the adapter; source geocoding precision varies and may be approximate.:1","representation":"planning and built evidence grid cell","timing_note":"Filtered by event effective year. OSM mapped-visibility dates and administrative dates can differ from real-world physical change dates.","caveat":"Planning cells are derived from source-backed event locations; they are not parcel boundaries unless source geometry is separately present.","generated_from":"web/data/city-atlas/cities/nyc/events_1981.json","lifecycle_status":"uncertain","status":"source_record","cell_size_m":95,"intensity":0.289,"label":"Individual landmark designated: Saint Paul's Methodist Episcopal Church and Parish House"},"geometry":{"type":"Polygon","coordinates":[[[-73.9778089,40.7882956],[-73.976683,40.7882956],[-73.976683,40.7891548],[-73.9778089,40.7891548],[-73.9778089,40.7882956]]]}},{"type":"Feature","properties":{"id":"lens-detail-nyc-1981-planning_cell-33","layer":"planning_cell","category":"built_environment","year":1981,"visible_year":1981,"title":"1 source-backed planning and built record","confidence":"documented","confidence_mix":"documented:1","event_count":1,"source_count":1,"source_ids":"buis-pvji","event_ids":"nyc_lpc_individual_landmark_555","event_ids_all":"nyc_lpc_individual_landmark_555","source_urls":"https://data.cityofnewyork.us/resource/buis-pvji.json?objectid=555","geometry_precision_mix":"Row-level point from the adapter; source geocoding precision varies and may be approximate.:1","representation":"planning and built evidence grid cell","timing_note":"Filtered by event effective year. OSM mapped-visibility dates and administrative dates can differ from real-world physical change dates.","caveat":"Planning cells are derived from source-backed event locations; they are not parcel boundaries unless source geometry is separately present.","generated_from":"web/data/city-atlas/cities/nyc/events_1981.json","lifecycle_status":"uncertain","status":"source_record","cell_size_m":95,"intensity":0.289,"label":"Individual landmark designated: Daily News Building"},"geometry":{"type":"Polygon","coordinates":[[[-73.9744311,40.7496337],[-73.9733051,40.7496337],[-73.9733051,40.7504929],[-73.9744311,40.7504929],[-73.9744311,40.7496337]]]}},{"type":"Feature","properties":{"id":"lens-detail-nyc-1981-planning_cell-34","layer":"planning_cell","category":"built_environment","year":1981,"visible_year":1981,"title":"1 source-backed planning and built record","confidence":"documented","confidence_mix":"documented:1","event_count":1,"source_count":1,"source_ids":"buis-pvji","event_ids":"nyc_lpc_individual_landmark_630","event_ids_all":"nyc_lpc_individual_landmark_630","source_urls":"https://data.cityofnewyork.us/resource/buis-pvji.json?objectid=630","geometry_precision_mix":"Row-level point from the adapter; source geocoding precision varies and may be approximate.:1","representation":"planning and built evidence grid cell","timing_note":"Filtered by event effective year. OSM mapped-visibility dates and administrative dates can differ from real-world physical change dates.","caveat":"Planning cells are derived from source-backed event locations; they are not parcel boundaries unless source geometry is separately present.","generated_from":"web/data/city-atlas/cities/nyc/events_1981.json","lifecycle_status":"uncertain","status":"source_record","cell_size_m":95,"intensity":0.289,"label":"Individual landmark designated: New York Public Library, Schomburg Collection for Research in Black Culture"},"geometry":{"type":"Polygon","coordinates":[[[-73.9417788,40.8140702],[-73.9406528,40.8140702],[-73.9406528,40.8149294],[-73.9417788,40.8149294],[-73.9417788,40.8140702]]]}},{"type":"Feature","properties":{"id":"lens-detail-nyc-1981-planning_cell-35","layer":"planning_cell","category":"built_environment","year":1981,"visible_year":1981,"title":"1 source-backed planning and built record","confidence":"documented","confidence_mix":"documented:1","event_count":1,"source_count":1,"source_ids":"buis-pvji","event_ids":"nyc_lpc_individual_landmark_653","event_ids_all":"nyc_lpc_individual_landmark_653","source_urls":"https://data.cityofnewyork.us/resource/buis-pvji.json?objectid=653","geometry_precision_mix":"Row-level point from the adapter; source geocoding precision varies and may be approximate.:1","representation":"planning and built evidence grid cell","timing_note":"Filtered by event effective year. OSM mapped-visibility dates and administrative dates can differ from real-world physical change dates.","caveat":"Planning cells are derived from source-backed event locations; they are not parcel boundaries unless source geometry is separately present.","generated_from":"web/data/city-atlas/cities/nyc/events_1981.json","lifecycle_status":"uncertain","status":"source_record","cell_size_m":95,"intensity":0.289,"label":"Individual landmark designated: 8 West 130th Street House"},"geometry":{"type":"Polygon","coordinates":[[[-73.9406528,40.8089153],[-73.9395269,40.8089153],[-73.9395269,40.8097744],[-73.9406528,40.8097744],[-73.9406528,40.8089153]]]}},{"type":"Feature","properties":{"id":"lens-detail-nyc-1981-planning_cell-37","layer":"planning_cell","category":"built_environment","year":1981,"visible_year":1981,"title":"1 source-backed planning and built record","confidence":"documented","confidence_mix":"documented:1","event_count":1,"source_count":1,"source_ids":"buis-pvji","event_ids":"nyc_lpc_individual_landmark_77","event_ids_all":"nyc_lpc_individual_landmark_77","source_urls":"https://data.cityofnewyork.us/resource/buis-pvji.json?objectid=77","geometry_precision_mix":"Row-level point from the adapter; source geocoding precision varies and may be approximate.:1","representation":"planning and built evidence grid cell","timing_note":"Filtered by event effective year. OSM mapped-visibility dates and administrative dates can differ from real-world physical change dates.","caveat":"Planning cells are derived from source-backed event locations; they are not parcel boundaries unless source geometry is separately present.","generated_from":"web/data/city-atlas/cities/nyc/events_1981.json","lifecycle_status":"uncertain","status":"source_record","cell_size_m":95,"intensity":0.289,"label":"Individual landmark designated: Remsen Cemetery"},"geometry":{"type":"Polygon","coordinates":[[[-73.858459,40.711831],[-73.8573331,40.711831],[-73.8573331,40.7126901],[-73.858459,40.7126901],[-73.858459,40.711831]]]}},{"type":"Feature","properties":{"id":"lens-detail-nyc-1981-planning_cell-38","layer":"planning_cell","category":"built_environment","year":1981,"visible_year":1981,"title":"1 source-backed planning and built record","confidence":"documented","confidence_mix":"documented:1","event_count":1,"source_count":1,"source_ids":"buis-pvji","event_ids":"nyc_lpc_individual_landmark_781","event_ids_all":"nyc_lpc_individual_landmark_781","source_urls":"https://data.cityofnewyork.us/resource/buis-pvji.json?objectid=781","geometry_precision_mix":"Row-level point from the adapter; source geocoding precision varies and may be approximate.:1","representation":"planning and built evidence grid cell","timing_note":"Filtered by event effective year. OSM mapped-visibility dates and administrative dates can differ from real-world physical change dates.","caveat":"Planning cells are derived from source-backed event locations; they are not parcel boundaries unless source geometry is separately present.","generated_from":"web/data/city-atlas/cities/nyc/events_1981.json","lifecycle_status":"uncertain","status":"source_record","cell_size_m":95,"intensity":0.289,"label":"Individual landmark designated: Langston Hughes House"},"geometry":{"type":"Polygon","coordinates":[[[-73.9406528,40.8063378],[-73.9395269,40.8063378],[-73.9395269,40.807197],[-73.9406528,40.807197],[-73.9406528,40.8063378]]]}},{"type":"Feature","properties":{"id":"lens-detail-nyc-1981-planning_cell-39","layer":"planning_cell","category":"built_environment","year":1981,"visible_year":1981,"title":"1 source-backed planning and built record","confidence":"documented","confidence_mix":"documented:1","event_count":1,"source_count":1,"source_ids":"buis-pvji","event_ids":"nyc_lpc_individual_landmark_844","event_ids_all":"nyc_lpc_individual_landmark_844","source_urls":"https://data.cityofnewyork.us/resource/buis-pvji.json?objectid=844","geometry_precision_mix":"Row-level point from the adapter; source geocoding precision varies and may be approximate.:1","representation":"planning and built evidence grid cell","timing_note":"Filtered by event effective year. OSM mapped-visibility dates and administrative dates can differ from real-world physical change dates.","caveat":"Planning cells are derived from source-backed event locations; they are not parcel boundaries unless source geometry is separately present.","generated_from":"web/data/city-atlas/cities/nyc/events_1981.json","lifecycle_status":"uncertain","status":"source_record","cell_size_m":95,"intensity":0.289,"label":"Individual landmark designated: First Free Congregational Church"},"geometry":{"type":"Polygon","coordinates":[[[-73.9856905,40.6937888],[-73.9845646,40.6937888],[-73.9845646,40.6946479],[-73.9856905,40.6946479],[-73.9856905,40.6937888]]]}},{"type":"Feature","properties":{"id":"lens-detail-nyc-1981-planning_cell-4","layer":"planning_cell","category":"built_environment","year":1981,"visible_year":1981,"title":"1 source-backed planning and built record","confidence":"documented","confidence_mix":"documented:1","event_count":1,"source_count":1,"source_ids":"buis-pvji","event_ids":"nyc_lpc_individual_landmark_1063","event_ids_all":"nyc_lpc_individual_landmark_1063","source_urls":"https://data.cityofnewyork.us/resource/buis-pvji.json?objectid=1063","geometry_precision_mix":"Row-level point from the adapter; source geocoding precision varies and may be approximate.:1","representation":"planning and built evidence grid cell","timing_note":"Filtered by event effective year. OSM mapped-visibility dates and administrative dates can differ from real-world physical change dates.","caveat":"Planning cells are derived from source-backed event locations; they are not parcel boundaries unless source geometry is separately present.","generated_from":"web/data/city-atlas/cities/nyc/events_1981.json","lifecycle_status":"uncertain","status":"source_record","cell_size_m":95,"intensity":0.289,"label":"Individual landmark designated: Saint Mary's Episcopal Church"},"geometry":{"type":"Polygon","coordinates":[[[-73.9620457,40.6920705],[-73.9609198,40.6920705],[-73.9609198,40.6929296],[-73.9620457,40.6929296],[-73.9620457,40.6920705]]]}},{"type":"Feature","properties":{"id":"lens-detail-nyc-1981-planning_cell-40","layer":"planning_cell","category":"built_environment","year":1981,"visible_year":1981,"title":"1 source-backed planning and built record","confidence":"documented","confidence_mix":"documented:1","event_count":1,"source_count":1,"source_ids":"buis-pvji","event_ids":"nyc_lpc_individual_landmark_870","event_ids_all":"nyc_lpc_individual_landmark_870","source_urls":"https://data.cityofnewyork.us/resource/buis-pvji.json?objectid=870","geometry_precision_mix":"Row-level point from the adapter; source geocoding precision varies and may be approximate.:1","representation":"planning and built evidence grid cell","timing_note":"Filtered by event effective year. OSM mapped-visibility dates and administrative dates can differ from real-world physical change dates.","caveat":"Planning cells are derived from source-backed event locations; they are not parcel boundaries unless source geometry is separately present.","generated_from":"web/data/city-atlas/cities/nyc/events_1981.json","lifecycle_status":"uncertain","status":"source_record","cell_size_m":95,"intensity":0.289,"label":"Individual landmark designated: Lincoln Club"},"geometry":{"type":"Polygon","coordinates":[[[-73.9597938,40.6826198],[-73.9586679,40.6826198],[-73.9586679,40.6834789],[-73.9597938,40.6834789],[-73.9597938,40.6826198]]]}},{"type":"Feature","properties":{"id":"lens-detail-nyc-1981-planning_cell-41","layer":"planning_cell","category":"built_environment","year":1981,"visible_year":1981,"title":"1 source-backed planning and built record","confidence":"documented","confidence_mix":"documented:1","event_count":1,"source_count":1,"source_ids":"buis-pvji","event_ids":"nyc_lpc_individual_landmark_872","event_ids_all":"nyc_lpc_individual_landmark_872","source_urls":"https://data.cityofnewyork.us/resource/buis-pvji.json?objectid=872","geometry_precision_mix":"Row-level point from the adapter; source geocoding precision varies and may be approximate.:1","representation":"planning and built evidence grid cell","timing_note":"Filtered by event effective year. OSM mapped-visibility dates and administrative dates can differ from real-world physical change dates.","caveat":"Planning cells are derived from source-backed event locations; they are not parcel boundaries unless source geometry is separately present.","generated_from":"web/data/city-atlas/cities/nyc/events_1981.json","lifecycle_status":"uncertain","status":"source_record","cell_size_m":95,"intensity":0.289,"label":"Individual landmark designated: Pratt Row Houses"},"geometry":{"type":"Polygon","coordinates":[[[-73.9631717,40.6920705],[-73.9620457,40.6920705],[-73.9620457,40.6929296],[-73.9631717,40.6929296],[-73.9631717,40.6920705]]]}},{"type":"Feature","properties":{"id":"lens-detail-nyc-1981-planning_cell-42","layer":"planning_cell","category":"built_environment","year":1981,"visible_year":1981,"title":"1 source-backed planning and built record","confidence":"documented","confidence_mix":"documented:1","event_count":1,"source_count":1,"source_ids":"buis-pvji","event_ids":"nyc_lpc_individual_landmark_884","event_ids_all":"nyc_lpc_individual_landmark_884","source_urls":"https://data.cityofnewyork.us/resource/buis-pvji.json?objectid=884","geometry_precision_mix":"Row-level point from the adapter; source geocoding precision varies and may be approximate.:1","representation":"planning and built evidence grid cell","timing_note":"Filtered by event effective year. OSM mapped-visibility dates and administrative dates can differ from real-world physical change dates.","caveat":"Planning cells are derived from source-backed event locations; they are not parcel boundaries unless source geometry is separately present.","generated_from":"web/data/city-atlas/cities/nyc/events_1981.json","lifecycle_status":"uncertain","status":"source_record","cell_size_m":95,"intensity":0.289,"label":"Individual landmark designated: Saint Luke's Episcopal Church"},"geometry":{"type":"Polygon","coordinates":[[[-73.9676754,40.6817606],[-73.9665495,40.6817606],[-73.9665495,40.6826198],[-73.9676754,40.6826198],[-73.9676754,40.6817606]]]}},{"type":"Feature","properties":{"id":"lens-detail-nyc-1981-planning_cell-43","layer":"planning_cell","category":"built_environment","year":1981,"visible_year":1981,"title":"1 source-backed planning and built record","confidence":"documented","confidence_mix":"documented:1","event_count":1,"source_count":1,"source_ids":"buis-pvji","event_ids":"nyc_lpc_individual_landmark_886","event_ids_all":"nyc_lpc_individual_landmark_886","source_urls":"https://data.cityofnewyork.us/resource/buis-pvji.json?objectid=886","geometry_precision_mix":"Row-level point from the adapter; source geocoding precision varies and may be approximate.:1","representation":"planning and built evidence grid cell","timing_note":"Filtered by event effective year. OSM mapped-visibility dates and administrative dates can differ from real-world physical change dates.","caveat":"Planning cells are derived from source-backed event locations; they are not parcel boundaries unless source geometry is separately present.","generated_from":"web/data/city-atlas/cities/nyc/events_1981.json","lifecycle_status":"uncertain","status":"source_record","cell_size_m":95,"intensity":0.289,"label":"Individual landmark designated: Royal Castle Apartments"},"geometry":{"type":"Polygon","coordinates":[[[-73.9676754,40.6834789],[-73.9665495,40.6834789],[-73.9665495,40.6843381],[-73.9676754,40.6843381],[-73.9676754,40.6834789]]]}},{"type":"Feature","properties":{"id":"lens-detail-nyc-1981-planning_cell-44","layer":"planning_cell","category":"built_environment","year":1981,"visible_year":1981,"title":"1 source-backed planning and built record","confidence":"documented","confidence_mix":"documented:1","event_count":1,"source_count":1,"source_ids":"buis-pvji","event_ids":"nyc_lpc_individual_landmark_898","event_ids_all":"nyc_lpc_individual_landmark_898","source_urls":"https://data.cityofnewyork.us/resource/buis-pvji.json?objectid=898","geometry_precision_mix":"Row-level point from the adapter; source geocoding precision varies and may be approximate.:1","representation":"planning and built evidence grid cell","timing_note":"Filtered by event effective year. OSM mapped-visibility dates and administrative dates can differ from real-world physical change dates.","caveat":"Planning cells are derived from source-backed event locations; they are not parcel boundaries unless source geometry is separately present.","generated_from":"web/data/city-atlas/cities/nyc/events_1981.json","lifecycle_status":"uncertain","status":"source_record","cell_size_m":95,"intensity":0.289,"label":"Individual landmark designated: Public School 71K"},"geometry":{"type":"Polygon","coordinates":[[[-73.957542,40.7015212],[-73.956416,40.7015212],[-73.956416,40.7023803],[-73.957542,40.7023803],[-73.957542,40.7015212]]]}},{"type":"Feature","properties":{"id":"lens-detail-nyc-1981-planning_cell-45","layer":"planning_cell","category":"built_environment","year":1981,"visible_year":1981,"title":"1 source-backed planning and built record","confidence":"documented","confidence_mix":"documented:1","event_count":1,"source_count":1,"source_ids":"buis-pvji","event_ids":"nyc_lpc_individual_landmark_900","event_ids_all":"nyc_lpc_individual_landmark_900","source_urls":"https://data.cityofnewyork.us/resource/buis-pvji.json?objectid=900","geometry_precision_mix":"Row-level point from the adapter; source geocoding precision varies and may be approximate.:1","representation":"planning and built evidence grid cell","timing_note":"Filtered by event effective year. OSM mapped-visibility dates and administrative dates can differ from real-world physical change dates.","caveat":"Planning cells are derived from source-backed event locations; they are not parcel boundaries unless source geometry is separately present.","generated_from":"web/data/city-atlas/cities/nyc/events_1981.json","lifecycle_status":"uncertain","status":"source_record","cell_size_m":95,"intensity":0.289,"label":"Individual landmark designated: Public School 65K"},"geometry":{"type":"Polygon","coordinates":[[[-73.8776,40.6826198],[-73.8764741,40.6826198],[-73.8764741,40.6834789],[-73.8776,40.6834789],[-73.8776,40.6826198]]]}},{"type":"Feature","properties":{"id":"lens-detail-nyc-1981-planning_cell-46","layer":"planning_cell","category":"built_environment","year":1981,"visible_year":1981,"title":"1 source-backed planning and built record","confidence":"documented","confidence_mix":"documented:1","event_count":1,"source_count":1,"source_ids":"buis-pvji","event_ids":"nyc_lpc_individual_landmark_903","event_ids_all":"nyc_lpc_individual_landmark_903","source_urls":"https://data.cityofnewyork.us/resource/buis-pvji.json?objectid=903","geometry_precision_mix":"Row-level point from the adapter; source geocoding precision varies and may be approximate.:1","representation":"planning and built evidence grid cell","timing_note":"Filtered by event effective year. OSM mapped-visibility dates and administrative dates can differ from real-world physical change dates.","caveat":"Planning cells are derived from source-backed event locations; they are not parcel boundaries unless source geometry is separately present.","generated_from":"web/data/city-atlas/cities/nyc/events_1981.json","lifecycle_status":"uncertain","status":"source_record","cell_size_m":95,"intensity":0.289,"label":"Individual landmark designated: Public School 108"},"geometry":{"type":"Polygon","coordinates":[[[-73.8854816,40.6809015],[-73.8843557,40.6809015],[-73.8843557,40.6817606],[-73.8854816,40.6817606],[-73.8854816,40.6809015]]]}},{"type":"Feature","properties":{"id":"lens-detail-nyc-1981-planning_cell-47","layer":"planning_cell","category":"built_environment","year":1981,"visible_year":1981,"title":"1 source-backed planning and built record","confidence":"documented","confidence_mix":"documented:1","event_count":1,"source_count":1,"source_ids":"buis-pvji","event_ids":"nyc_lpc_individual_landmark_926","event_ids_all":"nyc_lpc_individual_landmark_926","source_urls":"https://data.cityofnewyork.us/resource/buis-pvji.json?objectid=926","geometry_precision_mix":"Row-level point from the adapter; source geocoding precision varies and may be approximate.:1","representation":"planning and built evidence grid cell","timing_note":"Filtered by event effective year. OSM mapped-visibility dates and administrative dates can differ from real-world physical change dates.","caveat":"Planning cells are derived from source-backed event locations; they are not parcel boundaries unless source geometry is separately present.","generated_from":"web/data/city-atlas/cities/nyc/events_1981.json","lifecycle_status":"uncertain","status":"source_record","cell_size_m":95,"intensity":0.289,"label":"Individual landmark designated: New England Congregational Church"},"geometry":{"type":"Polygon","coordinates":[[[-73.9620457,40.7083944],[-73.9609198,40.7083944],[-73.9609198,40.7092535],[-73.9620457,40.7092535],[-73.9620457,40.7083944]]]}},{"type":"Feature","properties":{"id":"lens-detail-nyc-1981-planning_cell-48","layer":"planning_cell","category":"built_environment","year":1981,"visible_year":1981,"title":"1 source-backed planning and built record","confidence":"documented","confidence_mix":"documented:1","event_count":1,"source_count":1,"source_ids":"buis-pvji","event_ids":"nyc_lpc_individual_landmark_933","event_ids_all":"nyc_lpc_individual_landmark_933","source_urls":"https://data.cityofnewyork.us/resource/buis-pvji.json?objectid=933","geometry_precision_mix":"Row-level point from the adapter; source geocoding precision varies and may be approximate.:1","representation":"planning and built evidence grid cell","timing_note":"Filtered by event effective year. OSM mapped-visibility dates and administrative dates can differ from real-world physical change dates.","caveat":"Planning cells are derived from source-backed event locations; they are not parcel boundaries unless source geometry is separately present.","generated_from":"web/data/city-atlas/cities/nyc/events_1981.json","lifecycle_status":"uncertain","status":"source_record","cell_size_m":95,"intensity":0.289,"label":"Individual landmark designated: Peter S. Hoe House, Sunnyslope"},"geometry":{"type":"Polygon","coordinates":[[[-73.8877335,40.8166477],[-73.8866076,40.8166477],[-73.8866076,40.8175068],[-73.8877335,40.8175068],[-73.8877335,40.8166477]]]}},{"type":"Feature","properties":{"id":"lens-detail-nyc-1981-planning_cell-49","layer":"planning_cell","category":"built_environment","year":1981,"visible_year":1981,"title":"1 source-backed planning and built record","confidence":"documented","confidence_mix":"documented:1","event_count":1,"source_count":1,"source_ids":"buis-pvji","event_ids":"nyc_lpc_individual_landmark_941","event_ids_all":"nyc_lpc_individual_landmark_941","source_urls":"https://data.cityofnewyork.us/resource/buis-pvji.json?objectid=941","geometry_precision_mix":"Row-level point from the adapter; source geocoding precision varies and may be approximate.:1","representation":"planning and built evidence grid cell","timing_note":"Filtered by event effective year. OSM mapped-visibility dates and administrative dates can differ from real-world physical change dates.","caveat":"Planning cells are derived from source-backed event locations; they are not parcel boundaries unless source geometry is separately present.","generated_from":"web/data/city-atlas/cities/nyc/events_1981.json","lifecycle_status":"uncertain","status":"source_record","cell_size_m":95,"intensity":0.289,"label":"Individual landmark designated: Bronx Borough Courthouse"},"geometry":{"type":"Polygon","coordinates":[[[-73.9102524,40.8226617],[-73.9091264,40.8226617],[-73.9091264,40.8235209],[-73.9102524,40.8235209],[-73.9102524,40.8226617]]]}},{"type":"Feature","properties":{"id":"lens-detail-nyc-1981-planning_cell-5","layer":"planning_cell","category":"built_environment","year":1981,"visible_year":1981,"title":"1 source-backed planning and built record","confidence":"documented","confidence_mix":"documented:1","event_count":1,"source_count":1,"source_ids":"buis-pvji","event_ids":"nyc_lpc_individual_landmark_108","event_ids_all":"nyc_lpc_individual_landmark_108","source_urls":"https://data.cityofnewyork.us/resource/buis-pvji.json?objectid=108","geometry_precision_mix":"Row-level point from the adapter; source geocoding precision varies and may be approximate.:1","representation":"planning and built evidence grid cell","timing_note":"Filtered by event effective year. OSM mapped-visibility dates and administrative dates can differ from real-world physical change dates.","caveat":"Planning cells are derived from source-backed event locations; they are not parcel boundaries unless source geometry is separately present.","generated_from":"web/data/city-atlas/cities/nyc/events_1981.json","lifecycle_status":"uncertain","status":"source_record","cell_size_m":95,"intensity":0.289,"label":"Individual landmark designated: J. Kurtz & Sons Store"},"geometry":{"type":"Polygon","coordinates":[[[-73.7976581,40.7040986],[-73.7965322,40.7040986],[-73.7965322,40.7049578],[-73.7976581,40.7049578],[-73.7976581,40.7040986]]]}},{"type":"Feature","properties":{"id":"lens-detail-nyc-1981-planning_cell-50","layer":"planning_cell","category":"built_environment","year":1981,"visible_year":1981,"title":"1 source-backed planning and built record","confidence":"documented","confidence_mix":"documented:1","event_count":1,"source_count":1,"source_ids":"buis-pvji","event_ids":"nyc_lpc_individual_landmark_944","event_ids_all":"nyc_lpc_individual_landmark_944","source_urls":"https://data.cityofnewyork.us/resource/buis-pvji.json?objectid=944","geometry_precision_mix":"Row-level point from the adapter; source geocoding precision varies and may be approximate.:1","representation":"planning and built evidence grid cell","timing_note":"Filtered by event effective year. OSM mapped-visibility dates and administrative dates can differ from real-world physical change dates.","caveat":"Planning cells are derived from source-backed event locations; they are not parcel boundaries unless source geometry is separately present.","generated_from":"web/data/city-atlas/cities/nyc/events_1981.json","lifecycle_status":"uncertain","status":"source_record","cell_size_m":95,"intensity":0.289,"label":"Individual landmark designated: Park Plaza Apartments"},"geometry":{"type":"Polygon","coordinates":[[[-73.9271415,40.8312533],[-73.9260156,40.8312533],[-73.9260156,40.8321124],[-73.9271415,40.8321124],[-73.9271415,40.8312533]]]}},{"type":"Feature","properties":{"id":"lens-detail-nyc-1981-planning_cell-51","layer":"planning_cell","category":"built_environment","year":1981,"visible_year":1981,"title":"1 source-backed planning and built record","confidence":"documented","confidence_mix":"documented:1","event_count":1,"source_count":1,"source_ids":"buis-pvji","event_ids":"nyc_lpc_individual_landmark_950","event_ids_all":"nyc_lpc_individual_landmark_950","source_urls":"https://data.cityofnewyork.us/resource/buis-pvji.json?objectid=950","geometry_precision_mix":"Row-level point from the adapter; source geocoding precision varies and may be approximate.:1","representation":"planning and built evidence grid cell","timing_note":"Filtered by event effective year. OSM mapped-visibility dates and administrative dates can differ from real-world physical change dates.","caveat":"Planning cells are derived from source-backed event locations; they are not parcel boundaries unless source geometry is separately present.","generated_from":"web/data/city-atlas/cities/nyc/events_1981.json","lifecycle_status":"uncertain","status":"source_record","cell_size_m":95,"intensity":0.289,"label":"Individual landmark designated: Public School 91"},"geometry":{"type":"Polygon","coordinates":[[[-73.9260156,40.8398448],[-73.9248896,40.8398448],[-73.9248896,40.840704],[-73.9260156,40.840704],[-73.9260156,40.8398448]]]}},{"type":"Feature","properties":{"id":"lens-detail-nyc-1981-planning_cell-52","layer":"planning_cell","category":"built_environment","year":1981,"visible_year":1981,"title":"1 source-backed planning and built record","confidence":"documented","confidence_mix":"documented:1","event_count":1,"source_count":1,"source_ids":"buis-pvji","event_ids":"nyc_lpc_individual_landmark_972","event_ids_all":"nyc_lpc_individual_landmark_972","source_urls":"https://data.cityofnewyork.us/resource/buis-pvji.json?objectid=972","geometry_precision_mix":"Row-level point from the adapter; source geocoding precision varies and may be approximate.:1","representation":"planning and built evidence grid cell","timing_note":"Filtered by event effective year. OSM mapped-visibility dates and administrative dates can differ from real-world physical change dates.","caveat":"Planning cells are derived from source-backed event locations; they are not parcel boundaries unless source geometry is separately present.","generated_from":"web/data/city-atlas/cities/nyc/events_1981.json","lifecycle_status":"uncertain","status":"source_record","cell_size_m":95,"intensity":0.289,"label":"Individual landmark designated: Spaulding Estate Coachman's House"},"geometry":{"type":"Polygon","coordinates":[[[-73.9113783,40.8982672],[-73.9102524,40.8982672],[-73.9102524,40.8991264],[-73.9113783,40.8991264],[-73.9113783,40.8982672]]]}},{"type":"Feature","properties":{"id":"lens-detail-nyc-1981-planning_cell-53","layer":"planning_cell","category":"built_environment","year":1981,"visible_year":1981,"title":"1 source-backed planning and built record","confidence":"documented","confidence_mix":"documented:1","event_count":1,"source_count":1,"source_ids":"buis-pvji","event_ids":"nyc_lpc_individual_landmark_973","event_ids_all":"nyc_lpc_individual_landmark_973","source_urls":"https://data.cityofnewyork.us/resource/buis-pvji.json?objectid=973","geometry_precision_mix":"Row-level point from the adapter; source geocoding precision varies and may be approximate.:1","representation":"planning and built evidence grid cell","timing_note":"Filtered by event effective year. OSM mapped-visibility dates and administrative dates can differ from real-world physical change dates.","caveat":"Planning cells are derived from source-backed event locations; they are not parcel boundaries unless source geometry is separately present.","generated_from":"web/data/city-atlas/cities/nyc/events_1981.json","lifecycle_status":"uncertain","status":"source_record","cell_size_m":95,"intensity":0.289,"label":"Individual landmark designated: 175 Belden Street House"},"geometry":{"type":"Polygon","coordinates":[[[-73.7818949,40.8381265],[-73.780769,40.8381265],[-73.780769,40.8389857],[-73.7818949,40.8389857],[-73.7818949,40.8381265]]]}},{"type":"Feature","properties":{"id":"lens-detail-nyc-1981-planning_cell-54","layer":"planning_cell","category":"built_environment","year":1981,"visible_year":1981,"title":"1 source-backed planning and built record","confidence":"documented","confidence_mix":"documented:1","event_count":1,"source_count":1,"source_ids":"buis-pvji","event_ids":"nyc_lpc_individual_landmark_978","event_ids_all":"nyc_lpc_individual_landmark_978","source_urls":"https://data.cityofnewyork.us/resource/buis-pvji.json?objectid=978","geometry_precision_mix":"Row-level point from the adapter; source geocoding precision varies and may be approximate.:1","representation":"planning and built evidence grid cell","timing_note":"Filtered by event effective year. OSM mapped-visibility dates and administrative dates can differ from real-world physical change dates.","caveat":"Planning cells are derived from source-backed event locations; they are not parcel boundaries unless source geometry is separately present.","generated_from":"web/data/city-atlas/cities/nyc/events_1981.json","lifecycle_status":"uncertain","status":"source_record","cell_size_m":95,"intensity":0.289,"label":"Individual landmark designated: High Pumping Station"},"geometry":{"type":"Polygon","coordinates":[[[-73.8866076,40.8785067],[-73.8854816,40.8785067],[-73.8854816,40.8793659],[-73.8866076,40.8793659],[-73.8866076,40.8785067]]]}},{"type":"Feature","properties":{"id":"lens-detail-nyc-1981-planning_cell-6","layer":"planning_cell","category":"built_environment","year":1981,"visible_year":1981,"title":"1 source-backed planning and built record","confidence":"documented","confidence_mix":"documented:1","event_count":1,"source_count":1,"source_ids":"buis-pvji","event_ids":"nyc_lpc_individual_landmark_1089","event_ids_all":"nyc_lpc_individual_landmark_1089","source_urls":"https://data.cityofnewyork.us/resource/buis-pvji.json?objectid=1089","geometry_precision_mix":"Row-level point from the adapter; source geocoding precision varies and may be approximate.:1","representation":"planning and built evidence grid cell","timing_note":"Filtered by event effective year. OSM mapped-visibility dates and administrative dates can differ from real-world physical change dates.","caveat":"Planning cells are derived from source-backed event locations; they are not parcel boundaries unless source geometry is separately present.","generated_from":"web/data/city-atlas/cities/nyc/events_1981.json","lifecycle_status":"uncertain","status":"source_record","cell_size_m":95,"intensity":0.289,"label":"Individual landmark designated: Alumni House"},"geometry":{"type":"Polygon","coordinates":[[[-73.8877335,40.8630419],[-73.8866076,40.8630419],[-73.8866076,40.8639011],[-73.8877335,40.8639011],[-73.8877335,40.8630419]]]}},{"type":"Feature","properties":{"id":"lens-detail-nyc-1981-planning_cell-7","layer":"planning_cell","category":"built_environment","year":1981,"visible_year":1981,"title":"1 source-backed planning and built record","confidence":"documented","confidence_mix":"documented:1","event_count":1,"source_count":1,"source_ids":"buis-pvji","event_ids":"nyc_lpc_individual_landmark_1130","event_ids_all":"nyc_lpc_individual_landmark_1130","source_urls":"https://data.cityofnewyork.us/resource/buis-pvji.json?objectid=1130","geometry_precision_mix":"Row-level point from the adapter; source geocoding precision varies and may be approximate.:1","representation":"planning and built evidence grid cell","timing_note":"Filtered by event effective year. OSM mapped-visibility dates and administrative dates can differ from real-world physical change dates.","caveat":"Planning cells are derived from source-backed event locations; they are not parcel boundaries unless source geometry is separately present.","generated_from":"web/data/city-atlas/cities/nyc/events_1981.json","lifecycle_status":"uncertain","status":"source_record","cell_size_m":95,"intensity":0.289,"label":"Individual landmark designated: City College"},"geometry":{"type":"Polygon","coordinates":[[[-73.9496604,40.8209434],[-73.9485344,40.8209434],[-73.9485344,40.8218026],[-73.9496604,40.8218026],[-73.9496604,40.8209434]]]}},{"type":"Feature","properties":{"id":"lens-detail-nyc-1981-planning_cell-8","layer":"planning_cell","category":"built_environment","year":1981,"visible_year":1981,"title":"1 source-backed planning and built record","confidence":"documented","confidence_mix":"documented:1","event_count":1,"source_count":1,"source_ids":"buis-pvji","event_ids":"nyc_lpc_individual_landmark_1148","event_ids_all":"nyc_lpc_individual_landmark_1148","source_urls":"https://data.cityofnewyork.us/resource/buis-pvji.json?objectid=1148","geometry_precision_mix":"Row-level point from the adapter; source geocoding precision varies and may be approximate.:1","representation":"planning and built evidence grid cell","timing_note":"Filtered by event effective year. OSM mapped-visibility dates and administrative dates can differ from real-world physical change dates.","caveat":"Planning cells are derived from source-backed event locations; they are not parcel boundaries unless source geometry is separately present.","generated_from":"web/data/city-atlas/cities/nyc/events_1981.json","lifecycle_status":"uncertain","status":"source_record","cell_size_m":95,"intensity":0.289,"label":"Individual landmark designated: College of Mount St. Vincent, Cottage and Stable"},"geometry":{"type":"Polygon","coordinates":[[[-73.9057486,40.9120137],[-73.9046226,40.9120137],[-73.9046226,40.9128728],[-73.9057486,40.9128728],[-73.9057486,40.9120137]]]}},{"type":"Feature","properties":{"id":"lens-detail-nyc-1981-planning_cell-9","layer":"planning_cell","category":"built_environment","year":1981,"visible_year":1981,"title":"1 source-backed planning and built record","confidence":"documented","confidence_mix":"documented:1","event_count":1,"source_count":1,"source_ids":"buis-pvji","event_ids":"nyc_lpc_individual_landmark_1236","event_ids_all":"nyc_lpc_individual_landmark_1236","source_urls":"https://data.cityofnewyork.us/resource/buis-pvji.json?objectid=1236","geometry_precision_mix":"Row-level point from the adapter; source geocoding precision varies and may be approximate.:1","representation":"planning and built evidence grid cell","timing_note":"Filtered by event effective year. OSM mapped-visibility dates and administrative dates can differ from real-world physical change dates.","caveat":"Planning cells are derived from source-backed event locations; they are not parcel boundaries unless source geometry is separately present.","generated_from":"web/data/city-atlas/cities/nyc/events_1981.json","lifecycle_status":"uncertain","status":"source_record","cell_size_m":95,"intensity":0.289,"label":"Individual landmark designated: Croton Aqueduct, 135th Street Gatehouse"},"geometry":{"type":"Polygon","coordinates":[[[-73.9519122,40.818366],[-73.9507863,40.818366],[-73.9507863,40.8192251],[-73.9519122,40.8192251],[-73.9519122,40.818366]]]}}]}
