{"type":"FeatureCollection","name":"nyc_lens_detail_1989","metadata":{"schema_version":"1.0.0","city_id":"nyc","year":1989,"generated_at":"2026-06-03T20:35:14.668Z","source_paths":["web/data/city-atlas/cities/nyc/events_1989.json","web/data/city-atlas/cities/nyc/events.json","web/data/city-atlas/cities/nyc/transport_roads_base.geojson"],"method":"Derived OpenCityLog lens geometry built from source-backed event points plus existing OSM road/detail geometry. Grid cells aggregate events by effective year. Trace lines reuse nearest mapped road geometry for context.","caveats":["Derived cells are evidence grids, not surveyed parcels, catchments, zones, or administrative boundaries.","Trace lines are nearest mapped street or work-location context, not surveyed utility networks, measured traffic speed, spend, vacancy, or service quality. No capacity data is inferred.","When a lens/year has no same-category source-backed records, no coverage geometry is generated; sparse data remains sparse.","Borough, citywide, statistical, corridor, and multi-site records are excluded from site-like lens geometry; they remain available in the event list and evidence records.","OSM mapped-visibility dates and administrative decision dates can differ from real-world physical change dates."],"feature_layers":{"planning_cell":24},"excluded_non_site_record_count":0,"excluded_non_site_reasons":{}},"features":[{"type":"Feature","properties":{"id":"lens-detail-nyc-1989-planning_cell-16","layer":"planning_cell","category":"built_environment","year":1989,"visible_year":1989,"title":"2 source-backed planning and built records","confidence":"documented","confidence_mix":"documented:2","event_count":2,"source_count":1,"source_ids":"buis-pvji","event_ids":"nyc_lpc_individual_landmark_495,nyc_lpc_individual_landmark_526","event_ids_all":"nyc_lpc_individual_landmark_495,nyc_lpc_individual_landmark_526","source_urls":"https://data.cityofnewyork.us/resource/buis-pvji.json?objectid=495,https://data.cityofnewyork.us/resource/buis-pvji.json?objectid=526","geometry_precision_mix":"Row-level point from the adapter; source geocoding precision varies and may be approximate.:2","representation":"planning and built evidence grid cell","timing_note":"Filtered by event effective year. OSM mapped-visibility dates and administrative dates can differ from real-world physical change dates.","caveat":"Planning cells are derived from source-backed event locations; they are not parcel boundaries unless source geometry is separately present.","generated_from":"web/data/city-atlas/cities/nyc/events_1989.json","lifecycle_status":"uncertain","status":"source_record","cell_size_m":95,"intensity":0.458,"label":"Individual landmark designated: Midtown Theater"},"geometry":{"type":"Polygon","coordinates":[[[-73.9701429,40.796028],[-73.9690162,40.796028],[-73.9690162,40.7968872],[-73.9701429,40.7968872],[-73.9701429,40.796028]]]}},{"type":"Feature","properties":{"id":"lens-detail-nyc-1989-planning_cell-17","layer":"planning_cell","category":"built_environment","year":1989,"visible_year":1989,"title":"2 source-backed planning and built records","confidence":"documented","confidence_mix":"documented:2","event_count":2,"source_count":1,"source_ids":"buis-pvji","event_ids":"nyc_lpc_individual_landmark_677,nyc_lpc_individual_landmark_779","event_ids_all":"nyc_lpc_individual_landmark_677,nyc_lpc_individual_landmark_779","source_urls":"https://data.cityofnewyork.us/resource/buis-pvji.json?objectid=677,https://data.cityofnewyork.us/resource/buis-pvji.json?objectid=779","geometry_precision_mix":"Row-level point from the adapter; source geocoding precision varies and may be approximate.:2","representation":"planning and built evidence grid cell","timing_note":"Filtered by event effective year. OSM mapped-visibility dates and administrative dates can differ from real-world physical change dates.","caveat":"Planning cells are derived from source-backed event locations; they are not parcel boundaries unless source geometry is separately present.","generated_from":"web/data/city-atlas/cities/nyc/events_1989.json","lifecycle_status":"uncertain","status":"source_record","cell_size_m":95,"intensity":0.458,"label":"Individual landmark designated: Beaux-Arts Apartments — Manhattan"},"geometry":{"type":"Polygon","coordinates":[[[-73.9712695,40.7504929],[-73.9701429,40.7504929],[-73.9701429,40.751352],[-73.9712695,40.751352],[-73.9712695,40.7504929]]]}},{"type":"Feature","properties":{"id":"lens-detail-nyc-1989-planning_cell-0","layer":"planning_cell","category":"built_environment","year":1989,"visible_year":1989,"title":"1 source-backed planning and built record","confidence":"documented","confidence_mix":"documented:1","event_count":1,"source_count":1,"source_ids":"skyk-mpzq","event_ids":"nyc_lpc_historic_district_lp-01609","event_ids_all":"nyc_lpc_historic_district_lp-01609","source_urls":"https://data.cityofnewyork.us/resource/skyk-mpzq.json?lp_number=LP-01609","geometry_precision_mix":"Row-level point from the adapter; source geocoding precision varies and may be approximate.:1","representation":"planning and built evidence grid cell","timing_note":"Filtered by event effective year. OSM mapped-visibility dates and administrative dates can differ from real-world physical change dates.","caveat":"Planning cells are derived from source-backed event locations; they are not parcel boundaries unless source geometry is separately present.","generated_from":"web/data/city-atlas/cities/nyc/events_1989.json","lifecycle_status":"uncertain","status":"source_record","cell_size_m":95,"intensity":0.289,"label":"Historic district designated: Ladies' Mile Historic District"},"geometry":{"type":"Polygon","coordinates":[[[-73.9926759,40.740183],[-73.9915492,40.740183],[-73.9915492,40.7410422],[-73.9926759,40.7410422],[-73.9926759,40.740183]]]}},{"type":"Feature","properties":{"id":"lens-detail-nyc-1989-planning_cell-1","layer":"planning_cell","category":"built_environment","year":1989,"visible_year":1989,"title":"1 source-backed planning and built record","confidence":"documented","confidence_mix":"documented:1","event_count":1,"source_count":1,"source_ids":"skyk-mpzq","event_ids":"nyc_lpc_historic_district_lp-01611","event_ids_all":"nyc_lpc_historic_district_lp-01611","source_urls":"https://data.cityofnewyork.us/resource/skyk-mpzq.json?lp_number=LP-01611","geometry_precision_mix":"Row-level point from the adapter; source geocoding precision varies and may be approximate.:1","representation":"planning and built evidence grid cell","timing_note":"Filtered by event effective year. OSM mapped-visibility dates and administrative dates can differ from real-world physical change dates.","caveat":"Planning cells are derived from source-backed event locations; they are not parcel boundaries unless source geometry is separately present.","generated_from":"web/data/city-atlas/cities/nyc/events_1989.json","lifecycle_status":"uncertain","status":"source_record","cell_size_m":95,"intensity":0.289,"label":"Historic district designated: West 71st Street Historic District"},"geometry":{"type":"Polygon","coordinates":[[[-73.985916,40.7788449],[-73.9847893,40.7788449],[-73.9847893,40.7797041],[-73.985916,40.7797041],[-73.985916,40.7788449]]]}},{"type":"Feature","properties":{"id":"lens-detail-nyc-1989-planning_cell-10","layer":"planning_cell","category":"built_environment","year":1989,"visible_year":1989,"title":"1 source-backed planning and built record","confidence":"documented","confidence_mix":"documented:1","event_count":1,"source_count":1,"source_ids":"buis-pvji","event_ids":"nyc_lpc_individual_landmark_253","event_ids_all":"nyc_lpc_individual_landmark_253","source_urls":"https://data.cityofnewyork.us/resource/buis-pvji.json?objectid=253","geometry_precision_mix":"Row-level point from the adapter; source geocoding precision varies and may be approximate.:1","representation":"planning and built evidence grid cell","timing_note":"Filtered by event effective year. OSM mapped-visibility dates and administrative dates can differ from real-world physical change dates.","caveat":"Planning cells are derived from source-backed event locations; they are not parcel boundaries unless source geometry is separately present.","generated_from":"web/data/city-atlas/cities/nyc/events_1989.json","lifecycle_status":"uncertain","status":"source_record","cell_size_m":95,"intensity":0.289,"label":"Individual landmark designated: 319 Broadway Building"},"geometry":{"type":"Polygon","coordinates":[[[-74.0061956,40.7152676],[-74.005069,40.7152676],[-74.005069,40.7161268],[-74.0061956,40.7161268],[-74.0061956,40.7152676]]]}},{"type":"Feature","properties":{"id":"lens-detail-nyc-1989-planning_cell-11","layer":"planning_cell","category":"built_environment","year":1989,"visible_year":1989,"title":"1 source-backed planning and built record","confidence":"documented","confidence_mix":"documented:1","event_count":1,"source_count":1,"source_ids":"buis-pvji","event_ids":"nyc_lpc_individual_landmark_362","event_ids_all":"nyc_lpc_individual_landmark_362","source_urls":"https://data.cityofnewyork.us/resource/buis-pvji.json?objectid=362","geometry_precision_mix":"Row-level point from the adapter; source geocoding precision varies and may be approximate.:1","representation":"planning and built evidence grid cell","timing_note":"Filtered by event effective year. OSM mapped-visibility dates and administrative dates can differ from real-world physical change dates.","caveat":"Planning cells are derived from source-backed event locations; they are not parcel boundaries unless source geometry is separately present.","generated_from":"web/data/city-atlas/cities/nyc/events_1989.json","lifecycle_status":"uncertain","status":"source_record","cell_size_m":95,"intensity":0.289,"label":"Individual landmark designated: Eleventh District Municipal Court/Seventh District Magistrates' Court"},"geometry":{"type":"Polygon","coordinates":[[[-73.985916,40.7642393],[-73.9847893,40.7642393],[-73.9847893,40.7650985],[-73.985916,40.7650985],[-73.985916,40.7642393]]]}},{"type":"Feature","properties":{"id":"lens-detail-nyc-1989-planning_cell-12","layer":"planning_cell","category":"built_environment","year":1989,"visible_year":1989,"title":"1 source-backed planning and built record","confidence":"documented","confidence_mix":"documented:1","event_count":1,"source_count":1,"source_ids":"buis-pvji","event_ids":"nyc_lpc_individual_landmark_366","event_ids_all":"nyc_lpc_individual_landmark_366","source_urls":"https://data.cityofnewyork.us/resource/buis-pvji.json?objectid=366","geometry_precision_mix":"Row-level point from the adapter; source geocoding precision varies and may be approximate.:1","representation":"planning and built evidence grid cell","timing_note":"Filtered by event effective year. OSM mapped-visibility dates and administrative dates can differ from real-world physical change dates.","caveat":"Planning cells are derived from source-backed event locations; they are not parcel boundaries unless source geometry is separately present.","generated_from":"web/data/city-atlas/cities/nyc/events_1989.json","lifecycle_status":"uncertain","status":"source_record","cell_size_m":95,"intensity":0.289,"label":"Individual landmark designated: Fire Engine Company No. 23"},"geometry":{"type":"Polygon","coordinates":[[[-73.9814094,40.7659576],[-73.9802827,40.7659576],[-73.9802827,40.7668168],[-73.9814094,40.7668168],[-73.9814094,40.7659576]]]}},{"type":"Feature","properties":{"id":"lens-detail-nyc-1989-planning_cell-13","layer":"planning_cell","category":"built_environment","year":1989,"visible_year":1989,"title":"1 source-backed planning and built record","confidence":"documented","confidence_mix":"documented:1","event_count":1,"source_count":1,"source_ids":"buis-pvji","event_ids":"nyc_lpc_individual_landmark_400","event_ids_all":"nyc_lpc_individual_landmark_400","source_urls":"https://data.cityofnewyork.us/resource/buis-pvji.json?objectid=400","geometry_precision_mix":"Row-level point from the adapter; source geocoding precision varies and may be approximate.:1","representation":"planning and built evidence grid cell","timing_note":"Filtered by event effective year. OSM mapped-visibility dates and administrative dates can differ from real-world physical change dates.","caveat":"Planning cells are derived from source-backed event locations; they are not parcel boundaries unless source geometry is separately present.","generated_from":"web/data/city-atlas/cities/nyc/events_1989.json","lifecycle_status":"uncertain","status":"source_record","cell_size_m":95,"intensity":0.289,"label":"Individual landmark designated: First Battery Armory"},"geometry":{"type":"Polygon","coordinates":[[[-73.9814094,40.7728309],[-73.9802827,40.7728309],[-73.9802827,40.77369],[-73.9814094,40.77369],[-73.9814094,40.7728309]]]}},{"type":"Feature","properties":{"id":"lens-detail-nyc-1989-planning_cell-14","layer":"planning_cell","category":"built_environment","year":1989,"visible_year":1989,"title":"1 source-backed planning and built record","confidence":"documented","confidence_mix":"documented:1","event_count":1,"source_count":1,"source_ids":"buis-pvji","event_ids":"nyc_lpc_individual_landmark_403","event_ids_all":"nyc_lpc_individual_landmark_403","source_urls":"https://data.cityofnewyork.us/resource/buis-pvji.json?objectid=403","geometry_precision_mix":"Row-level point from the adapter; source geocoding precision varies and may be approximate.:1","representation":"planning and built evidence grid cell","timing_note":"Filtered by event effective year. OSM mapped-visibility dates and administrative dates can differ from real-world physical change dates.","caveat":"Planning cells are derived from source-backed event locations; they are not parcel boundaries unless source geometry is separately present.","generated_from":"web/data/city-atlas/cities/nyc/events_1989.json","lifecycle_status":"uncertain","status":"source_record","cell_size_m":95,"intensity":0.289,"label":"Individual landmark designated: 287 Broadway Building"},"geometry":{"type":"Polygon","coordinates":[[[-74.0073223,40.7144085],[-74.0061956,40.7144085],[-74.0061956,40.7152676],[-74.0073223,40.7152676],[-74.0073223,40.7144085]]]}},{"type":"Feature","properties":{"id":"lens-detail-nyc-1989-planning_cell-15","layer":"planning_cell","category":"built_environment","year":1989,"visible_year":1989,"title":"1 source-backed planning and built record","confidence":"documented","confidence_mix":"documented:1","event_count":1,"source_count":1,"source_ids":"buis-pvji","event_ids":"nyc_lpc_individual_landmark_447","event_ids_all":"nyc_lpc_individual_landmark_447","source_urls":"https://data.cityofnewyork.us/resource/buis-pvji.json?objectid=447","geometry_precision_mix":"Row-level point from the adapter; source geocoding precision varies and may be approximate.:1","representation":"planning and built evidence grid cell","timing_note":"Filtered by event effective year. OSM mapped-visibility dates and administrative dates can differ from real-world physical change dates.","caveat":"Planning cells are derived from source-backed event locations; they are not parcel boundaries unless source geometry is separately present.","generated_from":"web/data/city-atlas/cities/nyc/events_1989.json","lifecycle_status":"uncertain","status":"source_record","cell_size_m":95,"intensity":0.289,"label":"Individual landmark designated: Roosevelt Hospital, William J. Syms Operating Theater"},"geometry":{"type":"Polygon","coordinates":[[[-73.985916,40.7685351],[-73.9847893,40.7685351],[-73.9847893,40.7693943],[-73.985916,40.7693943],[-73.985916,40.7685351]]]}},{"type":"Feature","properties":{"id":"lens-detail-nyc-1989-planning_cell-18","layer":"planning_cell","category":"built_environment","year":1989,"visible_year":1989,"title":"1 source-backed planning and built record","confidence":"documented","confidence_mix":"documented:1","event_count":1,"source_count":1,"source_ids":"buis-pvji","event_ids":"nyc_lpc_individual_landmark_715","event_ids_all":"nyc_lpc_individual_landmark_715","source_urls":"https://data.cityofnewyork.us/resource/buis-pvji.json?objectid=715","geometry_precision_mix":"Row-level point from the adapter; source geocoding precision varies and may be approximate.:1","representation":"planning and built evidence grid cell","timing_note":"Filtered by event effective year. OSM mapped-visibility dates and administrative dates can differ from real-world physical change dates.","caveat":"Planning cells are derived from source-backed event locations; they are not parcel boundaries unless source geometry is separately present.","generated_from":"web/data/city-atlas/cities/nyc/events_1989.json","lifecycle_status":"uncertain","status":"source_record","cell_size_m":95,"intensity":0.289,"label":"Individual landmark designated: Seagram Building"},"geometry":{"type":"Polygon","coordinates":[[[-73.9723962,40.7582253],[-73.9712695,40.7582253],[-73.9712695,40.7590844],[-73.9723962,40.7590844],[-73.9723962,40.7582253]]]}},{"type":"Feature","properties":{"id":"lens-detail-nyc-1989-planning_cell-19","layer":"planning_cell","category":"built_environment","year":1989,"visible_year":1989,"title":"1 source-backed planning and built record","confidence":"documented","confidence_mix":"documented:1","event_count":1,"source_count":1,"source_ids":"buis-pvji","event_ids":"nyc_lpc_individual_landmark_760","event_ids_all":"nyc_lpc_individual_landmark_760","source_urls":"https://data.cityofnewyork.us/resource/buis-pvji.json?objectid=760","geometry_precision_mix":"Row-level point from the adapter; source geocoding precision varies and may be approximate.:1","representation":"planning and built evidence grid cell","timing_note":"Filtered by event effective year. OSM mapped-visibility dates and administrative dates can differ from real-world physical change dates.","caveat":"Planning cells are derived from source-backed event locations; they are not parcel boundaries unless source geometry is separately present.","generated_from":"web/data/city-atlas/cities/nyc/events_1989.json","lifecycle_status":"uncertain","status":"source_record","cell_size_m":95,"intensity":0.289,"label":"Individual landmark designated: Trinity School"},"geometry":{"type":"Polygon","coordinates":[[[-73.9712695,40.7900139],[-73.9701429,40.7900139],[-73.9701429,40.7908731],[-73.9712695,40.7908731],[-73.9712695,40.7900139]]]}},{"type":"Feature","properties":{"id":"lens-detail-nyc-1989-planning_cell-2","layer":"planning_cell","category":"built_environment","year":1989,"visible_year":1989,"title":"1 source-backed planning and built record","confidence":"documented","confidence_mix":"documented:1","event_count":1,"source_count":1,"source_ids":"skyk-mpzq","event_ids":"nyc_lpc_historic_district_lp-01626","event_ids_all":"nyc_lpc_historic_district_lp-01626","source_urls":"https://data.cityofnewyork.us/resource/skyk-mpzq.json?lp_number=LP-01626","geometry_precision_mix":"Row-level point from the adapter; source geocoding precision varies and may be approximate.:1","representation":"planning and built evidence grid cell","timing_note":"Filtered by event effective year. OSM mapped-visibility dates and administrative dates can differ from real-world physical change dates.","caveat":"Planning cells are derived from source-backed event locations; they are not parcel boundaries unless source geometry is separately present.","generated_from":"web/data/city-atlas/cities/nyc/events_1989.json","lifecycle_status":"uncertain","status":"source_record","cell_size_m":95,"intensity":0.289,"label":"Historic district designated: Riverside-West End Historic District"},"geometry":{"type":"Polygon","coordinates":[[[-73.9780294,40.7917322],[-73.9769028,40.7917322],[-73.9769028,40.7925914],[-73.9780294,40.7925914],[-73.9780294,40.7917322]]]}},{"type":"Feature","properties":{"id":"lens-detail-nyc-1989-planning_cell-20","layer":"planning_cell","category":"built_environment","year":1989,"visible_year":1989,"title":"1 source-backed planning and built record","confidence":"documented","confidence_mix":"documented:1","event_count":1,"source_count":1,"source_ids":"buis-pvji","event_ids":"nyc_lpc_individual_landmark_798","event_ids_all":"nyc_lpc_individual_landmark_798","source_urls":"https://data.cityofnewyork.us/resource/buis-pvji.json?objectid=798","geometry_precision_mix":"Row-level point from the adapter; source geocoding precision varies and may be approximate.:1","representation":"planning and built evidence grid cell","timing_note":"Filtered by event effective year. OSM mapped-visibility dates and administrative dates can differ from real-world physical change dates.","caveat":"Planning cells are derived from source-backed event locations; they are not parcel boundaries unless source geometry is separately present.","generated_from":"web/data/city-atlas/cities/nyc/events_1989.json","lifecycle_status":"uncertain","status":"source_record","cell_size_m":95,"intensity":0.289,"label":"Individual landmark designated: Master Building"},"geometry":{"type":"Polygon","coordinates":[[[-73.9712695,40.8003238],[-73.9701429,40.8003238],[-73.9701429,40.8011829],[-73.9712695,40.8011829],[-73.9712695,40.8003238]]]}},{"type":"Feature","properties":{"id":"lens-detail-nyc-1989-planning_cell-21","layer":"planning_cell","category":"built_environment","year":1989,"visible_year":1989,"title":"1 source-backed planning and built record","confidence":"documented","confidence_mix":"documented:1","event_count":1,"source_count":1,"source_ids":"buis-pvji","event_ids":"nyc_lpc_individual_landmark_800","event_ids_all":"nyc_lpc_individual_landmark_800","source_urls":"https://data.cityofnewyork.us/resource/buis-pvji.json?objectid=800","geometry_precision_mix":"Row-level point from the adapter; source geocoding precision varies and may be approximate.:1","representation":"planning and built evidence grid cell","timing_note":"Filtered by event effective year. OSM mapped-visibility dates and administrative dates can differ from real-world physical change dates.","caveat":"Planning cells are derived from source-backed event locations; they are not parcel boundaries unless source geometry is separately present.","generated_from":"web/data/city-atlas/cities/nyc/events_1989.json","lifecycle_status":"uncertain","status":"source_record","cell_size_m":95,"intensity":0.289,"label":"Individual landmark designated: Gotham Hotel"},"geometry":{"type":"Polygon","coordinates":[[[-73.9757761,40.7608027],[-73.9746495,40.7608027],[-73.9746495,40.7616619],[-73.9757761,40.7616619],[-73.9757761,40.7608027]]]}},{"type":"Feature","properties":{"id":"lens-detail-nyc-1989-planning_cell-22","layer":"planning_cell","category":"built_environment","year":1989,"visible_year":1989,"title":"1 source-backed planning and built record","confidence":"documented","confidence_mix":"documented:1","event_count":1,"source_count":1,"source_ids":"buis-pvji","event_ids":"nyc_lpc_individual_landmark_864","event_ids_all":"nyc_lpc_individual_landmark_864","source_urls":"https://data.cityofnewyork.us/resource/buis-pvji.json?objectid=864","geometry_precision_mix":"Row-level point from the adapter; source geocoding precision varies and may be approximate.:1","representation":"planning and built evidence grid cell","timing_note":"Filtered by event effective year. OSM mapped-visibility dates and administrative dates can differ from real-world physical change dates.","caveat":"Planning cells are derived from source-backed event locations; they are not parcel boundaries unless source geometry is separately present.","generated_from":"web/data/city-atlas/cities/nyc/events_1989.json","lifecycle_status":"uncertain","status":"source_record","cell_size_m":95,"intensity":0.289,"label":"Individual landmark designated: Wonder Wheel"},"geometry":{"type":"Polygon","coordinates":[[[-73.9802827,40.5735073],[-73.9791561,40.5735073],[-73.9791561,40.5743665],[-73.9802827,40.5743665],[-73.9802827,40.5735073]]]}},{"type":"Feature","properties":{"id":"lens-detail-nyc-1989-planning_cell-23","layer":"planning_cell","category":"built_environment","year":1989,"visible_year":1989,"title":"1 source-backed planning and built record","confidence":"documented","confidence_mix":"documented:1","event_count":1,"source_count":1,"source_ids":"buis-pvji","event_ids":"nyc_lpc_individual_landmark_915","event_ids_all":"nyc_lpc_individual_landmark_915","source_urls":"https://data.cityofnewyork.us/resource/buis-pvji.json?objectid=915","geometry_precision_mix":"Row-level point from the adapter; source geocoding precision varies and may be approximate.:1","representation":"planning and built evidence grid cell","timing_note":"Filtered by event effective year. OSM mapped-visibility dates and administrative dates can differ from real-world physical change dates.","caveat":"Planning cells are derived from source-backed event locations; they are not parcel boundaries unless source geometry is separately present.","generated_from":"web/data/city-atlas/cities/nyc/events_1989.json","lifecycle_status":"uncertain","status":"source_record","cell_size_m":95,"intensity":0.289,"label":"Individual landmark designated: Hendrick I. Lott House"},"geometry":{"type":"Polygon","coordinates":[[[-73.9329635,40.6095918],[-73.9318368,40.6095918],[-73.9318368,40.6104509],[-73.9329635,40.6104509],[-73.9329635,40.6095918]]]}},{"type":"Feature","properties":{"id":"lens-detail-nyc-1989-planning_cell-3","layer":"planning_cell","category":"built_environment","year":1989,"visible_year":1989,"title":"1 source-backed planning and built record","confidence":"documented","confidence_mix":"documented:1","event_count":1,"source_count":1,"source_ids":"skyk-mpzq","event_ids":"nyc_lpc_historic_district_lp-01646","event_ids_all":"nyc_lpc_historic_district_lp-01646","source_urls":"https://data.cityofnewyork.us/resource/skyk-mpzq.json?lp_number=LP-01646","geometry_precision_mix":"Row-level point from the adapter; source geocoding precision varies and may be approximate.:1","representation":"planning and built evidence grid cell","timing_note":"Filtered by event effective year. OSM mapped-visibility dates and administrative dates can differ from real-world physical change dates.","caveat":"Planning cells are derived from source-backed event locations; they are not parcel boundaries unless source geometry is separately present.","generated_from":"web/data/city-atlas/cities/nyc/events_1989.json","lifecycle_status":"uncertain","status":"source_record","cell_size_m":95,"intensity":0.289,"label":"Historic district designated: South Street Seaport Historic District Extension"},"geometry":{"type":"Polygon","coordinates":[[[-74.0028157,40.7083944],[-74.0016891,40.7083944],[-74.0016891,40.7092535],[-74.0028157,40.7092535],[-74.0028157,40.7083944]]]}},{"type":"Feature","properties":{"id":"lens-detail-nyc-1989-planning_cell-4","layer":"planning_cell","category":"built_environment","year":1989,"visible_year":1989,"title":"1 source-backed planning and built record","confidence":"documented","confidence_mix":"documented:1","event_count":1,"source_count":1,"source_ids":"buis-pvji","event_ids":"nyc_lpc_individual_landmark_1046","event_ids_all":"nyc_lpc_individual_landmark_1046","source_urls":"https://data.cityofnewyork.us/resource/buis-pvji.json?objectid=1046","geometry_precision_mix":"Row-level point from the adapter; source geocoding precision varies and may be approximate.:1","representation":"planning and built evidence grid cell","timing_note":"Filtered by event effective year. OSM mapped-visibility dates and administrative dates can differ from real-world physical change dates.","caveat":"Planning cells are derived from source-backed event locations; they are not parcel boundaries unless source geometry is separately present.","generated_from":"web/data/city-atlas/cities/nyc/events_1989.json","lifecycle_status":"uncertain","status":"source_record","cell_size_m":95,"intensity":0.289,"label":"Individual landmark designated: Metropolitan Life Insurance Company Tower"},"geometry":{"type":"Polygon","coordinates":[[[-73.9881693,40.7410422],[-73.9870426,40.7410422],[-73.9870426,40.7419014],[-73.9881693,40.7419014],[-73.9881693,40.7410422]]]}},{"type":"Feature","properties":{"id":"lens-detail-nyc-1989-planning_cell-5","layer":"planning_cell","category":"built_environment","year":1989,"visible_year":1989,"title":"1 source-backed planning and built record","confidence":"documented","confidence_mix":"documented:1","event_count":1,"source_count":1,"source_ids":"buis-pvji","event_ids":"nyc_lpc_individual_landmark_1124","event_ids_all":"nyc_lpc_individual_landmark_1124","source_urls":"https://data.cityofnewyork.us/resource/buis-pvji.json?objectid=1124","geometry_precision_mix":"Row-level point from the adapter; source geocoding precision varies and may be approximate.:1","representation":"planning and built evidence grid cell","timing_note":"Filtered by event effective year. OSM mapped-visibility dates and administrative dates can differ from real-world physical change dates.","caveat":"Planning cells are derived from source-backed event locations; they are not parcel boundaries unless source geometry is separately present.","generated_from":"web/data/city-atlas/cities/nyc/events_1989.json","lifecycle_status":"uncertain","status":"source_record","cell_size_m":95,"intensity":0.289,"label":"Individual landmark designated: Parachute Jump"},"geometry":{"type":"Polygon","coordinates":[[[-73.9847893,40.5726482],[-73.9836627,40.5726482],[-73.9836627,40.5735073],[-73.9847893,40.5735073],[-73.9847893,40.5726482]]]}},{"type":"Feature","properties":{"id":"lens-detail-nyc-1989-planning_cell-6","layer":"planning_cell","category":"built_environment","year":1989,"visible_year":1989,"title":"1 source-backed planning and built record","confidence":"documented","confidence_mix":"documented:1","event_count":1,"source_count":1,"source_ids":"buis-pvji","event_ids":"nyc_lpc_individual_landmark_131","event_ids_all":"nyc_lpc_individual_landmark_131","source_urls":"https://data.cityofnewyork.us/resource/buis-pvji.json?objectid=131","geometry_precision_mix":"Row-level point from the adapter; source geocoding precision varies and may be approximate.:1","representation":"planning and built evidence grid cell","timing_note":"Filtered by event effective year. OSM mapped-visibility dates and administrative dates can differ from real-world physical change dates.","caveat":"Planning cells are derived from source-backed event locations; they are not parcel boundaries unless source geometry is separately present.","generated_from":"web/data/city-atlas/cities/nyc/events_1989.json","lifecycle_status":"uncertain","status":"source_record","cell_size_m":95,"intensity":0.289,"label":"Individual landmark designated: Church of Saint Mary-the-Virgin Complex"},"geometry":{"type":"Polygon","coordinates":[[[-73.9836627,40.7582253],[-73.982536,40.7582253],[-73.982536,40.7590844],[-73.9836627,40.7590844],[-73.9836627,40.7582253]]]}},{"type":"Feature","properties":{"id":"lens-detail-nyc-1989-planning_cell-7","layer":"planning_cell","category":"built_environment","year":1989,"visible_year":1989,"title":"1 source-backed planning and built record","confidence":"documented","confidence_mix":"documented:1","event_count":1,"source_count":1,"source_ids":"buis-pvji","event_ids":"nyc_lpc_individual_landmark_223","event_ids_all":"nyc_lpc_individual_landmark_223","source_urls":"https://data.cityofnewyork.us/resource/buis-pvji.json?objectid=223","geometry_precision_mix":"Row-level point from the adapter; source geocoding precision varies and may be approximate.:1","representation":"planning and built evidence grid cell","timing_note":"Filtered by event effective year. OSM mapped-visibility dates and administrative dates can differ from real-world physical change dates.","caveat":"Planning cells are derived from source-backed event locations; they are not parcel boundaries unless source geometry is separately present.","generated_from":"web/data/city-atlas/cities/nyc/events_1989.json","lifecycle_status":"uncertain","status":"source_record","cell_size_m":95,"intensity":0.289,"label":"Individual landmark designated: Helen Miller Gould Carriage House"},"geometry":{"type":"Polygon","coordinates":[[[-73.9802827,40.7659576],[-73.9791561,40.7659576],[-73.9791561,40.7668168],[-73.9802827,40.7668168],[-73.9802827,40.7659576]]]}},{"type":"Feature","properties":{"id":"lens-detail-nyc-1989-planning_cell-8","layer":"planning_cell","category":"built_environment","year":1989,"visible_year":1989,"title":"1 source-backed planning and built record","confidence":"documented","confidence_mix":"documented:1","event_count":1,"source_count":1,"source_ids":"buis-pvji","event_ids":"nyc_lpc_individual_landmark_230","event_ids_all":"nyc_lpc_individual_landmark_230","source_urls":"https://data.cityofnewyork.us/resource/buis-pvji.json?objectid=230","geometry_precision_mix":"Row-level point from the adapter; source geocoding precision varies and may be approximate.:1","representation":"planning and built evidence grid cell","timing_note":"Filtered by event effective year. OSM mapped-visibility dates and administrative dates can differ from real-world physical change dates.","caveat":"Planning cells are derived from source-backed event locations; they are not parcel boundaries unless source geometry is separately present.","generated_from":"web/data/city-atlas/cities/nyc/events_1989.json","lifecycle_status":"uncertain","status":"source_record","cell_size_m":95,"intensity":0.289,"label":"Individual landmark designated: 90-94 Maiden Lane Building"},"geometry":{"type":"Polygon","coordinates":[[[-74.0084489,40.7066761],[-74.0073223,40.7066761],[-74.0073223,40.7075352],[-74.0084489,40.7075352],[-74.0084489,40.7066761]]]}},{"type":"Feature","properties":{"id":"lens-detail-nyc-1989-planning_cell-9","layer":"planning_cell","category":"built_environment","year":1989,"visible_year":1989,"title":"1 source-backed planning and built record","confidence":"documented","confidence_mix":"documented:1","event_count":1,"source_count":1,"source_ids":"buis-pvji","event_ids":"nyc_lpc_individual_landmark_25","event_ids_all":"nyc_lpc_individual_landmark_25","source_urls":"https://data.cityofnewyork.us/resource/buis-pvji.json?objectid=25","geometry_precision_mix":"Row-level point from the adapter; source geocoding precision varies and may be approximate.:1","representation":"planning and built evidence grid cell","timing_note":"Filtered by event effective year. OSM mapped-visibility dates and administrative dates can differ from real-world physical change dates.","caveat":"Planning cells are derived from source-backed event locations; they are not parcel boundaries unless source geometry is separately present.","generated_from":"web/data/city-atlas/cities/nyc/events_1989.json","lifecycle_status":"uncertain","status":"source_record","cell_size_m":95,"intensity":0.289,"label":"Individual landmark designated: Gustave A. Mayer House"},"geometry":{"type":"Polygon","coordinates":[[[-74.1211139,40.5752256],[-74.1199872,40.5752256],[-74.1199872,40.5760848],[-74.1211139,40.5760848],[-74.1211139,40.5752256]]]}}]}
