{"type":"FeatureCollection","name":"nyc_lens_detail_1983","metadata":{"schema_version":"1.0.0","city_id":"nyc","year":1983,"generated_at":"2026-05-19T04:38:30.856Z","source_paths":["web/data/city-atlas/cities/nyc/events_1983.json","web/data/city-atlas/cities/nyc/events.json","web/data/city-atlas/cities/nyc/transport_roads_base.geojson"],"method":"Derived OpenCityLog lens geometry built from source-backed event points plus existing OSM road/detail geometry. Grid cells aggregate events by effective year. Trace lines reuse nearest mapped road geometry for context.","caveats":["Derived cells are evidence grids, not surveyed parcels, catchments, zones, or administrative boundaries.","Trace lines are nearest mapped street or work-location context, not surveyed utility networks, measured traffic speed, spend, vacancy, or service quality. No capacity data is inferred.","Borough, citywide, statistical, corridor, and multi-site records are excluded from site-like lens geometry; they remain available in the event list and evidence records.","OSM mapped-visibility dates and administrative decision dates can differ from real-world physical change dates."],"feature_layers":{"planning_cell":14},"excluded_non_site_record_count":0,"excluded_non_site_reasons":{}},"features":[{"type":"Feature","properties":{"id":"lens-detail-nyc-1983-planning_cell-0","layer":"planning_cell","category":"built_environment","year":1983,"visible_year":1983,"title":"1 source-backed planning and built record","confidence":"documented","confidence_mix":"documented:1","event_count":1,"source_count":1,"source_ids":"skyk-mpzq","event_ids":"nyc_lpc_historic_district_lp-01286","event_ids_all":"nyc_lpc_historic_district_lp-01286","source_urls":"https://data.cityofnewyork.us/resource/skyk-mpzq.json?lp_number=LP-01286","geometry_precision_mix":"Row-level point from the adapter; source geocoding precision varies and may be approximate.:1","representation":"planning and built evidence grid cell","timing_note":"Filtered by event effective year. OSM mapped-visibility dates and administrative dates can differ from real-world physical change dates.","caveat":"Planning cells are derived from source-backed event locations; they are not parcel boundaries unless source geometry is separately present.","generated_from":"web/data/city-atlas/cities/nyc/events_1983.json","lifecycle_status":"uncertain","status":"source_record","cell_size_m":95,"intensity":0.289,"label":"Historic district designated: Longwood Historic District Extension"},"geometry":{"type":"Polygon","coordinates":[[[-73.9012448,40.8175068],[-73.9001189,40.8175068],[-73.9001189,40.818366],[-73.9012448,40.818366],[-73.9012448,40.8175068]]]}},{"type":"Feature","properties":{"id":"lens-detail-nyc-1983-planning_cell-1","layer":"planning_cell","category":"built_environment","year":1983,"visible_year":1983,"title":"1 source-backed planning and built record","confidence":"documented","confidence_mix":"documented:1","event_count":1,"source_count":1,"source_ids":"buis-pvji","event_ids":"nyc_lpc_individual_landmark_1177","event_ids_all":"nyc_lpc_individual_landmark_1177","source_urls":"https://data.cityofnewyork.us/resource/buis-pvji.json?objectid=1177","geometry_precision_mix":"Row-level point from the adapter; source geocoding precision varies and may be approximate.:1","representation":"planning and built evidence grid cell","timing_note":"Filtered by event effective year. OSM mapped-visibility dates and administrative dates can differ from real-world physical change dates.","caveat":"Planning cells are derived from source-backed event locations; they are not parcel boundaries unless source geometry is separately present.","generated_from":"web/data/city-atlas/cities/nyc/events_1983.json","lifecycle_status":"uncertain","status":"source_record","cell_size_m":95,"intensity":0.289,"label":"Individual landmark designated: Ernest Flagg House, Expanded Site"},"geometry":{"type":"Polygon","coordinates":[[[-74.1072923,40.5872538],[-74.1061664,40.5872538],[-74.1061664,40.5881129],[-74.1072923,40.5881129],[-74.1072923,40.5872538]]]}},{"type":"Feature","properties":{"id":"lens-detail-nyc-1983-planning_cell-10","layer":"planning_cell","category":"built_environment","year":1983,"visible_year":1983,"title":"1 source-backed planning and built record","confidence":"documented","confidence_mix":"documented:1","event_count":1,"source_count":1,"source_ids":"buis-pvji","event_ids":"nyc_lpc_individual_landmark_813","event_ids_all":"nyc_lpc_individual_landmark_813","source_urls":"https://data.cityofnewyork.us/resource/buis-pvji.json?objectid=813","geometry_precision_mix":"Row-level point from the adapter; source geocoding precision varies and may be approximate.:1","representation":"planning and built evidence grid cell","timing_note":"Filtered by event effective year. OSM mapped-visibility dates and administrative dates can differ from real-world physical change dates.","caveat":"Planning cells are derived from source-backed event locations; they are not parcel boundaries unless source geometry is separately present.","generated_from":"web/data/city-atlas/cities/nyc/events_1983.json","lifecycle_status":"uncertain","status":"source_record","cell_size_m":95,"intensity":0.289,"label":"Individual landmark designated: 18th Police Precinct Station House and Stable"},"geometry":{"type":"Polygon","coordinates":[[[-74.0093353,40.649972],[-74.0082094,40.649972],[-74.0082094,40.6508311],[-74.0093353,40.6508311],[-74.0093353,40.649972]]]}},{"type":"Feature","properties":{"id":"lens-detail-nyc-1983-planning_cell-11","layer":"planning_cell","category":"built_environment","year":1983,"visible_year":1983,"title":"1 source-backed planning and built record","confidence":"documented","confidence_mix":"documented:1","event_count":1,"source_count":1,"source_ids":"buis-pvji","event_ids":"nyc_lpc_individual_landmark_893","event_ids_all":"nyc_lpc_individual_landmark_893","source_urls":"https://data.cityofnewyork.us/resource/buis-pvji.json?objectid=893","geometry_precision_mix":"Row-level point from the adapter; source geocoding precision varies and may be approximate.:1","representation":"planning and built evidence grid cell","timing_note":"Filtered by event effective year. OSM mapped-visibility dates and administrative dates can differ from real-world physical change dates.","caveat":"Planning cells are derived from source-backed event locations; they are not parcel boundaries unless source geometry is separately present.","generated_from":"web/data/city-atlas/cities/nyc/events_1983.json","lifecycle_status":"uncertain","status":"source_record","cell_size_m":95,"intensity":0.289,"label":"Individual landmark designated: Girls' High School"},"geometry":{"type":"Polygon","coordinates":[[[-73.9496604,40.6809015],[-73.9485344,40.6809015],[-73.9485344,40.6817606],[-73.9496604,40.6817606],[-73.9496604,40.6809015]]]}},{"type":"Feature","properties":{"id":"lens-detail-nyc-1983-planning_cell-12","layer":"planning_cell","category":"built_environment","year":1983,"visible_year":1983,"title":"1 source-backed planning and built record","confidence":"documented","confidence_mix":"documented:1","event_count":1,"source_count":1,"source_ids":"buis-pvji","event_ids":"nyc_lpc_individual_landmark_923","event_ids_all":"nyc_lpc_individual_landmark_923","source_urls":"https://data.cityofnewyork.us/resource/buis-pvji.json?objectid=923","geometry_precision_mix":"Row-level point from the adapter; source geocoding precision varies and may be approximate.:1","representation":"planning and built evidence grid cell","timing_note":"Filtered by event effective year. OSM mapped-visibility dates and administrative dates can differ from real-world physical change dates.","caveat":"Planning cells are derived from source-backed event locations; they are not parcel boundaries unless source geometry is separately present.","generated_from":"web/data/city-atlas/cities/nyc/events_1983.json","lifecycle_status":"uncertain","status":"source_record","cell_size_m":95,"intensity":0.289,"label":"Individual landmark designated: Astral Apartments"},"geometry":{"type":"Polygon","coordinates":[[[-73.957542,40.7315915],[-73.956416,40.7315915],[-73.956416,40.7324507],[-73.957542,40.7324507],[-73.957542,40.7315915]]]}},{"type":"Feature","properties":{"id":"lens-detail-nyc-1983-planning_cell-13","layer":"planning_cell","category":"built_environment","year":1983,"visible_year":1983,"title":"1 source-backed planning and built record","confidence":"documented","confidence_mix":"documented:1","event_count":1,"source_count":1,"source_ids":"buis-pvji","event_ids":"nyc_lpc_individual_landmark_928","event_ids_all":"nyc_lpc_individual_landmark_928","source_urls":"https://data.cityofnewyork.us/resource/buis-pvji.json?objectid=928","geometry_precision_mix":"Row-level point from the adapter; source geocoding precision varies and may be approximate.:1","representation":"planning and built evidence grid cell","timing_note":"Filtered by event effective year. OSM mapped-visibility dates and administrative dates can differ from real-world physical change dates.","caveat":"Planning cells are derived from source-backed event locations; they are not parcel boundaries unless source geometry is separately present.","generated_from":"web/data/city-atlas/cities/nyc/events_1983.json","lifecycle_status":"uncertain","status":"source_record","cell_size_m":95,"intensity":0.289,"label":"Individual landmark designated: Public School 34"},"geometry":{"type":"Polygon","coordinates":[[[-73.9507863,40.7255774],[-73.9496604,40.7255774],[-73.9496604,40.7264366],[-73.9507863,40.7264366],[-73.9507863,40.7255774]]]}},{"type":"Feature","properties":{"id":"lens-detail-nyc-1983-planning_cell-2","layer":"planning_cell","category":"built_environment","year":1983,"visible_year":1983,"title":"1 source-backed planning and built record","confidence":"documented","confidence_mix":"documented:1","event_count":1,"source_count":1,"source_ids":"buis-pvji","event_ids":"nyc_lpc_individual_landmark_1249","event_ids_all":"nyc_lpc_individual_landmark_1249","source_urls":"https://data.cityofnewyork.us/resource/buis-pvji.json?objectid=1249","geometry_precision_mix":"Row-level point from the adapter; source geocoding precision varies and may be approximate.:1","representation":"planning and built evidence grid cell","timing_note":"Filtered by event effective year. OSM mapped-visibility dates and administrative dates can differ from real-world physical change dates.","caveat":"Planning cells are derived from source-backed event locations; they are not parcel boundaries unless source geometry is separately present.","generated_from":"web/data/city-atlas/cities/nyc/events_1983.json","lifecycle_status":"uncertain","status":"source_record","cell_size_m":95,"intensity":0.289,"label":"Individual landmark designated: Street Plan of New Amsterdam and Colonial New York"},"geometry":{"type":"Polygon","coordinates":[[[-74.0115872,40.7049578],[-74.0104613,40.7049578],[-74.0104613,40.7058169],[-74.0115872,40.7058169],[-74.0115872,40.7049578]]]}},{"type":"Feature","properties":{"id":"lens-detail-nyc-1983-planning_cell-3","layer":"planning_cell","category":"built_environment","year":1983,"visible_year":1983,"title":"1 source-backed planning and built record","confidence":"documented","confidence_mix":"documented:1","event_count":1,"source_count":1,"source_ids":"buis-pvji","event_ids":"nyc_lpc_individual_landmark_278","event_ids_all":"nyc_lpc_individual_landmark_278","source_urls":"https://data.cityofnewyork.us/resource/buis-pvji.json?objectid=278","geometry_precision_mix":"Row-level point from the adapter; source geocoding precision varies and may be approximate.:1","representation":"planning and built evidence grid cell","timing_note":"Filtered by event effective year. OSM mapped-visibility dates and administrative dates can differ from real-world physical change dates.","caveat":"Planning cells are derived from source-backed event locations; they are not parcel boundaries unless source geometry is separately present.","generated_from":"web/data/city-atlas/cities/nyc/events_1983.json","lifecycle_status":"uncertain","status":"source_record","cell_size_m":95,"intensity":0.289,"label":"Individual landmark designated: Kent Automatic Parking Garage"},"geometry":{"type":"Polygon","coordinates":[[[-73.9834386,40.7702534],[-73.9823127,40.7702534],[-73.9823127,40.7711126],[-73.9834386,40.7711126],[-73.9834386,40.7702534]]]}},{"type":"Feature","properties":{"id":"lens-detail-nyc-1983-planning_cell-4","layer":"planning_cell","category":"built_environment","year":1983,"visible_year":1983,"title":"1 source-backed planning and built record","confidence":"documented","confidence_mix":"documented:1","event_count":1,"source_count":1,"source_ids":"buis-pvji","event_ids":"nyc_lpc_individual_landmark_302","event_ids_all":"nyc_lpc_individual_landmark_302","source_urls":"https://data.cityofnewyork.us/resource/buis-pvji.json?objectid=302","geometry_precision_mix":"Row-level point from the adapter; source geocoding precision varies and may be approximate.:1","representation":"planning and built evidence grid cell","timing_note":"Filtered by event effective year. OSM mapped-visibility dates and administrative dates can differ from real-world physical change dates.","caveat":"Planning cells are derived from source-backed event locations; they are not parcel boundaries unless source geometry is separately present.","generated_from":"web/data/city-atlas/cities/nyc/events_1983.json","lifecycle_status":"uncertain","status":"source_record","cell_size_m":95,"intensity":0.289,"label":"Individual landmark designated: Woolworth Building"},"geometry":{"type":"Polygon","coordinates":[[[-74.0093353,40.711831],[-74.0082094,40.711831],[-74.0082094,40.7126901],[-74.0093353,40.7126901],[-74.0093353,40.711831]]]}},{"type":"Feature","properties":{"id":"lens-detail-nyc-1983-planning_cell-5","layer":"planning_cell","category":"built_environment","year":1983,"visible_year":1983,"title":"1 source-backed planning and built record","confidence":"documented","confidence_mix":"documented:1","event_count":1,"source_count":1,"source_ids":"buis-pvji","event_ids":"nyc_lpc_individual_landmark_318","event_ids_all":"nyc_lpc_individual_landmark_318","source_urls":"https://data.cityofnewyork.us/resource/buis-pvji.json?objectid=318","geometry_precision_mix":"Row-level point from the adapter; source geocoding precision varies and may be approximate.:1","representation":"planning and built evidence grid cell","timing_note":"Filtered by event effective year. OSM mapped-visibility dates and administrative dates can differ from real-world physical change dates.","caveat":"Planning cells are derived from source-backed event locations; they are not parcel boundaries unless source geometry is separately present.","generated_from":"web/data/city-atlas/cities/nyc/events_1983.json","lifecycle_status":"uncertain","status":"source_record","cell_size_m":95,"intensity":0.289,"label":"Individual landmark designated: Sixty-Ninth Regiment Armory"},"geometry":{"type":"Polygon","coordinates":[[[-73.9845646,40.7410422],[-73.9834386,40.7410422],[-73.9834386,40.7419014],[-73.9845646,40.7419014],[-73.9845646,40.7410422]]]}},{"type":"Feature","properties":{"id":"lens-detail-nyc-1983-planning_cell-6","layer":"planning_cell","category":"built_environment","year":1983,"visible_year":1983,"title":"1 source-backed planning and built record","confidence":"documented","confidence_mix":"documented:1","event_count":1,"source_count":1,"source_ids":"buis-pvji","event_ids":"nyc_lpc_individual_landmark_368","event_ids_all":"nyc_lpc_individual_landmark_368","source_urls":"https://data.cityofnewyork.us/resource/buis-pvji.json?objectid=368","geometry_precision_mix":"Row-level point from the adapter; source geocoding precision varies and may be approximate.:1","representation":"planning and built evidence grid cell","timing_note":"Filtered by event effective year. OSM mapped-visibility dates and administrative dates can differ from real-world physical change dates.","caveat":"Planning cells are derived from source-backed event locations; they are not parcel boundaries unless source geometry is separately present.","generated_from":"web/data/city-atlas/cities/nyc/events_1983.json","lifecycle_status":"uncertain","status":"source_record","cell_size_m":95,"intensity":0.289,"label":"Individual landmark designated: Puck Building"},"geometry":{"type":"Polygon","coordinates":[[[-73.995824,40.7238591],[-73.9946981,40.7238591],[-73.9946981,40.7247183],[-73.995824,40.7247183],[-73.995824,40.7238591]]]}},{"type":"Feature","properties":{"id":"lens-detail-nyc-1983-planning_cell-7","layer":"planning_cell","category":"built_environment","year":1983,"visible_year":1983,"title":"1 source-backed planning and built record","confidence":"documented","confidence_mix":"documented:1","event_count":1,"source_count":1,"source_ids":"buis-pvji","event_ids":"nyc_lpc_individual_landmark_621","event_ids_all":"nyc_lpc_individual_landmark_621","source_urls":"https://data.cityofnewyork.us/resource/buis-pvji.json?objectid=621","geometry_precision_mix":"Row-level point from the adapter; source geocoding precision varies and may be approximate.:1","representation":"planning and built evidence grid cell","timing_note":"Filtered by event effective year. OSM mapped-visibility dates and administrative dates can differ from real-world physical change dates.","caveat":"Planning cells are derived from source-backed event locations; they are not parcel boundaries unless source geometry is separately present.","generated_from":"web/data/city-atlas/cities/nyc/events_1983.json","lifecycle_status":"uncertain","status":"source_record","cell_size_m":95,"intensity":0.289,"label":"Individual landmark designated: Apollo Theater"},"geometry":{"type":"Polygon","coordinates":[[[-73.9507863,40.8097744],[-73.9496604,40.8097744],[-73.9496604,40.8106336],[-73.9507863,40.8106336],[-73.9507863,40.8097744]]]}},{"type":"Feature","properties":{"id":"lens-detail-nyc-1983-planning_cell-8","layer":"planning_cell","category":"built_environment","year":1983,"visible_year":1983,"title":"1 source-backed planning and built record","confidence":"documented","confidence_mix":"documented:1","event_count":1,"source_count":1,"source_ids":"buis-pvji","event_ids":"nyc_lpc_individual_landmark_626","event_ids_all":"nyc_lpc_individual_landmark_626","source_urls":"https://data.cityofnewyork.us/resource/buis-pvji.json?objectid=626","geometry_precision_mix":"Row-level point from the adapter; source geocoding precision varies and may be approximate.:1","representation":"planning and built evidence grid cell","timing_note":"Filtered by event effective year. OSM mapped-visibility dates and administrative dates can differ from real-world physical change dates.","caveat":"Planning cells are derived from source-backed event locations; they are not parcel boundaries unless source geometry is separately present.","generated_from":"web/data/city-atlas/cities/nyc/events_1983.json","lifecycle_status":"uncertain","status":"source_record","cell_size_m":95,"intensity":0.289,"label":"Individual landmark designated: Association Residence for Respectable Aged Indigent Females"},"geometry":{"type":"Polygon","coordinates":[[[-73.9665495,40.7986055],[-73.9654235,40.7986055],[-73.9654235,40.7994646],[-73.9665495,40.7994646],[-73.9665495,40.7986055]]]}},{"type":"Feature","properties":{"id":"lens-detail-nyc-1983-planning_cell-9","layer":"planning_cell","category":"built_environment","year":1983,"visible_year":1983,"title":"1 source-backed planning and built record","confidence":"documented","confidence_mix":"documented:1","event_count":1,"source_count":1,"source_ids":"buis-pvji","event_ids":"nyc_lpc_individual_landmark_698","event_ids_all":"nyc_lpc_individual_landmark_698","source_urls":"https://data.cityofnewyork.us/resource/buis-pvji.json?objectid=698","geometry_precision_mix":"Row-level point from the adapter; source geocoding precision varies and may be approximate.:1","representation":"planning and built evidence grid cell","timing_note":"Filtered by event effective year. OSM mapped-visibility dates and administrative dates can differ from real-world physical change dates.","caveat":"Planning cells are derived from source-backed event locations; they are not parcel boundaries unless source geometry is separately present.","generated_from":"web/data/city-atlas/cities/nyc/events_1983.json","lifecycle_status":"uncertain","status":"source_record","cell_size_m":95,"intensity":0.289,"label":"Individual landmark designated: Mecca Temple"},"geometry":{"type":"Polygon","coordinates":[[[-73.9800608,40.7633802],[-73.9789349,40.7633802],[-73.9789349,40.7642393],[-73.9800608,40.7642393],[-73.9800608,40.7633802]]]}}]}
