{"type":"FeatureCollection","name":"nyc_lens_detail_1976","metadata":{"schema_version":"1.0.0","city_id":"nyc","year":1976,"generated_at":"2026-05-19T07:58:30.261Z","source_paths":["web/data/city-atlas/cities/nyc/events_1976.json","web/data/city-atlas/cities/nyc/events.json","web/data/city-atlas/cities/nyc/transport_roads_base.geojson"],"method":"Derived OpenCityLog lens geometry built from source-backed event points plus existing OSM road/detail geometry. Grid cells aggregate events by effective year. Trace lines reuse nearest mapped road geometry for context.","caveats":["Derived cells are evidence grids, not surveyed parcels, catchments, zones, or administrative boundaries.","Trace lines are nearest mapped street or work-location context, not surveyed utility networks, measured traffic speed, spend, vacancy, or service quality. No capacity data is inferred.","Borough, citywide, statistical, corridor, and multi-site records are excluded from site-like lens geometry; they remain available in the event list and evidence records.","OSM mapped-visibility dates and administrative decision dates can differ from real-world physical change dates."],"feature_layers":{"planning_cell":26},"excluded_non_site_record_count":106,"excluded_non_site_reasons":{"non_site_scope":106}},"features":[{"type":"Feature","properties":{"id":"lens-detail-nyc-1976-planning_cell-16","layer":"planning_cell","category":"built_environment","year":1976,"visible_year":1976,"title":"2 source-backed planning and built records","confidence":"documented","confidence_mix":"documented:2","event_count":2,"source_count":1,"source_ids":"buis-pvji","event_ids":"nyc_lpc_individual_landmark_505,nyc_lpc_individual_landmark_637","event_ids_all":"nyc_lpc_individual_landmark_505,nyc_lpc_individual_landmark_637","source_urls":"https://data.cityofnewyork.us/resource/buis-pvji.json?objectid=505,https://data.cityofnewyork.us/resource/buis-pvji.json?objectid=637","geometry_precision_mix":"Row-level point from the adapter; source geocoding precision varies and may be approximate.:2","representation":"planning and built evidence grid cell","timing_note":"Filtered by event effective year. OSM mapped-visibility dates and administrative dates can differ from real-world physical change dates.","caveat":"Planning cells are derived from source-backed event locations; they are not parcel boundaries unless source geometry is separately present.","generated_from":"web/data/city-atlas/cities/nyc/events_1976.json","lifecycle_status":"uncertain","status":"source_record","cell_size_m":95,"intensity":0.458,"label":"Individual landmark designated: Saint Cecilia's Church"},"geometry":{"type":"Polygon","coordinates":[[[-73.9474085,40.7917322],[-73.9462825,40.7917322],[-73.9462825,40.7925914],[-73.9474085,40.7925914],[-73.9474085,40.7917322]]]}},{"type":"Feature","properties":{"id":"lens-detail-nyc-1976-planning_cell-0","layer":"planning_cell","category":"built_environment","year":1976,"visible_year":1976,"title":"1 source-backed planning and built record","confidence":"documented","confidence_mix":"documented:1","event_count":1,"source_count":1,"source_ids":"buis-pvji","event_ids":"nyc_lpc_individual_landmark_1039","event_ids_all":"nyc_lpc_individual_landmark_1039","source_urls":"https://data.cityofnewyork.us/resource/buis-pvji.json?objectid=1039","geometry_precision_mix":"Row-level point from the adapter; source geocoding precision varies and may be approximate.:1","representation":"planning and built evidence grid cell","timing_note":"Filtered by event effective year. OSM mapped-visibility dates and administrative dates can differ from real-world physical change dates.","caveat":"Planning cells are derived from source-backed event locations; they are not parcel boundaries unless source geometry is separately present.","generated_from":"web/data/city-atlas/cities/nyc/events_1976.json","lifecycle_status":"uncertain","status":"source_record","cell_size_m":95,"intensity":0.289,"label":"Individual landmark designated: Deutsches (German) Dispensary"},"geometry":{"type":"Polygon","coordinates":[[[-73.9879424,40.7290141],[-73.9868165,40.7290141],[-73.9868165,40.7298732],[-73.9879424,40.7298732],[-73.9879424,40.7290141]]]}},{"type":"Feature","properties":{"id":"lens-detail-nyc-1976-planning_cell-1","layer":"planning_cell","category":"built_environment","year":1976,"visible_year":1976,"title":"1 source-backed planning and built record","confidence":"documented","confidence_mix":"documented:1","event_count":1,"source_count":1,"source_ids":"buis-pvji","event_ids":"nyc_lpc_individual_landmark_1067","event_ids_all":"nyc_lpc_individual_landmark_1067","source_urls":"https://data.cityofnewyork.us/resource/buis-pvji.json?objectid=1067","geometry_precision_mix":"Row-level point from the adapter; source geocoding precision varies and may be approximate.:1","representation":"planning and built evidence grid cell","timing_note":"Filtered by event effective year. OSM mapped-visibility dates and administrative dates can differ from real-world physical change dates.","caveat":"Planning cells are derived from source-backed event locations; they are not parcel boundaries unless source geometry is separately present.","generated_from":"web/data/city-atlas/cities/nyc/events_1976.json","lifecycle_status":"uncertain","status":"source_record","cell_size_m":95,"intensity":0.289,"label":"Individual landmark designated: Municipal Asphalt Plant"},"geometry":{"type":"Polygon","coordinates":[[[-73.9440306,40.7779858],[-73.9429047,40.7779858],[-73.9429047,40.7788449],[-73.9440306,40.7788449],[-73.9440306,40.7779858]]]}},{"type":"Feature","properties":{"id":"lens-detail-nyc-1976-planning_cell-10","layer":"planning_cell","category":"built_environment","year":1976,"visible_year":1976,"title":"1 source-backed planning and built record","confidence":"documented","confidence_mix":"documented:1","event_count":1,"source_count":1,"source_ids":"buis-pvji","event_ids":"nyc_lpc_individual_landmark_1228","event_ids_all":"nyc_lpc_individual_landmark_1228","source_urls":"https://data.cityofnewyork.us/resource/buis-pvji.json?objectid=1228","geometry_precision_mix":"Row-level point from the adapter; source geocoding precision varies and may be approximate.:1","representation":"planning and built evidence grid cell","timing_note":"Filtered by event effective year. OSM mapped-visibility dates and administrative dates can differ from real-world physical change dates.","caveat":"Planning cells are derived from source-backed event locations; they are not parcel boundaries unless source geometry is separately present.","generated_from":"web/data/city-atlas/cities/nyc/events_1976.json","lifecycle_status":"uncertain","status":"source_record","cell_size_m":95,"intensity":0.289,"label":"Individual landmark designated: Statue of Liberty"},"geometry":{"type":"Polygon","coordinates":[[[-74.0453655,40.6886339],[-74.0442395,40.6886339],[-74.0442395,40.689493],[-74.0453655,40.689493],[-74.0453655,40.6886339]]]}},{"type":"Feature","properties":{"id":"lens-detail-nyc-1976-planning_cell-11","layer":"planning_cell","category":"built_environment","year":1976,"visible_year":1976,"title":"1 source-backed planning and built record","confidence":"documented","confidence_mix":"documented:1","event_count":1,"source_count":1,"source_ids":"buis-pvji","event_ids":"nyc_lpc_individual_landmark_1229","event_ids_all":"nyc_lpc_individual_landmark_1229","source_urls":"https://data.cityofnewyork.us/resource/buis-pvji.json?objectid=1229","geometry_precision_mix":"Row-level point from the adapter; source geocoding precision varies and may be approximate.:1","representation":"planning and built evidence grid cell","timing_note":"Filtered by event effective year. OSM mapped-visibility dates and administrative dates can differ from real-world physical change dates.","caveat":"Planning cells are derived from source-backed event locations; they are not parcel boundaries unless source geometry is separately present.","generated_from":"web/data/city-atlas/cities/nyc/events_1976.json","lifecycle_status":"uncertain","status":"source_record","cell_size_m":95,"intensity":0.289,"label":"Individual landmark designated: Soldiers' and Sailors' Monument"},"geometry":{"type":"Polygon","coordinates":[[[-73.9789349,40.7917322],[-73.9778089,40.7917322],[-73.9778089,40.7925914],[-73.9789349,40.7925914],[-73.9789349,40.7917322]]]}},{"type":"Feature","properties":{"id":"lens-detail-nyc-1976-planning_cell-12","layer":"planning_cell","category":"built_environment","year":1976,"visible_year":1976,"title":"1 source-backed planning and built record","confidence":"documented","confidence_mix":"documented:1","event_count":1,"source_count":1,"source_ids":"buis-pvji","event_ids":"nyc_lpc_individual_landmark_1230","event_ids_all":"nyc_lpc_individual_landmark_1230","source_urls":"https://data.cityofnewyork.us/resource/buis-pvji.json?objectid=1230","geometry_precision_mix":"Row-level point from the adapter; source geocoding precision varies and may be approximate.:1","representation":"planning and built evidence grid cell","timing_note":"Filtered by event effective year. OSM mapped-visibility dates and administrative dates can differ from real-world physical change dates.","caveat":"Planning cells are derived from source-backed event locations; they are not parcel boundaries unless source geometry is separately present.","generated_from":"web/data/city-atlas/cities/nyc/events_1976.json","lifecycle_status":"uncertain","status":"source_record","cell_size_m":95,"intensity":0.289,"label":"Individual landmark designated: Jacob Adriance Farmhouse"},"geometry":{"type":"Polygon","coordinates":[[[-73.721094,40.7487746],[-73.7199681,40.7487746],[-73.7199681,40.7496337],[-73.721094,40.7496337],[-73.721094,40.7487746]]]}},{"type":"Feature","properties":{"id":"lens-detail-nyc-1976-planning_cell-13","layer":"planning_cell","category":"built_environment","year":1976,"visible_year":1976,"title":"1 source-backed planning and built record","confidence":"documented","confidence_mix":"documented:1","event_count":1,"source_count":1,"source_ids":"buis-pvji","event_ids":"nyc_lpc_individual_landmark_14","event_ids_all":"nyc_lpc_individual_landmark_14","source_urls":"https://data.cityofnewyork.us/resource/buis-pvji.json?objectid=14","geometry_precision_mix":"Row-level point from the adapter; source geocoding precision varies and may be approximate.:1","representation":"planning and built evidence grid cell","timing_note":"Filtered by event effective year. OSM mapped-visibility dates and administrative dates can differ from real-world physical change dates.","caveat":"Planning cells are derived from source-backed event locations; they are not parcel boundaries unless source geometry is separately present.","generated_from":"web/data/city-atlas/cities/nyc/events_1976.json","lifecycle_status":"uncertain","status":"source_record","cell_size_m":95,"intensity":0.289,"label":"Individual landmark designated: Stephen D. Barnes House"},"geometry":{"type":"Polygon","coordinates":[[[-74.1568338,40.6362255],[-74.1557079,40.6362255],[-74.1557079,40.6370847],[-74.1568338,40.6370847],[-74.1568338,40.6362255]]]}},{"type":"Feature","properties":{"id":"lens-detail-nyc-1976-planning_cell-14","layer":"planning_cell","category":"built_environment","year":1976,"visible_year":1976,"title":"1 source-backed planning and built record","confidence":"documented","confidence_mix":"documented:1","event_count":1,"source_count":1,"source_ids":"buis-pvji","event_ids":"nyc_lpc_individual_landmark_147","event_ids_all":"nyc_lpc_individual_landmark_147","source_urls":"https://data.cityofnewyork.us/resource/buis-pvji.json?objectid=147","geometry_precision_mix":"Row-level point from the adapter; source geocoding precision varies and may be approximate.:1","representation":"planning and built evidence grid cell","timing_note":"Filtered by event effective year. OSM mapped-visibility dates and administrative dates can differ from real-world physical change dates.","caveat":"Planning cells are derived from source-backed event locations; they are not parcel boundaries unless source geometry is separately present.","generated_from":"web/data/city-atlas/cities/nyc/events_1976.json","lifecycle_status":"uncertain","status":"source_record","cell_size_m":95,"intensity":0.289,"label":"Individual landmark designated: Scribner Building"},"geometry":{"type":"Polygon","coordinates":[[[-73.9901943,40.740183],[-73.9890683,40.740183],[-73.9890683,40.7410422],[-73.9901943,40.7410422],[-73.9901943,40.740183]]]}},{"type":"Feature","properties":{"id":"lens-detail-nyc-1976-planning_cell-15","layer":"planning_cell","category":"built_environment","year":1976,"visible_year":1976,"title":"1 source-backed planning and built record","confidence":"documented","confidence_mix":"documented:1","event_count":1,"source_count":1,"source_ids":"buis-pvji","event_ids":"nyc_lpc_individual_landmark_352","event_ids_all":"nyc_lpc_individual_landmark_352","source_urls":"https://data.cityofnewyork.us/resource/buis-pvji.json?objectid=352","geometry_precision_mix":"Row-level point from the adapter; source geocoding precision varies and may be approximate.:1","representation":"planning and built evidence grid cell","timing_note":"Filtered by event effective year. OSM mapped-visibility dates and administrative dates can differ from real-world physical change dates.","caveat":"Planning cells are derived from source-backed event locations; they are not parcel boundaries unless source geometry is separately present.","generated_from":"web/data/city-atlas/cities/nyc/events_1976.json","lifecycle_status":"uncertain","status":"source_record","cell_size_m":95,"intensity":0.289,"label":"Individual landmark designated: 17 West 16th Street House"},"geometry":{"type":"Polygon","coordinates":[[[-73.9946981,40.7376056],[-73.9935721,40.7376056],[-73.9935721,40.7384647],[-73.9946981,40.7384647],[-73.9946981,40.7376056]]]}},{"type":"Feature","properties":{"id":"lens-detail-nyc-1976-planning_cell-17","layer":"planning_cell","category":"built_environment","year":1976,"visible_year":1976,"title":"1 source-backed planning and built record","confidence":"documented","confidence_mix":"documented:1","event_count":1,"source_count":1,"source_ids":"buis-pvji","event_ids":"nyc_lpc_individual_landmark_509","event_ids_all":"nyc_lpc_individual_landmark_509","source_urls":"https://data.cityofnewyork.us/resource/buis-pvji.json?objectid=509","geometry_precision_mix":"Row-level point from the adapter; source geocoding precision varies and may be approximate.:1","representation":"planning and built evidence grid cell","timing_note":"Filtered by event effective year. OSM mapped-visibility dates and administrative dates can differ from real-world physical change dates.","caveat":"Planning cells are derived from source-backed event locations; they are not parcel boundaries unless source geometry is separately present.","generated_from":"web/data/city-atlas/cities/nyc/events_1976.json","lifecycle_status":"uncertain","status":"source_record","cell_size_m":95,"intensity":0.289,"label":"Individual landmark designated: William Lescaze House and Office"},"geometry":{"type":"Polygon","coordinates":[[[-73.9710533,40.7539295],[-73.9699273,40.7539295],[-73.9699273,40.7547886],[-73.9710533,40.7547886],[-73.9710533,40.7539295]]]}},{"type":"Feature","properties":{"id":"lens-detail-nyc-1976-planning_cell-18","layer":"planning_cell","category":"built_environment","year":1976,"visible_year":1976,"title":"1 source-backed planning and built record","confidence":"documented","confidence_mix":"documented:1","event_count":1,"source_count":1,"source_ids":"buis-pvji","event_ids":"nyc_lpc_individual_landmark_550","event_ids_all":"nyc_lpc_individual_landmark_550","source_urls":"https://data.cityofnewyork.us/resource/buis-pvji.json?objectid=550","geometry_precision_mix":"Row-level point from the adapter; source geocoding precision varies and may be approximate.:1","representation":"planning and built evidence grid cell","timing_note":"Filtered by event effective year. OSM mapped-visibility dates and administrative dates can differ from real-world physical change dates.","caveat":"Planning cells are derived from source-backed event locations; they are not parcel boundaries unless source geometry is separately present.","generated_from":"web/data/city-atlas/cities/nyc/events_1976.json","lifecycle_status":"uncertain","status":"source_record","cell_size_m":95,"intensity":0.289,"label":"Individual landmark designated: Gertrude Rhinelander Waldo House"},"geometry":{"type":"Polygon","coordinates":[[[-73.9654235,40.7711126],[-73.9642976,40.7711126],[-73.9642976,40.7719717],[-73.9654235,40.7719717],[-73.9654235,40.7711126]]]}},{"type":"Feature","properties":{"id":"lens-detail-nyc-1976-planning_cell-19","layer":"planning_cell","category":"built_environment","year":1976,"visible_year":1976,"title":"1 source-backed planning and built record","confidence":"documented","confidence_mix":"documented:1","event_count":1,"source_count":1,"source_ids":"buis-pvji","event_ids":"nyc_lpc_individual_landmark_66","event_ids_all":"nyc_lpc_individual_landmark_66","source_urls":"https://data.cityofnewyork.us/resource/buis-pvji.json?objectid=66","geometry_precision_mix":"Row-level point from the adapter; source geocoding precision varies and may be approximate.:1","representation":"planning and built evidence grid cell","timing_note":"Filtered by event effective year. OSM mapped-visibility dates and administrative dates can differ from real-world physical change dates.","caveat":"Planning cells are derived from source-backed event locations; they are not parcel boundaries unless source geometry is separately present.","generated_from":"web/data/city-atlas/cities/nyc/events_1976.json","lifecycle_status":"uncertain","status":"source_record","cell_size_m":95,"intensity":0.289,"label":"Individual landmark designated: New York State Supreme Court, Queens County, Long Island City Branch"},"geometry":{"type":"Polygon","coordinates":[[[-73.9440306,40.745338],[-73.9429047,40.745338],[-73.9429047,40.7461971],[-73.9440306,40.7461971],[-73.9440306,40.745338]]]}},{"type":"Feature","properties":{"id":"lens-detail-nyc-1976-planning_cell-2","layer":"planning_cell","category":"built_environment","year":1976,"visible_year":1976,"title":"1 source-backed planning and built record","confidence":"documented","confidence_mix":"documented:1","event_count":1,"source_count":1,"source_ids":"buis-pvji","event_ids":"nyc_lpc_individual_landmark_1110","event_ids_all":"nyc_lpc_individual_landmark_1110","source_urls":"https://data.cityofnewyork.us/resource/buis-pvji.json?objectid=1110","geometry_precision_mix":"Row-level point from the adapter; source geocoding precision varies and may be approximate.:1","representation":"planning and built evidence grid cell","timing_note":"Filtered by event effective year. OSM mapped-visibility dates and administrative dates can differ from real-world physical change dates.","caveat":"Planning cells are derived from source-backed event locations; they are not parcel boundaries unless source geometry is separately present.","generated_from":"web/data/city-atlas/cities/nyc/events_1976.json","lifecycle_status":"uncertain","status":"source_record","cell_size_m":95,"intensity":0.289,"label":"Individual landmark designated: Britton Cottage"},"geometry":{"type":"Polygon","coordinates":[[[-74.1467003,40.571789],[-74.1455744,40.571789],[-74.1455744,40.5726482],[-74.1467003,40.5726482],[-74.1467003,40.571789]]]}},{"type":"Feature","properties":{"id":"lens-detail-nyc-1976-planning_cell-20","layer":"planning_cell","category":"built_environment","year":1976,"visible_year":1976,"title":"1 source-backed planning and built record","confidence":"documented","confidence_mix":"documented:1","event_count":1,"source_count":1,"source_ids":"buis-pvji","event_ids":"nyc_lpc_individual_landmark_685","event_ids_all":"nyc_lpc_individual_landmark_685","source_urls":"https://data.cityofnewyork.us/resource/buis-pvji.json?objectid=685","geometry_precision_mix":"Row-level point from the adapter; source geocoding precision varies and may be approximate.:1","representation":"planning and built evidence grid cell","timing_note":"Filtered by event effective year. OSM mapped-visibility dates and administrative dates can differ from real-world physical change dates.","caveat":"Planning cells are derived from source-backed event locations; they are not parcel boundaries unless source geometry is separately present.","generated_from":"web/data/city-atlas/cities/nyc/events_1976.json","lifecycle_status":"uncertain","status":"source_record","cell_size_m":95,"intensity":0.289,"label":"Individual landmark designated: New-York Cancer Hospital"},"geometry":{"type":"Polygon","coordinates":[[[-73.9609198,40.7977463],[-73.9597938,40.7977463],[-73.9597938,40.7986055],[-73.9609198,40.7986055],[-73.9609198,40.7977463]]]}},{"type":"Feature","properties":{"id":"lens-detail-nyc-1976-planning_cell-21","layer":"planning_cell","category":"built_environment","year":1976,"visible_year":1976,"title":"1 source-backed planning and built record","confidence":"documented","confidence_mix":"documented:1","event_count":1,"source_count":1,"source_ids":"buis-pvji","event_ids":"nyc_lpc_individual_landmark_918","event_ids_all":"nyc_lpc_individual_landmark_918","source_urls":"https://data.cityofnewyork.us/resource/buis-pvji.json?objectid=918","geometry_precision_mix":"Row-level point from the adapter; source geocoding precision varies and may be approximate.:1","representation":"planning and built evidence grid cell","timing_note":"Filtered by event effective year. OSM mapped-visibility dates and administrative dates can differ from real-world physical change dates.","caveat":"Planning cells are derived from source-backed event locations; they are not parcel boundaries unless source geometry is separately present.","generated_from":"web/data/city-atlas/cities/nyc/events_1976.json","lifecycle_status":"uncertain","status":"source_record","cell_size_m":95,"intensity":0.289,"label":"Individual landmark designated: Gravesend Cemetery"},"geometry":{"type":"Polygon","coordinates":[[[-73.975557,40.594127],[-73.9744311,40.594127],[-73.9744311,40.5949862],[-73.975557,40.5949862],[-73.975557,40.594127]]]}},{"type":"Feature","properties":{"id":"lens-detail-nyc-1976-planning_cell-22","layer":"planning_cell","category":"built_environment","year":1976,"visible_year":1976,"title":"1 source-backed planning and built record","confidence":"documented","confidence_mix":"documented:1","event_count":1,"source_count":1,"source_ids":"buis-pvji","event_ids":"nyc_lpc_individual_landmark_919","event_ids_all":"nyc_lpc_individual_landmark_919","source_urls":"https://data.cityofnewyork.us/resource/buis-pvji.json?objectid=919","geometry_precision_mix":"Row-level point from the adapter; source geocoding precision varies and may be approximate.:1","representation":"planning and built evidence grid cell","timing_note":"Filtered by event effective year. OSM mapped-visibility dates and administrative dates can differ from real-world physical change dates.","caveat":"Planning cells are derived from source-backed event locations; they are not parcel boundaries unless source geometry is separately present.","generated_from":"web/data/city-atlas/cities/nyc/events_1976.json","lifecycle_status":"uncertain","status":"source_record","cell_size_m":95,"intensity":0.289,"label":"Individual landmark designated: Elias Hubbard Ryder House"},"geometry":{"type":"Polygon","coordinates":[[[-73.9451566,40.6035777],[-73.9440306,40.6035777],[-73.9440306,40.6044368],[-73.9451566,40.6044368],[-73.9451566,40.6035777]]]}},{"type":"Feature","properties":{"id":"lens-detail-nyc-1976-planning_cell-23","layer":"planning_cell","category":"built_environment","year":1976,"visible_year":1976,"title":"1 source-backed planning and built record","confidence":"documented","confidence_mix":"documented:1","event_count":1,"source_count":1,"source_ids":"buis-pvji","event_ids":"nyc_lpc_individual_landmark_936","event_ids_all":"nyc_lpc_individual_landmark_936","source_urls":"https://data.cityofnewyork.us/resource/buis-pvji.json?objectid=936","geometry_precision_mix":"Row-level point from the adapter; source geocoding precision varies and may be approximate.:1","representation":"planning and built evidence grid cell","timing_note":"Filtered by event effective year. OSM mapped-visibility dates and administrative dates can differ from real-world physical change dates.","caveat":"Planning cells are derived from source-backed event locations; they are not parcel boundaries unless source geometry is separately present.","generated_from":"web/data/city-atlas/cities/nyc/events_1976.json","lifecycle_status":"uncertain","status":"source_record","cell_size_m":95,"intensity":0.289,"label":"Individual landmark designated: Bronx County Building"},"geometry":{"type":"Polygon","coordinates":[[[-73.9237637,40.8260984],[-73.9226377,40.8260984],[-73.9226377,40.8269575],[-73.9237637,40.8269575],[-73.9237637,40.8260984]]]}},{"type":"Feature","properties":{"id":"lens-detail-nyc-1976-planning_cell-24","layer":"planning_cell","category":"built_environment","year":1976,"visible_year":1976,"title":"1 source-backed planning and built record","confidence":"documented","confidence_mix":"documented:1","event_count":1,"source_count":1,"source_ids":"buis-pvji","event_ids":"nyc_lpc_individual_landmark_943","event_ids_all":"nyc_lpc_individual_landmark_943","source_urls":"https://data.cityofnewyork.us/resource/buis-pvji.json?objectid=943","geometry_precision_mix":"Row-level point from the adapter; source geocoding precision varies and may be approximate.:1","representation":"planning and built evidence grid cell","timing_note":"Filtered by event effective year. OSM mapped-visibility dates and administrative dates can differ from real-world physical change dates.","caveat":"Planning cells are derived from source-backed event locations; they are not parcel boundaries unless source geometry is separately present.","generated_from":"web/data/city-atlas/cities/nyc/events_1976.json","lifecycle_status":"uncertain","status":"source_record","cell_size_m":95,"intensity":0.289,"label":"Individual landmark designated: Saint Peter's Church, Chapel and Cemetery"},"geometry":{"type":"Polygon","coordinates":[[[-73.8438217,40.8381265],[-73.8426958,40.8381265],[-73.8426958,40.8389857],[-73.8438217,40.8389857],[-73.8438217,40.8381265]]]}},{"type":"Feature","properties":{"id":"lens-detail-nyc-1976-planning_cell-25","layer":"planning_cell","category":"built_environment","year":1976,"visible_year":1976,"title":"1 source-backed planning and built record","confidence":"documented","confidence_mix":"documented:1","event_count":1,"source_count":1,"source_ids":"buis-pvji","event_ids":"nyc_lpc_individual_landmark_987","event_ids_all":"nyc_lpc_individual_landmark_987","source_urls":"https://data.cityofnewyork.us/resource/buis-pvji.json?objectid=987","geometry_precision_mix":"Row-level point from the adapter; source geocoding precision varies and may be approximate.:1","representation":"planning and built evidence grid cell","timing_note":"Filtered by event effective year. OSM mapped-visibility dates and administrative dates can differ from real-world physical change dates.","caveat":"Planning cells are derived from source-backed event locations; they are not parcel boundaries unless source geometry is separately present.","generated_from":"web/data/city-atlas/cities/nyc/events_1976.json","lifecycle_status":"uncertain","status":"source_record","cell_size_m":95,"intensity":0.289,"label":"Individual landmark designated: Surgeon's House"},"geometry":{"type":"Polygon","coordinates":[[[-73.9654235,40.6989437],[-73.9642976,40.6989437],[-73.9642976,40.6998028],[-73.9654235,40.6998028],[-73.9654235,40.6989437]]]}},{"type":"Feature","properties":{"id":"lens-detail-nyc-1976-planning_cell-3","layer":"planning_cell","category":"built_environment","year":1976,"visible_year":1976,"title":"1 source-backed planning and built record","confidence":"documented","confidence_mix":"documented:1","event_count":1,"source_count":1,"source_ids":"buis-pvji","event_ids":"nyc_lpc_individual_landmark_1134","event_ids_all":"nyc_lpc_individual_landmark_1134","source_urls":"https://data.cityofnewyork.us/resource/buis-pvji.json?objectid=1134","geometry_precision_mix":"Row-level point from the adapter; source geocoding precision varies and may be approximate.:1","representation":"planning and built evidence grid cell","timing_note":"Filtered by event effective year. OSM mapped-visibility dates and administrative dates can differ from real-world physical change dates.","caveat":"Planning cells are derived from source-backed event locations; they are not parcel boundaries unless source geometry is separately present.","generated_from":"web/data/city-atlas/cities/nyc/events_1976.json","lifecycle_status":"uncertain","status":"source_record","cell_size_m":95,"intensity":0.289,"label":"Individual landmark designated: New York City Lunatic Asylum"},"geometry":{"type":"Polygon","coordinates":[[[-73.9440306,40.7685351],[-73.9429047,40.7685351],[-73.9429047,40.7693943],[-73.9440306,40.7693943],[-73.9440306,40.7685351]]]}},{"type":"Feature","properties":{"id":"lens-detail-nyc-1976-planning_cell-4","layer":"planning_cell","category":"built_environment","year":1976,"visible_year":1976,"title":"1 source-backed planning and built record","confidence":"documented","confidence_mix":"documented:1","event_count":1,"source_count":1,"source_ids":"buis-pvji","event_ids":"nyc_lpc_individual_landmark_1135","event_ids_all":"nyc_lpc_individual_landmark_1135","source_urls":"https://data.cityofnewyork.us/resource/buis-pvji.json?objectid=1135","geometry_precision_mix":"Row-level point from the adapter; source geocoding precision varies and may be approximate.:1","representation":"planning and built evidence grid cell","timing_note":"Filtered by event effective year. OSM mapped-visibility dates and administrative dates can differ from real-world physical change dates.","caveat":"Planning cells are derived from source-backed event locations; they are not parcel boundaries unless source geometry is separately present.","generated_from":"web/data/city-atlas/cities/nyc/events_1976.json","lifecycle_status":"uncertain","status":"source_record","cell_size_m":95,"intensity":0.289,"label":"Individual landmark designated: Roosevelt Island Lighthouse"},"geometry":{"type":"Polygon","coordinates":[[[-73.9406528,40.7728309],[-73.9395269,40.7728309],[-73.9395269,40.77369],[-73.9406528,40.77369],[-73.9406528,40.7728309]]]}},{"type":"Feature","properties":{"id":"lens-detail-nyc-1976-planning_cell-5","layer":"planning_cell","category":"built_environment","year":1976,"visible_year":1976,"title":"1 source-backed planning and built record","confidence":"documented","confidence_mix":"documented:1","event_count":1,"source_count":1,"source_ids":"buis-pvji","event_ids":"nyc_lpc_individual_landmark_1136","event_ids_all":"nyc_lpc_individual_landmark_1136","source_urls":"https://data.cityofnewyork.us/resource/buis-pvji.json?objectid=1136","geometry_precision_mix":"Row-level point from the adapter; source geocoding precision varies and may be approximate.:1","representation":"planning and built evidence grid cell","timing_note":"Filtered by event effective year. OSM mapped-visibility dates and administrative dates can differ from real-world physical change dates.","caveat":"Planning cells are derived from source-backed event locations; they are not parcel boundaries unless source geometry is separately present.","generated_from":"web/data/city-atlas/cities/nyc/events_1976.json","lifecycle_status":"uncertain","status":"source_record","cell_size_m":95,"intensity":0.289,"label":"Individual landmark designated: Chapel of the Good Shepherd"},"geometry":{"type":"Polygon","coordinates":[[[-73.9507863,40.7616619],[-73.9496604,40.7616619],[-73.9496604,40.762521],[-73.9507863,40.762521],[-73.9507863,40.7616619]]]}},{"type":"Feature","properties":{"id":"lens-detail-nyc-1976-planning_cell-6","layer":"planning_cell","category":"built_environment","year":1976,"visible_year":1976,"title":"1 source-backed planning and built record","confidence":"documented","confidence_mix":"documented:1","event_count":1,"source_count":1,"source_ids":"buis-pvji","event_ids":"nyc_lpc_individual_landmark_1137","event_ids_all":"nyc_lpc_individual_landmark_1137","source_urls":"https://data.cityofnewyork.us/resource/buis-pvji.json?objectid=1137","geometry_precision_mix":"Row-level point from the adapter; source geocoding precision varies and may be approximate.:1","representation":"planning and built evidence grid cell","timing_note":"Filtered by event effective year. OSM mapped-visibility dates and administrative dates can differ from real-world physical change dates.","caveat":"Planning cells are derived from source-backed event locations; they are not parcel boundaries unless source geometry is separately present.","generated_from":"web/data/city-atlas/cities/nyc/events_1976.json","lifecycle_status":"uncertain","status":"source_record","cell_size_m":95,"intensity":0.289,"label":"Individual landmark designated: James Blackwell House"},"geometry":{"type":"Polygon","coordinates":[[[-73.9519122,40.7599436],[-73.9507863,40.7599436],[-73.9507863,40.7608027],[-73.9519122,40.7608027],[-73.9519122,40.7599436]]]}},{"type":"Feature","properties":{"id":"lens-detail-nyc-1976-planning_cell-7","layer":"planning_cell","category":"built_environment","year":1976,"visible_year":1976,"title":"1 source-backed planning and built record","confidence":"documented","confidence_mix":"documented:1","event_count":1,"source_count":1,"source_ids":"buis-pvji","event_ids":"nyc_lpc_individual_landmark_1138","event_ids_all":"nyc_lpc_individual_landmark_1138","source_urls":"https://data.cityofnewyork.us/resource/buis-pvji.json?objectid=1138","geometry_precision_mix":"Row-level point from the adapter; source geocoding precision varies and may be approximate.:1","representation":"planning and built evidence grid cell","timing_note":"Filtered by event effective year. OSM mapped-visibility dates and administrative dates can differ from real-world physical change dates.","caveat":"Planning cells are derived from source-backed event locations; they are not parcel boundaries unless source geometry is separately present.","generated_from":"web/data/city-atlas/cities/nyc/events_1976.json","lifecycle_status":"uncertain","status":"source_record","cell_size_m":95,"intensity":0.289,"label":"Individual landmark designated: Strecker Laboratory"},"geometry":{"type":"Polygon","coordinates":[[[-73.9586679,40.7522112],[-73.957542,40.7522112],[-73.957542,40.7530703],[-73.9586679,40.7530703],[-73.9586679,40.7522112]]]}},{"type":"Feature","properties":{"id":"lens-detail-nyc-1976-planning_cell-8","layer":"planning_cell","category":"built_environment","year":1976,"visible_year":1976,"title":"1 source-backed planning and built record","confidence":"documented","confidence_mix":"documented:1","event_count":1,"source_count":1,"source_ids":"buis-pvji","event_ids":"nyc_lpc_individual_landmark_1139","event_ids_all":"nyc_lpc_individual_landmark_1139","source_urls":"https://data.cityofnewyork.us/resource/buis-pvji.json?objectid=1139","geometry_precision_mix":"Row-level point from the adapter; source geocoding precision varies and may be approximate.:1","representation":"planning and built evidence grid cell","timing_note":"Filtered by event effective year. OSM mapped-visibility dates and administrative dates can differ from real-world physical change dates.","caveat":"Planning cells are derived from source-backed event locations; they are not parcel boundaries unless source geometry is separately present.","generated_from":"web/data/city-atlas/cities/nyc/events_1976.json","lifecycle_status":"uncertain","status":"source_record","cell_size_m":95,"intensity":0.289,"label":"Individual landmark designated: Smallpox Hospital"},"geometry":{"type":"Polygon","coordinates":[[[-73.9597938,40.751352],[-73.9586679,40.751352],[-73.9586679,40.7522112],[-73.9597938,40.7522112],[-73.9597938,40.751352]]]}},{"type":"Feature","properties":{"id":"lens-detail-nyc-1976-planning_cell-9","layer":"planning_cell","category":"built_environment","year":1976,"visible_year":1976,"title":"1 source-backed planning and built record","confidence":"documented","confidence_mix":"documented:1","event_count":1,"source_count":1,"source_ids":"buis-pvji","event_ids":"nyc_lpc_individual_landmark_1227","event_ids_all":"nyc_lpc_individual_landmark_1227","source_urls":"https://data.cityofnewyork.us/resource/buis-pvji.json?objectid=1227","geometry_precision_mix":"Row-level point from the adapter; source geocoding precision varies and may be approximate.:1","representation":"planning and built evidence grid cell","timing_note":"Filtered by event effective year. OSM mapped-visibility dates and administrative dates can differ from real-world physical change dates.","caveat":"Planning cells are derived from source-backed event locations; they are not parcel boundaries unless source geometry is separately present.","generated_from":"web/data/city-atlas/cities/nyc/events_1976.json","lifecycle_status":"uncertain","status":"source_record","cell_size_m":95,"intensity":0.289,"label":"Individual landmark designated: John and Altje Baxter House"},"geometry":{"type":"Polygon","coordinates":[[[-73.9293934,40.6199016],[-73.9282674,40.6199016],[-73.9282674,40.6207608],[-73.9293934,40.6207608],[-73.9293934,40.6199016]]]}}]}
