{"type":"FeatureCollection","name":"nyc_lens_detail_1994","metadata":{"schema_version":"1.0.0","city_id":"nyc","year":1994,"generated_at":"2026-06-03T16:29:15.320Z","source_paths":["web/data/city-atlas/cities/nyc/events_1994.json","web/data/city-atlas/cities/nyc/events.json","web/data/city-atlas/cities/nyc/transport_roads_base.geojson"],"method":"Derived OpenCityLog lens geometry built from source-backed event points plus existing OSM road/detail geometry. Grid cells aggregate events by effective year. Trace lines reuse nearest mapped road geometry for context.","caveats":["Derived cells are evidence grids, not surveyed parcels, catchments, zones, or administrative boundaries.","Trace lines are nearest mapped street or work-location context, not surveyed utility networks, measured traffic speed, spend, vacancy, or service quality. No capacity data is inferred.","When a lens/year has no same-category source-backed records, no coverage geometry is generated; sparse data remains sparse.","Borough, citywide, statistical, corridor, and multi-site records are excluded from site-like lens geometry; they remain available in the event list and evidence records.","OSM mapped-visibility dates and administrative decision dates can differ from real-world physical change dates."],"feature_layers":{"planning_cell":16},"excluded_non_site_record_count":0,"excluded_non_site_reasons":{}},"features":[{"type":"Feature","properties":{"id":"lens-detail-nyc-1994-planning_cell-6","layer":"planning_cell","category":"built_environment","year":1994,"visible_year":1994,"title":"3 source-backed planning and built records","confidence":"documented","confidence_mix":"documented:3","event_count":3,"source_count":1,"source_ids":"buis-pvji","event_ids":"nyc_lpc_individual_landmark_1279,nyc_lpc_individual_landmark_44,nyc_lpc_individual_landmark_47","event_ids_all":"nyc_lpc_individual_landmark_1279,nyc_lpc_individual_landmark_44,nyc_lpc_individual_landmark_47","source_urls":"https://data.cityofnewyork.us/resource/buis-pvji.json?objectid=1279,https://data.cityofnewyork.us/resource/buis-pvji.json?objectid=44,https://data.cityofnewyork.us/resource/buis-pvji.json?objectid=47","geometry_precision_mix":"Row-level point from the adapter; source geocoding precision varies and may be approximate.:3","representation":"planning and built evidence grid cell","timing_note":"Filtered by event effective year. OSM mapped-visibility dates and administrative dates can differ from real-world physical change dates.","caveat":"Planning cells are derived from source-backed event locations; they are not parcel boundaries unless source geometry is separately present.","generated_from":"web/data/city-atlas/cities/nyc/events_1994.json","lifecycle_status":"uncertain","status":"source_record","cell_size_m":95,"intensity":0.578,"label":"Individual landmark designated: Kreischerville Workers' Houses — Staten Island"},"geometry":{"type":"Polygon","coordinates":[[[-74.239412,40.5339863],[-74.2382854,40.5339863],[-74.2382854,40.5348454],[-74.239412,40.5348454],[-74.239412,40.5339863]]]}},{"type":"Feature","properties":{"id":"lens-detail-nyc-1994-planning_cell-0","layer":"planning_cell","category":"built_environment","year":1994,"visible_year":1994,"title":"1 source-backed planning and built record","confidence":"documented","confidence_mix":"documented:1","event_count":1,"source_count":1,"source_ids":"skyk-mpzq","event_ids":"nyc_lpc_historic_district_lp-01883","event_ids_all":"nyc_lpc_historic_district_lp-01883","source_urls":"https://data.cityofnewyork.us/resource/skyk-mpzq.json?lp_number=LP-01883","geometry_precision_mix":"Row-level point from the adapter; source geocoding precision varies and may be approximate.:1","representation":"planning and built evidence grid cell","timing_note":"Filtered by event effective year. OSM mapped-visibility dates and administrative dates can differ from real-world physical change dates.","caveat":"Planning cells are derived from source-backed event locations; they are not parcel boundaries unless source geometry is separately present.","generated_from":"web/data/city-atlas/cities/nyc/events_1994.json","lifecycle_status":"uncertain","status":"source_record","cell_size_m":95,"intensity":0.289,"label":"Historic district designated: St. George / New Brighton Historic District"},"geometry":{"type":"Polygon","coordinates":[[[-74.0850611,40.6465354],[-74.0839344,40.6465354],[-74.0839344,40.6473945],[-74.0850611,40.6473945],[-74.0850611,40.6465354]]]}},{"type":"Feature","properties":{"id":"lens-detail-nyc-1994-planning_cell-1","layer":"planning_cell","category":"built_environment","year":1994,"visible_year":1994,"title":"1 source-backed planning and built record","confidence":"documented","confidence_mix":"documented:1","event_count":1,"source_count":1,"source_ids":"skyk-mpzq","event_ids":"nyc_lpc_historic_district_lp-01898","event_ids_all":"nyc_lpc_historic_district_lp-01898","source_urls":"https://data.cityofnewyork.us/resource/skyk-mpzq.json?lp_number=LP-01898","geometry_precision_mix":"Row-level point from the adapter; source geocoding precision varies and may be approximate.:1","representation":"planning and built evidence grid cell","timing_note":"Filtered by event effective year. OSM mapped-visibility dates and administrative dates can differ from real-world physical change dates.","caveat":"Planning cells are derived from source-backed event locations; they are not parcel boundaries unless source geometry is separately present.","generated_from":"web/data/city-atlas/cities/nyc/events_1994.json","lifecycle_status":"uncertain","status":"source_record","cell_size_m":95,"intensity":0.289,"label":"Historic district designated: Clay Avenue Historic District"},"geometry":{"type":"Polygon","coordinates":[[[-73.9138104,40.8286758],[-73.9126838,40.8286758],[-73.9126838,40.829535],[-73.9138104,40.829535],[-73.9138104,40.8286758]]]}},{"type":"Feature","properties":{"id":"lens-detail-nyc-1994-planning_cell-10","layer":"planning_cell","category":"built_environment","year":1994,"visible_year":1994,"title":"1 source-backed planning and built record","confidence":"documented","confidence_mix":"documented:1","event_count":1,"source_count":1,"source_ids":"buis-pvji","event_ids":"nyc_lpc_individual_landmark_524","event_ids_all":"nyc_lpc_individual_landmark_524","source_urls":"https://data.cityofnewyork.us/resource/buis-pvji.json?objectid=524","geometry_precision_mix":"Row-level point from the adapter; source geocoding precision varies and may be approximate.:1","representation":"planning and built evidence grid cell","timing_note":"Filtered by event effective year. OSM mapped-visibility dates and administrative dates can differ from real-world physical change dates.","caveat":"Planning cells are derived from source-backed event locations; they are not parcel boundaries unless source geometry is separately present.","generated_from":"web/data/city-atlas/cities/nyc/events_1994.json","lifecycle_status":"uncertain","status":"source_record","cell_size_m":95,"intensity":0.289,"label":"Individual landmark designated: Bohemian National Hall"},"geometry":{"type":"Polygon","coordinates":[[[-73.9566231,40.7685351],[-73.9554964,40.7685351],[-73.9554964,40.7693943],[-73.9566231,40.7693943],[-73.9566231,40.7685351]]]}},{"type":"Feature","properties":{"id":"lens-detail-nyc-1994-planning_cell-11","layer":"planning_cell","category":"built_environment","year":1994,"visible_year":1994,"title":"1 source-backed planning and built record","confidence":"documented","confidence_mix":"documented:1","event_count":1,"source_count":1,"source_ids":"buis-pvji","event_ids":"nyc_lpc_individual_landmark_58","event_ids_all":"nyc_lpc_individual_landmark_58","source_urls":"https://data.cityofnewyork.us/resource/buis-pvji.json?objectid=58","geometry_precision_mix":"Row-level point from the adapter; source geocoding precision varies and may be approximate.:1","representation":"planning and built evidence grid cell","timing_note":"Filtered by event effective year. OSM mapped-visibility dates and administrative dates can differ from real-world physical change dates.","caveat":"Planning cells are derived from source-backed event locations; they are not parcel boundaries unless source geometry is separately present.","generated_from":"web/data/city-atlas/cities/nyc/events_1994.json","lifecycle_status":"uncertain","status":"source_record","cell_size_m":95,"intensity":0.289,"label":"Individual landmark designated: Kreischerville Workers' Houses — Staten Island · 58"},"geometry":{"type":"Polygon","coordinates":[[[-74.239412,40.5348454],[-74.2382854,40.5348454],[-74.2382854,40.5357046],[-74.239412,40.5357046],[-74.239412,40.5348454]]]}},{"type":"Feature","properties":{"id":"lens-detail-nyc-1994-planning_cell-12","layer":"planning_cell","category":"built_environment","year":1994,"visible_year":1994,"title":"1 source-backed planning and built record","confidence":"documented","confidence_mix":"documented:1","event_count":1,"source_count":1,"source_ids":"buis-pvji","event_ids":"nyc_lpc_individual_landmark_646","event_ids_all":"nyc_lpc_individual_landmark_646","source_urls":"https://data.cityofnewyork.us/resource/buis-pvji.json?objectid=646","geometry_precision_mix":"Row-level point from the adapter; source geocoding precision varies and may be approximate.:1","representation":"planning and built evidence grid cell","timing_note":"Filtered by event effective year. OSM mapped-visibility dates and administrative dates can differ from real-world physical change dates.","caveat":"Planning cells are derived from source-backed event locations; they are not parcel boundaries unless source geometry is separately present.","generated_from":"web/data/city-atlas/cities/nyc/events_1994.json","lifecycle_status":"uncertain","status":"source_record","cell_size_m":95,"intensity":0.289,"label":"Individual landmark designated: Wadleigh High School for Girls"},"geometry":{"type":"Polygon","coordinates":[[[-73.9543698,40.8020421],[-73.9532431,40.8020421],[-73.9532431,40.8029012],[-73.9543698,40.8029012],[-73.9543698,40.8020421]]]}},{"type":"Feature","properties":{"id":"lens-detail-nyc-1994-planning_cell-13","layer":"planning_cell","category":"built_environment","year":1994,"visible_year":1994,"title":"1 source-backed planning and built record","confidence":"documented","confidence_mix":"documented:1","event_count":1,"source_count":1,"source_ids":"buis-pvji","event_ids":"nyc_lpc_individual_landmark_707","event_ids_all":"nyc_lpc_individual_landmark_707","source_urls":"https://data.cityofnewyork.us/resource/buis-pvji.json?objectid=707","geometry_precision_mix":"Row-level point from the adapter; source geocoding precision varies and may be approximate.:1","representation":"planning and built evidence grid cell","timing_note":"Filtered by event effective year. OSM mapped-visibility dates and administrative dates can differ from real-world physical change dates.","caveat":"Planning cells are derived from source-backed event locations; they are not parcel boundaries unless source geometry is separately present.","generated_from":"web/data/city-atlas/cities/nyc/events_1994.json","lifecycle_status":"uncertain","status":"source_record","cell_size_m":95,"intensity":0.289,"label":"Individual landmark designated: Saint Paul's German Evangelical Lutheran Church"},"geometry":{"type":"Polygon","coordinates":[[[-73.9487365,40.807197],[-73.9476099,40.807197],[-73.9476099,40.8080561],[-73.9487365,40.8080561],[-73.9487365,40.807197]]]}},{"type":"Feature","properties":{"id":"lens-detail-nyc-1994-planning_cell-14","layer":"planning_cell","category":"built_environment","year":1994,"visible_year":1994,"title":"1 source-backed planning and built record","confidence":"documented","confidence_mix":"documented:1","event_count":1,"source_count":1,"source_ids":"buis-pvji","event_ids":"nyc_lpc_individual_landmark_771","event_ids_all":"nyc_lpc_individual_landmark_771","source_urls":"https://data.cityofnewyork.us/resource/buis-pvji.json?objectid=771","geometry_precision_mix":"Row-level point from the adapter; source geocoding precision varies and may be approximate.:1","representation":"planning and built evidence grid cell","timing_note":"Filtered by event effective year. OSM mapped-visibility dates and administrative dates can differ from real-world physical change dates.","caveat":"Planning cells are derived from source-backed event locations; they are not parcel boundaries unless source geometry is separately present.","generated_from":"web/data/city-atlas/cities/nyc/events_1994.json","lifecycle_status":"uncertain","status":"source_record","cell_size_m":95,"intensity":0.289,"label":"Individual landmark designated: Regent Theater"},"geometry":{"type":"Polygon","coordinates":[[[-73.9532431,40.8029012],[-73.9521165,40.8029012],[-73.9521165,40.8037604],[-73.9532431,40.8037604],[-73.9532431,40.8029012]]]}},{"type":"Feature","properties":{"id":"lens-detail-nyc-1994-planning_cell-15","layer":"planning_cell","category":"built_environment","year":1994,"visible_year":1994,"title":"1 source-backed planning and built record","confidence":"documented","confidence_mix":"documented:1","event_count":1,"source_count":1,"source_ids":"buis-pvji","event_ids":"nyc_lpc_individual_landmark_937","event_ids_all":"nyc_lpc_individual_landmark_937","source_urls":"https://data.cityofnewyork.us/resource/buis-pvji.json?objectid=937","geometry_precision_mix":"Row-level point from the adapter; source geocoding precision varies and may be approximate.:1","representation":"planning and built evidence grid cell","timing_note":"Filtered by event effective year. OSM mapped-visibility dates and administrative dates can differ from real-world physical change dates.","caveat":"Planning cells are derived from source-backed event locations; they are not parcel boundaries unless source geometry is separately present.","generated_from":"web/data/city-atlas/cities/nyc/events_1994.json","lifecycle_status":"uncertain","status":"source_record","cell_size_m":95,"intensity":0.289,"label":"Individual landmark designated: Dollar Savings Bank"},"geometry":{"type":"Polygon","coordinates":[[[-73.8969107,40.8630419],[-73.895784,40.8630419],[-73.895784,40.8639011],[-73.8969107,40.8639011],[-73.8969107,40.8630419]]]}},{"type":"Feature","properties":{"id":"lens-detail-nyc-1994-planning_cell-2","layer":"planning_cell","category":"built_environment","year":1994,"visible_year":1994,"title":"1 source-backed planning and built record","confidence":"documented","confidence_mix":"documented:1","event_count":1,"source_count":1,"source_ids":"skyk-mpzq","event_ids":"nyc_lpc_historic_district_lp-01899","event_ids_all":"nyc_lpc_historic_district_lp-01899","source_urls":"https://data.cityofnewyork.us/resource/skyk-mpzq.json?lp_number=LP-01899","geometry_precision_mix":"Row-level point from the adapter; source geocoding precision varies and may be approximate.:1","representation":"planning and built evidence grid cell","timing_note":"Filtered by event effective year. OSM mapped-visibility dates and administrative dates can differ from real-world physical change dates.","caveat":"Planning cells are derived from source-backed event locations; they are not parcel boundaries unless source geometry is separately present.","generated_from":"web/data/city-atlas/cities/nyc/events_1994.json","lifecycle_status":"uncertain","status":"source_record","cell_size_m":95,"intensity":0.289,"label":"Historic district designated: Mott Haven East Historic District"},"geometry":{"type":"Polygon","coordinates":[[[-73.921697,40.8089153],[-73.9205703,40.8089153],[-73.9205703,40.8097744],[-73.921697,40.8097744],[-73.921697,40.8089153]]]}},{"type":"Feature","properties":{"id":"lens-detail-nyc-1994-planning_cell-3","layer":"planning_cell","category":"built_environment","year":1994,"visible_year":1994,"title":"1 source-backed planning and built record","confidence":"documented","confidence_mix":"documented:1","event_count":1,"source_count":1,"source_ids":"skyk-mpzq","event_ids":"nyc_lpc_historic_district_lp-01900","event_ids_all":"nyc_lpc_historic_district_lp-01900","source_urls":"https://data.cityofnewyork.us/resource/skyk-mpzq.json?lp_number=LP-01900","geometry_precision_mix":"Row-level point from the adapter; source geocoding precision varies and may be approximate.:1","representation":"planning and built evidence grid cell","timing_note":"Filtered by event effective year. OSM mapped-visibility dates and administrative dates can differ from real-world physical change dates.","caveat":"Planning cells are derived from source-backed event locations; they are not parcel boundaries unless source geometry is separately present.","generated_from":"web/data/city-atlas/cities/nyc/events_1994.json","lifecycle_status":"uncertain","status":"source_record","cell_size_m":95,"intensity":0.289,"label":"Historic district designated: Bertine Block Historic District"},"geometry":{"type":"Polygon","coordinates":[[[-73.9239503,40.807197],[-73.9228236,40.807197],[-73.9228236,40.8080561],[-73.9239503,40.8080561],[-73.9239503,40.807197]]]}},{"type":"Feature","properties":{"id":"lens-detail-nyc-1994-planning_cell-4","layer":"planning_cell","category":"built_environment","year":1994,"visible_year":1994,"title":"1 source-backed planning and built record","confidence":"documented","confidence_mix":"documented:1","event_count":1,"source_count":1,"source_ids":"buis-pvji","event_ids":"nyc_lpc_individual_landmark_1022","event_ids_all":"nyc_lpc_individual_landmark_1022","source_urls":"https://data.cityofnewyork.us/resource/buis-pvji.json?objectid=1022","geometry_precision_mix":"Row-level point from the adapter; source geocoding precision varies and may be approximate.:1","representation":"planning and built evidence grid cell","timing_note":"Filtered by event effective year. OSM mapped-visibility dates and administrative dates can differ from real-world physical change dates.","caveat":"Planning cells are derived from source-backed event locations; they are not parcel boundaries unless source geometry is separately present.","generated_from":"web/data/city-atlas/cities/nyc/events_1994.json","lifecycle_status":"uncertain","status":"source_record","cell_size_m":95,"intensity":0.289,"label":"Individual landmark designated: 12 West 129th Street House"},"geometry":{"type":"Polygon","coordinates":[[[-73.9419767,40.8089153],[-73.94085,40.8089153],[-73.94085,40.8097744],[-73.9419767,40.8097744],[-73.9419767,40.8089153]]]}},{"type":"Feature","properties":{"id":"lens-detail-nyc-1994-planning_cell-5","layer":"planning_cell","category":"built_environment","year":1994,"visible_year":1994,"title":"1 source-backed planning and built record","confidence":"documented","confidence_mix":"documented:1","event_count":1,"source_count":1,"source_ids":"buis-pvji","event_ids":"nyc_lpc_individual_landmark_1079","event_ids_all":"nyc_lpc_individual_landmark_1079","source_urls":"https://data.cityofnewyork.us/resource/buis-pvji.json?objectid=1079","geometry_precision_mix":"Row-level point from the adapter; source geocoding precision varies and may be approximate.:1","representation":"planning and built evidence grid cell","timing_note":"Filtered by event effective year. OSM mapped-visibility dates and administrative dates can differ from real-world physical change dates.","caveat":"Planning cells are derived from source-backed event locations; they are not parcel boundaries unless source geometry is separately present.","generated_from":"web/data/city-atlas/cities/nyc/events_1994.json","lifecycle_status":"uncertain","status":"source_record","cell_size_m":95,"intensity":0.289,"label":"Individual landmark designated: Trans World Airlines Flight Center at New York International Airport"},"geometry":{"type":"Polygon","coordinates":[[[-73.7774859,40.644817],[-73.7763592,40.644817],[-73.7763592,40.6456762],[-73.7774859,40.6456762],[-73.7774859,40.644817]]]}},{"type":"Feature","properties":{"id":"lens-detail-nyc-1994-planning_cell-7","layer":"planning_cell","category":"built_environment","year":1994,"visible_year":1994,"title":"1 source-backed planning and built record","confidence":"documented","confidence_mix":"documented:1","event_count":1,"source_count":1,"source_ids":"buis-pvji","event_ids":"nyc_lpc_individual_landmark_1280","event_ids_all":"nyc_lpc_individual_landmark_1280","source_urls":"https://data.cityofnewyork.us/resource/buis-pvji.json?objectid=1280","geometry_precision_mix":"Row-level point from the adapter; source geocoding precision varies and may be approximate.:1","representation":"planning and built evidence grid cell","timing_note":"Filtered by event effective year. OSM mapped-visibility dates and administrative dates can differ from real-world physical change dates.","caveat":"Planning cells are derived from source-backed event locations; they are not parcel boundaries unless source geometry is separately present.","generated_from":"web/data/city-atlas/cities/nyc/events_1994.json","lifecycle_status":"uncertain","status":"source_record","cell_size_m":95,"intensity":0.289,"label":"Individual landmark designated: Saint Peter's German Evangelical Reformed Church at Kreischerville"},"geometry":{"type":"Polygon","coordinates":[[[-74.2382854,40.5365637],[-74.2371587,40.5365637],[-74.2371587,40.5374229],[-74.2382854,40.5374229],[-74.2382854,40.5365637]]]}},{"type":"Feature","properties":{"id":"lens-detail-nyc-1994-planning_cell-8","layer":"planning_cell","category":"built_environment","year":1994,"visible_year":1994,"title":"1 source-backed planning and built record","confidence":"documented","confidence_mix":"documented:1","event_count":1,"source_count":1,"source_ids":"buis-pvji","event_ids":"nyc_lpc_individual_landmark_1282","event_ids_all":"nyc_lpc_individual_landmark_1282","source_urls":"https://data.cityofnewyork.us/resource/buis-pvji.json?objectid=1282","geometry_precision_mix":"Row-level point from the adapter; source geocoding precision varies and may be approximate.:1","representation":"planning and built evidence grid cell","timing_note":"Filtered by event effective year. OSM mapped-visibility dates and administrative dates can differ from real-world physical change dates.","caveat":"Planning cells are derived from source-backed event locations; they are not parcel boundaries unless source geometry is separately present.","generated_from":"web/data/city-atlas/cities/nyc/events_1994.json","lifecycle_status":"uncertain","status":"source_record","cell_size_m":95,"intensity":0.289,"label":"Individual landmark designated: Van Schaick Free Reading Room/Huntington Free Library and Reading Room"},"geometry":{"type":"Polygon","coordinates":[[[-73.8439582,40.8398448],[-73.8428315,40.8398448],[-73.8428315,40.840704],[-73.8439582,40.840704],[-73.8439582,40.8398448]]]}},{"type":"Feature","properties":{"id":"lens-detail-nyc-1994-planning_cell-9","layer":"planning_cell","category":"built_environment","year":1994,"visible_year":1994,"title":"1 source-backed planning and built record","confidence":"documented","confidence_mix":"documented:1","event_count":1,"source_count":1,"source_ids":"buis-pvji","event_ids":"nyc_lpc_individual_landmark_1283","event_ids_all":"nyc_lpc_individual_landmark_1283","source_urls":"https://data.cityofnewyork.us/resource/buis-pvji.json?objectid=1283","geometry_precision_mix":"Row-level point from the adapter; source geocoding precision varies and may be approximate.:1","representation":"planning and built evidence grid cell","timing_note":"Filtered by event effective year. OSM mapped-visibility dates and administrative dates can differ from real-world physical change dates.","caveat":"Planning cells are derived from source-backed event locations; they are not parcel boundaries unless source geometry is separately present.","generated_from":"web/data/city-atlas/cities/nyc/events_1994.json","lifecycle_status":"uncertain","status":"source_record","cell_size_m":95,"intensity":0.289,"label":"Individual landmark designated: Dime Savings Bank"},"geometry":{"type":"Polygon","coordinates":[[[-73.982536,40.6903522],[-73.9814094,40.6903522],[-73.9814094,40.6912113],[-73.982536,40.6912113],[-73.982536,40.6903522]]]}}]}
