{"type":"FeatureCollection","name":"nyc_lens_detail_2003","metadata":{"schema_version":"1.0.0","city_id":"nyc","year":2003,"generated_at":"2026-05-30T21:29:02.203Z","source_paths":["web/data/city-atlas/cities/nyc/events_2003.json","web/data/city-atlas/cities/nyc/events.json","web/data/city-atlas/cities/nyc/transport_roads_base.geojson"],"method":"Derived OpenCityLog lens geometry built from source-backed event points plus existing OSM road/detail geometry. Grid cells aggregate events by effective year. Trace lines reuse nearest mapped road geometry for context.","caveats":["Derived cells are evidence grids, not surveyed parcels, catchments, zones, or administrative boundaries.","Trace lines are nearest mapped street or work-location context, not surveyed utility networks, measured traffic speed, spend, vacancy, or service quality. No capacity data is inferred.","When a lens/year has no same-category source-backed records, faint coverage-context grids keep the lens visible while explicitly recording the source gap. Those context features are not city-change events and are excluded from headline counts.","Borough, citywide, statistical, corridor, and multi-site records are excluded from site-like lens geometry; they remain available in the event list and evidence records.","OSM mapped-visibility dates and administrative decision dates can differ from real-world physical change dates."],"feature_layers":{"planning_cell":10,"economy_activity_cell":25,"utility_trace":12},"excluded_non_site_record_count":0,"excluded_non_site_reasons":{}},"features":[{"type":"Feature","properties":{"id":"lens-detail-nyc-2003-planning_cell-0","layer":"planning_cell","category":"built_environment","year":2003,"visible_year":2003,"title":"1 source-backed planning and built record","confidence":"documented","confidence_mix":"documented:1","event_count":1,"source_count":1,"source_ids":"skyk-mpzq","event_ids":"nyc_lpc_historic_district_lp-02129","event_ids_all":"nyc_lpc_historic_district_lp-02129","source_urls":"https://data.cityofnewyork.us/resource/skyk-mpzq.json?lp_number=LP-02129","geometry_precision_mix":"Row-level point from the adapter; source geocoding precision varies and may be approximate.:1","representation":"planning and built evidence grid cell","timing_note":"Filtered by event effective year. OSM mapped-visibility dates and administrative dates can differ from real-world physical change dates.","caveat":"Planning cells are derived from source-backed event locations; they are not parcel boundaries unless source geometry is separately present.","generated_from":"web/data/city-atlas/cities/nyc/events_2003.json","lifecycle_status":"uncertain","status":"source_record","cell_size_m":95,"intensity":0.289,"label":"Historic district designated: Noho East Historic District"},"geometry":{"type":"Polygon","coordinates":[[[-73.9938025,40.7247183],[-73.9926759,40.7247183],[-73.9926759,40.7255774],[-73.9938025,40.7255774],[-73.9938025,40.7247183]]]}},{"type":"Feature","properties":{"id":"lens-detail-nyc-2003-planning_cell-1","layer":"planning_cell","category":"built_environment","year":2003,"visible_year":2003,"title":"1 source-backed planning and built record","confidence":"documented","confidence_mix":"documented:1","event_count":1,"source_count":1,"source_ids":"skyk-mpzq","event_ids":"nyc_lpc_historic_district_lp-02132","event_ids_all":"nyc_lpc_historic_district_lp-02132","source_urls":"https://data.cityofnewyork.us/resource/skyk-mpzq.json?lp_number=LP-02132","geometry_precision_mix":"Row-level point from the adapter; source geocoding precision varies and may be approximate.:1","representation":"planning and built evidence grid cell","timing_note":"Filtered by event effective year. OSM mapped-visibility dates and administrative dates can differ from real-world physical change dates.","caveat":"Planning cells are derived from source-backed event locations; they are not parcel boundaries unless source geometry is separately present.","generated_from":"web/data/city-atlas/cities/nyc/events_2003.json","lifecycle_status":"uncertain","status":"source_record","cell_size_m":95,"intensity":0.289,"label":"Historic district designated: Gansevoort Market Historic District"},"geometry":{"type":"Polygon","coordinates":[[[-74.0073223,40.7393239],[-74.0061956,40.7393239],[-74.0061956,40.740183],[-74.0073223,40.740183],[-74.0073223,40.7393239]]]}},{"type":"Feature","properties":{"id":"lens-detail-nyc-2003-planning_cell-2","layer":"planning_cell","category":"built_environment","year":2003,"visible_year":2003,"title":"1 source-backed planning and built record","confidence":"documented","confidence_mix":"documented:1","event_count":1,"source_count":1,"source_ids":"buis-pvji","event_ids":"nyc_lpc_individual_landmark_1305","event_ids_all":"nyc_lpc_individual_landmark_1305","source_urls":"https://data.cityofnewyork.us/resource/buis-pvji.json?objectid=1305","geometry_precision_mix":"Row-level point from the adapter; source geocoding precision varies and may be approximate.:1","representation":"planning and built evidence grid cell","timing_note":"Filtered by event effective year. OSM mapped-visibility dates and administrative dates can differ from real-world physical change dates.","caveat":"Planning cells are derived from source-backed event locations; they are not parcel boundaries unless source geometry is separately present.","generated_from":"web/data/city-atlas/cities/nyc/events_2003.json","lifecycle_status":"uncertain","status":"source_record","cell_size_m":95,"intensity":0.289,"label":"Individual landmark designated: Williamsburg Houses"},"geometry":{"type":"Polygon","coordinates":[[[-73.9431033,40.7101127],[-73.9419767,40.7101127],[-73.9419767,40.7109718],[-73.9431033,40.7109718],[-73.9431033,40.7101127]]]}},{"type":"Feature","properties":{"id":"lens-detail-nyc-2003-planning_cell-3","layer":"planning_cell","category":"built_environment","year":2003,"visible_year":2003,"title":"1 source-backed planning and built record","confidence":"documented","confidence_mix":"documented:1","event_count":1,"source_count":1,"source_ids":"buis-pvji","event_ids":"nyc_lpc_individual_landmark_1306","event_ids_all":"nyc_lpc_individual_landmark_1306","source_urls":"https://data.cityofnewyork.us/resource/buis-pvji.json?objectid=1306","geometry_precision_mix":"Row-level point from the adapter; source geocoding precision varies and may be approximate.:1","representation":"planning and built evidence grid cell","timing_note":"Filtered by event effective year. OSM mapped-visibility dates and administrative dates can differ from real-world physical change dates.","caveat":"Planning cells are derived from source-backed event locations; they are not parcel boundaries unless source geometry is separately present.","generated_from":"web/data/city-atlas/cities/nyc/events_2003.json","lifecycle_status":"uncertain","status":"source_record","cell_size_m":95,"intensity":0.289,"label":"Individual landmark designated: Williamsburg Houses"},"geometry":{"type":"Polygon","coordinates":[[[-73.94423,40.7101127],[-73.9431033,40.7101127],[-73.9431033,40.7109718],[-73.94423,40.7109718],[-73.94423,40.7101127]]]}},{"type":"Feature","properties":{"id":"lens-detail-nyc-2003-planning_cell-4","layer":"planning_cell","category":"built_environment","year":2003,"visible_year":2003,"title":"1 source-backed planning and built record","confidence":"documented","confidence_mix":"documented:1","event_count":1,"source_count":1,"source_ids":"buis-pvji","event_ids":"nyc_lpc_individual_landmark_439","event_ids_all":"nyc_lpc_individual_landmark_439","source_urls":"https://data.cityofnewyork.us/resource/buis-pvji.json?objectid=439","geometry_precision_mix":"Row-level point from the adapter; source geocoding precision varies and may be approximate.:1","representation":"planning and built evidence grid cell","timing_note":"Filtered by event effective year. OSM mapped-visibility dates and administrative dates can differ from real-world physical change dates.","caveat":"Planning cells are derived from source-backed event locations; they are not parcel boundaries unless source geometry is separately present.","generated_from":"web/data/city-atlas/cities/nyc/events_2003.json","lifecycle_status":"uncertain","status":"source_record","cell_size_m":95,"intensity":0.289,"label":"Individual landmark designated: Brown Building"},"geometry":{"type":"Polygon","coordinates":[[[-73.9960558,40.7298732],[-73.9949292,40.7298732],[-73.9949292,40.7307324],[-73.9960558,40.7307324],[-73.9960558,40.7298732]]]}},{"type":"Feature","properties":{"id":"lens-detail-nyc-2003-planning_cell-5","layer":"planning_cell","category":"built_environment","year":2003,"visible_year":2003,"title":"1 source-backed planning and built record","confidence":"documented","confidence_mix":"documented:1","event_count":1,"source_count":1,"source_ids":"buis-pvji","event_ids":"nyc_lpc_individual_landmark_671","event_ids_all":"nyc_lpc_individual_landmark_671","source_urls":"https://data.cityofnewyork.us/resource/buis-pvji.json?objectid=671","geometry_precision_mix":"Row-level point from the adapter; source geocoding precision varies and may be approximate.:1","representation":"planning and built evidence grid cell","timing_note":"Filtered by event effective year. OSM mapped-visibility dates and administrative dates can differ from real-world physical change dates.","caveat":"Planning cells are derived from source-backed event locations; they are not parcel boundaries unless source geometry is separately present.","generated_from":"web/data/city-atlas/cities/nyc/events_2003.json","lifecycle_status":"uncertain","status":"source_record","cell_size_m":95,"intensity":0.289,"label":"Individual landmark designated: Socony-Mobil Building"},"geometry":{"type":"Polygon","coordinates":[[[-73.9757761,40.7504929],[-73.9746495,40.7504929],[-73.9746495,40.751352],[-73.9757761,40.751352],[-73.9757761,40.7504929]]]}},{"type":"Feature","properties":{"id":"lens-detail-nyc-2003-planning_cell-6","layer":"planning_cell","category":"built_environment","year":2003,"visible_year":2003,"title":"1 source-backed planning and built record","confidence":"documented","confidence_mix":"documented:1","event_count":1,"source_count":1,"source_ids":"buis-pvji","event_ids":"nyc_lpc_individual_landmark_712","event_ids_all":"nyc_lpc_individual_landmark_712","source_urls":"https://data.cityofnewyork.us/resource/buis-pvji.json?objectid=712","geometry_precision_mix":"Row-level point from the adapter; source geocoding precision varies and may be approximate.:1","representation":"planning and built evidence grid cell","timing_note":"Filtered by event effective year. OSM mapped-visibility dates and administrative dates can differ from real-world physical change dates.","caveat":"Planning cells are derived from source-backed event locations; they are not parcel boundaries unless source geometry is separately present.","generated_from":"web/data/city-atlas/cities/nyc/events_2003.json","lifecycle_status":"uncertain","status":"source_record","cell_size_m":95,"intensity":0.289,"label":"Individual landmark designated: L. P. Hollander & Company Building"},"geometry":{"type":"Polygon","coordinates":[[[-73.9735228,40.762521],[-73.9723962,40.762521],[-73.9723962,40.7633802],[-73.9735228,40.7633802],[-73.9735228,40.762521]]]}},{"type":"Feature","properties":{"id":"lens-detail-nyc-2003-planning_cell-7","layer":"planning_cell","category":"built_environment","year":2003,"visible_year":2003,"title":"1 source-backed planning and built record","confidence":"documented","confidence_mix":"documented:1","event_count":1,"source_count":1,"source_ids":"buis-pvji","event_ids":"nyc_lpc_individual_landmark_75","event_ids_all":"nyc_lpc_individual_landmark_75","source_urls":"https://data.cityofnewyork.us/resource/buis-pvji.json?objectid=75","geometry_precision_mix":"Row-level point from the adapter; source geocoding precision varies and may be approximate.:1","representation":"planning and built evidence grid cell","timing_note":"Filtered by event effective year. OSM mapped-visibility dates and administrative dates can differ from real-world physical change dates.","caveat":"Planning cells are derived from source-backed event locations; they are not parcel boundaries unless source geometry is separately present.","generated_from":"web/data/city-atlas/cities/nyc/events_2003.json","lifecycle_status":"uncertain","status":"source_record","cell_size_m":95,"intensity":0.289,"label":"Individual landmark designated: Newtown High School"},"geometry":{"type":"Polygon","coordinates":[[[-73.8743777,40.740183],[-73.8732511,40.740183],[-73.8732511,40.7410422],[-73.8743777,40.7410422],[-73.8743777,40.740183]]]}},{"type":"Feature","properties":{"id":"lens-detail-nyc-2003-planning_cell-8","layer":"planning_cell","category":"built_environment","year":2003,"visible_year":2003,"title":"1 source-backed planning and built record","confidence":"documented","confidence_mix":"documented:1","event_count":1,"source_count":1,"source_ids":"buis-pvji","event_ids":"nyc_lpc_individual_landmark_861","event_ids_all":"nyc_lpc_individual_landmark_861","source_urls":"https://data.cityofnewyork.us/resource/buis-pvji.json?objectid=861","geometry_precision_mix":"Row-level point from the adapter; source geocoding precision varies and may be approximate.:1","representation":"planning and built evidence grid cell","timing_note":"Filtered by event effective year. OSM mapped-visibility dates and administrative dates can differ from real-world physical change dates.","caveat":"Planning cells are derived from source-backed event locations; they are not parcel boundaries unless source geometry is separately present.","generated_from":"web/data/city-atlas/cities/nyc/events_2003.json","lifecycle_status":"uncertain","status":"source_record","cell_size_m":95,"intensity":0.289,"label":"Individual landmark designated: Child's Restaurant Building"},"geometry":{"type":"Polygon","coordinates":[[[-73.9881693,40.5726482],[-73.9870426,40.5726482],[-73.9870426,40.5735073],[-73.9881693,40.5735073],[-73.9881693,40.5726482]]]}},{"type":"Feature","properties":{"id":"lens-detail-nyc-2003-planning_cell-9","layer":"planning_cell","category":"built_environment","year":2003,"visible_year":2003,"title":"1 source-backed planning and built record","confidence":"documented","confidence_mix":"documented:1","event_count":1,"source_count":1,"source_ids":"buis-pvji","event_ids":"nyc_lpc_individual_landmark_909","event_ids_all":"nyc_lpc_individual_landmark_909","source_urls":"https://data.cityofnewyork.us/resource/buis-pvji.json?objectid=909","geometry_precision_mix":"Row-level point from the adapter; source geocoding precision varies and may be approximate.:1","representation":"planning and built evidence grid cell","timing_note":"Filtered by event effective year. OSM mapped-visibility dates and administrative dates can differ from real-world physical change dates.","caveat":"Planning cells are derived from source-backed event locations; they are not parcel boundaries unless source geometry is separately present.","generated_from":"web/data/city-atlas/cities/nyc/events_2003.json","lifecycle_status":"uncertain","status":"source_record","cell_size_m":95,"intensity":0.289,"label":"Individual landmark designated: Erasmus Hall High School"},"geometry":{"type":"Polygon","coordinates":[[[-73.9577497,40.6491128],[-73.9566231,40.6491128],[-73.9566231,40.649972],[-73.9577497,40.649972],[-73.9577497,40.6491128]]]}},{"type":"Feature","properties":{"id":"lens-detail-nyc-2003-economy_activity_cell-coverage-context-0","layer":"economy_activity_cell","category":"economy","year":2003,"visible_year":2003,"title":"New York City, New York 2003 economy coverage context","confidence":"inferred","confidence_mix":"inferred:1","event_count":0,"source_count":3,"source_ids":"as9z-kwsh,skyk-mpzq,buis-pvji","event_ids":"","event_ids_all":"","source_urls":"","geometry_precision_mix":"configured atlas coverage grid from official scope sources","representation":"economy lens coverage context","timing_note":"No license-compatible economy records are currently ingested for 2003; this lens geometry marks source coverage context only.","caveat":"Coverage context is not a city-change event, not a measured condition, and is excluded from headline counts.","generated_from":"web/data/city-atlas/cities/nyc/events_2003.json","coverage_status":"no_same_category_records","evidence_role":"context_not_year_specific_change_evidence","source_kind":"official_scope_context","headline_count_excluded":true,"intensity":0.16,"label":"No same-lens economy records currently ingested","sector":"coverage_context","activity_status":"no_year_records","status":"no_year_records"},"geometry":{"type":"Polygon","coordinates":[[[-74.2591,40.4774],[-74.14736,40.4774],[-74.14736,40.56544],[-74.2591,40.56544],[-74.2591,40.4774]]]}},{"type":"Feature","properties":{"id":"lens-detail-nyc-2003-economy_activity_cell-coverage-context-1","layer":"economy_activity_cell","category":"economy","year":2003,"visible_year":2003,"title":"New York City, New York 2003 economy coverage context","confidence":"inferred","confidence_mix":"inferred:1","event_count":0,"source_count":3,"source_ids":"as9z-kwsh,skyk-mpzq,buis-pvji","event_ids":"","event_ids_all":"","source_urls":"","geometry_precision_mix":"configured atlas coverage grid from official scope sources","representation":"economy lens coverage context","timing_note":"No license-compatible economy records are currently ingested for 2003; this lens geometry marks source coverage context only.","caveat":"Coverage context is not a city-change event, not a measured condition, and is excluded from headline counts.","generated_from":"web/data/city-atlas/cities/nyc/events_2003.json","coverage_status":"no_same_category_records","evidence_role":"context_not_year_specific_change_evidence","source_kind":"official_scope_context","headline_count_excluded":true,"intensity":0.16,"label":"No same-lens economy records currently ingested","sector":"coverage_context","activity_status":"no_year_records","status":"no_year_records"},"geometry":{"type":"Polygon","coordinates":[[[-74.14736,40.4774],[-74.03562,40.4774],[-74.03562,40.56544],[-74.14736,40.56544],[-74.14736,40.4774]]]}},{"type":"Feature","properties":{"id":"lens-detail-nyc-2003-economy_activity_cell-coverage-context-2","layer":"economy_activity_cell","category":"economy","year":2003,"visible_year":2003,"title":"New York City, New York 2003 economy coverage context","confidence":"inferred","confidence_mix":"inferred:1","event_count":0,"source_count":3,"source_ids":"as9z-kwsh,skyk-mpzq,buis-pvji","event_ids":"","event_ids_all":"","source_urls":"","geometry_precision_mix":"configured atlas coverage grid from official scope sources","representation":"economy lens coverage context","timing_note":"No license-compatible economy records are currently ingested for 2003; this lens geometry marks source coverage context only.","caveat":"Coverage context is not a city-change event, not a measured condition, and is excluded from headline counts.","generated_from":"web/data/city-atlas/cities/nyc/events_2003.json","coverage_status":"no_same_category_records","evidence_role":"context_not_year_specific_change_evidence","source_kind":"official_scope_context","headline_count_excluded":true,"intensity":0.16,"label":"No same-lens economy records currently ingested","sector":"coverage_context","activity_status":"no_year_records","status":"no_year_records"},"geometry":{"type":"Polygon","coordinates":[[[-74.03562,40.4774],[-73.92388,40.4774],[-73.92388,40.56544],[-74.03562,40.56544],[-74.03562,40.4774]]]}},{"type":"Feature","properties":{"id":"lens-detail-nyc-2003-economy_activity_cell-coverage-context-3","layer":"economy_activity_cell","category":"economy","year":2003,"visible_year":2003,"title":"New York City, New York 2003 economy coverage context","confidence":"inferred","confidence_mix":"inferred:1","event_count":0,"source_count":3,"source_ids":"as9z-kwsh,skyk-mpzq,buis-pvji","event_ids":"","event_ids_all":"","source_urls":"","geometry_precision_mix":"configured atlas coverage grid from official scope sources","representation":"economy lens coverage context","timing_note":"No license-compatible economy records are currently ingested for 2003; this lens geometry marks source coverage context only.","caveat":"Coverage context is not a city-change event, not a measured condition, and is excluded from headline counts.","generated_from":"web/data/city-atlas/cities/nyc/events_2003.json","coverage_status":"no_same_category_records","evidence_role":"context_not_year_specific_change_evidence","source_kind":"official_scope_context","headline_count_excluded":true,"intensity":0.16,"label":"No same-lens economy records currently ingested","sector":"coverage_context","activity_status":"no_year_records","status":"no_year_records"},"geometry":{"type":"Polygon","coordinates":[[[-73.92388,40.4774],[-73.81214,40.4774],[-73.81214,40.56544],[-73.92388,40.56544],[-73.92388,40.4774]]]}},{"type":"Feature","properties":{"id":"lens-detail-nyc-2003-economy_activity_cell-coverage-context-4","layer":"economy_activity_cell","category":"economy","year":2003,"visible_year":2003,"title":"New York City, New York 2003 economy coverage context","confidence":"inferred","confidence_mix":"inferred:1","event_count":0,"source_count":3,"source_ids":"as9z-kwsh,skyk-mpzq,buis-pvji","event_ids":"","event_ids_all":"","source_urls":"","geometry_precision_mix":"configured atlas coverage grid from official scope sources","representation":"economy lens coverage context","timing_note":"No license-compatible economy records are currently ingested for 2003; this lens geometry marks source coverage context only.","caveat":"Coverage context is not a city-change event, not a measured condition, and is excluded from headline counts.","generated_from":"web/data/city-atlas/cities/nyc/events_2003.json","coverage_status":"no_same_category_records","evidence_role":"context_not_year_specific_change_evidence","source_kind":"official_scope_context","headline_count_excluded":true,"intensity":0.16,"label":"No same-lens economy records currently ingested","sector":"coverage_context","activity_status":"no_year_records","status":"no_year_records"},"geometry":{"type":"Polygon","coordinates":[[[-73.81214,40.4774],[-73.7004,40.4774],[-73.7004,40.56544],[-73.81214,40.56544],[-73.81214,40.4774]]]}},{"type":"Feature","properties":{"id":"lens-detail-nyc-2003-economy_activity_cell-coverage-context-5","layer":"economy_activity_cell","category":"economy","year":2003,"visible_year":2003,"title":"New York City, New York 2003 economy coverage context","confidence":"inferred","confidence_mix":"inferred:1","event_count":0,"source_count":3,"source_ids":"as9z-kwsh,skyk-mpzq,buis-pvji","event_ids":"","event_ids_all":"","source_urls":"","geometry_precision_mix":"configured atlas coverage grid from official scope sources","representation":"economy lens coverage context","timing_note":"No license-compatible economy records are currently ingested for 2003; this lens geometry marks source coverage context only.","caveat":"Coverage context is not a city-change event, not a measured condition, and is excluded from headline counts.","generated_from":"web/data/city-atlas/cities/nyc/events_2003.json","coverage_status":"no_same_category_records","evidence_role":"context_not_year_specific_change_evidence","source_kind":"official_scope_context","headline_count_excluded":true,"intensity":0.16,"label":"No same-lens economy records currently ingested","sector":"coverage_context","activity_status":"no_year_records","status":"no_year_records"},"geometry":{"type":"Polygon","coordinates":[[[-74.2591,40.56544],[-74.14736,40.56544],[-74.14736,40.65348],[-74.2591,40.65348],[-74.2591,40.56544]]]}},{"type":"Feature","properties":{"id":"lens-detail-nyc-2003-economy_activity_cell-coverage-context-6","layer":"economy_activity_cell","category":"economy","year":2003,"visible_year":2003,"title":"New York City, New York 2003 economy coverage context","confidence":"inferred","confidence_mix":"inferred:1","event_count":0,"source_count":3,"source_ids":"as9z-kwsh,skyk-mpzq,buis-pvji","event_ids":"","event_ids_all":"","source_urls":"","geometry_precision_mix":"configured atlas coverage grid from official scope sources","representation":"economy lens coverage context","timing_note":"No license-compatible economy records are currently ingested for 2003; this lens geometry marks source coverage context only.","caveat":"Coverage context is not a city-change event, not a measured condition, and is excluded from headline counts.","generated_from":"web/data/city-atlas/cities/nyc/events_2003.json","coverage_status":"no_same_category_records","evidence_role":"context_not_year_specific_change_evidence","source_kind":"official_scope_context","headline_count_excluded":true,"intensity":0.16,"label":"No same-lens economy records currently ingested","sector":"coverage_context","activity_status":"no_year_records","status":"no_year_records"},"geometry":{"type":"Polygon","coordinates":[[[-74.14736,40.56544],[-74.03562,40.56544],[-74.03562,40.65348],[-74.14736,40.65348],[-74.14736,40.56544]]]}},{"type":"Feature","properties":{"id":"lens-detail-nyc-2003-economy_activity_cell-coverage-context-7","layer":"economy_activity_cell","category":"economy","year":2003,"visible_year":2003,"title":"New York City, New York 2003 economy coverage context","confidence":"inferred","confidence_mix":"inferred:1","event_count":0,"source_count":3,"source_ids":"as9z-kwsh,skyk-mpzq,buis-pvji","event_ids":"","event_ids_all":"","source_urls":"","geometry_precision_mix":"configured atlas coverage grid from official scope sources","representation":"economy lens coverage context","timing_note":"No license-compatible economy records are currently ingested for 2003; this lens geometry marks source coverage context only.","caveat":"Coverage context is not a city-change event, not a measured condition, and is excluded from headline counts.","generated_from":"web/data/city-atlas/cities/nyc/events_2003.json","coverage_status":"no_same_category_records","evidence_role":"context_not_year_specific_change_evidence","source_kind":"official_scope_context","headline_count_excluded":true,"intensity":0.16,"label":"No same-lens economy records currently ingested","sector":"coverage_context","activity_status":"no_year_records","status":"no_year_records"},"geometry":{"type":"Polygon","coordinates":[[[-74.03562,40.56544],[-73.92388,40.56544],[-73.92388,40.65348],[-74.03562,40.65348],[-74.03562,40.56544]]]}},{"type":"Feature","properties":{"id":"lens-detail-nyc-2003-economy_activity_cell-coverage-context-8","layer":"economy_activity_cell","category":"economy","year":2003,"visible_year":2003,"title":"New York City, New York 2003 economy coverage context","confidence":"inferred","confidence_mix":"inferred:1","event_count":0,"source_count":3,"source_ids":"as9z-kwsh,skyk-mpzq,buis-pvji","event_ids":"","event_ids_all":"","source_urls":"","geometry_precision_mix":"configured atlas coverage grid from official scope sources","representation":"economy lens coverage context","timing_note":"No license-compatible economy records are currently ingested for 2003; this lens geometry marks source coverage context only.","caveat":"Coverage context is not a city-change event, not a measured condition, and is excluded from headline counts.","generated_from":"web/data/city-atlas/cities/nyc/events_2003.json","coverage_status":"no_same_category_records","evidence_role":"context_not_year_specific_change_evidence","source_kind":"official_scope_context","headline_count_excluded":true,"intensity":0.16,"label":"No same-lens economy records currently ingested","sector":"coverage_context","activity_status":"no_year_records","status":"no_year_records"},"geometry":{"type":"Polygon","coordinates":[[[-73.92388,40.56544],[-73.81214,40.56544],[-73.81214,40.65348],[-73.92388,40.65348],[-73.92388,40.56544]]]}},{"type":"Feature","properties":{"id":"lens-detail-nyc-2003-economy_activity_cell-coverage-context-9","layer":"economy_activity_cell","category":"economy","year":2003,"visible_year":2003,"title":"New York City, New York 2003 economy coverage context","confidence":"inferred","confidence_mix":"inferred:1","event_count":0,"source_count":3,"source_ids":"as9z-kwsh,skyk-mpzq,buis-pvji","event_ids":"","event_ids_all":"","source_urls":"","geometry_precision_mix":"configured atlas coverage grid from official scope sources","representation":"economy lens coverage context","timing_note":"No license-compatible economy records are currently ingested for 2003; this lens geometry marks source coverage context only.","caveat":"Coverage context is not a city-change event, not a measured condition, and is excluded from headline counts.","generated_from":"web/data/city-atlas/cities/nyc/events_2003.json","coverage_status":"no_same_category_records","evidence_role":"context_not_year_specific_change_evidence","source_kind":"official_scope_context","headline_count_excluded":true,"intensity":0.16,"label":"No same-lens economy records currently ingested","sector":"coverage_context","activity_status":"no_year_records","status":"no_year_records"},"geometry":{"type":"Polygon","coordinates":[[[-73.81214,40.56544],[-73.7004,40.56544],[-73.7004,40.65348],[-73.81214,40.65348],[-73.81214,40.56544]]]}},{"type":"Feature","properties":{"id":"lens-detail-nyc-2003-economy_activity_cell-coverage-context-10","layer":"economy_activity_cell","category":"economy","year":2003,"visible_year":2003,"title":"New York City, New York 2003 economy coverage context","confidence":"inferred","confidence_mix":"inferred:1","event_count":0,"source_count":3,"source_ids":"as9z-kwsh,skyk-mpzq,buis-pvji","event_ids":"","event_ids_all":"","source_urls":"","geometry_precision_mix":"configured atlas coverage grid from official scope sources","representation":"economy lens coverage context","timing_note":"No license-compatible economy records are currently ingested for 2003; this lens geometry marks source coverage context only.","caveat":"Coverage context is not a city-change event, not a measured condition, and is excluded from headline counts.","generated_from":"web/data/city-atlas/cities/nyc/events_2003.json","coverage_status":"no_same_category_records","evidence_role":"context_not_year_specific_change_evidence","source_kind":"official_scope_context","headline_count_excluded":true,"intensity":0.16,"label":"No same-lens economy records currently ingested","sector":"coverage_context","activity_status":"no_year_records","status":"no_year_records"},"geometry":{"type":"Polygon","coordinates":[[[-74.2591,40.65348],[-74.14736,40.65348],[-74.14736,40.74152],[-74.2591,40.74152],[-74.2591,40.65348]]]}},{"type":"Feature","properties":{"id":"lens-detail-nyc-2003-economy_activity_cell-coverage-context-11","layer":"economy_activity_cell","category":"economy","year":2003,"visible_year":2003,"title":"New York City, New York 2003 economy coverage context","confidence":"inferred","confidence_mix":"inferred:1","event_count":0,"source_count":3,"source_ids":"as9z-kwsh,skyk-mpzq,buis-pvji","event_ids":"","event_ids_all":"","source_urls":"","geometry_precision_mix":"configured atlas coverage grid from official scope sources","representation":"economy lens coverage context","timing_note":"No license-compatible economy records are currently ingested for 2003; this lens geometry marks source coverage context only.","caveat":"Coverage context is not a city-change event, not a measured condition, and is excluded from headline counts.","generated_from":"web/data/city-atlas/cities/nyc/events_2003.json","coverage_status":"no_same_category_records","evidence_role":"context_not_year_specific_change_evidence","source_kind":"official_scope_context","headline_count_excluded":true,"intensity":0.16,"label":"No same-lens economy records currently ingested","sector":"coverage_context","activity_status":"no_year_records","status":"no_year_records"},"geometry":{"type":"Polygon","coordinates":[[[-74.14736,40.65348],[-74.03562,40.65348],[-74.03562,40.74152],[-74.14736,40.74152],[-74.14736,40.65348]]]}},{"type":"Feature","properties":{"id":"lens-detail-nyc-2003-economy_activity_cell-coverage-context-12","layer":"economy_activity_cell","category":"economy","year":2003,"visible_year":2003,"title":"New York City, New York 2003 economy coverage context","confidence":"inferred","confidence_mix":"inferred:1","event_count":0,"source_count":3,"source_ids":"as9z-kwsh,skyk-mpzq,buis-pvji","event_ids":"","event_ids_all":"","source_urls":"","geometry_precision_mix":"configured atlas coverage grid from official scope sources","representation":"economy lens coverage context","timing_note":"No license-compatible economy records are currently ingested for 2003; this lens geometry marks source coverage context only.","caveat":"Coverage context is not a city-change event, not a measured condition, and is excluded from headline counts.","generated_from":"web/data/city-atlas/cities/nyc/events_2003.json","coverage_status":"no_same_category_records","evidence_role":"context_not_year_specific_change_evidence","source_kind":"official_scope_context","headline_count_excluded":true,"intensity":0.16,"label":"No same-lens economy records currently ingested","sector":"coverage_context","activity_status":"no_year_records","status":"no_year_records"},"geometry":{"type":"Polygon","coordinates":[[[-74.03562,40.65348],[-73.92388,40.65348],[-73.92388,40.74152],[-74.03562,40.74152],[-74.03562,40.65348]]]}},{"type":"Feature","properties":{"id":"lens-detail-nyc-2003-economy_activity_cell-coverage-context-13","layer":"economy_activity_cell","category":"economy","year":2003,"visible_year":2003,"title":"New York City, New York 2003 economy coverage context","confidence":"inferred","confidence_mix":"inferred:1","event_count":0,"source_count":3,"source_ids":"as9z-kwsh,skyk-mpzq,buis-pvji","event_ids":"","event_ids_all":"","source_urls":"","geometry_precision_mix":"configured atlas coverage grid from official scope sources","representation":"economy lens coverage context","timing_note":"No license-compatible economy records are currently ingested for 2003; this lens geometry marks source coverage context only.","caveat":"Coverage context is not a city-change event, not a measured condition, and is excluded from headline counts.","generated_from":"web/data/city-atlas/cities/nyc/events_2003.json","coverage_status":"no_same_category_records","evidence_role":"context_not_year_specific_change_evidence","source_kind":"official_scope_context","headline_count_excluded":true,"intensity":0.16,"label":"No same-lens economy records currently ingested","sector":"coverage_context","activity_status":"no_year_records","status":"no_year_records"},"geometry":{"type":"Polygon","coordinates":[[[-73.92388,40.65348],[-73.81214,40.65348],[-73.81214,40.74152],[-73.92388,40.74152],[-73.92388,40.65348]]]}},{"type":"Feature","properties":{"id":"lens-detail-nyc-2003-economy_activity_cell-coverage-context-14","layer":"economy_activity_cell","category":"economy","year":2003,"visible_year":2003,"title":"New York City, New York 2003 economy coverage context","confidence":"inferred","confidence_mix":"inferred:1","event_count":0,"source_count":3,"source_ids":"as9z-kwsh,skyk-mpzq,buis-pvji","event_ids":"","event_ids_all":"","source_urls":"","geometry_precision_mix":"configured atlas coverage grid from official scope sources","representation":"economy lens coverage context","timing_note":"No license-compatible economy records are currently ingested for 2003; this lens geometry marks source coverage context only.","caveat":"Coverage context is not a city-change event, not a measured condition, and is excluded from headline counts.","generated_from":"web/data/city-atlas/cities/nyc/events_2003.json","coverage_status":"no_same_category_records","evidence_role":"context_not_year_specific_change_evidence","source_kind":"official_scope_context","headline_count_excluded":true,"intensity":0.16,"label":"No same-lens economy records currently ingested","sector":"coverage_context","activity_status":"no_year_records","status":"no_year_records"},"geometry":{"type":"Polygon","coordinates":[[[-73.81214,40.65348],[-73.7004,40.65348],[-73.7004,40.74152],[-73.81214,40.74152],[-73.81214,40.65348]]]}},{"type":"Feature","properties":{"id":"lens-detail-nyc-2003-economy_activity_cell-coverage-context-15","layer":"economy_activity_cell","category":"economy","year":2003,"visible_year":2003,"title":"New York City, New York 2003 economy coverage context","confidence":"inferred","confidence_mix":"inferred:1","event_count":0,"source_count":3,"source_ids":"as9z-kwsh,skyk-mpzq,buis-pvji","event_ids":"","event_ids_all":"","source_urls":"","geometry_precision_mix":"configured atlas coverage grid from official scope sources","representation":"economy lens coverage context","timing_note":"No license-compatible economy records are currently ingested for 2003; this lens geometry marks source coverage context only.","caveat":"Coverage context is not a city-change event, not a measured condition, and is excluded from headline counts.","generated_from":"web/data/city-atlas/cities/nyc/events_2003.json","coverage_status":"no_same_category_records","evidence_role":"context_not_year_specific_change_evidence","source_kind":"official_scope_context","headline_count_excluded":true,"intensity":0.16,"label":"No same-lens economy records currently ingested","sector":"coverage_context","activity_status":"no_year_records","status":"no_year_records"},"geometry":{"type":"Polygon","coordinates":[[[-74.2591,40.74152],[-74.14736,40.74152],[-74.14736,40.82956],[-74.2591,40.82956],[-74.2591,40.74152]]]}},{"type":"Feature","properties":{"id":"lens-detail-nyc-2003-economy_activity_cell-coverage-context-16","layer":"economy_activity_cell","category":"economy","year":2003,"visible_year":2003,"title":"New York City, New York 2003 economy coverage context","confidence":"inferred","confidence_mix":"inferred:1","event_count":0,"source_count":3,"source_ids":"as9z-kwsh,skyk-mpzq,buis-pvji","event_ids":"","event_ids_all":"","source_urls":"","geometry_precision_mix":"configured atlas coverage grid from official scope sources","representation":"economy lens coverage context","timing_note":"No license-compatible economy records are currently ingested for 2003; this lens geometry marks source coverage context only.","caveat":"Coverage context is not a city-change event, not a measured condition, and is excluded from headline counts.","generated_from":"web/data/city-atlas/cities/nyc/events_2003.json","coverage_status":"no_same_category_records","evidence_role":"context_not_year_specific_change_evidence","source_kind":"official_scope_context","headline_count_excluded":true,"intensity":0.16,"label":"No same-lens economy records currently ingested","sector":"coverage_context","activity_status":"no_year_records","status":"no_year_records"},"geometry":{"type":"Polygon","coordinates":[[[-74.14736,40.74152],[-74.03562,40.74152],[-74.03562,40.82956],[-74.14736,40.82956],[-74.14736,40.74152]]]}},{"type":"Feature","properties":{"id":"lens-detail-nyc-2003-economy_activity_cell-coverage-context-17","layer":"economy_activity_cell","category":"economy","year":2003,"visible_year":2003,"title":"New York City, New York 2003 economy coverage context","confidence":"inferred","confidence_mix":"inferred:1","event_count":0,"source_count":3,"source_ids":"as9z-kwsh,skyk-mpzq,buis-pvji","event_ids":"","event_ids_all":"","source_urls":"","geometry_precision_mix":"configured atlas coverage grid from official scope sources","representation":"economy lens coverage context","timing_note":"No license-compatible economy records are currently ingested for 2003; this lens geometry marks source coverage context only.","caveat":"Coverage context is not a city-change event, not a measured condition, and is excluded from headline counts.","generated_from":"web/data/city-atlas/cities/nyc/events_2003.json","coverage_status":"no_same_category_records","evidence_role":"context_not_year_specific_change_evidence","source_kind":"official_scope_context","headline_count_excluded":true,"intensity":0.16,"label":"No same-lens economy records currently ingested","sector":"coverage_context","activity_status":"no_year_records","status":"no_year_records"},"geometry":{"type":"Polygon","coordinates":[[[-74.03562,40.74152],[-73.92388,40.74152],[-73.92388,40.82956],[-74.03562,40.82956],[-74.03562,40.74152]]]}},{"type":"Feature","properties":{"id":"lens-detail-nyc-2003-economy_activity_cell-coverage-context-18","layer":"economy_activity_cell","category":"economy","year":2003,"visible_year":2003,"title":"New York City, New York 2003 economy coverage context","confidence":"inferred","confidence_mix":"inferred:1","event_count":0,"source_count":3,"source_ids":"as9z-kwsh,skyk-mpzq,buis-pvji","event_ids":"","event_ids_all":"","source_urls":"","geometry_precision_mix":"configured atlas coverage grid from official scope sources","representation":"economy lens coverage context","timing_note":"No license-compatible economy records are currently ingested for 2003; this lens geometry marks source coverage context only.","caveat":"Coverage context is not a city-change event, not a measured condition, and is excluded from headline counts.","generated_from":"web/data/city-atlas/cities/nyc/events_2003.json","coverage_status":"no_same_category_records","evidence_role":"context_not_year_specific_change_evidence","source_kind":"official_scope_context","headline_count_excluded":true,"intensity":0.16,"label":"No same-lens economy records currently ingested","sector":"coverage_context","activity_status":"no_year_records","status":"no_year_records"},"geometry":{"type":"Polygon","coordinates":[[[-73.92388,40.74152],[-73.81214,40.74152],[-73.81214,40.82956],[-73.92388,40.82956],[-73.92388,40.74152]]]}},{"type":"Feature","properties":{"id":"lens-detail-nyc-2003-economy_activity_cell-coverage-context-19","layer":"economy_activity_cell","category":"economy","year":2003,"visible_year":2003,"title":"New York City, New York 2003 economy coverage context","confidence":"inferred","confidence_mix":"inferred:1","event_count":0,"source_count":3,"source_ids":"as9z-kwsh,skyk-mpzq,buis-pvji","event_ids":"","event_ids_all":"","source_urls":"","geometry_precision_mix":"configured atlas coverage grid from official scope sources","representation":"economy lens coverage context","timing_note":"No license-compatible economy records are currently ingested for 2003; this lens geometry marks source coverage context only.","caveat":"Coverage context is not a city-change event, not a measured condition, and is excluded from headline counts.","generated_from":"web/data/city-atlas/cities/nyc/events_2003.json","coverage_status":"no_same_category_records","evidence_role":"context_not_year_specific_change_evidence","source_kind":"official_scope_context","headline_count_excluded":true,"intensity":0.16,"label":"No same-lens economy records currently ingested","sector":"coverage_context","activity_status":"no_year_records","status":"no_year_records"},"geometry":{"type":"Polygon","coordinates":[[[-73.81214,40.74152],[-73.7004,40.74152],[-73.7004,40.82956],[-73.81214,40.82956],[-73.81214,40.74152]]]}},{"type":"Feature","properties":{"id":"lens-detail-nyc-2003-economy_activity_cell-coverage-context-20","layer":"economy_activity_cell","category":"economy","year":2003,"visible_year":2003,"title":"New York City, New York 2003 economy coverage context","confidence":"inferred","confidence_mix":"inferred:1","event_count":0,"source_count":3,"source_ids":"as9z-kwsh,skyk-mpzq,buis-pvji","event_ids":"","event_ids_all":"","source_urls":"","geometry_precision_mix":"configured atlas coverage grid from official scope sources","representation":"economy lens coverage context","timing_note":"No license-compatible economy records are currently ingested for 2003; this lens geometry marks source coverage context only.","caveat":"Coverage context is not a city-change event, not a measured condition, and is excluded from headline counts.","generated_from":"web/data/city-atlas/cities/nyc/events_2003.json","coverage_status":"no_same_category_records","evidence_role":"context_not_year_specific_change_evidence","source_kind":"official_scope_context","headline_count_excluded":true,"intensity":0.16,"label":"No same-lens economy records currently ingested","sector":"coverage_context","activity_status":"no_year_records","status":"no_year_records"},"geometry":{"type":"Polygon","coordinates":[[[-74.2591,40.82956],[-74.14736,40.82956],[-74.14736,40.9176],[-74.2591,40.9176],[-74.2591,40.82956]]]}},{"type":"Feature","properties":{"id":"lens-detail-nyc-2003-economy_activity_cell-coverage-context-21","layer":"economy_activity_cell","category":"economy","year":2003,"visible_year":2003,"title":"New York City, New York 2003 economy coverage context","confidence":"inferred","confidence_mix":"inferred:1","event_count":0,"source_count":3,"source_ids":"as9z-kwsh,skyk-mpzq,buis-pvji","event_ids":"","event_ids_all":"","source_urls":"","geometry_precision_mix":"configured atlas coverage grid from official scope sources","representation":"economy lens coverage context","timing_note":"No license-compatible economy records are currently ingested for 2003; this lens geometry marks source coverage context only.","caveat":"Coverage context is not a city-change event, not a measured condition, and is excluded from headline counts.","generated_from":"web/data/city-atlas/cities/nyc/events_2003.json","coverage_status":"no_same_category_records","evidence_role":"context_not_year_specific_change_evidence","source_kind":"official_scope_context","headline_count_excluded":true,"intensity":0.16,"label":"No same-lens economy records currently ingested","sector":"coverage_context","activity_status":"no_year_records","status":"no_year_records"},"geometry":{"type":"Polygon","coordinates":[[[-74.14736,40.82956],[-74.03562,40.82956],[-74.03562,40.9176],[-74.14736,40.9176],[-74.14736,40.82956]]]}},{"type":"Feature","properties":{"id":"lens-detail-nyc-2003-economy_activity_cell-coverage-context-22","layer":"economy_activity_cell","category":"economy","year":2003,"visible_year":2003,"title":"New York City, New York 2003 economy coverage context","confidence":"inferred","confidence_mix":"inferred:1","event_count":0,"source_count":3,"source_ids":"as9z-kwsh,skyk-mpzq,buis-pvji","event_ids":"","event_ids_all":"","source_urls":"","geometry_precision_mix":"configured atlas coverage grid from official scope sources","representation":"economy lens coverage context","timing_note":"No license-compatible economy records are currently ingested for 2003; this lens geometry marks source coverage context only.","caveat":"Coverage context is not a city-change event, not a measured condition, and is excluded from headline counts.","generated_from":"web/data/city-atlas/cities/nyc/events_2003.json","coverage_status":"no_same_category_records","evidence_role":"context_not_year_specific_change_evidence","source_kind":"official_scope_context","headline_count_excluded":true,"intensity":0.16,"label":"No same-lens economy records currently ingested","sector":"coverage_context","activity_status":"no_year_records","status":"no_year_records"},"geometry":{"type":"Polygon","coordinates":[[[-74.03562,40.82956],[-73.92388,40.82956],[-73.92388,40.9176],[-74.03562,40.9176],[-74.03562,40.82956]]]}},{"type":"Feature","properties":{"id":"lens-detail-nyc-2003-economy_activity_cell-coverage-context-23","layer":"economy_activity_cell","category":"economy","year":2003,"visible_year":2003,"title":"New York City, New York 2003 economy coverage context","confidence":"inferred","confidence_mix":"inferred:1","event_count":0,"source_count":3,"source_ids":"as9z-kwsh,skyk-mpzq,buis-pvji","event_ids":"","event_ids_all":"","source_urls":"","geometry_precision_mix":"configured atlas coverage grid from official scope sources","representation":"economy lens coverage context","timing_note":"No license-compatible economy records are currently ingested for 2003; this lens geometry marks source coverage context only.","caveat":"Coverage context is not a city-change event, not a measured condition, and is excluded from headline counts.","generated_from":"web/data/city-atlas/cities/nyc/events_2003.json","coverage_status":"no_same_category_records","evidence_role":"context_not_year_specific_change_evidence","source_kind":"official_scope_context","headline_count_excluded":true,"intensity":0.16,"label":"No same-lens economy records currently ingested","sector":"coverage_context","activity_status":"no_year_records","status":"no_year_records"},"geometry":{"type":"Polygon","coordinates":[[[-73.92388,40.82956],[-73.81214,40.82956],[-73.81214,40.9176],[-73.92388,40.9176],[-73.92388,40.82956]]]}},{"type":"Feature","properties":{"id":"lens-detail-nyc-2003-economy_activity_cell-coverage-context-24","layer":"economy_activity_cell","category":"economy","year":2003,"visible_year":2003,"title":"New York City, New York 2003 economy coverage context","confidence":"inferred","confidence_mix":"inferred:1","event_count":0,"source_count":3,"source_ids":"as9z-kwsh,skyk-mpzq,buis-pvji","event_ids":"","event_ids_all":"","source_urls":"","geometry_precision_mix":"configured atlas coverage grid from official scope sources","representation":"economy lens coverage context","timing_note":"No license-compatible economy records are currently ingested for 2003; this lens geometry marks source coverage context only.","caveat":"Coverage context is not a city-change event, not a measured condition, and is excluded from headline counts.","generated_from":"web/data/city-atlas/cities/nyc/events_2003.json","coverage_status":"no_same_category_records","evidence_role":"context_not_year_specific_change_evidence","source_kind":"official_scope_context","headline_count_excluded":true,"intensity":0.16,"label":"No same-lens economy records currently ingested","sector":"coverage_context","activity_status":"no_year_records","status":"no_year_records"},"geometry":{"type":"Polygon","coordinates":[[[-73.81214,40.82956],[-73.7004,40.82956],[-73.7004,40.9176],[-73.81214,40.9176],[-73.81214,40.82956]]]}},{"type":"Feature","properties":{"id":"lens-detail-nyc-2003-utility_trace-coverage-context-0","layer":"utility_trace","category":"utilities","year":2003,"visible_year":2003,"title":"New York City, New York 2003 utility coverage context","confidence":"inferred","confidence_mix":"inferred:1","event_count":0,"source_count":3,"source_ids":"as9z-kwsh,skyk-mpzq,buis-pvji","event_ids":"","event_ids_all":"","source_urls":"","geometry_precision_mix":"configured atlas coverage grid from official scope sources","representation":"utility lens coverage context","timing_note":"No license-compatible utility records are currently ingested for 2003; this lens geometry marks source coverage context only.","caveat":"Coverage context is not a city-change event, not a measured condition, and is excluded from headline counts.","generated_from":"web/data/city-atlas/cities/nyc/events_2003.json","coverage_status":"no_same_category_records","evidence_role":"context_not_year_specific_change_evidence","source_kind":"official_scope_context","headline_count_excluded":true,"intensity":0.16,"label":"No same-lens utility records currently ingested","utility_type":"coverage_context","work_status":"no_year_records","status":"no_year_records"},"geometry":{"type":"LineString","coordinates":[[-74.1792857,40.4774],[-74.1792857,40.9176]]}},{"type":"Feature","properties":{"id":"lens-detail-nyc-2003-utility_trace-coverage-context-1","layer":"utility_trace","category":"utilities","year":2003,"visible_year":2003,"title":"New York City, New York 2003 utility coverage context","confidence":"inferred","confidence_mix":"inferred:1","event_count":0,"source_count":3,"source_ids":"as9z-kwsh,skyk-mpzq,buis-pvji","event_ids":"","event_ids_all":"","source_urls":"","geometry_precision_mix":"configured atlas coverage grid from official scope sources","representation":"utility lens coverage context","timing_note":"No license-compatible utility records are currently ingested for 2003; this lens geometry marks source coverage context only.","caveat":"Coverage context is not a city-change event, not a measured condition, and is excluded from headline counts.","generated_from":"web/data/city-atlas/cities/nyc/events_2003.json","coverage_status":"no_same_category_records","evidence_role":"context_not_year_specific_change_evidence","source_kind":"official_scope_context","headline_count_excluded":true,"intensity":0.16,"label":"No same-lens utility records currently ingested","utility_type":"coverage_context","work_status":"no_year_records","status":"no_year_records"},"geometry":{"type":"LineString","coordinates":[[-74.0994714,40.4774],[-74.0994714,40.9176]]}},{"type":"Feature","properties":{"id":"lens-detail-nyc-2003-utility_trace-coverage-context-2","layer":"utility_trace","category":"utilities","year":2003,"visible_year":2003,"title":"New York City, New York 2003 utility coverage context","confidence":"inferred","confidence_mix":"inferred:1","event_count":0,"source_count":3,"source_ids":"as9z-kwsh,skyk-mpzq,buis-pvji","event_ids":"","event_ids_all":"","source_urls":"","geometry_precision_mix":"configured atlas coverage grid from official scope sources","representation":"utility lens coverage context","timing_note":"No license-compatible utility records are currently ingested for 2003; this lens geometry marks source coverage context only.","caveat":"Coverage context is not a city-change event, not a measured condition, and is excluded from headline counts.","generated_from":"web/data/city-atlas/cities/nyc/events_2003.json","coverage_status":"no_same_category_records","evidence_role":"context_not_year_specific_change_evidence","source_kind":"official_scope_context","headline_count_excluded":true,"intensity":0.16,"label":"No same-lens utility records currently ingested","utility_type":"coverage_context","work_status":"no_year_records","status":"no_year_records"},"geometry":{"type":"LineString","coordinates":[[-74.0196571,40.4774],[-74.0196571,40.9176]]}},{"type":"Feature","properties":{"id":"lens-detail-nyc-2003-utility_trace-coverage-context-3","layer":"utility_trace","category":"utilities","year":2003,"visible_year":2003,"title":"New York City, New York 2003 utility coverage context","confidence":"inferred","confidence_mix":"inferred:1","event_count":0,"source_count":3,"source_ids":"as9z-kwsh,skyk-mpzq,buis-pvji","event_ids":"","event_ids_all":"","source_urls":"","geometry_precision_mix":"configured atlas coverage grid from official scope sources","representation":"utility lens coverage context","timing_note":"No license-compatible utility records are currently ingested for 2003; this lens geometry marks source coverage context only.","caveat":"Coverage context is not a city-change event, not a measured condition, and is excluded from headline counts.","generated_from":"web/data/city-atlas/cities/nyc/events_2003.json","coverage_status":"no_same_category_records","evidence_role":"context_not_year_specific_change_evidence","source_kind":"official_scope_context","headline_count_excluded":true,"intensity":0.16,"label":"No same-lens utility records currently ingested","utility_type":"coverage_context","work_status":"no_year_records","status":"no_year_records"},"geometry":{"type":"LineString","coordinates":[[-73.9398429,40.4774],[-73.9398429,40.9176]]}},{"type":"Feature","properties":{"id":"lens-detail-nyc-2003-utility_trace-coverage-context-4","layer":"utility_trace","category":"utilities","year":2003,"visible_year":2003,"title":"New York City, New York 2003 utility coverage context","confidence":"inferred","confidence_mix":"inferred:1","event_count":0,"source_count":3,"source_ids":"as9z-kwsh,skyk-mpzq,buis-pvji","event_ids":"","event_ids_all":"","source_urls":"","geometry_precision_mix":"configured atlas coverage grid from official scope sources","representation":"utility lens coverage context","timing_note":"No license-compatible utility records are currently ingested for 2003; this lens geometry marks source coverage context only.","caveat":"Coverage context is not a city-change event, not a measured condition, and is excluded from headline counts.","generated_from":"web/data/city-atlas/cities/nyc/events_2003.json","coverage_status":"no_same_category_records","evidence_role":"context_not_year_specific_change_evidence","source_kind":"official_scope_context","headline_count_excluded":true,"intensity":0.16,"label":"No same-lens utility records currently ingested","utility_type":"coverage_context","work_status":"no_year_records","status":"no_year_records"},"geometry":{"type":"LineString","coordinates":[[-73.8600286,40.4774],[-73.8600286,40.9176]]}},{"type":"Feature","properties":{"id":"lens-detail-nyc-2003-utility_trace-coverage-context-5","layer":"utility_trace","category":"utilities","year":2003,"visible_year":2003,"title":"New York City, New York 2003 utility coverage context","confidence":"inferred","confidence_mix":"inferred:1","event_count":0,"source_count":3,"source_ids":"as9z-kwsh,skyk-mpzq,buis-pvji","event_ids":"","event_ids_all":"","source_urls":"","geometry_precision_mix":"configured atlas coverage grid from official scope sources","representation":"utility lens coverage context","timing_note":"No license-compatible utility records are currently ingested for 2003; this lens geometry marks source coverage context only.","caveat":"Coverage context is not a city-change event, not a measured condition, and is excluded from headline counts.","generated_from":"web/data/city-atlas/cities/nyc/events_2003.json","coverage_status":"no_same_category_records","evidence_role":"context_not_year_specific_change_evidence","source_kind":"official_scope_context","headline_count_excluded":true,"intensity":0.16,"label":"No same-lens utility records currently ingested","utility_type":"coverage_context","work_status":"no_year_records","status":"no_year_records"},"geometry":{"type":"LineString","coordinates":[[-73.7802143,40.4774],[-73.7802143,40.9176]]}},{"type":"Feature","properties":{"id":"lens-detail-nyc-2003-utility_trace-coverage-context-6","layer":"utility_trace","category":"utilities","year":2003,"visible_year":2003,"title":"New York City, New York 2003 utility coverage context","confidence":"inferred","confidence_mix":"inferred:1","event_count":0,"source_count":3,"source_ids":"as9z-kwsh,skyk-mpzq,buis-pvji","event_ids":"","event_ids_all":"","source_urls":"","geometry_precision_mix":"configured atlas coverage grid from official scope sources","representation":"utility lens coverage context","timing_note":"No license-compatible utility records are currently ingested for 2003; this lens geometry marks source coverage context only.","caveat":"Coverage context is not a city-change event, not a measured condition, and is excluded from headline counts.","generated_from":"web/data/city-atlas/cities/nyc/events_2003.json","coverage_status":"no_same_category_records","evidence_role":"context_not_year_specific_change_evidence","source_kind":"official_scope_context","headline_count_excluded":true,"intensity":0.16,"label":"No same-lens utility records currently ingested","utility_type":"coverage_context","work_status":"no_year_records","status":"no_year_records"},"geometry":{"type":"LineString","coordinates":[[-74.2591,40.5402857],[-73.7004,40.5402857]]}},{"type":"Feature","properties":{"id":"lens-detail-nyc-2003-utility_trace-coverage-context-7","layer":"utility_trace","category":"utilities","year":2003,"visible_year":2003,"title":"New York City, New York 2003 utility coverage context","confidence":"inferred","confidence_mix":"inferred:1","event_count":0,"source_count":3,"source_ids":"as9z-kwsh,skyk-mpzq,buis-pvji","event_ids":"","event_ids_all":"","source_urls":"","geometry_precision_mix":"configured atlas coverage grid from official scope sources","representation":"utility lens coverage context","timing_note":"No license-compatible utility records are currently ingested for 2003; this lens geometry marks source coverage context only.","caveat":"Coverage context is not a city-change event, not a measured condition, and is excluded from headline counts.","generated_from":"web/data/city-atlas/cities/nyc/events_2003.json","coverage_status":"no_same_category_records","evidence_role":"context_not_year_specific_change_evidence","source_kind":"official_scope_context","headline_count_excluded":true,"intensity":0.16,"label":"No same-lens utility records currently ingested","utility_type":"coverage_context","work_status":"no_year_records","status":"no_year_records"},"geometry":{"type":"LineString","coordinates":[[-74.2591,40.6031714],[-73.7004,40.6031714]]}},{"type":"Feature","properties":{"id":"lens-detail-nyc-2003-utility_trace-coverage-context-8","layer":"utility_trace","category":"utilities","year":2003,"visible_year":2003,"title":"New York City, New York 2003 utility coverage context","confidence":"inferred","confidence_mix":"inferred:1","event_count":0,"source_count":3,"source_ids":"as9z-kwsh,skyk-mpzq,buis-pvji","event_ids":"","event_ids_all":"","source_urls":"","geometry_precision_mix":"configured atlas coverage grid from official scope sources","representation":"utility lens coverage context","timing_note":"No license-compatible utility records are currently ingested for 2003; this lens geometry marks source coverage context only.","caveat":"Coverage context is not a city-change event, not a measured condition, and is excluded from headline counts.","generated_from":"web/data/city-atlas/cities/nyc/events_2003.json","coverage_status":"no_same_category_records","evidence_role":"context_not_year_specific_change_evidence","source_kind":"official_scope_context","headline_count_excluded":true,"intensity":0.16,"label":"No same-lens utility records currently ingested","utility_type":"coverage_context","work_status":"no_year_records","status":"no_year_records"},"geometry":{"type":"LineString","coordinates":[[-74.2591,40.6660571],[-73.7004,40.6660571]]}},{"type":"Feature","properties":{"id":"lens-detail-nyc-2003-utility_trace-coverage-context-9","layer":"utility_trace","category":"utilities","year":2003,"visible_year":2003,"title":"New York City, New York 2003 utility coverage context","confidence":"inferred","confidence_mix":"inferred:1","event_count":0,"source_count":3,"source_ids":"as9z-kwsh,skyk-mpzq,buis-pvji","event_ids":"","event_ids_all":"","source_urls":"","geometry_precision_mix":"configured atlas coverage grid from official scope sources","representation":"utility lens coverage context","timing_note":"No license-compatible utility records are currently ingested for 2003; this lens geometry marks source coverage context only.","caveat":"Coverage context is not a city-change event, not a measured condition, and is excluded from headline counts.","generated_from":"web/data/city-atlas/cities/nyc/events_2003.json","coverage_status":"no_same_category_records","evidence_role":"context_not_year_specific_change_evidence","source_kind":"official_scope_context","headline_count_excluded":true,"intensity":0.16,"label":"No same-lens utility records currently ingested","utility_type":"coverage_context","work_status":"no_year_records","status":"no_year_records"},"geometry":{"type":"LineString","coordinates":[[-74.2591,40.7289429],[-73.7004,40.7289429]]}},{"type":"Feature","properties":{"id":"lens-detail-nyc-2003-utility_trace-coverage-context-10","layer":"utility_trace","category":"utilities","year":2003,"visible_year":2003,"title":"New York City, New York 2003 utility coverage context","confidence":"inferred","confidence_mix":"inferred:1","event_count":0,"source_count":3,"source_ids":"as9z-kwsh,skyk-mpzq,buis-pvji","event_ids":"","event_ids_all":"","source_urls":"","geometry_precision_mix":"configured atlas coverage grid from official scope sources","representation":"utility lens coverage context","timing_note":"No license-compatible utility records are currently ingested for 2003; this lens geometry marks source coverage context only.","caveat":"Coverage context is not a city-change event, not a measured condition, and is excluded from headline counts.","generated_from":"web/data/city-atlas/cities/nyc/events_2003.json","coverage_status":"no_same_category_records","evidence_role":"context_not_year_specific_change_evidence","source_kind":"official_scope_context","headline_count_excluded":true,"intensity":0.16,"label":"No same-lens utility records currently ingested","utility_type":"coverage_context","work_status":"no_year_records","status":"no_year_records"},"geometry":{"type":"LineString","coordinates":[[-74.2591,40.7918286],[-73.7004,40.7918286]]}},{"type":"Feature","properties":{"id":"lens-detail-nyc-2003-utility_trace-coverage-context-11","layer":"utility_trace","category":"utilities","year":2003,"visible_year":2003,"title":"New York City, New York 2003 utility coverage context","confidence":"inferred","confidence_mix":"inferred:1","event_count":0,"source_count":3,"source_ids":"as9z-kwsh,skyk-mpzq,buis-pvji","event_ids":"","event_ids_all":"","source_urls":"","geometry_precision_mix":"configured atlas coverage grid from official scope sources","representation":"utility lens coverage context","timing_note":"No license-compatible utility records are currently ingested for 2003; this lens geometry marks source coverage context only.","caveat":"Coverage context is not a city-change event, not a measured condition, and is excluded from headline counts.","generated_from":"web/data/city-atlas/cities/nyc/events_2003.json","coverage_status":"no_same_category_records","evidence_role":"context_not_year_specific_change_evidence","source_kind":"official_scope_context","headline_count_excluded":true,"intensity":0.16,"label":"No same-lens utility records currently ingested","utility_type":"coverage_context","work_status":"no_year_records","status":"no_year_records"},"geometry":{"type":"LineString","coordinates":[[-74.2591,40.8547143],[-73.7004,40.8547143]]}}]}
