{"type":"FeatureCollection","name":"nyc_lens_detail_1974","metadata":{"schema_version":"1.0.0","city_id":"nyc","year":1974,"generated_at":"2026-05-20T03:36:10.950Z","source_paths":["web/data/city-atlas/cities/nyc/events_1974.json","web/data/city-atlas/cities/nyc/events.json","web/data/city-atlas/cities/nyc/transport_roads_base.geojson"],"method":"Derived OpenCityLog lens geometry built from source-backed event points plus existing OSM road/detail geometry. Grid cells aggregate events by effective year. Trace lines reuse nearest mapped road geometry for context.","caveats":["Derived cells are evidence grids, not surveyed parcels, catchments, zones, or administrative boundaries.","Trace lines are nearest mapped street or work-location context, not surveyed utility networks, measured traffic speed, spend, vacancy, or service quality. No capacity data is inferred.","Borough, citywide, statistical, corridor, and multi-site records are excluded from site-like lens geometry; they remain available in the event list and evidence records.","OSM mapped-visibility dates and administrative decision dates can differ from real-world physical change dates."],"feature_layers":{"planning_cell":37},"excluded_non_site_record_count":0,"excluded_non_site_reasons":{}},"features":[{"type":"Feature","properties":{"id":"lens-detail-nyc-1974-planning_cell-26","layer":"planning_cell","category":"built_environment","year":1974,"visible_year":1974,"title":"4 source-backed planning and built records","confidence":"documented","confidence_mix":"documented:4","event_count":4,"source_count":1,"source_ids":"buis-pvji","event_ids":"nyc_lpc_individual_landmark_544,nyc_lpc_individual_landmark_629,nyc_lpc_individual_landmark_631,nyc_lpc_individual_landmark_684","event_ids_all":"nyc_lpc_individual_landmark_544,nyc_lpc_individual_landmark_629,nyc_lpc_individual_landmark_631,nyc_lpc_individual_landmark_684","source_urls":"https://data.cityofnewyork.us/resource/buis-pvji.json?objectid=544,https://data.cityofnewyork.us/resource/buis-pvji.json?objectid=629,https://data.cityofnewyork.us/resource/buis-pvji.json?objectid=631,https://data.cityofnewyork.us/resource/buis-pvji.json?objectid=684","geometry_precision_mix":"Row-level point from the adapter; source geocoding precision varies and may be approximate.:4","representation":"planning and built evidence grid cell","timing_note":"Filtered by event effective year. OSM mapped-visibility dates and administrative dates can differ from real-world physical change dates.","caveat":"Planning cells are derived from source-backed event locations; they are not parcel boundaries unless source geometry is separately present.","generated_from":"web/data/city-atlas/cities/nyc/events_1974.json","lifecycle_status":"uncertain","status":"source_record","cell_size_m":95,"intensity":0.671,"label":"Individual landmark designated: 17 East 90th Street House"},"geometry":{"type":"Polygon","coordinates":[[[-73.957542,40.7831407],[-73.956416,40.7831407],[-73.956416,40.7839999],[-73.957542,40.7839999],[-73.957542,40.7831407]]]}},{"type":"Feature","properties":{"id":"lens-detail-nyc-1974-planning_cell-9","layer":"planning_cell","category":"built_environment","year":1974,"visible_year":1974,"title":"4 source-backed planning and built records","confidence":"documented","confidence_mix":"documented:4","event_count":4,"source_count":1,"source_ids":"buis-pvji","event_ids":"nyc_lpc_individual_landmark_1213,nyc_lpc_individual_landmark_1214,nyc_lpc_individual_landmark_446,nyc_lpc_individual_landmark_759","event_ids_all":"nyc_lpc_individual_landmark_1213,nyc_lpc_individual_landmark_1214,nyc_lpc_individual_landmark_446,nyc_lpc_individual_landmark_759","source_urls":"https://data.cityofnewyork.us/resource/buis-pvji.json?objectid=1213,https://data.cityofnewyork.us/resource/buis-pvji.json?objectid=1214,https://data.cityofnewyork.us/resource/buis-pvji.json?objectid=446,https://data.cityofnewyork.us/resource/buis-pvji.json?objectid=759","geometry_precision_mix":"Row-level point from the adapter; source geocoding precision varies and may be approximate.:4","representation":"planning and built evidence grid cell","timing_note":"Filtered by event effective year. OSM mapped-visibility dates and administrative dates can differ from real-world physical change dates.","caveat":"Planning cells are derived from source-backed event locations; they are not parcel boundaries unless source geometry is separately present.","generated_from":"web/data/city-atlas/cities/nyc/events_1974.json","lifecycle_status":"uncertain","status":"source_record","cell_size_m":95,"intensity":0.671,"label":"Individual landmark designated: James A. and Florence Sloane Burden House"},"geometry":{"type":"Polygon","coordinates":[[[-73.957542,40.7839999],[-73.956416,40.7839999],[-73.956416,40.784859],[-73.957542,40.784859],[-73.957542,40.7839999]]]}},{"type":"Feature","properties":{"id":"lens-detail-nyc-1974-planning_cell-13","layer":"planning_cell","category":"built_environment","year":1974,"visible_year":1974,"title":"3 source-backed planning and built records","confidence":"documented","confidence_mix":"documented:3","event_count":3,"source_count":1,"source_ids":"buis-pvji","event_ids":"nyc_lpc_individual_landmark_1221,nyc_lpc_individual_landmark_1222,nyc_lpc_individual_landmark_445","event_ids_all":"nyc_lpc_individual_landmark_1221,nyc_lpc_individual_landmark_1222,nyc_lpc_individual_landmark_445","source_urls":"https://data.cityofnewyork.us/resource/buis-pvji.json?objectid=1221,https://data.cityofnewyork.us/resource/buis-pvji.json?objectid=1222,https://data.cityofnewyork.us/resource/buis-pvji.json?objectid=445","geometry_precision_mix":"Row-level point from the adapter; source geocoding precision varies and may be approximate.:3","representation":"planning and built evidence grid cell","timing_note":"Filtered by event effective year. OSM mapped-visibility dates and administrative dates can differ from real-world physical change dates.","caveat":"Planning cells are derived from source-backed event locations; they are not parcel boundaries unless source geometry is separately present.","generated_from":"web/data/city-atlas/cities/nyc/events_1974.json","lifecycle_status":"uncertain","status":"source_record","cell_size_m":95,"intensity":0.578,"label":"Individual landmark designated: 11 East 70th Street House"},"geometry":{"type":"Polygon","coordinates":[[[-73.9676754,40.7702534],[-73.9665495,40.7702534],[-73.9665495,40.7711126],[-73.9676754,40.7711126],[-73.9676754,40.7702534]]]}},{"type":"Feature","properties":{"id":"lens-detail-nyc-1974-planning_cell-24","layer":"planning_cell","category":"built_environment","year":1974,"visible_year":1974,"title":"2 source-backed planning and built records","confidence":"documented","confidence_mix":"documented:2","event_count":2,"source_count":1,"source_ids":"buis-pvji","event_ids":"nyc_lpc_individual_landmark_531,nyc_lpc_individual_landmark_618","event_ids_all":"nyc_lpc_individual_landmark_531,nyc_lpc_individual_landmark_618","source_urls":"https://data.cityofnewyork.us/resource/buis-pvji.json?objectid=531,https://data.cityofnewyork.us/resource/buis-pvji.json?objectid=618","geometry_precision_mix":"Row-level point from the adapter; source geocoding precision varies and may be approximate.:2","representation":"planning and built evidence grid cell","timing_note":"Filtered by event effective year. OSM mapped-visibility dates and administrative dates can differ from real-world physical change dates.","caveat":"Planning cells are derived from source-backed event locations; they are not parcel boundaries unless source geometry is separately present.","generated_from":"web/data/city-atlas/cities/nyc/events_1974.json","lifecycle_status":"uncertain","status":"source_record","cell_size_m":95,"intensity":0.458,"label":"Individual landmark designated: Gustav and Virginia Pagenstecher House"},"geometry":{"type":"Polygon","coordinates":[[[-73.9665495,40.7702534],[-73.9654235,40.7702534],[-73.9654235,40.7711126],[-73.9665495,40.7711126],[-73.9665495,40.7702534]]]}},{"type":"Feature","properties":{"id":"lens-detail-nyc-1974-planning_cell-30","layer":"planning_cell","category":"built_environment","year":1974,"visible_year":1974,"title":"2 source-backed planning and built records","confidence":"documented","confidence_mix":"documented:2","event_count":2,"source_count":1,"source_ids":"buis-pvji","event_ids":"nyc_lpc_individual_landmark_680,nyc_lpc_individual_landmark_735","event_ids_all":"nyc_lpc_individual_landmark_680,nyc_lpc_individual_landmark_735","source_urls":"https://data.cityofnewyork.us/resource/buis-pvji.json?objectid=680,https://data.cityofnewyork.us/resource/buis-pvji.json?objectid=735","geometry_precision_mix":"Row-level point from the adapter; source geocoding precision varies and may be approximate.:2","representation":"planning and built evidence grid cell","timing_note":"Filtered by event effective year. OSM mapped-visibility dates and administrative dates can differ from real-world physical change dates.","caveat":"Planning cells are derived from source-backed event locations; they are not parcel boundaries unless source geometry is separately present.","generated_from":"web/data/city-atlas/cities/nyc/events_1974.json","lifecycle_status":"uncertain","status":"source_record","cell_size_m":95,"intensity":0.458,"label":"Individual landmark designated: 67 East 93rd Street House"},"geometry":{"type":"Polygon","coordinates":[[[-73.9552901,40.784859],[-73.9541641,40.784859],[-73.9541641,40.7857182],[-73.9552901,40.7857182],[-73.9552901,40.784859]]]}},{"type":"Feature","properties":{"id":"lens-detail-nyc-1974-planning_cell-0","layer":"planning_cell","category":"built_environment","year":1974,"visible_year":1974,"title":"1 source-backed planning and built record","confidence":"documented","confidence_mix":"documented:1","event_count":1,"source_count":1,"source_ids":"skyk-mpzq","event_ids":"nyc_lpc_historic_district_lp-00861","event_ids_all":"nyc_lpc_historic_district_lp-00861","source_urls":"https://data.cityofnewyork.us/resource/skyk-mpzq.json?lp_number=LP-00861","geometry_precision_mix":"Row-level point from the adapter; source geocoding precision varies and may be approximate.:1","representation":"planning and built evidence grid cell","timing_note":"Filtered by event effective year. OSM mapped-visibility dates and administrative dates can differ from real-world physical change dates.","caveat":"Planning cells are derived from source-backed event locations; they are not parcel boundaries unless source geometry is separately present.","generated_from":"web/data/city-atlas/cities/nyc/events_1974.json","lifecycle_status":"uncertain","status":"source_record","cell_size_m":95,"intensity":0.289,"label":"Historic district designated: Carnegie Hill Historic District"},"geometry":{"type":"Polygon","coordinates":[[[-73.956416,40.7839999],[-73.9552901,40.7839999],[-73.9552901,40.784859],[-73.956416,40.784859],[-73.956416,40.7839999]]]}},{"type":"Feature","properties":{"id":"lens-detail-nyc-1974-planning_cell-1","layer":"planning_cell","category":"built_environment","year":1974,"visible_year":1974,"title":"1 source-backed planning and built record","confidence":"documented","confidence_mix":"documented:1","event_count":1,"source_count":1,"source_ids":"skyk-mpzq","event_ids":"nyc_lpc_historic_district_lp-00872","event_ids_all":"nyc_lpc_historic_district_lp-00872","source_urls":"https://data.cityofnewyork.us/resource/skyk-mpzq.json?lp_number=LP-00872","geometry_precision_mix":"Row-level point from the adapter; source geocoding precision varies and may be approximate.:1","representation":"planning and built evidence grid cell","timing_note":"Filtered by event effective year. OSM mapped-visibility dates and administrative dates can differ from real-world physical change dates.","caveat":"Planning cells are derived from source-backed event locations; they are not parcel boundaries unless source geometry is separately present.","generated_from":"web/data/city-atlas/cities/nyc/events_1974.json","lifecycle_status":"uncertain","status":"source_record","cell_size_m":95,"intensity":0.289,"label":"Historic district designated: Hamilton Heights Historic District"},"geometry":{"type":"Polygon","coordinates":[[[-73.9474085,40.8226617],[-73.9462825,40.8226617],[-73.9462825,40.8235209],[-73.9474085,40.8235209],[-73.9474085,40.8226617]]]}},{"type":"Feature","properties":{"id":"lens-detail-nyc-1974-planning_cell-10","layer":"planning_cell","category":"built_environment","year":1974,"visible_year":1974,"title":"1 source-backed planning and built record","confidence":"documented","confidence_mix":"documented:1","event_count":1,"source_count":1,"source_ids":"buis-pvji","event_ids":"nyc_lpc_individual_landmark_1217","event_ids_all":"nyc_lpc_individual_landmark_1217","source_urls":"https://data.cityofnewyork.us/resource/buis-pvji.json?objectid=1217","geometry_precision_mix":"Row-level point from the adapter; source geocoding precision varies and may be approximate.:1","representation":"planning and built evidence grid cell","timing_note":"Filtered by event effective year. OSM mapped-visibility dates and administrative dates can differ from real-world physical change dates.","caveat":"Planning cells are derived from source-backed event locations; they are not parcel boundaries unless source geometry is separately present.","generated_from":"web/data/city-atlas/cities/nyc/events_1974.json","lifecycle_status":"uncertain","status":"source_record","cell_size_m":95,"intensity":0.289,"label":"Individual landmark designated: Fort Totten Battery"},"geometry":{"type":"Polygon","coordinates":[[[-73.779643,40.796028],[-73.7785171,40.796028],[-73.7785171,40.7968872],[-73.779643,40.7968872],[-73.779643,40.796028]]]}},{"type":"Feature","properties":{"id":"lens-detail-nyc-1974-planning_cell-11","layer":"planning_cell","category":"built_environment","year":1974,"visible_year":1974,"title":"1 source-backed planning and built record","confidence":"documented","confidence_mix":"documented:1","event_count":1,"source_count":1,"source_ids":"buis-pvji","event_ids":"nyc_lpc_individual_landmark_1218","event_ids_all":"nyc_lpc_individual_landmark_1218","source_urls":"https://data.cityofnewyork.us/resource/buis-pvji.json?objectid=1218","geometry_precision_mix":"Row-level point from the adapter; source geocoding precision varies and may be approximate.:1","representation":"planning and built evidence grid cell","timing_note":"Filtered by event effective year. OSM mapped-visibility dates and administrative dates can differ from real-world physical change dates.","caveat":"Planning cells are derived from source-backed event locations; they are not parcel boundaries unless source geometry is separately present.","generated_from":"web/data/city-atlas/cities/nyc/events_1974.json","lifecycle_status":"uncertain","status":"source_record","cell_size_m":95,"intensity":0.289,"label":"Individual landmark designated: Fort Totten Officer's Club"},"geometry":{"type":"Polygon","coordinates":[[[-73.7785171,40.7917322],[-73.7773911,40.7917322],[-73.7773911,40.7925914],[-73.7785171,40.7925914],[-73.7785171,40.7917322]]]}},{"type":"Feature","properties":{"id":"lens-detail-nyc-1974-planning_cell-12","layer":"planning_cell","category":"built_environment","year":1974,"visible_year":1974,"title":"1 source-backed planning and built record","confidence":"documented","confidence_mix":"documented:1","event_count":1,"source_count":1,"source_ids":"buis-pvji","event_ids":"nyc_lpc_individual_landmark_1219","event_ids_all":"nyc_lpc_individual_landmark_1219","source_urls":"https://data.cityofnewyork.us/resource/buis-pvji.json?objectid=1219","geometry_precision_mix":"Row-level point from the adapter; source geocoding precision varies and may be approximate.:1","representation":"planning and built evidence grid cell","timing_note":"Filtered by event effective year. OSM mapped-visibility dates and administrative dates can differ from real-world physical change dates.","caveat":"Planning cells are derived from source-backed event locations; they are not parcel boundaries unless source geometry is separately present.","generated_from":"web/data/city-atlas/cities/nyc/events_1974.json","lifecycle_status":"uncertain","status":"source_record","cell_size_m":95,"intensity":0.289,"label":"Individual landmark designated: Queensboro Bridge"},"geometry":{"type":"Polygon","coordinates":[[[-73.956416,40.756507],[-73.9552901,40.756507],[-73.9552901,40.7573661],[-73.956416,40.7573661],[-73.956416,40.756507]]]}},{"type":"Feature","properties":{"id":"lens-detail-nyc-1974-planning_cell-14","layer":"planning_cell","category":"built_environment","year":1974,"visible_year":1974,"title":"1 source-backed planning and built record","confidence":"documented","confidence_mix":"documented:1","event_count":1,"source_count":1,"source_ids":"buis-pvji","event_ids":"nyc_lpc_individual_landmark_1223","event_ids_all":"nyc_lpc_individual_landmark_1223","source_urls":"https://data.cityofnewyork.us/resource/buis-pvji.json?objectid=1223","geometry_precision_mix":"Row-level point from the adapter; source geocoding precision varies and may be approximate.:1","representation":"planning and built evidence grid cell","timing_note":"Filtered by event effective year. OSM mapped-visibility dates and administrative dates can differ from real-world physical change dates.","caveat":"Planning cells are derived from source-backed event locations; they are not parcel boundaries unless source geometry is separately present.","generated_from":"web/data/city-atlas/cities/nyc/events_1974.json","lifecycle_status":"uncertain","status":"source_record","cell_size_m":95,"intensity":0.289,"label":"Individual landmark designated: Mrs. Amory S. Carhart House"},"geometry":{"type":"Polygon","coordinates":[[[-73.956416,40.7865773],[-73.9552901,40.7865773],[-73.9552901,40.7874365],[-73.956416,40.7874365],[-73.956416,40.7865773]]]}},{"type":"Feature","properties":{"id":"lens-detail-nyc-1974-planning_cell-15","layer":"planning_cell","category":"built_environment","year":1974,"visible_year":1974,"title":"1 source-backed planning and built record","confidence":"documented","confidence_mix":"documented:1","event_count":1,"source_count":1,"source_ids":"buis-pvji","event_ids":"nyc_lpc_individual_landmark_1224","event_ids_all":"nyc_lpc_individual_landmark_1224","source_urls":"https://data.cityofnewyork.us/resource/buis-pvji.json?objectid=1224","geometry_precision_mix":"Row-level point from the adapter; source geocoding precision varies and may be approximate.:1","representation":"planning and built evidence grid cell","timing_note":"Filtered by event effective year. OSM mapped-visibility dates and administrative dates can differ from real-world physical change dates.","caveat":"Planning cells are derived from source-backed event locations; they are not parcel boundaries unless source geometry is separately present.","generated_from":"web/data/city-atlas/cities/nyc/events_1974.json","lifecycle_status":"uncertain","status":"source_record","cell_size_m":95,"intensity":0.289,"label":"Individual landmark designated: American Radiator Building"},"geometry":{"type":"Polygon","coordinates":[[[-73.9845646,40.7522112],[-73.9834386,40.7522112],[-73.9834386,40.7530703],[-73.9845646,40.7530703],[-73.9845646,40.7522112]]]}},{"type":"Feature","properties":{"id":"lens-detail-nyc-1974-planning_cell-16","layer":"planning_cell","category":"built_environment","year":1974,"visible_year":1974,"title":"1 source-backed planning and built record","confidence":"documented","confidence_mix":"documented:1","event_count":1,"source_count":1,"source_ids":"buis-pvji","event_ids":"nyc_lpc_individual_landmark_160","event_ids_all":"nyc_lpc_individual_landmark_160","source_urls":"https://data.cityofnewyork.us/resource/buis-pvji.json?objectid=160","geometry_precision_mix":"Row-level point from the adapter; source geocoding precision varies and may be approximate.:1","representation":"planning and built evidence grid cell","timing_note":"Filtered by event effective year. OSM mapped-visibility dates and administrative dates can differ from real-world physical change dates.","caveat":"Planning cells are derived from source-backed event locations; they are not parcel boundaries unless source geometry is separately present.","generated_from":"web/data/city-atlas/cities/nyc/events_1974.json","lifecycle_status":"uncertain","status":"source_record","cell_size_m":95,"intensity":0.289,"label":"Individual landmark designated: First Houses"},"geometry":{"type":"Polygon","coordinates":[[[-73.9868165,40.723],[-73.9856905,40.723],[-73.9856905,40.7238591],[-73.9868165,40.7238591],[-73.9868165,40.723]]]}},{"type":"Feature","properties":{"id":"lens-detail-nyc-1974-planning_cell-17","layer":"planning_cell","category":"built_environment","year":1974,"visible_year":1974,"title":"1 source-backed planning and built record","confidence":"documented","confidence_mix":"documented:1","event_count":1,"source_count":1,"source_ids":"buis-pvji","event_ids":"nyc_lpc_individual_landmark_218","event_ids_all":"nyc_lpc_individual_landmark_218","source_urls":"https://data.cityofnewyork.us/resource/buis-pvji.json?objectid=218","geometry_precision_mix":"Row-level point from the adapter; source geocoding precision varies and may be approximate.:1","representation":"planning and built evidence grid cell","timing_note":"Filtered by event effective year. OSM mapped-visibility dates and administrative dates can differ from real-world physical change dates.","caveat":"Planning cells are derived from source-backed event locations; they are not parcel boundaries unless source geometry is separately present.","generated_from":"web/data/city-atlas/cities/nyc/events_1974.json","lifecycle_status":"uncertain","status":"source_record","cell_size_m":95,"intensity":0.289,"label":"Individual landmark designated: Dorilton Apartments"},"geometry":{"type":"Polygon","coordinates":[[[-73.9823127,40.7779858],[-73.9811867,40.7779858],[-73.9811867,40.7788449],[-73.9823127,40.7788449],[-73.9823127,40.7779858]]]}},{"type":"Feature","properties":{"id":"lens-detail-nyc-1974-planning_cell-18","layer":"planning_cell","category":"built_environment","year":1974,"visible_year":1974,"title":"1 source-backed planning and built record","confidence":"documented","confidence_mix":"documented:1","event_count":1,"source_count":1,"source_ids":"buis-pvji","event_ids":"nyc_lpc_individual_landmark_23","event_ids_all":"nyc_lpc_individual_landmark_23","source_urls":"https://data.cityofnewyork.us/resource/buis-pvji.json?objectid=23","geometry_precision_mix":"Row-level point from the adapter; source geocoding precision varies and may be approximate.:1","representation":"planning and built evidence grid cell","timing_note":"Filtered by event effective year. OSM mapped-visibility dates and administrative dates can differ from real-world physical change dates.","caveat":"Planning cells are derived from source-backed event locations; they are not parcel boundaries unless source geometry is separately present.","generated_from":"web/data/city-atlas/cities/nyc/events_1974.json","lifecycle_status":"uncertain","status":"source_record","cell_size_m":95,"intensity":0.289,"label":"Individual landmark designated: Saint John's Church"},"geometry":{"type":"Polygon","coordinates":[[[-74.0645065,40.6113101],[-74.0633806,40.6113101],[-74.0633806,40.6121692],[-74.0645065,40.6121692],[-74.0645065,40.6113101]]]}},{"type":"Feature","properties":{"id":"lens-detail-nyc-1974-planning_cell-19","layer":"planning_cell","category":"built_environment","year":1974,"visible_year":1974,"title":"1 source-backed planning and built record","confidence":"documented","confidence_mix":"documented:1","event_count":1,"source_count":1,"source_ids":"buis-pvji","event_ids":"nyc_lpc_individual_landmark_270","event_ids_all":"nyc_lpc_individual_landmark_270","source_urls":"https://data.cityofnewyork.us/resource/buis-pvji.json?objectid=270","geometry_precision_mix":"Row-level point from the adapter; source geocoding precision varies and may be approximate.:1","representation":"planning and built evidence grid cell","timing_note":"Filtered by event effective year. OSM mapped-visibility dates and administrative dates can differ from real-world physical change dates.","caveat":"Planning cells are derived from source-backed event locations; they are not parcel boundaries unless source geometry is separately present.","generated_from":"web/data/city-atlas/cities/nyc/events_1974.json","lifecycle_status":"uncertain","status":"source_record","cell_size_m":95,"intensity":0.289,"label":"Individual landmark designated: 203 Prince Street House"},"geometry":{"type":"Polygon","coordinates":[[[-74.0037056,40.7264366],[-74.0025797,40.7264366],[-74.0025797,40.7272957],[-74.0037056,40.7272957],[-74.0037056,40.7264366]]]}},{"type":"Feature","properties":{"id":"lens-detail-nyc-1974-planning_cell-2","layer":"planning_cell","category":"built_environment","year":1974,"visible_year":1974,"title":"1 source-backed planning and built record","confidence":"documented","confidence_mix":"documented:1","event_count":1,"source_count":1,"source_ids":"buis-pvji","event_ids":"nyc_lpc_individual_landmark_1047","event_ids_all":"nyc_lpc_individual_landmark_1047","source_urls":"https://data.cityofnewyork.us/resource/buis-pvji.json?objectid=1047","geometry_precision_mix":"Row-level point from the adapter; source geocoding precision varies and may be approximate.:1","representation":"planning and built evidence grid cell","timing_note":"Filtered by event effective year. OSM mapped-visibility dates and administrative dates can differ from real-world physical change dates.","caveat":"Planning cells are derived from source-backed event locations; they are not parcel boundaries unless source geometry is separately present.","generated_from":"web/data/city-atlas/cities/nyc/events_1974.json","lifecycle_status":"uncertain","status":"source_record","cell_size_m":95,"intensity":0.289,"label":"Individual landmark designated: New York Society for Ethical Culture"},"geometry":{"type":"Polygon","coordinates":[[[-73.9811867,40.7702534],[-73.9800608,40.7702534],[-73.9800608,40.7711126],[-73.9811867,40.7711126],[-73.9811867,40.7702534]]]}},{"type":"Feature","properties":{"id":"lens-detail-nyc-1974-planning_cell-20","layer":"planning_cell","category":"built_environment","year":1974,"visible_year":1974,"title":"1 source-backed planning and built record","confidence":"documented","confidence_mix":"documented:1","event_count":1,"source_count":1,"source_ids":"buis-pvji","event_ids":"nyc_lpc_individual_landmark_331","event_ids_all":"nyc_lpc_individual_landmark_331","source_urls":"https://data.cityofnewyork.us/resource/buis-pvji.json?objectid=331","geometry_precision_mix":"Row-level point from the adapter; source geocoding precision varies and may be approximate.:1","representation":"planning and built evidence grid cell","timing_note":"Filtered by event effective year. OSM mapped-visibility dates and administrative dates can differ from real-world physical change dates.","caveat":"Planning cells are derived from source-backed event locations; they are not parcel boundaries unless source geometry is separately present.","generated_from":"web/data/city-atlas/cities/nyc/events_1974.json","lifecycle_status":"uncertain","status":"source_record","cell_size_m":95,"intensity":0.289,"label":"Individual landmark designated: Kitchen, Montross & Wilcox Store"},"geometry":{"type":"Polygon","coordinates":[[[-74.0048315,40.7169859],[-74.0037056,40.7169859],[-74.0037056,40.7178451],[-74.0048315,40.7178451],[-74.0048315,40.7169859]]]}},{"type":"Feature","properties":{"id":"lens-detail-nyc-1974-planning_cell-21","layer":"planning_cell","category":"built_environment","year":1974,"visible_year":1974,"title":"1 source-backed planning and built record","confidence":"documented","confidence_mix":"documented:1","event_count":1,"source_count":1,"source_ids":"buis-pvji","event_ids":"nyc_lpc_individual_landmark_378","event_ids_all":"nyc_lpc_individual_landmark_378","source_urls":"https://data.cityofnewyork.us/resource/buis-pvji.json?objectid=378","geometry_precision_mix":"Row-level point from the adapter; source geocoding precision varies and may be approximate.:1","representation":"planning and built evidence grid cell","timing_note":"Filtered by event effective year. OSM mapped-visibility dates and administrative dates can differ from real-world physical change dates.","caveat":"Planning cells are derived from source-backed event locations; they are not parcel boundaries unless source geometry is separately present.","generated_from":"web/data/city-atlas/cities/nyc/events_1974.json","lifecycle_status":"uncertain","status":"source_record","cell_size_m":95,"intensity":0.289,"label":"Individual landmark designated: Lyceum Theater"},"geometry":{"type":"Polygon","coordinates":[[[-73.9845646,40.7573661],[-73.9834386,40.7573661],[-73.9834386,40.7582253],[-73.9845646,40.7582253],[-73.9845646,40.7573661]]]}},{"type":"Feature","properties":{"id":"lens-detail-nyc-1974-planning_cell-22","layer":"planning_cell","category":"built_environment","year":1974,"visible_year":1974,"title":"1 source-backed planning and built record","confidence":"documented","confidence_mix":"documented:1","event_count":1,"source_count":1,"source_ids":"buis-pvji","event_ids":"nyc_lpc_individual_landmark_507","event_ids_all":"nyc_lpc_individual_landmark_507","source_urls":"https://data.cityofnewyork.us/resource/buis-pvji.json?objectid=507","geometry_precision_mix":"Row-level point from the adapter; source geocoding precision varies and may be approximate.:1","representation":"planning and built evidence grid cell","timing_note":"Filtered by event effective year. OSM mapped-visibility dates and administrative dates can differ from real-world physical change dates.","caveat":"Planning cells are derived from source-backed event locations; they are not parcel boundaries unless source geometry is separately present.","generated_from":"web/data/city-atlas/cities/nyc/events_1974.json","lifecycle_status":"uncertain","status":"source_record","cell_size_m":95,"intensity":0.289,"label":"Individual landmark designated: Morris and Laurette Schinasi House"},"geometry":{"type":"Polygon","coordinates":[[[-73.9699273,40.8029012],[-73.9688014,40.8029012],[-73.9688014,40.8037604],[-73.9699273,40.8037604],[-73.9699273,40.8029012]]]}},{"type":"Feature","properties":{"id":"lens-detail-nyc-1974-planning_cell-23","layer":"planning_cell","category":"built_environment","year":1974,"visible_year":1974,"title":"1 source-backed planning and built record","confidence":"documented","confidence_mix":"documented:1","event_count":1,"source_count":1,"source_ids":"buis-pvji","event_ids":"nyc_lpc_individual_landmark_514","event_ids_all":"nyc_lpc_individual_landmark_514","source_urls":"https://data.cityofnewyork.us/resource/buis-pvji.json?objectid=514","geometry_precision_mix":"Row-level point from the adapter; source geocoding precision varies and may be approximate.:1","representation":"planning and built evidence grid cell","timing_note":"Filtered by event effective year. OSM mapped-visibility dates and administrative dates can differ from real-world physical change dates.","caveat":"Planning cells are derived from source-backed event locations; they are not parcel boundaries unless source geometry is separately present.","generated_from":"web/data/city-atlas/cities/nyc/events_1974.json","lifecycle_status":"uncertain","status":"source_record","cell_size_m":95,"intensity":0.289,"label":"Individual landmark designated: First Church of Christ, Scientist"},"geometry":{"type":"Polygon","coordinates":[[[-73.9654235,40.7917322],[-73.9642976,40.7917322],[-73.9642976,40.7925914],[-73.9654235,40.7925914],[-73.9654235,40.7917322]]]}},{"type":"Feature","properties":{"id":"lens-detail-nyc-1974-planning_cell-25","layer":"planning_cell","category":"built_environment","year":1974,"visible_year":1974,"title":"1 source-backed planning and built record","confidence":"documented","confidence_mix":"documented:1","event_count":1,"source_count":1,"source_ids":"buis-pvji","event_ids":"nyc_lpc_individual_landmark_543","event_ids_all":"nyc_lpc_individual_landmark_543","source_urls":"https://data.cityofnewyork.us/resource/buis-pvji.json?objectid=543","geometry_precision_mix":"Row-level point from the adapter; source geocoding precision varies and may be approximate.:1","representation":"planning and built evidence grid cell","timing_note":"Filtered by event effective year. OSM mapped-visibility dates and administrative dates can differ from real-world physical change dates.","caveat":"Planning cells are derived from source-backed event locations; they are not parcel boundaries unless source geometry is separately present.","generated_from":"web/data/city-atlas/cities/nyc/events_1974.json","lifecycle_status":"uncertain","status":"source_record","cell_size_m":95,"intensity":0.289,"label":"Individual landmark designated: Lambs Club"},"geometry":{"type":"Polygon","coordinates":[[[-73.9845646,40.7556478],[-73.9834386,40.7556478],[-73.9834386,40.756507],[-73.9845646,40.756507],[-73.9845646,40.7556478]]]}},{"type":"Feature","properties":{"id":"lens-detail-nyc-1974-planning_cell-27","layer":"planning_cell","category":"built_environment","year":1974,"visible_year":1974,"title":"1 source-backed planning and built record","confidence":"documented","confidence_mix":"documented:1","event_count":1,"source_count":1,"source_ids":"buis-pvji","event_ids":"nyc_lpc_individual_landmark_579","event_ids_all":"nyc_lpc_individual_landmark_579","source_urls":"https://data.cityofnewyork.us/resource/buis-pvji.json?objectid=579","geometry_precision_mix":"Row-level point from the adapter; source geocoding precision varies and may be approximate.:1","representation":"planning and built evidence grid cell","timing_note":"Filtered by event effective year. OSM mapped-visibility dates and administrative dates can differ from real-world physical change dates.","caveat":"Planning cells are derived from source-backed event locations; they are not parcel boundaries unless source geometry is separately present.","generated_from":"web/data/city-atlas/cities/nyc/events_1974.json","lifecycle_status":"uncertain","status":"source_record","cell_size_m":95,"intensity":0.289,"label":"Individual landmark designated: 1009 Fifth Avenue House"},"geometry":{"type":"Polygon","coordinates":[[[-73.9620457,40.7779858],[-73.9609198,40.7779858],[-73.9609198,40.7788449],[-73.9620457,40.7788449],[-73.9620457,40.7779858]]]}},{"type":"Feature","properties":{"id":"lens-detail-nyc-1974-planning_cell-28","layer":"planning_cell","category":"built_environment","year":1974,"visible_year":1974,"title":"1 source-backed planning and built record","confidence":"documented","confidence_mix":"documented:1","event_count":1,"source_count":1,"source_ids":"buis-pvji","event_ids":"nyc_lpc_individual_landmark_59","event_ids_all":"nyc_lpc_individual_landmark_59","source_urls":"https://data.cityofnewyork.us/resource/buis-pvji.json?objectid=59","geometry_precision_mix":"Row-level point from the adapter; source geocoding precision varies and may be approximate.:1","representation":"planning and built evidence grid cell","timing_note":"Filtered by event effective year. OSM mapped-visibility dates and administrative dates can differ from real-world physical change dates.","caveat":"Planning cells are derived from source-backed event locations; they are not parcel boundaries unless source geometry is separately present.","generated_from":"web/data/city-atlas/cities/nyc/events_1974.json","lifecycle_status":"uncertain","status":"source_record","cell_size_m":95,"intensity":0.289,"label":"Individual landmark designated: Abraham J. Wood House"},"geometry":{"type":"Polygon","coordinates":[[[-74.2052493,40.5245356],[-74.2041234,40.5245356],[-74.2041234,40.5253948],[-74.2052493,40.5253948],[-74.2052493,40.5245356]]]}},{"type":"Feature","properties":{"id":"lens-detail-nyc-1974-planning_cell-29","layer":"planning_cell","category":"built_environment","year":1974,"visible_year":1974,"title":"1 source-backed planning and built record","confidence":"documented","confidence_mix":"documented:1","event_count":1,"source_count":1,"source_ids":"buis-pvji","event_ids":"nyc_lpc_individual_landmark_674","event_ids_all":"nyc_lpc_individual_landmark_674","source_urls":"https://data.cityofnewyork.us/resource/buis-pvji.json?objectid=674","geometry_precision_mix":"Row-level point from the adapter; source geocoding precision varies and may be approximate.:1","representation":"planning and built evidence grid cell","timing_note":"Filtered by event effective year. OSM mapped-visibility dates and administrative dates can differ from real-world physical change dates.","caveat":"Planning cells are derived from source-backed event locations; they are not parcel boundaries unless source geometry is separately present.","generated_from":"web/data/city-atlas/cities/nyc/events_1974.json","lifecycle_status":"uncertain","status":"source_record","cell_size_m":95,"intensity":0.289,"label":"Individual landmark designated: Ernesto and Edith Fabri House"},"geometry":{"type":"Polygon","coordinates":[[[-73.9552901,40.7865773],[-73.9541641,40.7865773],[-73.9541641,40.7874365],[-73.9552901,40.7874365],[-73.9552901,40.7865773]]]}},{"type":"Feature","properties":{"id":"lens-detail-nyc-1974-planning_cell-3","layer":"planning_cell","category":"built_environment","year":1974,"visible_year":1974,"title":"1 source-backed planning and built record","confidence":"documented","confidence_mix":"documented:1","event_count":1,"source_count":1,"source_ids":"buis-pvji","event_ids":"nyc_lpc_individual_landmark_1048","event_ids_all":"nyc_lpc_individual_landmark_1048","source_urls":"https://data.cityofnewyork.us/resource/buis-pvji.json?objectid=1048","geometry_precision_mix":"Row-level point from the adapter; source geocoding precision varies and may be approximate.:1","representation":"planning and built evidence grid cell","timing_note":"Filtered by event effective year. OSM mapped-visibility dates and administrative dates can differ from real-world physical change dates.","caveat":"Planning cells are derived from source-backed event locations; they are not parcel boundaries unless source geometry is separately present.","generated_from":"web/data/city-atlas/cities/nyc/events_1974.json","lifecycle_status":"uncertain","status":"source_record","cell_size_m":95,"intensity":0.289,"label":"Individual landmark designated: Shearith Israel Synagogue"},"geometry":{"type":"Polygon","coordinates":[[[-73.9778089,40.7745492],[-73.976683,40.7745492],[-73.976683,40.7754083],[-73.9778089,40.7754083],[-73.9778089,40.7745492]]]}},{"type":"Feature","properties":{"id":"lens-detail-nyc-1974-planning_cell-31","layer":"planning_cell","category":"built_environment","year":1974,"visible_year":1974,"title":"1 source-backed planning and built record","confidence":"documented","confidence_mix":"documented:1","event_count":1,"source_count":1,"source_ids":"buis-pvji","event_ids":"nyc_lpc_individual_landmark_728","event_ids_all":"nyc_lpc_individual_landmark_728","source_urls":"https://data.cityofnewyork.us/resource/buis-pvji.json?objectid=728","geometry_precision_mix":"Row-level point from the adapter; source geocoding precision varies and may be approximate.:1","representation":"planning and built evidence grid cell","timing_note":"Filtered by event effective year. OSM mapped-visibility dates and administrative dates can differ from real-world physical change dates.","caveat":"Planning cells are derived from source-backed event locations; they are not parcel boundaries unless source geometry is separately present.","generated_from":"web/data/city-atlas/cities/nyc/events_1974.json","lifecycle_status":"uncertain","status":"source_record","cell_size_m":95,"intensity":0.289,"label":"Individual landmark designated: James A. and Ruth M. Bailey House"},"geometry":{"type":"Polygon","coordinates":[[[-73.9429047,40.8269575],[-73.9417788,40.8269575],[-73.9417788,40.8278167],[-73.9429047,40.8278167],[-73.9429047,40.8269575]]]}},{"type":"Feature","properties":{"id":"lens-detail-nyc-1974-planning_cell-32","layer":"planning_cell","category":"built_environment","year":1974,"visible_year":1974,"title":"1 source-backed planning and built record","confidence":"documented","confidence_mix":"documented:1","event_count":1,"source_count":1,"source_ids":"buis-pvji","event_ids":"nyc_lpc_individual_landmark_770","event_ids_all":"nyc_lpc_individual_landmark_770","source_urls":"https://data.cityofnewyork.us/resource/buis-pvji.json?objectid=770","geometry_precision_mix":"Row-level point from the adapter; source geocoding precision varies and may be approximate.:1","representation":"planning and built evidence grid cell","timing_note":"Filtered by event effective year. OSM mapped-visibility dates and administrative dates can differ from real-world physical change dates.","caveat":"Planning cells are derived from source-backed event locations; they are not parcel boundaries unless source geometry is separately present.","generated_from":"web/data/city-atlas/cities/nyc/events_1974.json","lifecycle_status":"uncertain","status":"source_record","cell_size_m":95,"intensity":0.289,"label":"Individual landmark designated: Andrew and Louise Carnegie House"},"geometry":{"type":"Polygon","coordinates":[[[-73.9586679,40.7839999],[-73.957542,40.7839999],[-73.957542,40.784859],[-73.9586679,40.784859],[-73.9586679,40.7839999]]]}},{"type":"Feature","properties":{"id":"lens-detail-nyc-1974-planning_cell-33","layer":"planning_cell","category":"built_environment","year":1974,"visible_year":1974,"title":"1 source-backed planning and built record","confidence":"documented","confidence_mix":"documented:1","event_count":1,"source_count":1,"source_ids":"buis-pvji","event_ids":"nyc_lpc_individual_landmark_855","event_ids_all":"nyc_lpc_individual_landmark_855","source_urls":"https://data.cityofnewyork.us/resource/buis-pvji.json?objectid=855","geometry_precision_mix":"Row-level point from the adapter; source geocoding precision varies and may be approximate.:1","representation":"planning and built evidence grid cell","timing_note":"Filtered by event effective year. OSM mapped-visibility dates and administrative dates can differ from real-world physical change dates.","caveat":"Planning cells are derived from source-backed event locations; they are not parcel boundaries unless source geometry is separately present.","generated_from":"web/data/city-atlas/cities/nyc/events_1974.json","lifecycle_status":"uncertain","status":"source_record","cell_size_m":95,"intensity":0.289,"label":"Individual landmark designated: Gage & Tollner Restaurant"},"geometry":{"type":"Polygon","coordinates":[[[-73.9879424,40.6912113],[-73.9868165,40.6912113],[-73.9868165,40.6920705],[-73.9879424,40.6920705],[-73.9879424,40.6912113]]]}},{"type":"Feature","properties":{"id":"lens-detail-nyc-1974-planning_cell-34","layer":"planning_cell","category":"built_environment","year":1974,"visible_year":1974,"title":"1 source-backed planning and built record","confidence":"documented","confidence_mix":"documented:1","event_count":1,"source_count":1,"source_ids":"buis-pvji","event_ids":"nyc_lpc_individual_landmark_869","event_ids_all":"nyc_lpc_individual_landmark_869","source_urls":"https://data.cityofnewyork.us/resource/buis-pvji.json?objectid=869","geometry_precision_mix":"Row-level point from the adapter; source geocoding precision varies and may be approximate.:1","representation":"planning and built evidence grid cell","timing_note":"Filtered by event effective year. OSM mapped-visibility dates and administrative dates can differ from real-world physical change dates.","caveat":"Planning cells are derived from source-backed event locations; they are not parcel boundaries unless source geometry is separately present.","generated_from":"web/data/city-atlas/cities/nyc/events_1974.json","lifecycle_status":"uncertain","status":"source_record","cell_size_m":95,"intensity":0.289,"label":"Individual landmark designated: Saint Bartholomew's Church"},"geometry":{"type":"Polygon","coordinates":[[[-73.9530382,40.6774649],[-73.9519122,40.6774649],[-73.9519122,40.678324],[-73.9530382,40.678324],[-73.9530382,40.6774649]]]}},{"type":"Feature","properties":{"id":"lens-detail-nyc-1974-planning_cell-35","layer":"planning_cell","category":"built_environment","year":1974,"visible_year":1974,"title":"1 source-backed planning and built record","confidence":"documented","confidence_mix":"documented:1","event_count":1,"source_count":1,"source_ids":"buis-pvji","event_ids":"nyc_lpc_individual_landmark_976","event_ids_all":"nyc_lpc_individual_landmark_976","source_urls":"https://data.cityofnewyork.us/resource/buis-pvji.json?objectid=976","geometry_precision_mix":"Row-level point from the adapter; source geocoding precision varies and may be approximate.:1","representation":"planning and built evidence grid cell","timing_note":"Filtered by event effective year. OSM mapped-visibility dates and administrative dates can differ from real-world physical change dates.","caveat":"Planning cells are derived from source-backed event locations; they are not parcel boundaries unless source geometry is separately present.","generated_from":"web/data/city-atlas/cities/nyc/events_1974.json","lifecycle_status":"uncertain","status":"source_record","cell_size_m":95,"intensity":0.289,"label":"Individual landmark designated: 52nd Police Precinct Station House"},"geometry":{"type":"Polygon","coordinates":[[[-73.8809779,40.8681969],[-73.8798519,40.8681969],[-73.8798519,40.869056],[-73.8809779,40.869056],[-73.8809779,40.8681969]]]}},{"type":"Feature","properties":{"id":"lens-detail-nyc-1974-planning_cell-36","layer":"planning_cell","category":"built_environment","year":1974,"visible_year":1974,"title":"1 source-backed planning and built record","confidence":"documented","confidence_mix":"documented:1","event_count":1,"source_count":1,"source_ids":"buis-pvji","event_ids":"nyc_lpc_individual_landmark_983","event_ids_all":"nyc_lpc_individual_landmark_983","source_urls":"https://data.cityofnewyork.us/resource/buis-pvji.json?objectid=983","geometry_precision_mix":"Row-level point from the adapter; source geocoding precision varies and may be approximate.:1","representation":"planning and built evidence grid cell","timing_note":"Filtered by event effective year. OSM mapped-visibility dates and administrative dates can differ from real-world physical change dates.","caveat":"Planning cells are derived from source-backed event locations; they are not parcel boundaries unless source geometry is separately present.","generated_from":"web/data/city-atlas/cities/nyc/events_1974.json","lifecycle_status":"uncertain","status":"source_record","cell_size_m":95,"intensity":0.289,"label":"Individual landmark designated: Eighth Coastal Artillery Armory"},"geometry":{"type":"Polygon","coordinates":[[[-73.9001189,40.8673377],[-73.8989929,40.8673377],[-73.8989929,40.8681969],[-73.9001189,40.8681969],[-73.9001189,40.8673377]]]}},{"type":"Feature","properties":{"id":"lens-detail-nyc-1974-planning_cell-4","layer":"planning_cell","category":"built_environment","year":1974,"visible_year":1974,"title":"1 source-backed planning and built record","confidence":"documented","confidence_mix":"documented:1","event_count":1,"source_count":1,"source_ids":"buis-pvji","event_ids":"nyc_lpc_individual_landmark_106","event_ids_all":"nyc_lpc_individual_landmark_106","source_urls":"https://data.cityofnewyork.us/resource/buis-pvji.json?objectid=106","geometry_precision_mix":"Row-level point from the adapter; source geocoding precision varies and may be approximate.:1","representation":"planning and built evidence grid cell","timing_note":"Filtered by event effective year. OSM mapped-visibility dates and administrative dates can differ from real-world physical change dates.","caveat":"Planning cells are derived from source-backed event locations; they are not parcel boundaries unless source geometry is separately present.","generated_from":"web/data/city-atlas/cities/nyc/events_1974.json","lifecycle_status":"uncertain","status":"source_record","cell_size_m":95,"intensity":0.289,"label":"Individual landmark designated: The Register"},"geometry":{"type":"Polygon","coordinates":[[[-73.798784,40.7032395],[-73.7976581,40.7032395],[-73.7976581,40.7040986],[-73.798784,40.7040986],[-73.798784,40.7032395]]]}},{"type":"Feature","properties":{"id":"lens-detail-nyc-1974-planning_cell-5","layer":"planning_cell","category":"built_environment","year":1974,"visible_year":1974,"title":"1 source-backed planning and built record","confidence":"documented","confidence_mix":"documented:1","event_count":1,"source_count":1,"source_ids":"buis-pvji","event_ids":"nyc_lpc_individual_landmark_1078","event_ids_all":"nyc_lpc_individual_landmark_1078","source_urls":"https://data.cityofnewyork.us/resource/buis-pvji.json?objectid=1078","geometry_precision_mix":"Row-level point from the adapter; source geocoding precision varies and may be approximate.:1","representation":"planning and built evidence grid cell","timing_note":"Filtered by event effective year. OSM mapped-visibility dates and administrative dates can differ from real-world physical change dates.","caveat":"Planning cells are derived from source-backed event locations; they are not parcel boundaries unless source geometry is separately present.","generated_from":"web/data/city-atlas/cities/nyc/events_1974.json","lifecycle_status":"uncertain","status":"source_record","cell_size_m":95,"intensity":0.289,"label":"Individual landmark designated: Public Baths"},"geometry":{"type":"Polygon","coordinates":[[[-73.976683,40.7358873],[-73.975557,40.7358873],[-73.975557,40.7367464],[-73.976683,40.7367464],[-73.976683,40.7358873]]]}},{"type":"Feature","properties":{"id":"lens-detail-nyc-1974-planning_cell-6","layer":"planning_cell","category":"built_environment","year":1974,"visible_year":1974,"title":"1 source-backed planning and built record","confidence":"documented","confidence_mix":"documented:1","event_count":1,"source_count":1,"source_ids":"buis-pvji","event_ids":"nyc_lpc_individual_landmark_1131","event_ids_all":"nyc_lpc_individual_landmark_1131","source_urls":"https://data.cityofnewyork.us/resource/buis-pvji.json?objectid=1131","geometry_precision_mix":"Row-level point from the adapter; source geocoding precision varies and may be approximate.:1","representation":"planning and built evidence grid cell","timing_note":"Filtered by event effective year. OSM mapped-visibility dates and administrative dates can differ from real-world physical change dates.","caveat":"Planning cells are derived from source-backed event locations; they are not parcel boundaries unless source geometry is separately present.","generated_from":"web/data/city-atlas/cities/nyc/events_1974.json","lifecycle_status":"uncertain","status":"source_record","cell_size_m":95,"intensity":0.289,"label":"Individual landmark designated: The Cloisters"},"geometry":{"type":"Polygon","coordinates":[[[-73.9327712,40.8647603],[-73.9316453,40.8647603],[-73.9316453,40.8656194],[-73.9327712,40.8656194],[-73.9327712,40.8647603]]]}},{"type":"Feature","properties":{"id":"lens-detail-nyc-1974-planning_cell-7","layer":"planning_cell","category":"built_environment","year":1974,"visible_year":1974,"title":"1 source-backed planning and built record","confidence":"documented","confidence_mix":"documented:1","event_count":1,"source_count":1,"source_ids":"buis-pvji","event_ids":"nyc_lpc_individual_landmark_1181","event_ids_all":"nyc_lpc_individual_landmark_1181","source_urls":"https://data.cityofnewyork.us/resource/buis-pvji.json?objectid=1181","geometry_precision_mix":"Row-level point from the adapter; source geocoding precision varies and may be approximate.:1","representation":"planning and built evidence grid cell","timing_note":"Filtered by event effective year. OSM mapped-visibility dates and administrative dates can differ from real-world physical change dates.","caveat":"Planning cells are derived from source-backed event locations; they are not parcel boundaries unless source geometry is separately present.","generated_from":"web/data/city-atlas/cities/nyc/events_1974.json","lifecycle_status":"uncertain","status":"source_record","cell_size_m":95,"intensity":0.289,"label":"Individual landmark designated: Fort Tompkins"},"geometry":{"type":"Polygon","coordinates":[[[-74.0577508,40.605296],[-74.0566249,40.605296],[-74.0566249,40.6061552],[-74.0577508,40.6061552],[-74.0577508,40.605296]]]}},{"type":"Feature","properties":{"id":"lens-detail-nyc-1974-planning_cell-8","layer":"planning_cell","category":"built_environment","year":1974,"visible_year":1974,"title":"1 source-backed planning and built record","confidence":"documented","confidence_mix":"documented:1","event_count":1,"source_count":1,"source_ids":"buis-pvji","event_ids":"nyc_lpc_individual_landmark_1188","event_ids_all":"nyc_lpc_individual_landmark_1188","source_urls":"https://data.cityofnewyork.us/resource/buis-pvji.json?objectid=1188","geometry_precision_mix":"Row-level point from the adapter; source geocoding precision varies and may be approximate.:1","representation":"planning and built evidence grid cell","timing_note":"Filtered by event effective year. OSM mapped-visibility dates and administrative dates can differ from real-world physical change dates.","caveat":"Planning cells are derived from source-backed event locations; they are not parcel boundaries unless source geometry is separately present.","generated_from":"web/data/city-atlas/cities/nyc/events_1974.json","lifecycle_status":"uncertain","status":"source_record","cell_size_m":95,"intensity":0.289,"label":"Individual landmark designated: 998 Fifth Avenue Apartment House"},"geometry":{"type":"Polygon","coordinates":[[[-73.9631717,40.7779858],[-73.9620457,40.7779858],[-73.9620457,40.7788449],[-73.9631717,40.7788449],[-73.9631717,40.7779858]]]}}]}
