{"type":"FeatureCollection","name":"nyc_transport_roads_1907","metadata":{"schema_version":"1.0.0","city_id":"nyc","year":1907,"road_source":"data/raw/overpass/nyc_major_roads_osm_2026.geojson","method":"Road features are colored from nearby source-backed transport records in a rolling three-year window.","caveat":"Transport road colors are activity hotspots, not measured traffic counts or live congestion."},"features":[{"type":"Feature","properties":{"id":"lens-traffic-road-nyc-way/910432368","layer":"traffic_road","category":"transport","year":1907,"visible_year":2026,"rank":4,"name":"Myrtle Avenue","source_id":"way/910432368","source_url":"https://www.openstreetmap.org/way/910432368","license":"ODbL","transport_raw":0.523,"transport_count":1,"transport_activity":1,"representation":"major-road transport-event activity","timing_note":"Road color is a three-year transport-event activity surface on current OSM major road geometry, not measured traffic volume or congestion."},"geometry":{"type":"LineString","coordinates":[[-73.9111651,40.6995674],[-73.911306,40.6995519],[-73.9122058,40.6994528],[-73.9122858,40.699444]]}},{"type":"Feature","properties":{"id":"lens-traffic-road-nyc-way/464523835","layer":"traffic_road","category":"transport","year":1907,"visible_year":2026,"rank":4,"name":"Myrtle Avenue","source_id":"way/464523835","source_url":"https://www.openstreetmap.org/way/464523835","license":"ODbL","transport_raw":0.504,"transport_count":1,"transport_activity":0.962,"representation":"major-road transport-event activity","timing_note":"Road color is a three-year transport-event activity surface on current OSM major road geometry, not measured traffic volume or congestion."},"geometry":{"type":"LineString","coordinates":[[-73.9109898,40.6995881],[-73.9110248,40.6995852],[-73.9111651,40.6995674]]}},{"type":"Feature","properties":{"id":"lens-traffic-road-nyc-way/905891580","layer":"traffic_road","category":"transport","year":1907,"visible_year":2024,"rank":4,"name":"Myrtle Avenue","source_id":"way/905891580","source_url":"https://www.openstreetmap.org/way/905891580","license":"ODbL","transport_raw":0.497,"transport_count":1,"transport_activity":0.951,"representation":"major-road transport-event activity","timing_note":"Road color is a three-year transport-event activity surface on current OSM major road geometry, not measured traffic volume or congestion."},"geometry":{"type":"LineString","coordinates":[[-73.9107803,40.699608],[-73.9109898,40.6995881]]}},{"type":"Feature","properties":{"id":"lens-traffic-road-nyc-way/1322462911","layer":"traffic_road","category":"transport","year":1907,"visible_year":2024,"rank":4,"name":"Myrtle Avenue","source_id":"way/1322462911","source_url":"https://www.openstreetmap.org/way/1322462911","license":"ODbL","transport_raw":0.486,"transport_count":1,"transport_activity":0.929,"representation":"major-road transport-event activity","timing_note":"Road color is a three-year transport-event activity surface on current OSM major road geometry, not measured traffic volume or congestion."},"geometry":{"type":"LineString","coordinates":[[-73.9104127,40.6996489],[-73.9107803,40.699608]]}},{"type":"Feature","properties":{"id":"lens-traffic-road-nyc-way/729125918","layer":"traffic_road","category":"transport","year":1907,"visible_year":2024,"rank":4,"name":"Myrtle Avenue","source_id":"way/729125918","source_url":"https://www.openstreetmap.org/way/729125918","license":"ODbL","transport_raw":0.475,"transport_count":1,"transport_activity":0.908,"representation":"major-road transport-event activity","timing_note":"Road color is a three-year transport-event activity surface on current OSM major road geometry, not measured traffic volume or congestion."},"geometry":{"type":"LineString","coordinates":[[-73.9182858,40.698817],[-73.9182284,40.6988231],[-73.9176286,40.6988872],[-73.9175228,40.698898],[-73.9174216,40.6989113],[-73.9163383,40.6990171],[-73.9162195,40.699032],[-73.9161117,40.6990452],[-73.9150591,40.6991528],[-73.9149216,40.6991673],[-73.9148035,40.6991772],[-73.9146744,40.699189],[-73.914529,40.6992045],[-73.9140862,40.6992551],[-73.913801,40.6992843],[-73.9136017,40.6993038],[-73.9129615,40.699372],[-73.9126152,40.6994089],[-73.9124168,40.69943],[-73.9122858,40.699444]]}},{"type":"Feature","properties":{"id":"lens-traffic-road-nyc-way/5707046","layer":"traffic_road","category":"transport","year":1907,"visible_year":2025,"rank":4,"name":"Myrtle Avenue","source_id":"way/5707046","source_url":"https://www.openstreetmap.org/way/5707046","license":"ODbL","transport_raw":0.418,"transport_count":1,"transport_activity":0.798,"representation":"major-road transport-event activity","timing_note":"Road color is a three-year transport-event activity surface on current OSM major road geometry, not measured traffic volume or congestion."},"geometry":{"type":"LineString","coordinates":[[-73.908683,40.699841],[-73.9087812,40.6998302],[-73.9104127,40.6996489]]}},{"type":"Feature","properties":{"id":"lens-traffic-road-nyc-way/216939198","layer":"traffic_road","category":"transport","year":1907,"visible_year":2022,"rank":4,"name":"Myrtle Avenue","source_id":"way/216939198","source_url":"https://www.openstreetmap.org/way/216939198","license":"ODbL","transport_raw":0.365,"transport_count":1,"transport_activity":0.698,"representation":"major-road transport-event activity","timing_note":"Road color is a three-year transport-event activity surface on current OSM major road geometry, not measured traffic volume or congestion."},"geometry":{"type":"LineString","coordinates":[[-73.908683,40.699841],[-73.9084498,40.6998656],[-73.908299,40.699882]]}},{"type":"Feature","properties":{"id":"lens-traffic-road-nyc-way/198924608","layer":"traffic_road","category":"transport","year":1907,"visible_year":2025,"rank":4,"name":"Myrtle Avenue","source_id":"way/198924608","source_url":"https://www.openstreetmap.org/way/198924608","license":"ODbL","transport_raw":0.321,"transport_count":1,"transport_activity":0.614,"representation":"major-road transport-event activity","timing_note":"Road color is a three-year transport-event activity surface on current OSM major road geometry, not measured traffic volume or congestion."},"geometry":{"type":"LineString","coordinates":[[-73.908299,40.699882],[-73.908181,40.6999011],[-73.9071213,40.7000273]]}},{"type":"Feature","properties":{"id":"lens-traffic-road-nyc-way/1426351614","layer":"traffic_road","category":"transport","year":1907,"visible_year":2025,"rank":4,"name":"Myrtle Avenue","source_id":"way/1426351614","source_url":"https://www.openstreetmap.org/way/1426351614","license":"ODbL","transport_raw":0.272,"transport_count":1,"transport_activity":0.52,"representation":"major-road transport-event activity","timing_note":"Road color is a three-year transport-event activity surface on current OSM major road geometry, not measured traffic volume or congestion."},"geometry":{"type":"LineString","coordinates":[[-73.9183898,40.6988065],[-73.9182858,40.698817]]}},{"type":"Feature","properties":{"id":"lens-traffic-road-nyc-way/1035094699","layer":"traffic_road","category":"transport","year":1907,"visible_year":2025,"rank":4,"name":"Myrtle Avenue","source_id":"way/1035094699","source_url":"https://www.openstreetmap.org/way/1035094699","license":"ODbL","transport_raw":0.264,"transport_count":1,"transport_activity":0.505,"representation":"major-road transport-event activity","timing_note":"Road color is a three-year transport-event activity surface on current OSM major road geometry, not measured traffic volume or congestion."},"geometry":{"type":"LineString","coordinates":[[-73.9184878,40.6987967],[-73.918443,40.6988012],[-73.9183898,40.6988065]]}},{"type":"Feature","properties":{"id":"lens-traffic-road-nyc-way/734889456","layer":"traffic_road","category":"transport","year":1907,"visible_year":2025,"rank":4,"name":"Myrtle Avenue","source_id":"way/734889456","source_url":"https://www.openstreetmap.org/way/734889456","license":"ODbL","transport_raw":0.248,"transport_count":1,"transport_activity":0.473,"representation":"major-road transport-event activity","timing_note":"Road color is a three-year transport-event activity surface on current OSM major road geometry, not measured traffic volume or congestion."},"geometry":{"type":"LineString","coordinates":[[-73.9188354,40.6987624],[-73.9186222,40.6987835],[-73.9184878,40.6987967]]}},{"type":"Feature","properties":{"id":"lens-traffic-road-nyc-way/216941320","layer":"traffic_road","category":"transport","year":1907,"visible_year":2025,"rank":3,"name":"Cypress Avenue","source_id":"way/216941320","source_url":"https://www.openstreetmap.org/way/216941320","license":"ODbL","transport_raw":0.201,"transport_count":1,"transport_activity":0.385,"representation":"major-road transport-event activity","timing_note":"Road color is a three-year transport-event activity surface on current OSM major road geometry, not measured traffic volume or congestion."},"geometry":{"type":"LineString","coordinates":[[-73.90736,40.700804],[-73.9073028,40.7007702],[-73.9066205,40.7003665]]}},{"type":"Feature","properties":{"id":"lens-traffic-road-nyc-way/216941306","layer":"traffic_road","category":"transport","year":1907,"visible_year":2025,"rank":3,"name":"Cypress Avenue","source_id":"way/216941306","source_url":"https://www.openstreetmap.org/way/216941306","license":"ODbL","transport_raw":0.194,"transport_count":1,"transport_activity":0.37,"representation":"major-road transport-event activity","timing_note":"Road color is a three-year transport-event activity surface on current OSM major road geometry, not measured traffic volume or congestion."},"geometry":{"type":"LineString","coordinates":[[-73.9088428,40.7016747],[-73.9087702,40.7016321],[-73.9081754,40.7012828],[-73.9081041,40.7012409],[-73.9080515,40.70121],[-73.9074325,40.7008466],[-73.90736,40.700804]]}},{"type":"Feature","properties":{"id":"lens-traffic-road-nyc-way/216941303","layer":"traffic_road","category":"transport","year":1907,"visible_year":2025,"rank":4,"name":"Myrtle Avenue","source_id":"way/216941303","source_url":"https://www.openstreetmap.org/way/216941303","license":"ODbL","transport_raw":0.168,"transport_count":1,"transport_activity":0.322,"representation":"major-road transport-event activity","timing_note":"Road color is a three-year transport-event activity surface on current OSM major road geometry, not measured traffic volume or congestion."},"geometry":{"type":"LineString","coordinates":[[-73.9048839,40.700285],[-73.9054948,40.7002192],[-73.9055942,40.7002043],[-73.905727,40.7001851],[-73.9060768,40.7001456],[-73.9062195,40.7001302],[-73.9063594,40.700118],[-73.9071213,40.7000273]]}},{"type":"Feature","properties":{"id":"lens-traffic-road-nyc-way/461075407","layer":"traffic_road","category":"transport","year":1907,"visible_year":2024,"rank":3,"name":"Cypress Avenue","source_id":"way/461075407","source_url":"https://www.openstreetmap.org/way/461075407","license":"ODbL","transport_raw":0.11,"transport_count":1,"transport_activity":0.209,"representation":"major-road transport-event activity","timing_note":"Road color is a three-year transport-event activity surface on current OSM major road geometry, not measured traffic volume or congestion."},"geometry":{"type":"LineString","coordinates":[[-73.9118086,40.7034363],[-73.9117525,40.703403],[-73.9111374,40.7030369],[-73.9110688,40.7029962],[-73.9110115,40.7029622],[-73.9103993,40.7025988],[-73.9103284,40.7025567],[-73.9102694,40.7025216],[-73.9096585,40.7021589],[-73.9095906,40.7021186],[-73.9095331,40.7020845],[-73.9089376,40.701731],[-73.9088428,40.7016747]]}},{"type":"Feature","properties":{"id":"lens-traffic-road-nyc-way/997124852","layer":"traffic_road","category":"transport","year":1907,"visible_year":2024,"rank":4,"name":"Myrtle Avenue","source_id":"way/997124852","source_url":"https://www.openstreetmap.org/way/997124852","license":"ODbL","transport_raw":0.108,"transport_count":1,"transport_activity":0.207,"representation":"major-road transport-event activity","timing_note":"Road color is a three-year transport-event activity surface on current OSM major road geometry, not measured traffic volume or congestion."},"geometry":{"type":"LineString","coordinates":[[-73.9214715,40.6984827],[-73.9213369,40.6984994],[-73.9202457,40.6986167],[-73.9201003,40.6986327],[-73.9200412,40.6986388],[-73.9188354,40.6987624]]}},{"type":"Feature","properties":{"id":"lens-traffic-road-nyc-way/1436159764","layer":"traffic_road","category":"transport","year":1907,"visible_year":2026,"rank":3,"name":"Cypress Avenue","source_id":"way/1436159764","source_url":"https://www.openstreetmap.org/way/1436159764","license":"ODbL","transport_raw":0.046,"transport_count":1,"transport_activity":0.088,"representation":"major-road transport-event activity","timing_note":"Road color is a three-year transport-event activity surface on current OSM major road geometry, not measured traffic volume or congestion."},"geometry":{"type":"LineString","coordinates":[[-73.9066205,40.7003665],[-73.906329,40.7001915],[-73.9062195,40.7001302],[-73.9061238,40.7000809],[-73.9059539,40.6999729],[-73.9058776,40.6999279],[-73.905818,40.6998943],[-73.9055772,40.6997528],[-73.9055028,40.6997067],[-73.9048542,40.6993218],[-73.9047826,40.6992794],[-73.9047221,40.6992434],[-73.9041431,40.698901],[-73.9040695,40.6988575],[-73.9040116,40.6988233],[-73.9039634,40.6987948],[-73.9037858,40.6986897],[-73.903553,40.698552],[-73.9034209,40.6984754],[-73.9033564,40.6984356],[-73.903304,40.6984046],[-73.9029735,40.6982091],[-73.9027249,40.698062],[-73.9026439,40.6980141],[-73.902589,40.6979816],[-73.902312,40.6978167],[-73.9020104,40.6976373],[-73.9019301,40.6975919],[-73.901879,40.6975612],[-73.9015777,40.6973833],[-73.9012916,40.6972144],[-73.901219,40.697171],[-73.9011646,40.6971365],[-73.9009185,40.6969886],[-73.9005749,40.6967821],[-73.900503,40.696739],[-73.9004417,40.69669],[-73.8999452,40.6962815],[-73.89987,40.69622],[-73.8998221,40.6961803],[-73.8993155,40.6957555],[-73.8992658,40.6957135]]}}]}
