{"type":"FeatureCollection","name":"nyc_transport_roads_1950","metadata":{"schema_version":"1.0.0","city_id":"nyc","year":1950,"road_source":"data/raw/overpass/nyc_major_roads_osm_2026.geojson","method":"Road features are colored from nearby source-backed transport records in a rolling three-year window.","caveat":"Transport road colors are activity hotspots, not measured traffic counts or live congestion."},"features":[{"type":"Feature","properties":{"id":"lens-traffic-road-nyc-way/850616373","layer":"traffic_road","category":"transport","year":1950,"visible_year":2025,"rank":4,"name":"Cross Bay Boulevard","source_id":"way/850616373","source_url":"https://www.openstreetmap.org/way/850616373","license":"ODbL","transport_raw":0.333,"transport_count":1,"transport_activity":1,"representation":"major-road transport-event activity","timing_note":"Road color is a three-year transport-event activity surface on current OSM major road geometry, not measured traffic volume or congestion."},"geometry":{"type":"LineString","coordinates":[[-73.8189585,40.6097148],[-73.818953,40.6098294],[-73.8189476,40.6099548],[-73.8189467,40.6100714],[-73.8189484,40.6102013],[-73.8189544,40.6103311],[-73.818963,40.6104503],[-73.818973,40.6105693],[-73.8189855,40.6106825],[-73.8189994,40.6107836],[-73.819017,40.6108983],[-73.8190434,40.6110355],[-73.8190729,40.6111667],[-73.8191032,40.6112761],[-73.8191425,40.6114081],[-73.8191826,40.6115281],[-73.8192262,40.6116466],[-73.8192809,40.6117746],[-73.8193348,40.6118949],[-73.8193474,40.6119238]]}},{"type":"Feature","properties":{"id":"lens-traffic-road-nyc-way/420904544","layer":"traffic_road","category":"transport","year":1950,"visible_year":2025,"rank":4,"name":"Cross Bay Boulevard","source_id":"way/420904544","source_url":"https://www.openstreetmap.org/way/420904544","license":"ODbL","transport_raw":0.292,"transport_count":1,"transport_activity":0.876,"representation":"major-road transport-event activity","timing_note":"Road color is a three-year transport-event activity surface on current OSM major road geometry, not measured traffic volume or congestion."},"geometry":{"type":"LineString","coordinates":[[-73.8210072,40.6140722],[-73.8206795,40.6136869],[-73.8205964,40.6135879],[-73.8205,40.6134674],[-73.8204161,40.6133607],[-73.8203328,40.6132519],[-73.8202624,40.6131602],[-73.8201946,40.613067],[-73.8201226,40.6129653],[-73.8200526,40.6128646],[-73.8199875,40.6127714],[-73.8199264,40.6126784],[-73.8198648,40.6125796],[-73.8198289,40.6125215],[-73.8196154,40.6121565],[-73.819522,40.6119821],[-73.8194675,40.6118768],[-73.8194182,40.611775],[-73.8193739,40.6116716],[-73.819334,40.6115665],[-73.8192963,40.6114634],[-73.819261,40.6113575],[-73.8192295,40.6112522],[-73.8191955,40.6111188],[-73.8191686,40.6109973],[-73.8191463,40.6108716],[-73.8191236,40.610735],[-73.8191069,40.6106106],[-73.8190954,40.6104941],[-73.8190881,40.6103783],[-73.8190794,40.6101208],[-73.8190785,40.6100865],[-73.8190816,40.6100545],[-73.8191038,40.6099478],[-73.8191101,40.6099112],[-73.819113,40.6098757]]}},{"type":"Feature","properties":{"id":"lens-traffic-road-nyc-way/420904547","layer":"traffic_road","category":"transport","year":1950,"visible_year":2025,"rank":4,"name":"Cross Bay Boulevard","source_id":"way/420904547","source_url":"https://www.openstreetmap.org/way/420904547","license":"ODbL","transport_raw":0.292,"transport_count":1,"transport_activity":0.875,"representation":"major-road transport-event activity","timing_note":"Road color is a three-year transport-event activity surface on current OSM major road geometry, not measured traffic volume or congestion."},"geometry":{"type":"LineString","coordinates":[[-73.819113,40.6098757],[-73.819122,40.6097107]]}},{"type":"Feature","properties":{"id":"lens-traffic-road-nyc-way/850616372","layer":"traffic_road","category":"transport","year":1950,"visible_year":2025,"rank":4,"name":"Cross Bay Boulevard","source_id":"way/850616372","source_url":"https://www.openstreetmap.org/way/850616372","license":"ODbL","transport_raw":0.286,"transport_count":1,"transport_activity":0.859,"representation":"major-road transport-event activity","timing_note":"Road color is a three-year transport-event activity surface on current OSM major road geometry, not measured traffic volume or congestion."},"geometry":{"type":"LineString","coordinates":[[-73.819122,40.6097107],[-73.8191259,40.6096281]]}},{"type":"Feature","properties":{"id":"lens-traffic-road-nyc-way/1059473987","layer":"traffic_road","category":"transport","year":1950,"visible_year":2025,"rank":4,"name":"Cross Bay Boulevard","source_id":"way/1059473987","source_url":"https://www.openstreetmap.org/way/1059473987","license":"ODbL","transport_raw":0.285,"transport_count":1,"transport_activity":0.856,"representation":"major-road transport-event activity","timing_note":"Road color is a three-year transport-event activity surface on current OSM major road geometry, not measured traffic volume or congestion."},"geometry":{"type":"LineString","coordinates":[[-73.8189727,40.6095602],[-73.8189651,40.6096375],[-73.8189585,40.6097148]]}},{"type":"Feature","properties":{"id":"lens-traffic-road-nyc-way/420904549","layer":"traffic_road","category":"transport","year":1950,"visible_year":2025,"rank":4,"name":"Cross Bay Boulevard","source_id":"way/420904549","source_url":"https://www.openstreetmap.org/way/420904549","license":"ODbL","transport_raw":0.276,"transport_count":1,"transport_activity":0.828,"representation":"major-road transport-event activity","timing_note":"Road color is a three-year transport-event activity surface on current OSM major road geometry, not measured traffic volume or congestion."},"geometry":{"type":"LineString","coordinates":[[-73.8193474,40.6119238],[-73.8195001,40.6122097],[-73.8196955,40.6125607]]}},{"type":"Feature","properties":{"id":"lens-traffic-road-nyc-way/1059473986","layer":"traffic_road","category":"transport","year":1950,"visible_year":2025,"rank":4,"name":"Cross Bay Boulevard","source_id":"way/1059473986","source_url":"https://www.openstreetmap.org/way/1059473986","license":"ODbL","transport_raw":0.275,"transport_count":1,"transport_activity":0.826,"representation":"major-road transport-event activity","timing_note":"Road color is a three-year transport-event activity surface on current OSM major road geometry, not measured traffic volume or congestion."},"geometry":{"type":"LineString","coordinates":[[-73.8190245,40.6091962],[-73.8189997,40.6093563],[-73.8189888,40.6094317],[-73.8189768,40.6095201],[-73.8189727,40.6095602]]}},{"type":"Feature","properties":{"id":"lens-traffic-road-nyc-way/270734453","layer":"traffic_road","category":"transport","year":1950,"visible_year":2025,"rank":4,"name":"Cross Bay Boulevard","source_id":"way/270734453","source_url":"https://www.openstreetmap.org/way/270734453","license":"ODbL","transport_raw":0.263,"transport_count":1,"transport_activity":0.788,"representation":"major-road transport-event activity","timing_note":"Road color is a three-year transport-event activity surface on current OSM major road geometry, not measured traffic volume or congestion."},"geometry":{"type":"LineString","coordinates":[[-73.8191259,40.6096281],[-73.8191296,40.6095925],[-73.8191406,40.6094948],[-73.8191559,40.6093907],[-73.8192897,40.608548],[-73.8193457,40.6081876]]}},{"type":"Feature","properties":{"id":"lens-traffic-road-nyc-way/1455840583","layer":"traffic_road","category":"transport","year":1950,"visible_year":2025,"rank":4,"name":"Cross Bay Boulevard","source_id":"way/1455840583","source_url":"https://www.openstreetmap.org/way/1455840583","license":"ODbL","transport_raw":0.253,"transport_count":1,"transport_activity":0.76,"representation":"major-road transport-event activity","timing_note":"Road color is a three-year transport-event activity surface on current OSM major road geometry, not measured traffic volume or congestion."},"geometry":{"type":"LineString","coordinates":[[-73.8196955,40.6125607],[-73.8197131,40.6125899],[-73.8197455,40.6126434],[-73.819796,40.6127218],[-73.8198529,40.6128055],[-73.8199057,40.6128814]]}},{"type":"Feature","properties":{"id":"lens-traffic-road-nyc-way/1059473984","layer":"traffic_road","category":"transport","year":1950,"visible_year":2025,"rank":4,"name":"Cross Bay Boulevard","source_id":"way/1059473984","source_url":"https://www.openstreetmap.org/way/1059473984","license":"ODbL","transport_raw":0.23,"transport_count":1,"transport_activity":0.689,"representation":"major-road transport-event activity","timing_note":"Road color is a three-year transport-event activity surface on current OSM major road geometry, not measured traffic volume or congestion."},"geometry":{"type":"LineString","coordinates":[[-73.8192369,40.6078035],[-73.8192279,40.6078632],[-73.8191035,40.6086843],[-73.8190245,40.6091962]]}},{"type":"Feature","properties":{"id":"lens-traffic-road-nyc-way/420904551","layer":"traffic_road","category":"transport","year":1950,"visible_year":2025,"rank":4,"name":"Cross Bay Boulevard","source_id":"way/420904551","source_url":"https://www.openstreetmap.org/way/420904551","license":"ODbL","transport_raw":0.226,"transport_count":1,"transport_activity":0.678,"representation":"major-road transport-event activity","timing_note":"Road color is a three-year transport-event activity surface on current OSM major road geometry, not measured traffic volume or congestion."},"geometry":{"type":"LineString","coordinates":[[-73.8199057,40.6128814],[-73.8199215,40.612904],[-73.8199901,40.6130006],[-73.8200601,40.613099],[-73.82013,40.6131923],[-73.820202,40.6132865],[-73.8202741,40.6133763],[-73.8203514,40.6134706],[-73.8204287,40.6135614],[-73.8205277,40.6136764]]}},{"type":"Feature","properties":{"id":"lens-traffic-road-nyc-way/1057908801","layer":"traffic_road","category":"transport","year":1950,"visible_year":2025,"rank":4,"name":"Cross Bay Boulevard","source_id":"way/1057908801","source_url":"https://www.openstreetmap.org/way/1057908801","license":"ODbL","transport_raw":0.21,"transport_count":1,"transport_activity":0.629,"representation":"major-road transport-event activity","timing_note":"Road color is a three-year transport-event activity surface on current OSM major road geometry, not measured traffic volume or congestion."},"geometry":{"type":"LineString","coordinates":[[-73.8193457,40.6081876],[-73.8193952,40.6078536],[-73.8194013,40.6078121]]}},{"type":"Feature","properties":{"id":"lens-traffic-road-nyc-way/1059473985","layer":"traffic_road","category":"transport","year":1950,"visible_year":2025,"rank":4,"name":"Cross Bay Boulevard","source_id":"way/1059473985","source_url":"https://www.openstreetmap.org/way/1059473985","license":"ODbL","transport_raw":0.197,"transport_count":1,"transport_activity":0.592,"representation":"major-road transport-event activity","timing_note":"Road color is a three-year transport-event activity surface on current OSM major road geometry, not measured traffic volume or congestion."},"geometry":{"type":"LineString","coordinates":[[-73.8192992,40.6074154],[-73.8192457,40.607749],[-73.8192369,40.6078035]]}},{"type":"Feature","properties":{"id":"lens-traffic-road-nyc-way/733797800","layer":"traffic_road","category":"transport","year":1950,"visible_year":2025,"rank":4,"name":"Cross Bay Boulevard","source_id":"way/733797800","source_url":"https://www.openstreetmap.org/way/733797800","license":"ODbL","transport_raw":0.184,"transport_count":1,"transport_activity":0.552,"representation":"major-road transport-event activity","timing_note":"Road color is a three-year transport-event activity surface on current OSM major road geometry, not measured traffic volume or congestion."},"geometry":{"type":"LineString","coordinates":[[-73.8205277,40.6136764],[-73.8207791,40.6139718],[-73.8208885,40.6140965],[-73.8209808,40.6142087],[-73.8210843,40.6143412]]}},{"type":"Feature","properties":{"id":"lens-traffic-road-nyc-way/420904554","layer":"traffic_road","category":"transport","year":1950,"visible_year":2025,"rank":4,"name":"Cross Bay Boulevard","source_id":"way/420904554","source_url":"https://www.openstreetmap.org/way/420904554","license":"ODbL","transport_raw":0.165,"transport_count":1,"transport_activity":0.494,"representation":"major-road transport-event activity","timing_note":"Road color is a three-year transport-event activity surface on current OSM major road geometry, not measured traffic volume or congestion."},"geometry":{"type":"LineString","coordinates":[[-73.8215414,40.6146516],[-73.8214864,40.6145886],[-73.8214165,40.6145127],[-73.8213384,40.6144348],[-73.8212595,40.6143579],[-73.8211767,40.6142654],[-73.8210939,40.6141721],[-73.8210072,40.6140722]]}},{"type":"Feature","properties":{"id":"lens-traffic-road-nyc-way/420904844","layer":"traffic_road","category":"transport","year":1950,"visible_year":2025,"rank":4,"name":"Cross Bay Boulevard","source_id":"way/420904844","source_url":"https://www.openstreetmap.org/way/420904844","license":"ODbL","transport_raw":0.158,"transport_count":1,"transport_activity":0.475,"representation":"major-road transport-event activity","timing_note":"Road color is a three-year transport-event activity surface on current OSM major road geometry, not measured traffic volume or congestion."},"geometry":{"type":"LineString","coordinates":[[-73.8210843,40.6143412],[-73.8211703,40.6144501],[-73.8212765,40.6145746],[-73.821348,40.614658],[-73.8214038,40.6147232]]}},{"type":"Feature","properties":{"id":"lens-traffic-road-nyc-way/1057908800","layer":"traffic_road","category":"transport","year":1950,"visible_year":2025,"rank":4,"name":"Cross Bay Boulevard","source_id":"way/1057908800","source_url":"https://www.openstreetmap.org/way/1057908800","license":"ODbL","transport_raw":0.154,"transport_count":1,"transport_activity":0.461,"representation":"major-road transport-event activity","timing_note":"Road color is a three-year transport-event activity surface on current OSM major road geometry, not measured traffic volume or congestion."},"geometry":{"type":"LineString","coordinates":[[-73.8194013,40.6078121],[-73.8194065,40.6077776],[-73.819505,40.6071295],[-73.8195939,40.6065453],[-73.819601,40.6064981],[-73.8196069,40.6064618],[-73.8197096,40.6058237],[-73.8197585,40.6055094]]}},{"type":"Feature","properties":{"id":"lens-traffic-road-nyc-way/420904840","layer":"traffic_road","category":"transport","year":1950,"visible_year":2025,"rank":4,"name":"Cross Bay Boulevard","source_id":"way/420904840","source_url":"https://www.openstreetmap.org/way/420904840","license":"ODbL","transport_raw":0.143,"transport_count":1,"transport_activity":0.428,"representation":"major-road transport-event activity","timing_note":"Road color is a three-year transport-event activity surface on current OSM major road geometry, not measured traffic volume or congestion."},"geometry":{"type":"LineString","coordinates":[[-73.8217819,40.6149298],[-73.8215414,40.6146516]]}},{"type":"Feature","properties":{"id":"lens-traffic-road-nyc-way/829772780","layer":"traffic_road","category":"transport","year":1950,"visible_year":2025,"rank":4,"name":"Cross Bay Boulevard","source_id":"way/829772780","source_url":"https://www.openstreetmap.org/way/829772780","license":"ODbL","transport_raw":0.135,"transport_count":1,"transport_activity":0.404,"representation":"major-road transport-event activity","timing_note":"Road color is a three-year transport-event activity surface on current OSM major road geometry, not measured traffic volume or congestion."},"geometry":{"type":"LineString","coordinates":[[-73.8196527,40.6051072],[-73.8196459,40.6051498],[-73.8195414,40.6058093],[-73.8194501,40.6064157],[-73.819444,40.6064563],[-73.8194379,40.6064969],[-73.8193406,40.6071463],[-73.8192992,40.6074154]]}},{"type":"Feature","properties":{"id":"lens-traffic-road-nyc-way/118714378","layer":"traffic_road","category":"transport","year":1950,"visible_year":2025,"rank":4,"name":"Cross Bay Boulevard","source_id":"way/118714378","source_url":"https://www.openstreetmap.org/way/118714378","license":"ODbL","transport_raw":0.109,"transport_count":1,"transport_activity":0.327,"representation":"major-road transport-event activity","timing_note":"Road color is a three-year transport-event activity surface on current OSM major road geometry, not measured traffic volume or congestion."},"geometry":{"type":"LineString","coordinates":[[-73.8214038,40.6147232],[-73.8215699,40.6149226],[-73.8231993,40.6168291]]}},{"type":"Feature","properties":{"id":"lens-traffic-road-nyc-way/1064303698","layer":"traffic_road","category":"transport","year":1950,"visible_year":2025,"rank":4,"name":"Cross Bay Boulevard","source_id":"way/1064303698","source_url":"https://www.openstreetmap.org/way/1064303698","license":"ODbL","transport_raw":0.09,"transport_count":1,"transport_activity":0.271,"representation":"major-road transport-event activity","timing_note":"Road color is a three-year transport-event activity surface on current OSM major road geometry, not measured traffic volume or congestion."},"geometry":{"type":"LineString","coordinates":[[-73.8197585,40.6055094],[-73.819809,40.6051806],[-73.8198167,40.6051307]]}},{"type":"Feature","properties":{"id":"lens-traffic-road-nyc-way/1059473983","layer":"traffic_road","category":"transport","year":1950,"visible_year":2025,"rank":4,"name":"Cross Bay Boulevard","source_id":"way/1059473983","source_url":"https://www.openstreetmap.org/way/1059473983","license":"ODbL","transport_raw":0.078,"transport_count":1,"transport_activity":0.233,"representation":"major-road transport-event activity","timing_note":"Road color is a three-year transport-event activity surface on current OSM major road geometry, not measured traffic volume or congestion."},"geometry":{"type":"LineString","coordinates":[[-73.8197073,40.604744],[-73.8196588,40.6050668],[-73.8196527,40.6051072]]}},{"type":"Feature","properties":{"id":"lens-traffic-road-nyc-way/1064303699","layer":"traffic_road","category":"transport","year":1950,"visible_year":2025,"rank":4,"name":"Cross Bay Boulevard","source_id":"way/1064303699","source_url":"https://www.openstreetmap.org/way/1064303699","license":"ODbL","transport_raw":0.05,"transport_count":1,"transport_activity":0.149,"representation":"major-road transport-event activity","timing_note":"Road color is a three-year transport-event activity surface on current OSM major road geometry, not measured traffic volume or congestion."},"geometry":{"type":"LineString","coordinates":[[-73.8198167,40.6051307],[-73.8198244,40.605083],[-73.8199294,40.6044328],[-73.8200304,40.6037425],[-73.8200794,40.6034096]]}},{"type":"Feature","properties":{"id":"lens-traffic-road-nyc-way/270734452","layer":"traffic_road","category":"transport","year":1950,"visible_year":2025,"rank":4,"name":"Cross Bay Boulevard","source_id":"way/270734452","source_url":"https://www.openstreetmap.org/way/270734452","license":"ODbL","transport_raw":0.048,"transport_count":1,"transport_activity":0.145,"representation":"major-road transport-event activity","timing_note":"Road color is a three-year transport-event activity surface on current OSM major road geometry, not measured traffic volume or congestion."},"geometry":{"type":"LineString","coordinates":[[-73.8238016,40.6173026],[-73.8237332,40.6172177],[-73.8234389,40.6168674],[-73.8217819,40.6149298]]}},{"type":"Feature","properties":{"id":"lens-traffic-road-nyc-way/1059473982","layer":"traffic_road","category":"transport","year":1950,"visible_year":2025,"rank":4,"name":"Cross Bay Boulevard","source_id":"way/1059473982","source_url":"https://www.openstreetmap.org/way/1059473982","license":"ODbL","transport_raw":0.026,"transport_count":1,"transport_activity":0.079,"representation":"major-road transport-event activity","timing_note":"Road color is a three-year transport-event activity surface on current OSM major road geometry, not measured traffic volume or congestion."},"geometry":{"type":"LineString","coordinates":[[-73.8199709,40.6030316],[-73.8199636,40.6030793],[-73.8197578,40.6044193],[-73.8197073,40.604744]]}},{"type":"Feature","properties":{"id":"lens-traffic-road-nyc-way/420904845","layer":"traffic_road","category":"transport","year":1950,"visible_year":2025,"rank":4,"name":"Cross Bay Boulevard","source_id":"way/420904845","source_url":"https://www.openstreetmap.org/way/420904845","license":"ODbL","transport_raw":0.021,"transport_count":1,"transport_activity":0.063,"representation":"major-road transport-event activity","timing_note":"Road color is a three-year transport-event activity surface on current OSM major road geometry, not measured traffic volume or congestion."},"geometry":{"type":"LineString","coordinates":[[-73.8231993,40.6168291],[-73.8235801,40.6173015],[-73.8236379,40.6173706]]}}]}
