{"type":"FeatureCollection","name":"nyc_transport_roads_1914","metadata":{"schema_version":"1.0.0","city_id":"nyc","year":1914,"road_source":"data/raw/overpass/nyc_major_roads_osm_2026.geojson","method":"Road features are colored from nearby source-backed transport records in a rolling three-year window.","caveat":"Transport road colors are activity hotspots, not measured traffic counts or live congestion."},"features":[{"type":"Feature","properties":{"id":"lens-traffic-road-nyc-way/1459805124","layer":"traffic_road","category":"transport","year":1914,"visible_year":2026,"rank":3,"name":"Astoria Boulevard South","source_id":"way/1459805124","source_url":"https://www.openstreetmap.org/way/1459805124","license":"ODbL","transport_raw":0.978,"transport_count":1,"transport_activity":1,"representation":"major-road transport-event activity","timing_note":"Road color is a three-year transport-event activity surface on current OSM major road geometry, not measured traffic volume or congestion."},"geometry":{"type":"LineString","coordinates":[[-73.9175819,40.7699532],[-73.917038,40.7698371]]}},{"type":"Feature","properties":{"id":"lens-traffic-road-nyc-way/560353397","layer":"traffic_road","category":"transport","year":1914,"visible_year":2026,"rank":3,"name":"Hoyt Avenue South","source_id":"way/560353397","source_url":"https://www.openstreetmap.org/way/560353397","license":"ODbL","transport_raw":0.972,"transport_count":1,"transport_activity":0.993,"representation":"major-road transport-event activity","timing_note":"Road color is a three-year transport-event activity surface on current OSM major road geometry, not measured traffic volume or congestion."},"geometry":{"type":"LineString","coordinates":[[-73.9175516,40.7703207],[-73.9174234,40.7702457],[-73.9172894,40.7701677]]}},{"type":"Feature","properties":{"id":"lens-traffic-road-nyc-way/5707919","layer":"traffic_road","category":"transport","year":1914,"visible_year":2026,"rank":3,"name":"Astoria Boulevard South","source_id":"way/5707919","source_url":"https://www.openstreetmap.org/way/5707919","license":"ODbL","transport_raw":0.957,"transport_count":1,"transport_activity":0.979,"representation":"major-road transport-event activity","timing_note":"Road color is a three-year transport-event activity surface on current OSM major road geometry, not measured traffic volume or congestion."},"geometry":{"type":"LineString","coordinates":[[-73.9181169,40.7700816],[-73.917933,40.7700281],[-73.9175819,40.7699532]]}},{"type":"Feature","properties":{"id":"lens-traffic-road-nyc-way/560353398","layer":"traffic_road","category":"transport","year":1914,"visible_year":2026,"rank":3,"name":"Hoyt Avenue South","source_id":"way/560353398","source_url":"https://www.openstreetmap.org/way/560353398","license":"ODbL","transport_raw":0.957,"transport_count":1,"transport_activity":0.978,"representation":"major-road transport-event activity","timing_note":"Road color is a three-year transport-event activity surface on current OSM major road geometry, not measured traffic volume or congestion."},"geometry":{"type":"LineString","coordinates":[[-73.9172894,40.7701677],[-73.917226,40.7701328],[-73.9169286,40.7699968],[-73.9168853,40.7699782],[-73.9167363,40.7699189]]}},{"type":"Feature","properties":{"id":"lens-traffic-road-nyc-way/25649770","layer":"traffic_road","category":"transport","year":1914,"visible_year":2026,"rank":3,"name":"Hoyt Avenue South","source_id":"way/25649770","source_url":"https://www.openstreetmap.org/way/25649770","license":"ODbL","transport_raw":0.953,"transport_count":1,"transport_activity":0.975,"representation":"major-road transport-event activity","timing_note":"Road color is a three-year transport-event activity surface on current OSM major road geometry, not measured traffic volume or congestion."},"geometry":{"type":"LineString","coordinates":[[-73.9177172,40.7704254],[-73.9175778,40.7703373],[-73.9175516,40.7703207]]}},{"type":"Feature","properties":{"id":"lens-traffic-road-nyc-way/497263586","layer":"traffic_road","category":"transport","year":1914,"visible_year":2026,"rank":3,"name":"31st Street","source_id":"way/497263586","source_url":"https://www.openstreetmap.org/way/497263586","license":"ODbL","transport_raw":0.945,"transport_count":1,"transport_activity":0.966,"representation":"major-road transport-event activity","timing_note":"Road color is a three-year transport-event activity surface on current OSM major road geometry, not measured traffic volume or congestion."},"geometry":{"type":"LineString","coordinates":[[-73.9177172,40.7704254],[-73.9178248,40.7703319],[-73.9180465,40.7701393],[-73.9181169,40.7700816]]}},{"type":"Feature","properties":{"id":"lens-traffic-road-nyc-way/1273808663","layer":"traffic_road","category":"transport","year":1914,"visible_year":2026,"rank":3,"name":"Astoria Boulevard South","source_id":"way/1273808663","source_url":"https://www.openstreetmap.org/way/1273808663","license":"ODbL","transport_raw":0.944,"transport_count":1,"transport_activity":0.965,"representation":"major-road transport-event activity","timing_note":"Road color is a three-year transport-event activity surface on current OSM major road geometry, not measured traffic volume or congestion."},"geometry":{"type":"LineString","coordinates":[[-73.917038,40.7698371],[-73.9170036,40.7698318],[-73.9169535,40.7698245],[-73.9168056,40.7698008]]}},{"type":"Feature","properties":{"id":"lens-traffic-road-nyc-way/159230480","layer":"traffic_road","category":"transport","year":1914,"visible_year":2026,"rank":3,"name":"31st Street","source_id":"way/159230480","source_url":"https://www.openstreetmap.org/way/159230480","license":"ODbL","transport_raw":0.939,"transport_count":1,"transport_activity":0.96,"representation":"major-road transport-event activity","timing_note":"Road color is a three-year transport-event activity surface on current OSM major road geometry, not measured traffic volume or congestion."},"geometry":{"type":"LineString","coordinates":[[-73.9176422,40.7704875],[-73.9176488,40.770482],[-73.9177172,40.7704254]]}},{"type":"Feature","properties":{"id":"lens-traffic-road-nyc-way/374435100","layer":"traffic_road","category":"transport","year":1914,"visible_year":2026,"rank":5,"name":"Grand Central Parkway","source_id":"way/374435100","source_url":"https://www.openstreetmap.org/way/374435100","license":"ODbL","transport_raw":0.93,"transport_count":1,"transport_activity":0.951,"representation":"major-road transport-event activity","timing_note":"Road color is a three-year transport-event activity surface on current OSM major road geometry, not measured traffic volume or congestion."},"geometry":{"type":"LineString","coordinates":[[-73.9177431,40.7706731],[-73.9174015,40.7704396]]}},{"type":"Feature","properties":{"id":"lens-traffic-road-nyc-way/1164213486","layer":"traffic_road","category":"transport","year":1914,"visible_year":2026,"rank":3,"name":"33rd Street","source_id":"way/1164213486","source_url":"https://www.openstreetmap.org/way/1164213486","license":"ODbL","transport_raw":0.93,"transport_count":1,"transport_activity":0.95,"representation":"major-road transport-event activity","timing_note":"Road color is a three-year transport-event activity surface on current OSM major road geometry, not measured traffic volume or congestion."},"geometry":{"type":"LineString","coordinates":[[-73.9168056,40.7698008],[-73.9167363,40.7699189]]}},{"type":"Feature","properties":{"id":"lens-traffic-road-nyc-way/896275386","layer":"traffic_road","category":"transport","year":1914,"visible_year":2026,"rank":3,"name":"Astoria Boulevard South","source_id":"way/896275386","source_url":"https://www.openstreetmap.org/way/896275386","license":"ODbL","transport_raw":0.927,"transport_count":1,"transport_activity":0.948,"representation":"major-road transport-event activity","timing_note":"Road color is a three-year transport-event activity surface on current OSM major road geometry, not measured traffic volume or congestion."},"geometry":{"type":"LineString","coordinates":[[-73.9168056,40.7698008],[-73.9167352,40.7698025]]}},{"type":"Feature","properties":{"id":"lens-traffic-road-nyc-way/907614060","layer":"traffic_road","category":"transport","year":1914,"visible_year":2023,"rank":3,"name":"33rd Street","source_id":"way/907614060","source_url":"https://www.openstreetmap.org/way/907614060","license":"ODbL","transport_raw":0.927,"transport_count":1,"transport_activity":0.948,"representation":"major-road transport-event activity","timing_note":"Road color is a three-year transport-event activity surface on current OSM major road geometry, not measured traffic volume or congestion."},"geometry":{"type":"LineString","coordinates":[[-73.9167363,40.7699189],[-73.9166971,40.7700013]]}},{"type":"Feature","properties":{"id":"lens-traffic-road-nyc-way/954569521","layer":"traffic_road","category":"transport","year":1914,"visible_year":2026,"rank":3,"name":"33rd Street","source_id":"way/954569521","source_url":"https://www.openstreetmap.org/way/954569521","license":"ODbL","transport_raw":0.928,"transport_count":1,"transport_activity":0.948,"representation":"major-road transport-event activity","timing_note":"Road color is a three-year transport-event activity surface on current OSM major road geometry, not measured traffic volume or congestion."},"geometry":{"type":"LineString","coordinates":[[-73.9171913,40.7693505],[-73.9170106,40.7695584],[-73.9168665,40.7697209],[-73.9168056,40.7698008]]}},{"type":"Feature","properties":{"id":"lens-traffic-road-nyc-way/25649733","layer":"traffic_road","category":"transport","year":1914,"visible_year":2026,"rank":3,"name":"31st Street","source_id":"way/25649733","source_url":"https://www.openstreetmap.org/way/25649733","license":"ODbL","transport_raw":0.927,"transport_count":1,"transport_activity":0.947,"representation":"major-road transport-event activity","timing_note":"Road color is a three-year transport-event activity surface on current OSM major road geometry, not measured traffic volume or congestion."},"geometry":{"type":"LineString","coordinates":[[-73.917411,40.770686],[-73.9176422,40.7704875]]}},{"type":"Feature","properties":{"id":"lens-traffic-road-nyc-way/1053526614","layer":"traffic_road","category":"transport","year":1914,"visible_year":2026,"rank":3,"name":"Hoyt Avenue South","source_id":"way/1053526614","source_url":"https://www.openstreetmap.org/way/1053526614","license":"ODbL","transport_raw":0.926,"transport_count":1,"transport_activity":0.946,"representation":"major-road transport-event activity","timing_note":"Road color is a three-year transport-event activity surface on current OSM major road geometry, not measured traffic volume or congestion."},"geometry":{"type":"LineString","coordinates":[[-73.9167363,40.7699189],[-73.9166947,40.7698859]]}},{"type":"Feature","properties":{"id":"lens-traffic-road-nyc-way/497263582","layer":"traffic_road","category":"transport","year":1914,"visible_year":2026,"rank":3,"name":"Hoyt Avenue South","source_id":"way/497263582","source_url":"https://www.openstreetmap.org/way/497263582","license":"ODbL","transport_raw":0.924,"transport_count":1,"transport_activity":0.944,"representation":"major-road transport-event activity","timing_note":"Road color is a three-year transport-event activity surface on current OSM major road geometry, not measured traffic volume or congestion."},"geometry":{"type":"LineString","coordinates":[[-73.9180399,40.7706552],[-73.9178146,40.7704928],[-73.9177172,40.7704254]]}},{"type":"Feature","properties":{"id":"lens-traffic-road-nyc-way/46738909","layer":"traffic_road","category":"transport","year":1914,"visible_year":2023,"rank":3,"name":"33rd Street","source_id":"way/46738909","source_url":"https://www.openstreetmap.org/way/46738909","license":"ODbL","transport_raw":0.92,"transport_count":1,"transport_activity":0.941,"representation":"major-road transport-event activity","timing_note":"Road color is a three-year transport-event activity surface on current OSM major road geometry, not measured traffic volume or congestion."},"geometry":{"type":"LineString","coordinates":[[-73.9166971,40.7700013],[-73.9166055,40.7702291]]}},{"type":"Feature","properties":{"id":"lens-traffic-road-nyc-way/516694362","layer":"traffic_road","category":"transport","year":1914,"visible_year":2026,"rank":3,"name":"31st Street","source_id":"way/516694362","source_url":"https://www.openstreetmap.org/way/516694362","license":"ODbL","transport_raw":0.921,"transport_count":1,"transport_activity":0.941,"representation":"major-road transport-event activity","timing_note":"Road color is a three-year transport-event activity surface on current OSM major road geometry, not measured traffic volume or congestion."},"geometry":{"type":"LineString","coordinates":[[-73.9181169,40.7700816],[-73.9182515,40.7699615],[-73.9183546,40.7698754]]}},{"type":"Feature","properties":{"id":"lens-traffic-road-nyc-way/683926428","layer":"traffic_road","category":"transport","year":1914,"visible_year":2026,"rank":3,"name":"Astoria Boulevard North","source_id":"way/683926428","source_url":"https://www.openstreetmap.org/way/683926428","license":"ODbL","transport_raw":0.919,"transport_count":1,"transport_activity":0.94,"representation":"major-road transport-event activity","timing_note":"Road color is a three-year transport-event activity surface on current OSM major road geometry, not measured traffic volume or congestion."},"geometry":{"type":"LineString","coordinates":[[-73.9167768,40.7704058],[-73.9169102,40.7704727],[-73.9170135,40.7705344],[-73.9171515,40.7706172],[-73.9172067,40.7706593],[-73.9173293,40.7707528]]}},{"type":"Feature","properties":{"id":"lens-traffic-road-nyc-way/1273808662","layer":"traffic_road","category":"transport","year":1914,"visible_year":2026,"rank":3,"name":"Astoria Boulevard South","source_id":"way/1273808662","source_url":"https://www.openstreetmap.org/way/1273808662","license":"ODbL","transport_raw":0.918,"transport_count":1,"transport_activity":0.938,"representation":"major-road transport-event activity","timing_note":"Road color is a three-year transport-event activity surface on current OSM major road geometry, not measured traffic volume or congestion."},"geometry":{"type":"LineString","coordinates":[[-73.9167352,40.7698025],[-73.9166059,40.7698071]]}},{"type":"Feature","properties":{"id":"lens-traffic-road-nyc-way/1273808664","layer":"traffic_road","category":"transport","year":1914,"visible_year":2026,"rank":3,"name":"Hoyt Avenue South","source_id":"way/1273808664","source_url":"https://www.openstreetmap.org/way/1273808664","license":"ODbL","transport_raw":0.918,"transport_count":1,"transport_activity":0.938,"representation":"major-road transport-event activity","timing_note":"Road color is a three-year transport-event activity surface on current OSM major road geometry, not measured traffic volume or congestion."},"geometry":{"type":"LineString","coordinates":[[-73.9166947,40.7698859],[-73.9166059,40.7698071]]}},{"type":"Feature","properties":{"id":"lens-traffic-road-nyc-way/993553211","layer":"traffic_road","category":"transport","year":1914,"visible_year":2026,"rank":3,"name":"Astoria Boulevard North","source_id":"way/993553211","source_url":"https://www.openstreetmap.org/way/993553211","license":"ODbL","transport_raw":0.911,"transport_count":1,"transport_activity":0.932,"representation":"major-road transport-event activity","timing_note":"Road color is a three-year transport-event activity surface on current OSM major road geometry, not measured traffic volume or congestion."},"geometry":{"type":"LineString","coordinates":[[-73.9165684,40.7703362],[-73.9166803,40.7703705],[-73.9167768,40.7704058]]}},{"type":"Feature","properties":{"id":"lens-traffic-road-nyc-way/683926426","layer":"traffic_road","category":"transport","year":1914,"visible_year":2026,"rank":3,"name":"31st Street","source_id":"way/683926426","source_url":"https://www.openstreetmap.org/way/683926426","license":"ODbL","transport_raw":0.91,"transport_count":1,"transport_activity":0.93,"representation":"major-road transport-event activity","timing_note":"Road color is a three-year transport-event activity surface on current OSM major road geometry, not measured traffic volume or congestion."},"geometry":{"type":"LineString","coordinates":[[-73.9173293,40.7707528],[-73.917411,40.770686]]}},{"type":"Feature","properties":{"id":"lens-traffic-road-nyc-way/907614059","layer":"traffic_road","category":"transport","year":1914,"visible_year":2024,"rank":3,"name":"33rd Street","source_id":"way/907614059","source_url":"https://www.openstreetmap.org/way/907614059","license":"ODbL","transport_raw":0.909,"transport_count":1,"transport_activity":0.929,"representation":"major-road transport-event activity","timing_note":"Road color is a three-year transport-event activity surface on current OSM major road geometry, not measured traffic volume or congestion."},"geometry":{"type":"LineString","coordinates":[[-73.9166055,40.7702291],[-73.9165872,40.77028],[-73.9165684,40.7703362]]}},{"type":"Feature","properties":{"id":"lens-traffic-road-nyc-way/90086377","layer":"traffic_road","category":"transport","year":1914,"visible_year":2026,"rank":5,"name":"Grand Central Parkway","source_id":"way/90086377","source_url":"https://www.openstreetmap.org/way/90086377","license":"ODbL","transport_raw":0.906,"transport_count":1,"transport_activity":0.926,"representation":"major-road transport-event activity","timing_note":"Road color is a three-year transport-event activity surface on current OSM major road geometry, not measured traffic volume or congestion."},"geometry":{"type":"LineString","coordinates":[[-73.9128043,40.7695266],[-73.9160345,40.7700476],[-73.9161599,40.7700695],[-73.9162838,40.7700956],[-73.9164202,40.7701285],[-73.9165603,40.7701706],[-73.9166883,40.7702157],[-73.9168128,40.7702601],[-73.9169296,40.7703116],[-73.9170336,40.7703629],[-73.9171296,40.7704154],[-73.9172255,40.7704728],[-73.9173358,40.7705451],[-73.9176062,40.7707273],[-73.9177074,40.7707975],[-73.9178251,40.7708873],[-73.9179541,40.7709871],[-73.9180796,40.77109],[-73.9182094,40.7711953],[-73.9183367,40.7712903],[-73.9184474,40.7713674],[-73.9187921,40.7716076],[-73.919151,40.7718615],[-73.9194742,40.772079],[-73.9197238,40.7722696]]}},{"type":"Feature","properties":{"id":"lens-traffic-road-nyc-way/421845655","layer":"traffic_road","category":"transport","year":1914,"visible_year":2026,"rank":3,"name":"Astoria Boulevard North","source_id":"way/421845655","source_url":"https://www.openstreetmap.org/way/421845655","license":"ODbL","transport_raw":0.904,"transport_count":1,"transport_activity":0.924,"representation":"major-road transport-event activity","timing_note":"Road color is a three-year transport-event activity surface on current OSM major road geometry, not measured traffic volume or congestion."},"geometry":{"type":"LineString","coordinates":[[-73.9167553,40.7705376],[-73.9168538,40.7705943],[-73.916951,40.7706509],[-73.9170464,40.770712],[-73.9170952,40.7707422],[-73.91724,40.7708318]]}},{"type":"Feature","properties":{"id":"lens-traffic-road-nyc-way/993553213","layer":"traffic_road","category":"transport","year":1914,"visible_year":2026,"rank":3,"name":"Astoria Boulevard North","source_id":"way/993553213","source_url":"https://www.openstreetmap.org/way/993553213","license":"ODbL","transport_raw":0.901,"transport_count":1,"transport_activity":0.921,"representation":"major-road transport-event activity","timing_note":"Road color is a three-year transport-event activity surface on current OSM major road geometry, not measured traffic volume or congestion."},"geometry":{"type":"LineString","coordinates":[[-73.9165405,40.7704363],[-73.916647,40.7704836],[-73.9167553,40.7705376]]}},{"type":"Feature","properties":{"id":"lens-traffic-road-nyc-way/25419476","layer":"traffic_road","category":"transport","year":1914,"visible_year":2026,"rank":3,"name":"31st Street","source_id":"way/25419476","source_url":"https://www.openstreetmap.org/way/25419476","license":"ODbL","transport_raw":0.899,"transport_count":1,"transport_activity":0.919,"representation":"major-road transport-event activity","timing_note":"Road color is a three-year transport-event activity surface on current OSM major road geometry, not measured traffic volume or congestion."},"geometry":{"type":"LineString","coordinates":[[-73.91724,40.7708318],[-73.9173293,40.7707528]]}},{"type":"Feature","properties":{"id":"lens-traffic-road-nyc-way/374435104","layer":"traffic_road","category":"transport","year":1914,"visible_year":2026,"rank":5,"name":"Grand Central Parkway","source_id":"way/374435104","source_url":"https://www.openstreetmap.org/way/374435104","license":"ODbL","transport_raw":0.898,"transport_count":1,"transport_activity":0.918,"representation":"major-road transport-event activity","timing_note":"Road color is a three-year transport-event activity surface on current OSM major road geometry, not measured traffic volume or congestion."},"geometry":{"type":"LineString","coordinates":[[-73.9174015,40.7704396],[-73.91728,40.7703628],[-73.917164,40.7702964],[-73.9170375,40.7702316],[-73.9169114,40.7701719],[-73.9167793,40.7701203],[-73.9166077,40.7700618],[-73.9164565,40.77002],[-73.9162968,40.7699846],[-73.916139,40.769954],[-73.9159761,40.7699265],[-73.9129693,40.7694493]]}},{"type":"Feature","properties":{"id":"lens-traffic-road-nyc-way/722441539","layer":"traffic_road","category":"transport","year":1914,"visible_year":2026,"rank":3,"name":"Astoria Boulevard South","source_id":"way/722441539","source_url":"https://www.openstreetmap.org/way/722441539","license":"ODbL","transport_raw":0.896,"transport_count":1,"transport_activity":0.916,"representation":"major-road transport-event activity","timing_note":"Road color is a three-year transport-event activity surface on current OSM major road geometry, not measured traffic volume or congestion."},"geometry":{"type":"LineString","coordinates":[[-73.918998,40.770309],[-73.9186876,40.7702295],[-73.9183329,40.7701387],[-73.9182347,40.7701142],[-73.9181169,40.7700816]]}},{"type":"Feature","properties":{"id":"lens-traffic-road-nyc-way/683926427","layer":"traffic_road","category":"transport","year":1914,"visible_year":2026,"rank":3,"name":"Hoyt Avenue North","source_id":"way/683926427","source_url":"https://www.openstreetmap.org/way/683926427","license":"ODbL","transport_raw":0.889,"transport_count":1,"transport_activity":0.909,"representation":"major-road transport-event activity","timing_note":"Road color is a three-year transport-event activity surface on current OSM major road geometry, not measured traffic volume or congestion."},"geometry":{"type":"LineString","coordinates":[[-73.9173293,40.7707528],[-73.9174185,40.7708219],[-73.9174868,40.7708774],[-73.9176789,40.7710774]]}},{"type":"Feature","properties":{"id":"lens-traffic-road-nyc-way/820259747","layer":"traffic_road","category":"transport","year":1914,"visible_year":2026,"rank":3,"name":"Astoria Boulevard North","source_id":"way/820259747","source_url":"https://www.openstreetmap.org/way/820259747","license":"ODbL","transport_raw":0.882,"transport_count":1,"transport_activity":0.902,"representation":"major-road transport-event activity","timing_note":"Road color is a three-year transport-event activity surface on current OSM major road geometry, not measured traffic volume or congestion."},"geometry":{"type":"LineString","coordinates":[[-73.916081,40.7703057],[-73.9163569,40.7703721],[-73.9164268,40.7703898],[-73.9165405,40.7704363]]}},{"type":"Feature","properties":{"id":"lens-traffic-road-nyc-way/46139826","layer":"traffic_road","category":"transport","year":1914,"visible_year":2026,"rank":3,"name":"Hoyt Avenue North","source_id":"way/46139826","source_url":"https://www.openstreetmap.org/way/46139826","license":"ODbL","transport_raw":0.872,"transport_count":1,"transport_activity":0.891,"representation":"major-road transport-event activity","timing_note":"Road color is a three-year transport-event activity surface on current OSM major road geometry, not measured traffic volume or congestion."},"geometry":{"type":"LineString","coordinates":[[-73.91724,40.7708318],[-73.9173389,40.7708937],[-73.9174117,40.7709414],[-73.9176789,40.7710774],[-73.9180103,40.7713145]]}},{"type":"Feature","properties":{"id":"lens-traffic-road-nyc-way/226829069","layer":"traffic_road","category":"transport","year":1914,"visible_year":2026,"rank":3,"name":"Hoyt Avenue South","source_id":"way/226829069","source_url":"https://www.openstreetmap.org/way/226829069","license":"ODbL","transport_raw":0.851,"transport_count":1,"transport_activity":0.87,"representation":"major-road transport-event activity","timing_note":"Road color is a three-year transport-event activity surface on current OSM major road geometry, not measured traffic volume or congestion."},"geometry":{"type":"LineString","coordinates":[[-73.9187365,40.7710852],[-73.9186239,40.771012],[-73.9183282,40.7708049],[-73.9180399,40.7706552]]}},{"type":"Feature","properties":{"id":"lens-traffic-road-nyc-way/993553210","layer":"traffic_road","category":"transport","year":1914,"visible_year":2026,"rank":3,"name":"Astoria Boulevard North","source_id":"way/993553210","source_url":"https://www.openstreetmap.org/way/993553210","license":"ODbL","transport_raw":0.848,"transport_count":1,"transport_activity":0.867,"representation":"major-road transport-event activity","timing_note":"Road color is a three-year transport-event activity surface on current OSM major road geometry, not measured traffic volume or congestion."},"geometry":{"type":"LineString","coordinates":[[-73.9158287,40.7702677],[-73.916081,40.7703057]]}},{"type":"Feature","properties":{"id":"lens-traffic-road-nyc-way/46139827","layer":"traffic_road","category":"transport","year":1914,"visible_year":2026,"rank":3,"name":"Astoria Boulevard South","source_id":"way/46139827","source_url":"https://www.openstreetmap.org/way/46139827","license":"ODbL","transport_raw":0.836,"transport_count":1,"transport_activity":0.855,"representation":"major-road transport-event activity","timing_note":"Road color is a three-year transport-event activity surface on current OSM major road geometry, not measured traffic volume or congestion."},"geometry":{"type":"LineString","coordinates":[[-73.9166059,40.7698071],[-73.9165391,40.7697919],[-73.9164838,40.7697792],[-73.9161093,40.769694],[-73.9158597,40.7696522],[-73.9154877,40.7695983],[-73.9149388,40.7695091],[-73.9148573,40.7694974]]}},{"type":"Feature","properties":{"id":"lens-traffic-road-nyc-way/122625711","layer":"traffic_road","category":"transport","year":1914,"visible_year":2026,"rank":5,"name":"Grand Central Parkway","source_id":"way/122625711","source_url":"https://www.openstreetmap.org/way/122625711","license":"ODbL","transport_raw":0.827,"transport_count":1,"transport_activity":0.846,"representation":"major-road transport-event activity","timing_note":"Road color is a three-year transport-event activity surface on current OSM major road geometry, not measured traffic volume or congestion."},"geometry":{"type":"LineString","coordinates":[[-73.9198031,40.7721803],[-73.9185879,40.7713317],[-73.9184362,40.7712206],[-73.9183054,40.7711218],[-73.9181578,40.7710026],[-73.9180354,40.7708987],[-73.9179052,40.770795],[-73.9177431,40.7706731]]}},{"type":"Feature","properties":{"id":"lens-traffic-road-nyc-way/1200765971","layer":"traffic_road","category":"transport","year":1914,"visible_year":2026,"rank":3,"name":"29th Street","source_id":"way/1200765971","source_url":"https://www.openstreetmap.org/way/1200765971","license":"ODbL","transport_raw":0.813,"transport_count":1,"transport_activity":0.832,"representation":"major-road transport-event activity","timing_note":"Road color is a three-year transport-event activity surface on current OSM major road geometry, not measured traffic volume or congestion."},"geometry":{"type":"LineString","coordinates":[[-73.9187365,40.7710852],[-73.9187904,40.7710245],[-73.9190989,40.7707669]]}},{"type":"Feature","properties":{"id":"lens-traffic-road-nyc-way/139919646","layer":"traffic_road","category":"transport","year":1914,"visible_year":2026,"rank":3,"name":"Astoria Boulevard South","source_id":"way/139919646","source_url":"https://www.openstreetmap.org/way/139919646","license":"ODbL","transport_raw":0.81,"transport_count":1,"transport_activity":0.828,"representation":"major-road transport-event activity","timing_note":"Road color is a three-year transport-event activity surface on current OSM major road geometry, not measured traffic volume or congestion."},"geometry":{"type":"LineString","coordinates":[[-73.919491,40.77044],[-73.9194263,40.7704228],[-73.918998,40.770309]]}},{"type":"Feature","properties":{"id":"lens-traffic-road-nyc-way/421845656","layer":"traffic_road","category":"transport","year":1914,"visible_year":2026,"rank":3,"name":"Hoyt Avenue North","source_id":"way/421845656","source_url":"https://www.openstreetmap.org/way/421845656","license":"ODbL","transport_raw":0.81,"transport_count":1,"transport_activity":0.828,"representation":"major-road transport-event activity","timing_note":"Road color is a three-year transport-event activity surface on current OSM major road geometry, not measured traffic volume or congestion."},"geometry":{"type":"LineString","coordinates":[[-73.9180103,40.7713145],[-73.9182483,40.7714694]]}},{"type":"Feature","properties":{"id":"lens-traffic-road-nyc-way/5702741","layer":"traffic_road","category":"transport","year":1914,"visible_year":2026,"rank":3,"name":"29th Street","source_id":"way/5702741","source_url":"https://www.openstreetmap.org/way/5702741","license":"ODbL","transport_raw":0.8,"transport_count":1,"transport_activity":0.818,"representation":"major-road transport-event activity","timing_note":"Road color is a three-year transport-event activity surface on current OSM major road geometry, not measured traffic volume or congestion."},"geometry":{"type":"LineString","coordinates":[[-73.9190989,40.7707669],[-73.9193958,40.770519],[-73.919491,40.77044]]}},{"type":"Feature","properties":{"id":"lens-traffic-road-nyc-way/850605624","layer":"traffic_road","category":"transport","year":1914,"visible_year":2026,"rank":3,"name":"Astoria Boulevard North","source_id":"way/850605624","source_url":"https://www.openstreetmap.org/way/850605624","license":"ODbL","transport_raw":0.77,"transport_count":1,"transport_activity":0.787,"representation":"major-road transport-event activity","timing_note":"Road color is a three-year transport-event activity surface on current OSM major road geometry, not measured traffic volume or congestion."},"geometry":{"type":"LineString","coordinates":[[-73.9144077,40.7700472],[-73.914484,40.7700631],[-73.9153131,40.7701946],[-73.9156403,40.7702458],[-73.9158287,40.7702677]]}},{"type":"Feature","properties":{"id":"lens-traffic-road-nyc-way/954569522","layer":"traffic_road","category":"transport","year":1914,"visible_year":2026,"rank":3,"name":"33rd Street","source_id":"way/954569522","source_url":"https://www.openstreetmap.org/way/954569522","license":"ODbL","transport_raw":0.768,"transport_count":1,"transport_activity":0.785,"representation":"major-road transport-event activity","timing_note":"Road color is a three-year transport-event activity surface on current OSM major road geometry, not measured traffic volume or congestion."},"geometry":{"type":"LineString","coordinates":[[-73.9184983,40.7677404],[-73.9184435,40.767808],[-73.9171913,40.7693505]]}},{"type":"Feature","properties":{"id":"lens-traffic-road-nyc-way/68537821","layer":"traffic_road","category":"transport","year":1914,"visible_year":2026,"rank":3,"name":"31st Street","source_id":"way/68537821","source_url":"https://www.openstreetmap.org/way/68537821","license":"ODbL","transport_raw":0.76,"transport_count":1,"transport_activity":0.777,"representation":"major-road transport-event activity","timing_note":"Road color is a three-year transport-event activity surface on current OSM major road geometry, not measured traffic volume or congestion."},"geometry":{"type":"LineString","coordinates":[[-73.9183546,40.7698754],[-73.9193699,40.7689713],[-73.9199079,40.7685097],[-73.9199879,40.7684376]]}},{"type":"Feature","properties":{"id":"lens-traffic-road-nyc-way/46140174","layer":"traffic_road","category":"transport","year":1914,"visible_year":2026,"rank":3,"name":"Hoyt Avenue North","source_id":"way/46140174","source_url":"https://www.openstreetmap.org/way/46140174","license":"ODbL","transport_raw":0.735,"transport_count":1,"transport_activity":0.751,"representation":"major-road transport-event activity","timing_note":"Road color is a three-year transport-event activity surface on current OSM major road geometry, not measured traffic volume or congestion."},"geometry":{"type":"LineString","coordinates":[[-73.9182483,40.7714694],[-73.918408,40.7716267],[-73.9188911,40.7719916],[-73.9192476,40.7722336]]}},{"type":"Feature","properties":{"id":"lens-traffic-road-nyc-way/46140173","layer":"traffic_road","category":"transport","year":1914,"visible_year":2026,"rank":2,"name":"29th Street","source_id":"way/46140173","source_url":"https://www.openstreetmap.org/way/46140173","license":"ODbL","transport_raw":0.724,"transport_count":1,"transport_activity":0.74,"representation":"major-road transport-event activity","timing_note":"Road color is a three-year transport-event activity surface on current OSM major road geometry, not measured traffic volume or congestion."},"geometry":{"type":"LineString","coordinates":[[-73.916388,40.772988],[-73.9164582,40.7729307],[-73.9172386,40.7722937],[-73.9173786,40.7721793],[-73.9176208,40.7719816],[-73.9179039,40.7717505],[-73.9181099,40.7715824],[-73.9182483,40.7714694]]}},{"type":"Feature","properties":{"id":"lens-traffic-road-nyc-way/226829043","layer":"traffic_road","category":"transport","year":1914,"visible_year":2026,"rank":3,"name":"Astoria Boulevard South","source_id":"way/226829043","source_url":"https://www.openstreetmap.org/way/226829043","license":"ODbL","transport_raw":0.699,"transport_count":1,"transport_activity":0.714,"representation":"major-road transport-event activity","timing_note":"Road color is a three-year transport-event activity surface on current OSM major road geometry, not measured traffic volume or congestion."},"geometry":{"type":"LineString","coordinates":[[-73.9148573,40.7694974],[-73.9147715,40.7694848],[-73.9138905,40.76934]]}},{"type":"Feature","properties":{"id":"lens-traffic-road-nyc-way/850605625","layer":"traffic_road","category":"transport","year":1914,"visible_year":2026,"rank":3,"name":"Astoria Boulevard North","source_id":"way/850605625","source_url":"https://www.openstreetmap.org/way/850605625","license":"ODbL","transport_raw":0.669,"transport_count":1,"transport_activity":0.683,"representation":"major-road transport-event activity","timing_note":"Road color is a three-year transport-event activity surface on current OSM major road geometry, not measured traffic volume or congestion."},"geometry":{"type":"LineString","coordinates":[[-73.9134445,40.7698831],[-73.9142424,40.7700126],[-73.9143224,40.7700291],[-73.9144077,40.7700472]]}},{"type":"Feature","properties":{"id":"lens-traffic-road-nyc-way/516694364","layer":"traffic_road","category":"transport","year":1914,"visible_year":2026,"rank":3,"name":"31st Street","source_id":"way/516694364","source_url":"https://www.openstreetmap.org/way/516694364","license":"ODbL","transport_raw":0.653,"transport_count":1,"transport_activity":0.668,"representation":"major-road transport-event activity","timing_note":"Road color is a three-year transport-event activity surface on current OSM major road geometry, not measured traffic volume or congestion."},"geometry":{"type":"LineString","coordinates":[[-73.9199879,40.7684376],[-73.9200375,40.768395],[-73.920358,40.7681197]]}},{"type":"Feature","properties":{"id":"lens-traffic-road-nyc-way/903600410","layer":"traffic_road","category":"transport","year":1914,"visible_year":2026,"rank":3,"name":"Hoyt Avenue South","source_id":"way/903600410","source_url":"https://www.openstreetmap.org/way/903600410","license":"ODbL","transport_raw":0.64,"transport_count":1,"transport_activity":0.654,"representation":"major-road transport-event activity","timing_note":"Road color is a three-year transport-event activity surface on current OSM major road geometry, not measured traffic volume or congestion."},"geometry":{"type":"LineString","coordinates":[[-73.9207723,40.7725587],[-73.9205841,40.7724225],[-73.9201431,40.7721033],[-73.9200858,40.7720618],[-73.9200355,40.7720254],[-73.9196311,40.7717327],[-73.9187365,40.7710852]]}},{"type":"Feature","properties":{"id":"lens-traffic-road-nyc-way/1424092380","layer":"traffic_road","category":"transport","year":1914,"visible_year":2026,"rank":3,"name":"Hoyt Avenue North","source_id":"way/1424092380","source_url":"https://www.openstreetmap.org/way/1424092380","license":"ODbL","transport_raw":0.637,"transport_count":1,"transport_activity":0.652,"representation":"major-road transport-event activity","timing_note":"Road color is a three-year transport-event activity surface on current OSM major road geometry, not measured traffic volume or congestion."},"geometry":{"type":"LineString","coordinates":[[-73.9192476,40.7722336],[-73.919453,40.7723729],[-73.9195164,40.7724194],[-73.9195311,40.7724298]]}},{"type":"Feature","properties":{"id":"lens-traffic-road-nyc-way/516825822","layer":"traffic_road","category":"transport","year":1914,"visible_year":2026,"rank":3,"name":"Astoria Boulevard","source_id":"way/516825822","source_url":"https://www.openstreetmap.org/way/516825822","license":"ODbL","transport_raw":0.628,"transport_count":1,"transport_activity":0.642,"representation":"major-road transport-event activity","timing_note":"Road color is a three-year transport-event activity surface on current OSM major road geometry, not measured traffic volume or congestion."},"geometry":{"type":"LineString","coordinates":[[-73.9228535,40.7713596],[-73.9227648,40.7713339],[-73.9215033,40.7709871],[-73.9214212,40.7709646],[-73.9213267,40.7709386],[-73.9213088,40.7709337],[-73.9209574,40.7708371],[-73.920787,40.770791],[-73.9205863,40.7707371],[-73.919774,40.770519],[-73.9195938,40.7704687],[-73.919491,40.77044]]}},{"type":"Feature","properties":{"id":"lens-traffic-road-nyc-way/374435110","layer":"traffic_road","category":"transport","year":1914,"visible_year":2026,"rank":2,"name":"27th Street","source_id":"way/374435110","source_url":"https://www.openstreetmap.org/way/374435110","license":"ODbL","transport_raw":0.624,"transport_count":1,"transport_activity":0.638,"representation":"major-road transport-event activity","timing_note":"Road color is a three-year transport-event activity surface on current OSM major road geometry, not measured traffic volume or congestion."},"geometry":{"type":"LineString","coordinates":[[-73.9196895,40.7723848],[-73.9199812,40.772149]]}},{"type":"Feature","properties":{"id":"lens-traffic-road-nyc-way/46738903","layer":"traffic_road","category":"transport","year":1914,"visible_year":2026,"rank":5,"name":"Grand Central Parkway","source_id":"way/46738903","source_url":"https://www.openstreetmap.org/way/46738903","license":"ODbL","transport_raw":0.624,"transport_count":1,"transport_activity":0.638,"representation":"major-road transport-event activity","timing_note":"Road color is a three-year transport-event activity surface on current OSM major road geometry, not measured traffic volume or congestion."},"geometry":{"type":"LineString","coordinates":[[-73.9199688,40.7722989],[-73.9198031,40.7721803]]}},{"type":"Feature","properties":{"id":"lens-traffic-road-nyc-way/374435107","layer":"traffic_road","category":"transport","year":1914,"visible_year":2026,"rank":2,"name":"27th Street","source_id":"way/374435107","source_url":"https://www.openstreetmap.org/way/374435107","license":"ODbL","transport_raw":0.623,"transport_count":1,"transport_activity":0.637,"representation":"major-road transport-event activity","timing_note":"Road color is a three-year transport-event activity surface on current OSM major road geometry, not measured traffic volume or congestion."},"geometry":{"type":"LineString","coordinates":[[-73.9199812,40.772149],[-73.9200858,40.7720618],[-73.9201645,40.7719971],[-73.920785,40.771488],[-73.9213359,40.771034],[-73.9214212,40.7709646]]}},{"type":"Feature","properties":{"id":"lens-traffic-road-nyc-way/1425418393","layer":"traffic_road","category":"transport","year":1914,"visible_year":2026,"rank":3,"name":"Hoyt Avenue North","source_id":"way/1425418393","source_url":"https://www.openstreetmap.org/way/1425418393","license":"ODbL","transport_raw":0.622,"transport_count":1,"transport_activity":0.635,"representation":"major-road transport-event activity","timing_note":"Road color is a three-year transport-event activity surface on current OSM major road geometry, not measured traffic volume or congestion."},"geometry":{"type":"LineString","coordinates":[[-73.9195311,40.7724298],[-73.919585,40.772469]]}},{"type":"Feature","properties":{"id":"lens-traffic-road-nyc-way/126074615","layer":"traffic_road","category":"transport","year":1914,"visible_year":2026,"rank":2,"name":"27th Street","source_id":"way/126074615","source_url":"https://www.openstreetmap.org/way/126074615","license":"ODbL","transport_raw":0.62,"transport_count":1,"transport_activity":0.634,"representation":"major-road transport-event activity","timing_note":"Road color is a three-year transport-event activity surface on current OSM major road geometry, not measured traffic volume or congestion."},"geometry":{"type":"LineString","coordinates":[[-73.919585,40.772469],[-73.9196718,40.772399],[-73.9196895,40.7723848]]}},{"type":"Feature","properties":{"id":"lens-traffic-road-nyc-way/46738904","layer":"traffic_road","category":"transport","year":1914,"visible_year":2026,"rank":5,"name":"Grand Central Parkway","source_id":"way/46738904","source_url":"https://www.openstreetmap.org/way/46738904","license":"ODbL","transport_raw":0.621,"transport_count":1,"transport_activity":0.634,"representation":"major-road transport-event activity","timing_note":"Road color is a three-year transport-event activity surface on current OSM major road geometry, not measured traffic volume or congestion."},"geometry":{"type":"LineString","coordinates":[[-73.9197238,40.7722696],[-73.9198672,40.7723867]]}},{"type":"Feature","properties":{"id":"lens-traffic-road-nyc-way/420905641","layer":"traffic_road","category":"transport","year":1914,"visible_year":2026,"rank":3,"name":"Astoria Boulevard North","source_id":"way/420905641","source_url":"https://www.openstreetmap.org/way/420905641","license":"ODbL","transport_raw":0.59,"transport_count":1,"transport_activity":0.604,"representation":"major-road transport-event activity","timing_note":"Road color is a three-year transport-event activity surface on current OSM major road geometry, not measured traffic volume or congestion."},"geometry":{"type":"LineString","coordinates":[[-73.9132002,40.7698453],[-73.9134445,40.7698831]]}},{"type":"Feature","properties":{"id":"lens-traffic-road-nyc-way/25346051","layer":"traffic_road","category":"transport","year":1914,"visible_year":2026,"rank":5,"name":"Grand Central Parkway","source_id":"way/25346051","source_url":"https://www.openstreetmap.org/way/25346051","license":"ODbL","transport_raw":0.579,"transport_count":1,"transport_activity":0.592,"representation":"major-road transport-event activity","timing_note":"Road color is a three-year transport-event activity surface on current OSM major road geometry, not measured traffic volume or congestion."},"geometry":{"type":"LineString","coordinates":[[-73.9204677,40.7726525],[-73.9199688,40.7722989]]}},{"type":"Feature","properties":{"id":"lens-traffic-road-nyc-way/11316055","layer":"traffic_road","category":"transport","year":1914,"visible_year":2026,"rank":5,"name":"Robert F. Kennedy Bridge","source_id":"way/11316055","source_url":"https://www.openstreetmap.org/way/11316055","license":"ODbL","transport_raw":0.577,"transport_count":1,"transport_activity":0.59,"representation":"major-road transport-event activity","timing_note":"Road color is a three-year transport-event activity surface on current OSM major road geometry, not measured traffic volume or congestion."},"geometry":{"type":"LineString","coordinates":[[-73.9198672,40.7723867],[-73.9203593,40.7727334]]}},{"type":"Feature","properties":{"id":"lens-traffic-road-nyc-way/525710332","layer":"traffic_road","category":"transport","year":1914,"visible_year":2026,"rank":3,"name":"31st Street","source_id":"way/525710332","source_url":"https://www.openstreetmap.org/way/525710332","license":"ODbL","transport_raw":0.575,"transport_count":1,"transport_activity":0.588,"representation":"major-road transport-event activity","timing_note":"Road color is a three-year transport-event activity surface on current OSM major road geometry, not measured traffic volume or congestion."},"geometry":{"type":"LineString","coordinates":[[-73.920358,40.7681197],[-73.9207264,40.7677286],[-73.9207885,40.7676626]]}},{"type":"Feature","properties":{"id":"lens-traffic-road-nyc-way/905190096","layer":"traffic_road","category":"transport","year":1914,"visible_year":2026,"rank":3,"name":"33rd Street","source_id":"way/905190096","source_url":"https://www.openstreetmap.org/way/905190096","license":"ODbL","transport_raw":0.571,"transport_count":1,"transport_activity":0.584,"representation":"major-road transport-event activity","timing_note":"Road color is a three-year transport-event activity surface on current OSM major road geometry, not measured traffic volume or congestion."},"geometry":{"type":"LineString","coordinates":[[-73.9197922,40.7661449],[-73.9197243,40.7662272],[-73.9192,40.7668749],[-73.9189121,40.7672298],[-73.9185516,40.7676747],[-73.9184983,40.7677404]]}},{"type":"Feature","properties":{"id":"lens-traffic-road-nyc-way/535072104","layer":"traffic_road","category":"transport","year":1914,"visible_year":2026,"rank":3,"name":"Hoyt Avenue North","source_id":"way/535072104","source_url":"https://www.openstreetmap.org/way/535072104","license":"ODbL","transport_raw":0.57,"transport_count":1,"transport_activity":0.583,"representation":"major-road transport-event activity","timing_note":"Road color is a three-year transport-event activity surface on current OSM major road geometry, not measured traffic volume or congestion."},"geometry":{"type":"LineString","coordinates":[[-73.919585,40.772469],[-73.9196549,40.7725188],[-73.9198635,40.7726676],[-73.9200954,40.772833],[-73.9202185,40.7729208],[-73.9202731,40.7729598]]}},{"type":"Feature","properties":{"id":"lens-traffic-road-nyc-way/1376711900","layer":"traffic_road","category":"transport","year":1914,"visible_year":2026,"rank":3,"name":"Astoria Boulevard North","source_id":"way/1376711900","source_url":"https://www.openstreetmap.org/way/1376711900","license":"ODbL","transport_raw":0.562,"transport_count":1,"transport_activity":0.574,"representation":"major-road transport-event activity","timing_note":"Road color is a three-year transport-event activity surface on current OSM major road geometry, not measured traffic volume or congestion."},"geometry":{"type":"LineString","coordinates":[[-73.91287,40.7697951],[-73.9132002,40.7698453]]}},{"type":"Feature","properties":{"id":"lens-traffic-road-nyc-way/374433288","layer":"traffic_road","category":"transport","year":1914,"visible_year":2026,"rank":5,"name":"Grand Central Parkway","source_id":"way/374433288","source_url":"https://www.openstreetmap.org/way/374433288","license":"ODbL","transport_raw":0.517,"transport_count":1,"transport_activity":0.529,"representation":"major-road transport-event activity","timing_note":"Road color is a three-year transport-event activity surface on current OSM major road geometry, not measured traffic volume or congestion."},"geometry":{"type":"LineString","coordinates":[[-73.9209031,40.7729418],[-73.9204677,40.7726525]]}},{"type":"Feature","properties":{"id":"lens-traffic-road-nyc-way/516692963","layer":"traffic_road","category":"transport","year":1914,"visible_year":2026,"rank":3,"name":"31st Street","source_id":"way/516692963","source_url":"https://www.openstreetmap.org/way/516692963","license":"ODbL","transport_raw":0.492,"transport_count":1,"transport_activity":0.503,"representation":"major-road transport-event activity","timing_note":"Road color is a three-year transport-event activity surface on current OSM major road geometry, not measured traffic volume or congestion."},"geometry":{"type":"LineString","coordinates":[[-73.9207885,40.7676626],[-73.9208455,40.7675899],[-73.921329,40.7669727],[-73.9213848,40.7669012]]}},{"type":"Feature","properties":{"id":"lens-traffic-road-nyc-way/963603331","layer":"traffic_road","category":"transport","year":1914,"visible_year":2026,"rank":3,"name":"Hoyt Avenue North","source_id":"way/963603331","source_url":"https://www.openstreetmap.org/way/963603331","license":"ODbL","transport_raw":0.481,"transport_count":1,"transport_activity":0.491,"representation":"major-road transport-event activity","timing_note":"Road color is a three-year transport-event activity surface on current OSM major road geometry, not measured traffic volume or congestion."},"geometry":{"type":"LineString","coordinates":[[-73.9202731,40.7729598],[-73.9203366,40.7730042],[-73.9209071,40.7734027],[-73.920962,40.773441]]}},{"type":"Feature","properties":{"id":"lens-traffic-road-nyc-way/850605626","layer":"traffic_road","category":"transport","year":1914,"visible_year":2026,"rank":3,"name":"Astoria Boulevard South","source_id":"way/850605626","source_url":"https://www.openstreetmap.org/way/850605626","license":"ODbL","transport_raw":0.462,"transport_count":1,"transport_activity":0.472,"representation":"major-road transport-event activity","timing_note":"Road color is a three-year transport-event activity surface on current OSM major road geometry, not measured traffic volume or congestion."},"geometry":{"type":"LineString","coordinates":[[-73.9138905,40.76934],[-73.9129895,40.7691955],[-73.9129009,40.7691804],[-73.9128237,40.7691675],[-73.9119219,40.7690177],[-73.9110758,40.7688764],[-73.9109422,40.7688547],[-73.9108223,40.7688372]]}},{"type":"Feature","properties":{"id":"lens-traffic-road-nyc-way/1134690192","layer":"traffic_road","category":"transport","year":1914,"visible_year":2026,"rank":5,"name":"Grand Central Parkway","source_id":"way/1134690192","source_url":"https://www.openstreetmap.org/way/1134690192","license":"ODbL","transport_raw":0.455,"transport_count":1,"transport_activity":0.465,"representation":"major-road transport-event activity","timing_note":"Road color is a three-year transport-event activity surface on current OSM major road geometry, not measured traffic volume or congestion."},"geometry":{"type":"LineString","coordinates":[[-73.9129693,40.7694493],[-73.9121333,40.7693148],[-73.9119903,40.7692905],[-73.9118536,40.7692653],[-73.91171,40.7692369],[-73.9115692,40.7692057]]}},{"type":"Feature","properties":{"id":"lens-traffic-road-nyc-way/387038052","layer":"traffic_road","category":"transport","year":1914,"visible_year":2026,"rank":2,"name":"Crescent Street","source_id":"way/387038052","source_url":"https://www.openstreetmap.org/way/387038052","license":"ODbL","transport_raw":0.451,"transport_count":1,"transport_activity":0.461,"representation":"major-road transport-event activity","timing_note":"Road color is a three-year transport-event activity surface on current OSM major road geometry, not measured traffic volume or congestion."},"geometry":{"type":"LineString","coordinates":[[-73.920962,40.773441],[-73.9210522,40.7733677],[-73.9213599,40.7731178],[-73.9213848,40.7730976],[-73.9214828,40.7730491],[-73.921578,40.7729958],[-73.9215994,40.7729838],[-73.9219019,40.7725939],[-73.9223013,40.772078],[-73.9223702,40.7719903],[-73.9227998,40.7714366],[-73.9228535,40.7713596]]}},{"type":"Feature","properties":{"id":"lens-traffic-road-nyc-way/516692962","layer":"traffic_road","category":"transport","year":1914,"visible_year":2026,"rank":2,"name":"30th Avenue","source_id":"way/516692962","source_url":"https://www.openstreetmap.org/way/516692962","license":"ODbL","transport_raw":0.444,"transport_count":1,"transport_activity":0.454,"representation":"major-road transport-event activity","timing_note":"Road color is a three-year transport-event activity surface on current OSM major road geometry, not measured traffic volume or congestion."},"geometry":{"type":"LineString","coordinates":[[-73.9212913,40.7668563],[-73.9212595,40.766841],[-73.921035,40.7667334],[-73.9206624,40.7665545],[-73.920602,40.7665256]]}},{"type":"Feature","properties":{"id":"lens-traffic-road-nyc-way/1335807801","layer":"traffic_road","category":"transport","year":1914,"visible_year":2026,"rank":2,"name":"30th Avenue","source_id":"way/1335807801","source_url":"https://www.openstreetmap.org/way/1335807801","license":"ODbL","transport_raw":0.437,"transport_count":1,"transport_activity":0.447,"representation":"major-road transport-event activity","timing_note":"Road color is a three-year transport-event activity surface on current OSM major road geometry, not measured traffic volume or congestion."},"geometry":{"type":"LineString","coordinates":[[-73.9213848,40.7669012],[-73.9212913,40.7668563]]}},{"type":"Feature","properties":{"id":"lens-traffic-road-nyc-way/1335807800","layer":"traffic_road","category":"transport","year":1914,"visible_year":2024,"rank":2,"name":"30th Avenue","source_id":"way/1335807800","source_url":"https://www.openstreetmap.org/way/1335807800","license":"ODbL","transport_raw":0.435,"transport_count":1,"transport_activity":0.445,"representation":"major-road transport-event activity","timing_note":"Road color is a three-year transport-event activity surface on current OSM major road geometry, not measured traffic volume or congestion."},"geometry":{"type":"LineString","coordinates":[[-73.9214857,40.7669478],[-73.9213848,40.7669012]]}},{"type":"Feature","properties":{"id":"lens-traffic-road-nyc-way/516692960","layer":"traffic_road","category":"transport","year":1914,"visible_year":2024,"rank":2,"name":"30th Avenue","source_id":"way/516692960","source_url":"https://www.openstreetmap.org/way/516692960","license":"ODbL","transport_raw":0.422,"transport_count":1,"transport_activity":0.432,"representation":"major-road transport-event activity","timing_note":"Road color is a three-year transport-event activity surface on current OSM major road geometry, not measured traffic volume or congestion."},"geometry":{"type":"LineString","coordinates":[[-73.922241,40.7672998],[-73.9221655,40.7672644],[-73.9218468,40.7671145],[-73.9217756,40.7670816],[-73.9215142,40.7669609],[-73.9214857,40.7669478]]}},{"type":"Feature","properties":{"id":"lens-traffic-road-nyc-way/683931309","layer":"traffic_road","category":"transport","year":1914,"visible_year":2026,"rank":3,"name":"Astoria Boulevard North","source_id":"way/683931309","source_url":"https://www.openstreetmap.org/way/683931309","license":"ODbL","transport_raw":0.42,"transport_count":1,"transport_activity":0.429,"representation":"major-road transport-event activity","timing_note":"Road color is a three-year transport-event activity surface on current OSM major road geometry, not measured traffic volume or congestion."},"geometry":{"type":"LineString","coordinates":[[-73.9102637,40.7694141],[-73.9103943,40.7694344],[-73.9107001,40.7694826],[-73.911118,40.769545],[-73.9113885,40.7695825],[-73.9115365,40.7696022],[-73.9122369,40.7696983],[-73.9123524,40.7697127],[-73.9124529,40.7697289],[-73.9125398,40.7697449],[-73.91287,40.7697951]]}},{"type":"Feature","properties":{"id":"lens-traffic-road-nyc-way/516692961","layer":"traffic_road","category":"transport","year":1914,"visible_year":2026,"rank":3,"name":"31st Street","source_id":"way/516692961","source_url":"https://www.openstreetmap.org/way/516692961","license":"ODbL","transport_raw":0.418,"transport_count":1,"transport_activity":0.427,"representation":"major-road transport-event activity","timing_note":"Road color is a three-year transport-event activity surface on current OSM major road geometry, not measured traffic volume or congestion."},"geometry":{"type":"LineString","coordinates":[[-73.9213848,40.7669012],[-73.9214441,40.7668276],[-73.9216178,40.7666133]]}},{"type":"Feature","properties":{"id":"lens-traffic-road-nyc-way/516825823","layer":"traffic_road","category":"transport","year":1914,"visible_year":2026,"rank":2,"name":"Crescent Street","source_id":"way/516825823","source_url":"https://www.openstreetmap.org/way/516825823","license":"ODbL","transport_raw":0.416,"transport_count":1,"transport_activity":0.426,"representation":"major-road transport-event activity","timing_note":"Road color is a three-year transport-event activity surface on current OSM major road geometry, not measured traffic volume or congestion."},"geometry":{"type":"LineString","coordinates":[[-73.9228535,40.7713596],[-73.922914,40.7712838],[-73.923063,40.7710779],[-73.9232779,40.7707805],[-73.9235661,40.7704989],[-73.9236279,40.7704322]]}},{"type":"Feature","properties":{"id":"lens-traffic-road-nyc-way/387038333","layer":"traffic_road","category":"transport","year":1914,"visible_year":2026,"rank":2,"name":"24th Avenue","source_id":"way/387038333","source_url":"https://www.openstreetmap.org/way/387038333","license":"ODbL","transport_raw":0.375,"transport_count":1,"transport_activity":0.384,"representation":"major-road transport-event activity","timing_note":"Road color is a three-year transport-event activity surface on current OSM major road geometry, not measured traffic volume or congestion."},"geometry":{"type":"LineString","coordinates":[[-73.9215156,40.7766191],[-73.9214296,40.7765574],[-73.9205823,40.7759501],[-73.920518,40.775904],[-73.920453,40.7758581],[-73.9198936,40.775463],[-73.919827,40.775416],[-73.9197722,40.7753773],[-73.9192071,40.7749789],[-73.919141,40.774933],[-73.9190823,40.7748923],[-73.918521,40.7744957],[-73.918455,40.774449],[-73.9183988,40.7744093],[-73.9178312,40.7740088],[-73.917762,40.77396],[-73.9177069,40.773921],[-73.9171429,40.7735216],[-73.917077,40.773475],[-73.9170227,40.7734366],[-73.9164556,40.7730358],[-73.916388,40.772988]]}},{"type":"Feature","properties":{"id":"lens-traffic-road-nyc-way/108298536","layer":"traffic_road","category":"transport","year":1914,"visible_year":2026,"rank":2,"name":"30th Avenue","source_id":"way/108298536","source_url":"https://www.openstreetmap.org/way/108298536","license":"ODbL","transport_raw":0.371,"transport_count":1,"transport_activity":0.379,"representation":"major-road transport-event activity","timing_note":"Road color is a three-year transport-event activity surface on current OSM major road geometry, not measured traffic volume or congestion."},"geometry":{"type":"LineString","coordinates":[[-73.920602,40.7665256],[-73.9205203,40.7664879],[-73.9200373,40.7662643],[-73.919883,40.7661892],[-73.9197922,40.7661449],[-73.9197163,40.7661079],[-73.9195073,40.7660124],[-73.9192555,40.7658946],[-73.9190675,40.765806],[-73.9189932,40.7657719],[-73.9189225,40.7657398],[-73.9182592,40.7654389],[-73.91819,40.7654066],[-73.9181151,40.7653717],[-73.9178739,40.7652558],[-73.9176756,40.7651609],[-73.9174631,40.7650596],[-73.9173999,40.765029],[-73.9173267,40.7649932],[-73.9166648,40.7646775],[-73.9165887,40.764643],[-73.9165232,40.7646133],[-73.9163656,40.7645394],[-73.9158654,40.7643058],[-73.9157851,40.7642684],[-73.9157165,40.7642364],[-73.9155956,40.764181],[-73.915212,40.7640009],[-73.9150949,40.7639463],[-73.9149982,40.7639012]]}},{"type":"Feature","properties":{"id":"lens-traffic-road-nyc-way/963603330","layer":"traffic_road","category":"transport","year":1914,"visible_year":2026,"rank":3,"name":"Hoyt Avenue North","source_id":"way/963603330","source_url":"https://www.openstreetmap.org/way/963603330","license":"ODbL","transport_raw":0.37,"transport_count":1,"transport_activity":0.379,"representation":"major-road transport-event activity","timing_note":"Road color is a three-year transport-event activity surface on current OSM major road geometry, not measured traffic volume or congestion."},"geometry":{"type":"LineString","coordinates":[[-73.920962,40.773441],[-73.9210301,40.7734891],[-73.9211523,40.7735754],[-73.9215989,40.7738908],[-73.921656,40.773931],[-73.9217202,40.7739739],[-73.9220307,40.7741838]]}},{"type":"Feature","properties":{"id":"lens-traffic-road-nyc-way/1416284690","layer":"traffic_road","category":"transport","year":1914,"visible_year":2025,"rank":2,"name":"Steinway Street","source_id":"way/1416284690","source_url":"https://www.openstreetmap.org/way/1416284690","license":"ODbL","transport_raw":0.336,"transport_count":1,"transport_activity":0.343,"representation":"major-road transport-event activity","timing_note":"Road color is a three-year transport-event activity surface on current OSM major road geometry, not measured traffic volume or congestion."},"geometry":{"type":"LineString","coordinates":[[-73.9108976,40.7688914],[-73.9109422,40.7688547]]}},{"type":"Feature","properties":{"id":"lens-traffic-road-nyc-way/216929307","layer":"traffic_road","category":"transport","year":1914,"visible_year":2022,"rank":2,"name":"30th Avenue","source_id":"way/216929307","source_url":"https://www.openstreetmap.org/way/216929307","license":"ODbL","transport_raw":0.334,"transport_count":1,"transport_activity":0.342,"representation":"major-road transport-event activity","timing_note":"Road color is a three-year transport-event activity surface on current OSM major road geometry, not measured traffic volume or congestion."},"geometry":{"type":"LineString","coordinates":[[-73.9250866,40.7686366],[-73.9249836,40.7685892],[-73.9243125,40.7682684],[-73.9242695,40.7682479],[-73.9241506,40.7681892],[-73.9237398,40.7679954],[-73.9235889,40.7679253],[-73.9235243,40.7678953],[-73.9234583,40.7678646],[-73.9230622,40.7676806],[-73.9230022,40.7676528],[-73.9229426,40.7676233],[-73.9226732,40.7674937],[-73.9223213,40.7673376],[-73.922241,40.7672998]]}},{"type":"Feature","properties":{"id":"lens-traffic-road-nyc-way/5706946","layer":"traffic_road","category":"transport","year":1914,"visible_year":2026,"rank":3,"name":"Hoyt Avenue South","source_id":"way/5706946","source_url":"https://www.openstreetmap.org/way/5706946","license":"ODbL","transport_raw":0.328,"transport_count":1,"transport_activity":0.335,"representation":"major-road transport-event activity","timing_note":"Road color is a three-year transport-event activity surface on current OSM major road geometry, not measured traffic volume or congestion."},"geometry":{"type":"LineString","coordinates":[[-73.9239852,40.7746243],[-73.9238663,40.7745612],[-73.9229271,40.7740381],[-73.9228755,40.7740087],[-73.9227995,40.7739655],[-73.9227338,40.773929],[-73.9227072,40.7739142],[-73.92216,40.7735424],[-73.921548,40.7730965],[-73.9214828,40.7730491],[-73.9214119,40.7730014],[-73.9209711,40.7727049],[-73.9207723,40.7725587]]}},{"type":"Feature","properties":{"id":"lens-traffic-road-nyc-way/108305983","layer":"traffic_road","category":"transport","year":1914,"visible_year":2026,"rank":2,"name":"Crescent Street","source_id":"way/108305983","source_url":"https://www.openstreetmap.org/way/108305983","license":"ODbL","transport_raw":0.313,"transport_count":1,"transport_activity":0.32,"representation":"major-road transport-event activity","timing_note":"Road color is a three-year transport-event activity surface on current OSM major road geometry, not measured traffic volume or congestion."},"geometry":{"type":"LineString","coordinates":[[-73.9236279,40.7704322],[-73.9236857,40.7703677],[-73.9240522,40.7699375],[-73.9241068,40.7698734],[-73.9241443,40.7698264],[-73.9243227,40.7696031],[-73.9245489,40.7693201],[-73.9245977,40.769259],[-73.9246346,40.7692104],[-73.9250366,40.7687172],[-73.9250866,40.7686366]]}},{"type":"Feature","properties":{"id":"lens-traffic-road-nyc-way/25419447","layer":"traffic_road","category":"transport","year":1914,"visible_year":2025,"rank":2,"name":"Steinway Street","source_id":"way/25419447","source_url":"https://www.openstreetmap.org/way/25419447","license":"ODbL","transport_raw":0.312,"transport_count":1,"transport_activity":0.319,"representation":"major-road transport-event activity","timing_note":"Road color is a three-year transport-event activity surface on current OSM major road geometry, not measured traffic volume or congestion."},"geometry":{"type":"LineString","coordinates":[[-73.9103133,40.7693724],[-73.9108976,40.7688914]]}},{"type":"Feature","properties":{"id":"lens-traffic-road-nyc-way/947595893","layer":"traffic_road","category":"transport","year":1914,"visible_year":2026,"rank":5,"name":"Robert F. Kennedy Bridge","source_id":"way/947595893","source_url":"https://www.openstreetmap.org/way/947595893","license":"ODbL","transport_raw":0.276,"transport_count":1,"transport_activity":0.282,"representation":"major-road transport-event activity","timing_note":"Road color is a three-year transport-event activity surface on current OSM major road geometry, not measured traffic volume or congestion."},"geometry":{"type":"LineString","coordinates":[[-73.9236687,40.7755364],[-73.9231705,40.7748879],[-73.9230308,40.774712],[-73.9228667,40.7745205],[-73.9226968,40.7743347],[-73.9225299,40.7741738],[-73.9223454,40.7740004],[-73.9221587,40.7738386],[-73.9219623,40.7736779],[-73.9217632,40.7735263],[-73.9215523,40.7733745],[-73.9209031,40.7729418]]}},{"type":"Feature","properties":{"id":"lens-traffic-road-nyc-way/808614669","layer":"traffic_road","category":"transport","year":1914,"visible_year":2024,"rank":5,"name":"Robert F. Kennedy Bridge","source_id":"way/808614669","source_url":"https://www.openstreetmap.org/way/808614669","license":"ODbL","transport_raw":0.273,"transport_count":1,"transport_activity":0.279,"representation":"major-road transport-event activity","timing_note":"Road color is a three-year transport-event activity surface on current OSM major road geometry, not measured traffic volume or congestion."},"geometry":{"type":"LineString","coordinates":[[-73.9203593,40.7727334],[-73.9214296,40.7734834],[-73.9216374,40.7736345],[-73.9218561,40.773803],[-73.9220365,40.7739481],[-73.9222204,40.7741102],[-73.9223999,40.7742776],[-73.9225737,40.7744481],[-73.922738,40.7746267],[-73.9228954,40.7748138],[-73.9230361,40.774989],[-73.9238531,40.7760686]]}},{"type":"Feature","properties":{"id":"lens-traffic-road-nyc-way/25419496","layer":"traffic_road","category":"transport","year":1914,"visible_year":2026,"rank":3,"name":"Astoria Boulevard","source_id":"way/25419496","source_url":"https://www.openstreetmap.org/way/25419496","license":"ODbL","transport_raw":0.268,"transport_count":1,"transport_activity":0.274,"representation":"major-road transport-event activity","timing_note":"Road color is a three-year transport-event activity surface on current OSM major road geometry, not measured traffic volume or congestion."},"geometry":{"type":"LineString","coordinates":[[-73.9259342,40.7722511],[-73.925805,40.7721927],[-73.9255182,40.772063],[-73.9254508,40.7720454],[-73.9253631,40.7720224],[-73.9251706,40.7719702],[-73.9245259,40.7717987],[-73.924441,40.771776],[-73.9243636,40.7717556],[-73.923581,40.7715499],[-73.9234632,40.7715189],[-73.9230141,40.7714008],[-73.9229324,40.7713793],[-73.9228535,40.7713596]]}},{"type":"Feature","properties":{"id":"lens-traffic-road-nyc-way/963603329","layer":"traffic_road","category":"transport","year":1914,"visible_year":2026,"rank":3,"name":"Hoyt Avenue North","source_id":"way/963603329","source_url":"https://www.openstreetmap.org/way/963603329","license":"ODbL","transport_raw":0.267,"transport_count":1,"transport_activity":0.273,"representation":"major-road transport-event activity","timing_note":"Road color is a three-year transport-event activity surface on current OSM major road geometry, not measured traffic volume or congestion."},"geometry":{"type":"LineString","coordinates":[[-73.9220307,40.7741838],[-73.9222878,40.7743775],[-73.9223308,40.7744198]]}},{"type":"Feature","properties":{"id":"lens-traffic-road-nyc-way/25346083","layer":"traffic_road","category":"transport","year":1914,"visible_year":2025,"rank":5,"name":"Grand Central Parkway","source_id":"way/25346083","source_url":"https://www.openstreetmap.org/way/25346083","license":"ODbL","transport_raw":0.238,"transport_count":1,"transport_activity":0.243,"representation":"major-road transport-event activity","timing_note":"Road color is a three-year transport-event activity surface on current OSM major road geometry, not measured traffic volume or congestion."},"geometry":{"type":"LineString","coordinates":[[-73.9071301,40.7687451],[-73.9074348,40.7687952],[-73.9075845,40.7688157],[-73.9077343,40.7688325],[-73.9078596,40.7688431],[-73.9079188,40.7688466],[-73.9079924,40.7688504],[-73.9080657,40.7688527],[-73.9081466,40.768855],[-73.9082978,40.7688594],[-73.9084065,40.7688654],[-73.9084961,40.7688715],[-73.9085906,40.7688799],[-73.9087341,40.7688973],[-73.9088735,40.7689213],[-73.9090117,40.7689499],[-73.9091525,40.7689818],[-73.9094304,40.7690499],[-73.9095685,40.769081],[-73.9097042,40.7691109],[-73.9098408,40.7691389],[-73.9099808,40.769166],[-73.910119,40.7691928],[-73.9102601,40.7692173],[-73.9104712,40.7692534],[-73.91068,40.7692829],[-73.9108228,40.7693038],[-73.9109647,40.7693206],[-73.9111066,40.7693353],[-73.9112443,40.7693494],[-73.9113888,40.7693578],[-73.9115307,40.7693671],[-73.9116745,40.7693771],[-73.9118176,40.7693887],[-73.9119597,40.7694014],[-73.9121081,40.7694192],[-73.9122455,40.7694377],[-73.9123858,40.769458],[-73.9125902,40.7694939],[-73.9128043,40.7695266]]}},{"type":"Feature","properties":{"id":"lens-traffic-road-nyc-way/683931306","layer":"traffic_road","category":"transport","year":1914,"visible_year":2026,"rank":3,"name":"Astoria Boulevard South","source_id":"way/683931306","source_url":"https://www.openstreetmap.org/way/683931306","license":"ODbL","transport_raw":0.235,"transport_count":1,"transport_activity":0.24,"representation":"major-road transport-event activity","timing_note":"Road color is a three-year transport-event activity surface on current OSM major road geometry, not measured traffic volume or congestion."},"geometry":{"type":"LineString","coordinates":[[-73.9108223,40.7688372],[-73.9106717,40.7688131],[-73.9099752,40.7687018],[-73.9092074,40.7685792],[-73.9090014,40.7685463]]}},{"type":"Feature","properties":{"id":"lens-traffic-road-nyc-way/5703719","layer":"traffic_road","category":"transport","year":1914,"visible_year":2026,"rank":2,"name":"31st Street","source_id":"way/5703719","source_url":"https://www.openstreetmap.org/way/5703719","license":"ODbL","transport_raw":0.215,"transport_count":1,"transport_activity":0.22,"representation":"major-road transport-event activity","timing_note":"Road color is a three-year transport-event activity surface on current OSM major road geometry, not measured traffic volume or congestion."},"geometry":{"type":"LineString","coordinates":[[-73.9067461,40.7793515],[-73.9067961,40.7793113],[-73.9080511,40.7782921],[-73.9084036,40.7780364],[-73.908477,40.777983],[-73.9085544,40.7779198],[-73.9096649,40.7770126],[-73.9101664,40.7765977],[-73.910311,40.7764781],[-73.9106297,40.7762151],[-73.9107092,40.7761439],[-73.9107801,40.7760804],[-73.9112233,40.7757113],[-73.9122938,40.7748264],[-73.9127793,40.774425],[-73.912858,40.77436],[-73.9129367,40.7742957],[-73.9135943,40.773759],[-73.9138988,40.7735104],[-73.913974,40.773449],[-73.9140356,40.7733984],[-73.9153179,40.7723529],[-73.915397,40.7722884],[-73.9154659,40.772233],[-73.9161566,40.7716878],[-73.916292,40.7715804],[-73.9168068,40.771188],[-73.916939,40.7710792],[-73.9171546,40.7709029],[-73.91724,40.7708318]]}},{"type":"Feature","properties":{"id":"lens-traffic-road-nyc-way/122625709","layer":"traffic_road","category":"transport","year":1914,"visible_year":2026,"rank":5,"name":"Grand Central Parkway","source_id":"way/122625709","source_url":"https://www.openstreetmap.org/way/122625709","license":"ODbL","transport_raw":0.214,"transport_count":1,"transport_activity":0.219,"representation":"major-road transport-event activity","timing_note":"Road color is a three-year transport-event activity surface on current OSM major road geometry, not measured traffic volume or congestion."},"geometry":{"type":"LineString","coordinates":[[-73.9115692,40.7692057],[-73.9113044,40.7691446],[-73.9111618,40.7691115],[-73.9110274,40.7690818],[-73.9108533,40.7690471],[-73.9106712,40.7690118],[-73.9104804,40.7689765],[-73.9103274,40.7689513],[-73.9101773,40.7689276],[-73.9100371,40.7689071],[-73.9098921,40.7688866],[-73.9097579,40.7688664],[-73.9096054,40.7688499],[-73.9094663,40.7688334],[-73.9093271,40.7688202],[-73.9091948,40.7688082],[-73.909021,40.7687914],[-73.9088441,40.7687771],[-73.9086479,40.7687657],[-73.9084968,40.7687567],[-73.9081395,40.7687399],[-73.9080365,40.7687331],[-73.9079573,40.7687257],[-73.9078784,40.7687185]]}},{"type":"Feature","properties":{"id":"lens-traffic-road-nyc-way/420307979","layer":"traffic_road","category":"transport","year":1914,"visible_year":2026,"rank":3,"name":"Hoyt Avenue North","source_id":"way/420307979","source_url":"https://www.openstreetmap.org/way/420307979","license":"ODbL","transport_raw":0.18,"transport_count":1,"transport_activity":0.184,"representation":"major-road transport-event activity","timing_note":"Road color is a three-year transport-event activity surface on current OSM major road geometry, not measured traffic volume or congestion."},"geometry":{"type":"LineString","coordinates":[[-73.9223308,40.7744198],[-73.9223767,40.7744855],[-73.9225159,40.7746849],[-73.9225603,40.7747444],[-73.9226579,40.7748749],[-73.9227948,40.7750581],[-73.9229276,40.7752287],[-73.9229626,40.7752926],[-73.9230165,40.7753908]]}},{"type":"Feature","properties":{"id":"lens-traffic-road-nyc-way/497258677","layer":"traffic_road","category":"transport","year":1914,"visible_year":2026,"rank":3,"name":"31st Street","source_id":"way/497258677","source_url":"https://www.openstreetmap.org/way/497258677","license":"ODbL","transport_raw":0.179,"transport_count":1,"transport_activity":0.183,"representation":"major-road transport-event activity","timing_note":"Road color is a three-year transport-event activity surface on current OSM major road geometry, not measured traffic volume or congestion."},"geometry":{"type":"LineString","coordinates":[[-73.9216178,40.7666133],[-73.9226659,40.7653187],[-73.9226961,40.7652814],[-73.922741,40.765226],[-73.9228048,40.7651476],[-73.9233825,40.7644377],[-73.9234566,40.7643507]]}},{"type":"Feature","properties":{"id":"lens-traffic-road-nyc-way/108298539","layer":"traffic_road","category":"transport","year":1914,"visible_year":2022,"rank":2,"name":"30th Avenue","source_id":"way/108298539","source_url":"https://www.openstreetmap.org/way/108298539","license":"ODbL","transport_raw":0.169,"transport_count":1,"transport_activity":0.173,"representation":"major-road transport-event activity","timing_note":"Road color is a three-year transport-event activity surface on current OSM major road geometry, not measured traffic volume or congestion."},"geometry":{"type":"LineString","coordinates":[[-73.9264763,40.7692825],[-73.9264006,40.769247],[-73.9253499,40.7687548],[-73.9251761,40.7686781],[-73.9250866,40.7686366]]}},{"type":"Feature","properties":{"id":"lens-traffic-road-nyc-way/25419449","layer":"traffic_road","category":"transport","year":1914,"visible_year":2024,"rank":2,"name":"Steinway Street","source_id":"way/25419449","source_url":"https://www.openstreetmap.org/way/25419449","license":"ODbL","transport_raw":0.162,"transport_count":1,"transport_activity":0.165,"representation":"major-road transport-event activity","timing_note":"Road color is a three-year transport-event activity surface on current OSM major road geometry, not measured traffic volume or congestion."},"geometry":{"type":"LineString","coordinates":[[-73.9109422,40.7688547],[-73.9110206,40.7687825],[-73.9114906,40.768205],[-73.9116379,40.7680242],[-73.9116994,40.7679488],[-73.9117425,40.7678959],[-73.91192,40.7676781],[-73.9135183,40.7657171],[-73.9136493,40.7655557],[-73.9137055,40.7654868],[-73.91376,40.7654199],[-73.9138952,40.7652545],[-73.9148285,40.7641094],[-73.9149419,40.7639703],[-73.9149982,40.7639012],[-73.9150571,40.7638287],[-73.9151914,40.7636643],[-73.9161976,40.7624199],[-73.9168701,40.7616043],[-73.9170407,40.761396],[-73.9170942,40.7613303],[-73.9171512,40.7612602],[-73.9173092,40.7610655],[-73.9177499,40.7605248],[-73.9178694,40.7603781],[-73.9181351,40.7600524],[-73.9188119,40.7592217],[-73.9189501,40.7590523],[-73.9190094,40.7589793]]}},{"type":"Feature","properties":{"id":"lens-traffic-road-nyc-way/420307439","layer":"traffic_road","category":"transport","year":1914,"visible_year":2026,"rank":2,"name":"Crescent Street","source_id":"way/420307439","source_url":"https://www.openstreetmap.org/way/420307439","license":"ODbL","transport_raw":0.159,"transport_count":1,"transport_activity":0.163,"representation":"major-road transport-event activity","timing_note":"Road color is a three-year transport-event activity surface on current OSM major road geometry, not measured traffic volume or congestion."},"geometry":{"type":"LineString","coordinates":[[-73.9250866,40.7686366],[-73.9251286,40.7685636],[-73.9253807,40.7680176],[-73.9254285,40.7679066],[-73.9254573,40.7678461],[-73.9255366,40.7676894],[-73.9257018,40.7673337],[-73.925826,40.7670685]]}},{"type":"Feature","properties":{"id":"lens-traffic-road-nyc-way/1290843586","layer":"traffic_road","category":"transport","year":1914,"visible_year":2026,"rank":4,"name":"21st Street","source_id":"way/1290843586","source_url":"https://www.openstreetmap.org/way/1290843586","license":"ODbL","transport_raw":0.131,"transport_count":1,"transport_activity":0.134,"representation":"major-road transport-event activity","timing_note":"Road color is a three-year transport-event activity surface on current OSM major road geometry, not measured traffic volume or congestion."},"geometry":{"type":"LineString","coordinates":[[-73.9249433,40.7734857],[-73.9249757,40.7734454],[-73.9251003,40.7732901]]}},{"type":"Feature","properties":{"id":"lens-traffic-road-nyc-way/910462618","layer":"traffic_road","category":"transport","year":1914,"visible_year":2026,"rank":4,"name":"21st Street","source_id":"way/910462618","source_url":"https://www.openstreetmap.org/way/910462618","license":"ODbL","transport_raw":0.131,"transport_count":1,"transport_activity":0.134,"representation":"major-road transport-event activity","timing_note":"Road color is a three-year transport-event activity surface on current OSM major road geometry, not measured traffic volume or congestion."},"geometry":{"type":"LineString","coordinates":[[-73.9245333,40.7739965],[-73.9249204,40.7735129],[-73.9249433,40.7734857]]}},{"type":"Feature","properties":{"id":"lens-traffic-road-nyc-way/1290843584","layer":"traffic_road","category":"transport","year":1914,"visible_year":2026,"rank":4,"name":"21st Street","source_id":"way/1290843584","source_url":"https://www.openstreetmap.org/way/1290843584","license":"ODbL","transport_raw":0.129,"transport_count":1,"transport_activity":0.132,"representation":"major-road transport-event activity","timing_note":"Road color is a three-year transport-event activity surface on current OSM major road geometry, not measured traffic volume or congestion."},"geometry":{"type":"LineString","coordinates":[[-73.9251003,40.7732901],[-73.9252821,40.7730636]]}},{"type":"Feature","properties":{"id":"lens-traffic-road-nyc-way/822073481","layer":"traffic_road","category":"transport","year":1914,"visible_year":2026,"rank":3,"name":"Astoria Boulevard North","source_id":"way/822073481","source_url":"https://www.openstreetmap.org/way/822073481","license":"ODbL","transport_raw":0.126,"transport_count":1,"transport_activity":0.129,"representation":"major-road transport-event activity","timing_note":"Road color is a three-year transport-event activity surface on current OSM major road geometry, not measured traffic volume or congestion."},"geometry":{"type":"LineString","coordinates":[[-73.9069064,40.7688848],[-73.9070279,40.7689049],[-73.9073059,40.7689481],[-73.9080078,40.7690571],[-73.909109,40.7692292],[-73.9096814,40.769322],[-73.9099392,40.7693634],[-73.9101337,40.7693936],[-73.9102637,40.7694141]]}},{"type":"Feature","properties":{"id":"lens-traffic-road-nyc-way/822074171","layer":"traffic_road","category":"transport","year":1914,"visible_year":2026,"rank":4,"name":"21st Street","source_id":"way/822074171","source_url":"https://www.openstreetmap.org/way/822074171","license":"ODbL","transport_raw":0.124,"transport_count":1,"transport_activity":0.127,"representation":"major-road transport-event activity","timing_note":"Road color is a three-year transport-event activity surface on current OSM major road geometry, not measured traffic volume or congestion."},"geometry":{"type":"LineString","coordinates":[[-73.9240805,40.7745522],[-73.9241791,40.7744313],[-73.924347,40.7742253],[-73.9244828,40.7740588],[-73.9245333,40.7739965]]}},{"type":"Feature","properties":{"id":"lens-traffic-road-nyc-way/1290843585","layer":"traffic_road","category":"transport","year":1914,"visible_year":2026,"rank":4,"name":"21st Street","source_id":"way/1290843585","source_url":"https://www.openstreetmap.org/way/1290843585","license":"ODbL","transport_raw":0.117,"transport_count":1,"transport_activity":0.12,"representation":"major-road transport-event activity","timing_note":"Road color is a three-year transport-event activity surface on current OSM major road geometry, not measured traffic volume or congestion."},"geometry":{"type":"LineString","coordinates":[[-73.9252821,40.7730636],[-73.9258279,40.7723835],[-73.9258641,40.7723384],[-73.9259342,40.7722511]]}},{"type":"Feature","properties":{"id":"lens-traffic-road-nyc-way/198595541","layer":"traffic_road","category":"transport","year":1914,"visible_year":2026,"rank":4,"name":"21st Street","source_id":"way/198595541","source_url":"https://www.openstreetmap.org/way/198595541","license":"ODbL","transport_raw":0.117,"transport_count":1,"transport_activity":0.12,"representation":"major-road transport-event activity","timing_note":"Road color is a three-year transport-event activity surface on current OSM major road geometry, not measured traffic volume or congestion."},"geometry":{"type":"LineString","coordinates":[[-73.9239852,40.7746243],[-73.9240805,40.7745522]]}},{"type":"Feature","properties":{"id":"lens-traffic-road-nyc-way/198595539","layer":"traffic_road","category":"transport","year":1914,"visible_year":2026,"rank":3,"name":"21st Street","source_id":"way/198595539","source_url":"https://www.openstreetmap.org/way/198595539","license":"ODbL","transport_raw":0.116,"transport_count":1,"transport_activity":0.119,"representation":"major-road transport-event activity","timing_note":"Road color is a three-year transport-event activity surface on current OSM major road geometry, not measured traffic volume or congestion."},"geometry":{"type":"LineString","coordinates":[[-73.9230165,40.7753908],[-73.9231189,40.7753129],[-73.9231384,40.7752981],[-73.9234489,40.7750621],[-73.9238669,40.7747164],[-73.9238887,40.7746967],[-73.9239852,40.7746243]]}},{"type":"Feature","properties":{"id":"lens-traffic-road-nyc-way/1321808302","layer":"traffic_road","category":"transport","year":1914,"visible_year":2026,"rank":4,"name":"21st Street","source_id":"way/1321808302","source_url":"https://www.openstreetmap.org/way/1321808302","license":"ODbL","transport_raw":0.105,"transport_count":1,"transport_activity":0.108,"representation":"major-road transport-event activity","timing_note":"Road color is a three-year transport-event activity surface on current OSM major road geometry, not measured traffic volume or congestion."},"geometry":{"type":"LineString","coordinates":[[-73.9259342,40.7722511],[-73.9260267,40.772132],[-73.9261563,40.7719652]]}},{"type":"Feature","properties":{"id":"lens-traffic-road-nyc-way/683931280","layer":"traffic_road","category":"transport","year":1914,"visible_year":2026,"rank":3,"name":"33rd Street","source_id":"way/683931280","source_url":"https://www.openstreetmap.org/way/683931280","license":"ODbL","transport_raw":0.104,"transport_count":1,"transport_activity":0.106,"representation":"major-road transport-event activity","timing_note":"Road color is a three-year transport-event activity surface on current OSM major road geometry, not measured traffic volume or congestion."},"geometry":{"type":"LineString","coordinates":[[-73.9237843,40.7612244],[-73.9237211,40.7612991],[-73.92193,40.7635091],[-73.9218781,40.7635731],[-73.9218189,40.7636461],[-73.920078,40.7657925],[-73.9198414,40.7660835],[-73.9197922,40.7661449]]}},{"type":"Feature","properties":{"id":"lens-traffic-road-nyc-way/497262895","layer":"traffic_road","category":"transport","year":1914,"visible_year":2026,"rank":4,"name":"21st Street","source_id":"way/497262895","source_url":"https://www.openstreetmap.org/way/497262895","license":"ODbL","transport_raw":0.095,"transport_count":1,"transport_activity":0.098,"representation":"major-road transport-event activity","timing_note":"Road color is a three-year transport-event activity surface on current OSM major road geometry, not measured traffic volume or congestion."},"geometry":{"type":"LineString","coordinates":[[-73.9261563,40.7719652],[-73.9261763,40.7719394],[-73.926409,40.7716398]]}},{"type":"Feature","properties":{"id":"lens-traffic-road-nyc-way/46140177","layer":"traffic_road","category":"transport","year":1914,"visible_year":2026,"rank":2,"name":"21st Street","source_id":"way/46140177","source_url":"https://www.openstreetmap.org/way/46140177","license":"ODbL","transport_raw":0.092,"transport_count":1,"transport_activity":0.094,"representation":"major-road transport-event activity","timing_note":"Road color is a three-year transport-event activity surface on current OSM major road geometry, not measured traffic volume or congestion."},"geometry":{"type":"LineString","coordinates":[[-73.9215156,40.7766191],[-73.921594,40.7765564],[-73.9218508,40.7763504],[-73.922182,40.7760862],[-73.9224663,40.7758493],[-73.9227807,40.7755873],[-73.9228086,40.775564],[-73.9228885,40.7754974],[-73.9229332,40.7754602],[-73.9230165,40.7753908]]}},{"type":"Feature","properties":{"id":"lens-traffic-road-nyc-way/5710549","layer":"traffic_road","category":"transport","year":1914,"visible_year":2026,"rank":3,"name":"Astoria Boulevard South","source_id":"way/5710549","source_url":"https://www.openstreetmap.org/way/5710549","license":"ODbL","transport_raw":0.091,"transport_count":1,"transport_activity":0.093,"representation":"major-road transport-event activity","timing_note":"Road color is a three-year transport-event activity surface on current OSM major road geometry, not measured traffic volume or congestion."},"geometry":{"type":"LineString","coordinates":[[-73.9090014,40.7685463],[-73.9080218,40.7683932]]}},{"type":"Feature","properties":{"id":"lens-traffic-road-nyc-way/420308723","layer":"traffic_road","category":"transport","year":1914,"visible_year":2026,"rank":3,"name":"Astoria Boulevard","source_id":"way/420308723","source_url":"https://www.openstreetmap.org/way/420308723","license":"ODbL","transport_raw":0.089,"transport_count":1,"transport_activity":0.091,"representation":"major-road transport-event activity","timing_note":"Road color is a three-year transport-event activity surface on current OSM major road geometry, not measured traffic volume or congestion."},"geometry":{"type":"LineString","coordinates":[[-73.9263614,40.7723022],[-73.9261951,40.7722823],[-73.9260858,40.7722692],[-73.9259342,40.7722511]]}},{"type":"Feature","properties":{"id":"lens-traffic-road-nyc-way/237846484","layer":"traffic_road","category":"transport","year":1914,"visible_year":2026,"rank":2,"name":"Astoria Park South","source_id":"way/237846484","source_url":"https://www.openstreetmap.org/way/237846484","license":"ODbL","transport_raw":0.088,"transport_count":1,"transport_activity":0.09,"representation":"major-road transport-event activity","timing_note":"Road color is a three-year transport-event activity surface on current OSM major road geometry, not measured traffic volume or congestion."},"geometry":{"type":"LineString","coordinates":[[-73.9239852,40.7746243],[-73.9240994,40.7746862],[-73.9241252,40.7746997],[-73.9247275,40.775027]]}},{"type":"Feature","properties":{"id":"lens-traffic-road-nyc-way/1425419467","layer":"traffic_road","category":"transport","year":1914,"visible_year":2026,"rank":3,"name":"Hoyt Avenue North","source_id":"way/1425419467","source_url":"https://www.openstreetmap.org/way/1425419467","license":"ODbL","transport_raw":0.082,"transport_count":1,"transport_activity":0.084,"representation":"major-road transport-event activity","timing_note":"Road color is a three-year transport-event activity surface on current OSM major road geometry, not measured traffic volume or congestion."},"geometry":{"type":"LineString","coordinates":[[-73.9233157,40.7758963],[-73.9230716,40.7754943],[-73.9230165,40.7753908]]}},{"type":"Feature","properties":{"id":"lens-traffic-road-nyc-way/822073659","layer":"traffic_road","category":"transport","year":1914,"visible_year":2026,"rank":4,"name":"21st Street","source_id":"way/822073659","source_url":"https://www.openstreetmap.org/way/822073659","license":"ODbL","transport_raw":0.075,"transport_count":1,"transport_activity":0.076,"representation":"major-road transport-event activity","timing_note":"Road color is a three-year transport-event activity surface on current OSM major road geometry, not measured traffic volume or congestion."},"geometry":{"type":"LineString","coordinates":[[-73.926409,40.7716398],[-73.926532,40.7714862],[-73.9266419,40.771349],[-73.9268125,40.771136]]}},{"type":"Feature","properties":{"id":"lens-traffic-road-nyc-way/420307437","layer":"traffic_road","category":"transport","year":1914,"visible_year":2026,"rank":2,"name":"Crescent Street","source_id":"way/420307437","source_url":"https://www.openstreetmap.org/way/420307437","license":"ODbL","transport_raw":0.065,"transport_count":1,"transport_activity":0.067,"representation":"major-road transport-event activity","timing_note":"Road color is a three-year transport-event activity surface on current OSM major road geometry, not measured traffic volume or congestion."},"geometry":{"type":"LineString","coordinates":[[-73.925826,40.7670685],[-73.9259473,40.7668106],[-73.9259732,40.7667528]]}},{"type":"Feature","properties":{"id":"lens-traffic-road-nyc-way/573218875","layer":"traffic_road","category":"transport","year":1914,"visible_year":2026,"rank":4,"name":"21st Street","source_id":"way/573218875","source_url":"https://www.openstreetmap.org/way/573218875","license":"ODbL","transport_raw":0.039,"transport_count":1,"transport_activity":0.04,"representation":"major-road transport-event activity","timing_note":"Road color is a three-year transport-event activity surface on current OSM major road geometry, not measured traffic volume or congestion."},"geometry":{"type":"LineString","coordinates":[[-73.9268125,40.771136],[-73.9269718,40.7709387],[-73.9270623,40.7708266],[-73.9272611,40.7705801],[-73.927307,40.7705233]]}},{"type":"Feature","properties":{"id":"lens-traffic-road-nyc-way/497262890","layer":"traffic_road","category":"transport","year":1914,"visible_year":2022,"rank":2,"name":"30th Avenue","source_id":"way/497262890","source_url":"https://www.openstreetmap.org/way/497262890","license":"ODbL","transport_raw":0.031,"transport_count":1,"transport_activity":0.032,"representation":"major-road transport-event activity","timing_note":"Road color is a three-year transport-event activity surface on current OSM major road geometry, not measured traffic volume or congestion."},"geometry":{"type":"LineString","coordinates":[[-73.927807,40.769889],[-73.9276962,40.7698385],[-73.9274536,40.769728],[-73.926559,40.7693199],[-73.9264763,40.7692825]]}},{"type":"Feature","properties":{"id":"lens-traffic-road-nyc-way/808614670","layer":"traffic_road","category":"transport","year":1914,"visible_year":2026,"rank":5,"name":"Robert F. Kennedy Bridge","source_id":"way/808614670","source_url":"https://www.openstreetmap.org/way/808614670","license":"ODbL","transport_raw":0.02,"transport_count":1,"transport_activity":0.02,"representation":"major-road transport-event activity","timing_note":"Road color is a three-year transport-event activity surface on current OSM major road geometry, not measured traffic volume or congestion."},"geometry":{"type":"LineString","coordinates":[[-73.9239923,40.7759963],[-73.9238471,40.7757919],[-73.9236687,40.7755364]]}},{"type":"Feature","properties":{"id":"lens-traffic-road-nyc-way/226829106","layer":"traffic_road","category":"transport","year":1914,"visible_year":2026,"rank":2,"name":"27th Avenue","source_id":"way/226829106","source_url":"https://www.openstreetmap.org/way/226829106","license":"ODbL","transport_raw":0.016,"transport_count":1,"transport_activity":0.016,"representation":"major-road transport-event activity","timing_note":"Road color is a three-year transport-event activity surface on current OSM major road geometry, not measured traffic volume or congestion."},"geometry":{"type":"LineString","coordinates":[[-73.9259342,40.7722511],[-73.9260335,40.7723383],[-73.9271196,40.7727287],[-73.9273672,40.7728178],[-73.927443,40.772845]]}},{"type":"Feature","properties":{"id":"lens-traffic-road-nyc-way/108305984","layer":"traffic_road","category":"transport","year":1914,"visible_year":2026,"rank":2,"name":"Crescent Street","source_id":"way/108305984","source_url":"https://www.openstreetmap.org/way/108305984","license":"ODbL","transport_raw":0.002,"transport_count":1,"transport_activity":0.002,"representation":"major-road transport-event activity","timing_note":"Road color is a three-year transport-event activity surface on current OSM major road geometry, not measured traffic volume or congestion."},"geometry":{"type":"LineString","coordinates":[[-73.9259732,40.7667528],[-73.9259996,40.7666976],[-73.9264116,40.7658301],[-73.9264504,40.7657446]]}},{"type":"Feature","properties":{"id":"lens-traffic-road-nyc-way/1479963584","layer":"traffic_road","category":"transport","year":1914,"visible_year":2026,"rank":5,"name":"Grand Central Parkway","source_id":"way/1479963584","source_url":"https://www.openstreetmap.org/way/1479963584","license":"ODbL","transport_raw":0,"transport_count":1,"transport_activity":0,"representation":"major-road transport-event activity","timing_note":"Road color is a three-year transport-event activity surface on current OSM major road geometry, not measured traffic volume or congestion."},"geometry":{"type":"LineString","coordinates":[[-73.9078784,40.7687185],[-73.9077978,40.7687101],[-73.9076773,40.7686942],[-73.9075807,40.7686805],[-73.9074884,40.7686651],[-73.9072853,40.7686275],[-73.9069623,40.7685629]]}}]}
