{"type":"FeatureCollection","name":"nyc_transport_roads_1970","metadata":{"schema_version":"1.0.0","city_id":"nyc","year":1970,"road_source":"data/raw/overpass/nyc_major_roads_osm_2026.geojson","method":"Road features are colored from nearby source-backed transport records in a rolling three-year window.","caveat":"Transport road colors are activity hotspots, not measured traffic counts or live congestion."},"features":[{"type":"Feature","properties":{"id":"lens-traffic-road-nyc-way/738285355","layer":"traffic_road","category":"transport","year":1970,"visible_year":2024,"rank":4,"name":"Atlantic Avenue","source_id":"way/738285355","source_url":"https://www.openstreetmap.org/way/738285355","license":"ODbL","transport_raw":3.915,"transport_count":6,"transport_activity":1,"representation":"major-road transport-event activity","timing_note":"Road color is a three-year transport-event activity surface on current OSM major road geometry, not measured traffic volume or congestion."},"geometry":{"type":"LineString","coordinates":[[-73.927046,40.6771462],[-73.925364,40.6770558]]}},{"type":"Feature","properties":{"id":"lens-traffic-road-nyc-way/420304897","layer":"traffic_road","category":"transport","year":1970,"visible_year":2023,"rank":4,"name":"Atlantic Avenue","source_id":"way/420304897","source_url":"https://www.openstreetmap.org/way/420304897","license":"ODbL","transport_raw":3.871,"transport_count":6,"transport_activity":0.989,"representation":"major-road transport-event activity","timing_note":"Road color is a three-year transport-event activity surface on current OSM major road geometry, not measured traffic volume or congestion."},"geometry":{"type":"LineString","coordinates":[[-73.925364,40.6770558],[-73.9248839,40.6770291],[-73.9247768,40.6770227]]}},{"type":"Feature","properties":{"id":"lens-traffic-road-nyc-way/1375886102","layer":"traffic_road","category":"transport","year":1970,"visible_year":2025,"rank":4,"name":"Atlantic Avenue","source_id":"way/1375886102","source_url":"https://www.openstreetmap.org/way/1375886102","license":"ODbL","transport_raw":3.735,"transport_count":6,"transport_activity":0.954,"representation":"major-road transport-event activity","timing_note":"Road color is a three-year transport-event activity surface on current OSM major road geometry, not measured traffic volume or congestion."},"geometry":{"type":"LineString","coordinates":[[-73.9250719,40.6772144],[-73.9265929,40.6772946],[-73.9274384,40.6773374],[-73.9275398,40.6773431]]}},{"type":"Feature","properties":{"id":"lens-traffic-road-nyc-way/420304912","layer":"traffic_road","category":"transport","year":1970,"visible_year":2024,"rank":4,"name":"Atlantic Avenue","source_id":"way/420304912","source_url":"https://www.openstreetmap.org/way/420304912","license":"ODbL","transport_raw":3.735,"transport_count":6,"transport_activity":0.954,"representation":"major-road transport-event activity","timing_note":"Road color is a three-year transport-event activity surface on current OSM major road geometry, not measured traffic volume or congestion."},"geometry":{"type":"LineString","coordinates":[[-73.9275573,40.6771732],[-73.9274538,40.6771682],[-73.927046,40.6771462]]}},{"type":"Feature","properties":{"id":"lens-traffic-road-nyc-way/46774534","layer":"traffic_road","category":"transport","year":1970,"visible_year":2025,"rank":4,"name":"Atlantic Avenue","source_id":"way/46774534","source_url":"https://www.openstreetmap.org/way/46774534","license":"ODbL","transport_raw":3.726,"transport_count":6,"transport_activity":0.952,"representation":"major-road transport-event activity","timing_note":"Road color is a three-year transport-event activity surface on current OSM major road geometry, not measured traffic volume or congestion."},"geometry":{"type":"LineString","coordinates":[[-73.9247628,40.6771967],[-73.9248673,40.6772017],[-73.9250719,40.6772144]]}},{"type":"Feature","properties":{"id":"lens-traffic-road-nyc-way/497259889","layer":"traffic_road","category":"transport","year":1970,"visible_year":2023,"rank":4,"name":"Atlantic Avenue","source_id":"way/497259889","source_url":"https://www.openstreetmap.org/way/497259889","license":"ODbL","transport_raw":3.698,"transport_count":6,"transport_activity":0.945,"representation":"major-road transport-event activity","timing_note":"Road color is a three-year transport-event activity surface on current OSM major road geometry, not measured traffic volume or congestion."},"geometry":{"type":"LineString","coordinates":[[-73.924673,40.6771912],[-73.9247628,40.6771967]]}},{"type":"Feature","properties":{"id":"lens-traffic-road-nyc-way/420304904","layer":"traffic_road","category":"transport","year":1970,"visible_year":2025,"rank":4,"name":"Atlantic Avenue","source_id":"way/420304904","source_url":"https://www.openstreetmap.org/way/420304904","license":"ODbL","transport_raw":3.605,"transport_count":6,"transport_activity":0.921,"representation":"major-road transport-event activity","timing_note":"Road color is a three-year transport-event activity surface on current OSM major road geometry, not measured traffic volume or congestion."},"geometry":{"type":"LineString","coordinates":[[-73.9282888,40.6772132],[-73.9276549,40.6771783],[-73.9275573,40.6771732]]}},{"type":"Feature","properties":{"id":"lens-traffic-road-nyc-way/1271955190","layer":"traffic_road","category":"transport","year":1970,"visible_year":2024,"rank":4,"name":"Atlantic Avenue","source_id":"way/1271955190","source_url":"https://www.openstreetmap.org/way/1271955190","license":"ODbL","transport_raw":3.531,"transport_count":6,"transport_activity":0.902,"representation":"major-road transport-event activity","timing_note":"Road color is a three-year transport-event activity surface on current OSM major road geometry, not measured traffic volume or congestion."},"geometry":{"type":"LineString","coordinates":[[-73.9275398,40.6773431],[-73.9276399,40.6773494],[-73.9278123,40.6773617]]}},{"type":"Feature","properties":{"id":"lens-traffic-road-nyc-way/497400544","layer":"traffic_road","category":"transport","year":1970,"visible_year":2024,"rank":4,"name":"Atlantic Avenue","source_id":"way/497400544","source_url":"https://www.openstreetmap.org/way/497400544","license":"ODbL","transport_raw":3.363,"transport_count":6,"transport_activity":0.859,"representation":"major-road transport-event activity","timing_note":"Road color is a three-year transport-event activity surface on current OSM major road geometry, not measured traffic volume or congestion."},"geometry":{"type":"LineString","coordinates":[[-73.9247768,40.6770227],[-73.9246908,40.6770185],[-73.9222341,40.6768819],[-73.9219341,40.6768669],[-73.9218311,40.6768598]]}},{"type":"Feature","properties":{"id":"lens-traffic-road-nyc-way/46865764","layer":"traffic_road","category":"transport","year":1970,"visible_year":2026,"rank":3,"name":"Utica Avenue","source_id":"way/46865764","source_url":"https://www.openstreetmap.org/way/46865764","license":"ODbL","transport_raw":3.257,"transport_count":6,"transport_activity":0.832,"representation":"major-road transport-event activity","timing_note":"Road color is a three-year transport-event activity surface on current OSM major road geometry, not measured traffic volume or congestion."},"geometry":{"type":"LineString","coordinates":[[-73.9303106,40.6773237],[-73.9303156,40.6772529],[-73.9303309,40.6771119],[-73.9303384,40.677037],[-73.9303735,40.6766777],[-73.930383,40.676597],[-73.9303894,40.6765292],[-73.9304453,40.6759412],[-73.9304494,40.6758979],[-73.9304541,40.6758484],[-73.930457,40.675818],[-73.9304643,40.6757529],[-73.9305047,40.6753947],[-73.9305356,40.67512],[-73.9305447,40.675039],[-73.9305498,40.6749741],[-73.9305898,40.6744672],[-73.9306089,40.674225],[-73.930615,40.674147],[-73.9306213,40.6740789],[-73.9306576,40.6736854],[-73.9306679,40.6735735],[-73.9306901,40.6733322],[-73.930697,40.673257]]}},{"type":"Feature","properties":{"id":"lens-traffic-road-nyc-way/420304892","layer":"traffic_road","category":"transport","year":1970,"visible_year":2025,"rank":4,"name":"Atlantic Avenue","source_id":"way/420304892","source_url":"https://www.openstreetmap.org/way/420304892","license":"ODbL","transport_raw":3.139,"transport_count":6,"transport_activity":0.802,"representation":"major-road transport-event activity","timing_note":"Road color is a three-year transport-event activity surface on current OSM major road geometry, not measured traffic volume or congestion."},"geometry":{"type":"LineString","coordinates":[[-73.9299568,40.6773043],[-73.9282888,40.6772132]]}},{"type":"Feature","properties":{"id":"lens-traffic-road-nyc-way/497259892","layer":"traffic_road","category":"transport","year":1970,"visible_year":2024,"rank":4,"name":"Atlantic Avenue","source_id":"way/497259892","source_url":"https://www.openstreetmap.org/way/497259892","license":"ODbL","transport_raw":3.134,"transport_count":6,"transport_activity":0.801,"representation":"major-road transport-event activity","timing_note":"Road color is a three-year transport-event activity surface on current OSM major road geometry, not measured traffic volume or congestion."},"geometry":{"type":"LineString","coordinates":[[-73.9218144,40.6770346],[-73.9219175,40.6770409],[-73.9219837,40.6770446],[-73.9224121,40.6770688],[-73.9226173,40.6770796],[-73.9228045,40.6770885],[-73.9237788,40.6771405],[-73.924673,40.6771912]]}},{"type":"Feature","properties":{"id":"lens-traffic-road-nyc-way/1271955194","layer":"traffic_road","category":"transport","year":1970,"visible_year":2024,"rank":4,"name":"Atlantic Avenue","source_id":"way/1271955194","source_url":"https://www.openstreetmap.org/way/1271955194","license":"ODbL","transport_raw":3.029,"transport_count":6,"transport_activity":0.774,"representation":"major-road transport-event activity","timing_note":"Road color is a three-year transport-event activity surface on current OSM major road geometry, not measured traffic volume or congestion."},"geometry":{"type":"LineString","coordinates":[[-73.9278123,40.6773617],[-73.9282233,40.6773852],[-73.9302016,40.677492],[-73.9302963,40.6774961]]}},{"type":"Feature","properties":{"id":"lens-traffic-road-nyc-way/738287067","layer":"traffic_road","category":"transport","year":1970,"visible_year":2025,"rank":4,"name":"Atlantic Avenue","source_id":"way/738287067","source_url":"https://www.openstreetmap.org/way/738287067","license":"ODbL","transport_raw":2.752,"transport_count":6,"transport_activity":0.703,"representation":"major-road transport-event activity","timing_note":"Road color is a three-year transport-event activity surface on current OSM major road geometry, not measured traffic volume or congestion."},"geometry":{"type":"LineString","coordinates":[[-73.9300605,40.6773096],[-73.9299568,40.6773043]]}},{"type":"Feature","properties":{"id":"lens-traffic-road-nyc-way/420304902","layer":"traffic_road","category":"transport","year":1970,"visible_year":2025,"rank":4,"name":"Atlantic Avenue","source_id":"way/420304902","source_url":"https://www.openstreetmap.org/way/420304902","license":"ODbL","transport_raw":2.665,"transport_count":6,"transport_activity":0.681,"representation":"major-road transport-event activity","timing_note":"Road color is a three-year transport-event activity surface on current OSM major road geometry, not measured traffic volume or congestion."},"geometry":{"type":"LineString","coordinates":[[-73.9303106,40.6773237],[-73.930215,40.6773176],[-73.9300605,40.6773096]]}},{"type":"Feature","properties":{"id":"lens-traffic-road-nyc-way/497256596","layer":"traffic_road","category":"transport","year":1970,"visible_year":2025,"rank":3,"name":"Utica Avenue","source_id":"way/497256596","source_url":"https://www.openstreetmap.org/way/497256596","license":"ODbL","transport_raw":2.59,"transport_count":6,"transport_activity":0.662,"representation":"major-road transport-event activity","timing_note":"Road color is a three-year transport-event activity surface on current OSM major road geometry, not measured traffic volume or congestion."},"geometry":{"type":"LineString","coordinates":[[-73.9303031,40.6774102],[-73.9303106,40.6773237]]}},{"type":"Feature","properties":{"id":"lens-traffic-road-nyc-way/497256597","layer":"traffic_road","category":"transport","year":1970,"visible_year":2025,"rank":3,"name":"Utica Avenue","source_id":"way/497256597","source_url":"https://www.openstreetmap.org/way/497256597","license":"ODbL","transport_raw":2.547,"transport_count":6,"transport_activity":0.651,"representation":"major-road transport-event activity","timing_note":"Road color is a three-year transport-event activity surface on current OSM major road geometry, not measured traffic volume or congestion."},"geometry":{"type":"LineString","coordinates":[[-73.9302963,40.6774961],[-73.9303031,40.6774102]]}},{"type":"Feature","properties":{"id":"lens-traffic-road-nyc-way/1320341279","layer":"traffic_road","category":"transport","year":1970,"visible_year":2024,"rank":4,"name":"Atlantic Avenue","source_id":"way/1320341279","source_url":"https://www.openstreetmap.org/way/1320341279","license":"ODbL","transport_raw":2.47,"transport_count":6,"transport_activity":0.631,"representation":"major-road transport-event activity","timing_note":"Road color is a three-year transport-event activity surface on current OSM major road geometry, not measured traffic volume or congestion."},"geometry":{"type":"LineString","coordinates":[[-73.9302963,40.6774961],[-73.930415,40.6775042],[-73.9305366,40.6775108]]}},{"type":"Feature","properties":{"id":"lens-traffic-road-nyc-way/734595584","layer":"traffic_road","category":"transport","year":1970,"visible_year":2025,"rank":3,"name":"Fulton Street","source_id":"way/734595584","source_url":"https://www.openstreetmap.org/way/734595584","license":"ODbL","transport_raw":2.355,"transport_count":6,"transport_activity":0.602,"representation":"major-road transport-event activity","timing_note":"Road color is a three-year transport-event activity surface on current OSM major road geometry, not measured traffic volume or congestion."},"geometry":{"type":"LineString","coordinates":[[-73.9287238,40.6792585],[-73.9286924,40.6792568],[-73.9283363,40.6792371],[-73.9274463,40.6791872],[-73.927356,40.679183],[-73.9272768,40.6791787],[-73.9265658,40.6791397],[-73.9254432,40.6790781],[-73.9252785,40.6790691],[-73.9251731,40.6790633],[-73.9246805,40.6790363],[-73.924593,40.6790315],[-73.9245001,40.6790264],[-73.9244017,40.6790214],[-73.9241202,40.6790059],[-73.9240158,40.6790002],[-73.9231698,40.6789536],[-73.9228474,40.6789359],[-73.922505,40.678917]]}},{"type":"Feature","properties":{"id":"lens-traffic-road-nyc-way/780456680","layer":"traffic_road","category":"transport","year":1970,"visible_year":2026,"rank":3,"name":"Utica Avenue","source_id":"way/780456680","source_url":"https://www.openstreetmap.org/way/780456680","license":"ODbL","transport_raw":2.319,"transport_count":6,"transport_activity":0.592,"representation":"major-road transport-event activity","timing_note":"Road color is a three-year transport-event activity surface on current OSM major road geometry, not measured traffic volume or congestion."},"geometry":{"type":"LineString","coordinates":[[-73.930697,40.673257],[-73.9307037,40.6731893],[-73.9307252,40.6729708],[-73.930777,40.6724446],[-73.930785,40.672363],[-73.930791,40.6722984],[-73.9308604,40.6715551],[-73.930868,40.671474],[-73.9308738,40.6714124],[-73.9309165,40.6709591],[-73.9309423,40.6706857],[-73.930952,40.670583],[-73.9309606,40.6704935],[-73.9309901,40.6701851],[-73.9310275,40.6697951],[-73.931033,40.669738]]}},{"type":"Feature","properties":{"id":"lens-traffic-road-nyc-way/1320341278","layer":"traffic_road","category":"transport","year":1970,"visible_year":2024,"rank":4,"name":"Atlantic Avenue","source_id":"way/1320341278","source_url":"https://www.openstreetmap.org/way/1320341278","license":"ODbL","transport_raw":2.298,"transport_count":6,"transport_activity":0.587,"representation":"major-road transport-event activity","timing_note":"Road color is a three-year transport-event activity surface on current OSM major road geometry, not measured traffic volume or congestion."},"geometry":{"type":"LineString","coordinates":[[-73.9305366,40.6775108],[-73.9310224,40.6775373]]}},{"type":"Feature","properties":{"id":"lens-traffic-road-nyc-way/420304890","layer":"traffic_road","category":"transport","year":1970,"visible_year":2026,"rank":4,"name":"Atlantic Avenue","source_id":"way/420304890","source_url":"https://www.openstreetmap.org/way/420304890","license":"ODbL","transport_raw":2.069,"transport_count":6,"transport_activity":0.529,"representation":"major-road transport-event activity","timing_note":"Road color is a three-year transport-event activity surface on current OSM major road geometry, not measured traffic volume or congestion."},"geometry":{"type":"LineString","coordinates":[[-73.9326558,40.6774526],[-73.9325532,40.677447],[-73.9317709,40.6774041],[-73.9307473,40.6773479],[-73.9304312,40.6773312],[-73.9303106,40.6773237]]}},{"type":"Feature","properties":{"id":"lens-traffic-road-nyc-way/460795909","layer":"traffic_road","category":"transport","year":1970,"visible_year":2022,"rank":2,"name":"Howard Avenue","source_id":"way/460795909","source_url":"https://www.openstreetmap.org/way/460795909","license":"ODbL","transport_raw":1.968,"transport_count":6,"transport_activity":0.503,"representation":"major-road transport-event activity","timing_note":"Road color is a three-year transport-event activity surface on current OSM major road geometry, not measured traffic volume or congestion."},"geometry":{"type":"LineString","coordinates":[[-73.919455,40.674438],[-73.9194485,40.6745102],[-73.9193922,40.6751401],[-73.919385,40.675213],[-73.9193782,40.6752871],[-73.9193184,40.6759215],[-73.919312,40.675989]]}},{"type":"Feature","properties":{"id":"lens-traffic-road-nyc-way/183794559","layer":"traffic_road","category":"transport","year":1970,"visible_year":2024,"rank":2,"name":"Howard Avenue","source_id":"way/183794559","source_url":"https://www.openstreetmap.org/way/183794559","license":"ODbL","transport_raw":1.834,"transport_count":6,"transport_activity":0.469,"representation":"major-road transport-event activity","timing_note":"Road color is a three-year transport-event activity surface on current OSM major road geometry, not measured traffic volume or congestion."},"geometry":{"type":"LineString","coordinates":[[-73.919878,40.669978],[-73.9198681,40.6700744],[-73.9198001,40.6708031],[-73.919794,40.670868],[-73.9197864,40.6709484],[-73.9197165,40.6716916],[-73.91971,40.671758],[-73.9197034,40.6718293],[-73.9196309,40.6725853],[-73.919625,40.67265],[-73.9196181,40.6727231],[-73.9195901,40.673021],[-73.9195715,40.6732158],[-73.919547,40.6734724],[-73.919541,40.673542],[-73.9195331,40.6736239],[-73.9194615,40.6743699],[-73.919455,40.674438]]}},{"type":"Feature","properties":{"id":"lens-traffic-road-nyc-way/420304913","layer":"traffic_road","category":"transport","year":1970,"visible_year":2024,"rank":4,"name":"Atlantic Avenue","source_id":"way/420304913","source_url":"https://www.openstreetmap.org/way/420304913","license":"ODbL","transport_raw":1.77,"transport_count":6,"transport_activity":0.452,"representation":"major-road transport-event activity","timing_note":"Road color is a three-year transport-event activity surface on current OSM major road geometry, not measured traffic volume or congestion."},"geometry":{"type":"LineString","coordinates":[[-73.9218311,40.6768598],[-73.9217414,40.6768547],[-73.9207539,40.6768014],[-73.9205209,40.6767882],[-73.9192506,40.6767176],[-73.9183758,40.6766681],[-73.9182889,40.6766748],[-73.9181956,40.6766812],[-73.9179168,40.6766642]]}},{"type":"Feature","properties":{"id":"lens-traffic-road-nyc-way/472684142","layer":"traffic_road","category":"transport","year":1970,"visible_year":2024,"rank":2,"name":"Howard Avenue","source_id":"way/472684142","source_url":"https://www.openstreetmap.org/way/472684142","license":"ODbL","transport_raw":1.668,"transport_count":6,"transport_activity":0.426,"representation":"major-road transport-event activity","timing_note":"Road color is a three-year transport-event activity surface on current OSM major road geometry, not measured traffic volume or congestion."},"geometry":{"type":"LineString","coordinates":[[-73.919312,40.675989],[-73.9193043,40.6760655],[-73.9192621,40.676604],[-73.9192581,40.6766488],[-73.9192506,40.6767176]]}},{"type":"Feature","properties":{"id":"lens-traffic-road-nyc-way/765132700","layer":"traffic_road","category":"transport","year":1970,"visible_year":2024,"rank":4,"name":"Atlantic Avenue","source_id":"way/765132700","source_url":"https://www.openstreetmap.org/way/765132700","license":"ODbL","transport_raw":1.506,"transport_count":6,"transport_activity":0.385,"representation":"major-road transport-event activity","timing_note":"Road color is a three-year transport-event activity surface on current OSM major road geometry, not measured traffic volume or congestion."},"geometry":{"type":"LineString","coordinates":[[-73.9310224,40.6775373],[-73.9329809,40.677644],[-73.9330673,40.6776487]]}},{"type":"Feature","properties":{"id":"lens-traffic-road-nyc-way/420304919","layer":"traffic_road","category":"transport","year":1970,"visible_year":2025,"rank":4,"name":"Eastern Parkway","source_id":"way/420304919","source_url":"https://www.openstreetmap.org/way/420304919","license":"ODbL","transport_raw":1.41,"transport_count":6,"transport_activity":0.36,"representation":"major-road transport-event activity","timing_note":"Road color is a three-year transport-event activity surface on current OSM major road geometry, not measured traffic volume or congestion."},"geometry":{"type":"LineString","coordinates":[[-73.9273305,40.6686055],[-73.9263446,40.6685532]]}},{"type":"Feature","properties":{"id":"lens-traffic-road-nyc-way/420304921","layer":"traffic_road","category":"transport","year":1970,"visible_year":2025,"rank":4,"name":"Eastern Parkway","source_id":"way/420304921","source_url":"https://www.openstreetmap.org/way/420304921","license":"ODbL","transport_raw":1.381,"transport_count":6,"transport_activity":0.353,"representation":"major-road transport-event activity","timing_note":"Road color is a three-year transport-event activity surface on current OSM major road geometry, not measured traffic volume or congestion."},"geometry":{"type":"LineString","coordinates":[[-73.9276812,40.6686256],[-73.9273305,40.6686055]]}},{"type":"Feature","properties":{"id":"lens-traffic-road-nyc-way/420304943","layer":"traffic_road","category":"transport","year":1970,"visible_year":2025,"rank":4,"name":"Eastern Parkway","source_id":"way/420304943","source_url":"https://www.openstreetmap.org/way/420304943","license":"ODbL","transport_raw":1.384,"transport_count":6,"transport_activity":0.353,"representation":"major-road transport-event activity","timing_note":"Road color is a three-year transport-event activity surface on current OSM major road geometry, not measured traffic volume or congestion."},"geometry":{"type":"LineString","coordinates":[[-73.9263446,40.6685532],[-73.9257245,40.6685057],[-73.9255983,40.668496]]}},{"type":"Feature","properties":{"id":"lens-traffic-road-nyc-way/420304953","layer":"traffic_road","category":"transport","year":1970,"visible_year":2025,"rank":4,"name":"Eastern Parkway","source_id":"way/420304953","source_url":"https://www.openstreetmap.org/way/420304953","license":"ODbL","transport_raw":1.338,"transport_count":6,"transport_activity":0.342,"representation":"major-road transport-event activity","timing_note":"Road color is a three-year transport-event activity surface on current OSM major road geometry, not measured traffic volume or congestion."},"geometry":{"type":"LineString","coordinates":[[-73.9255983,40.668496],[-73.9254921,40.6684911],[-73.9249455,40.668466]]}},{"type":"Feature","properties":{"id":"lens-traffic-road-nyc-way/420304906","layer":"traffic_road","category":"transport","year":1970,"visible_year":2025,"rank":4,"name":"Atlantic Avenue","source_id":"way/420304906","source_url":"https://www.openstreetmap.org/way/420304906","license":"ODbL","transport_raw":1.329,"transport_count":6,"transport_activity":0.34,"representation":"major-road transport-event activity","timing_note":"Road color is a three-year transport-event activity surface on current OSM major road geometry, not measured traffic volume or congestion."},"geometry":{"type":"LineString","coordinates":[[-73.9329969,40.6774715],[-73.9328293,40.6774622],[-73.9326558,40.6774526]]}},{"type":"Feature","properties":{"id":"lens-traffic-road-nyc-way/420304929","layer":"traffic_road","category":"transport","year":1970,"visible_year":2025,"rank":4,"name":"Eastern Parkway","source_id":"way/420304929","source_url":"https://www.openstreetmap.org/way/420304929","license":"ODbL","transport_raw":1.329,"transport_count":6,"transport_activity":0.339,"representation":"major-road transport-event activity","timing_note":"Road color is a three-year transport-event activity surface on current OSM major road geometry, not measured traffic volume or congestion."},"geometry":{"type":"LineString","coordinates":[[-73.9283482,40.668664],[-73.9282577,40.6686588],[-73.9276812,40.6686256]]}},{"type":"Feature","properties":{"id":"lens-traffic-road-nyc-way/183794506","layer":"traffic_road","category":"transport","year":1970,"visible_year":2025,"rank":2,"name":"Buffalo Avenue","source_id":"way/183794506","source_url":"https://www.openstreetmap.org/way/183794506","license":"ODbL","transport_raw":1.311,"transport_count":6,"transport_activity":0.335,"representation":"major-road transport-event activity","timing_note":"Road color is a three-year transport-event activity surface on current OSM major road geometry, not measured traffic volume or congestion."},"geometry":{"type":"LineString","coordinates":[[-73.9255983,40.668496],[-73.925614,40.6683712]]}},{"type":"Feature","properties":{"id":"lens-traffic-road-nyc-way/497258460","layer":"traffic_road","category":"transport","year":1970,"visible_year":2022,"rank":4,"name":"Atlantic Avenue","source_id":"way/497258460","source_url":"https://www.openstreetmap.org/way/497258460","license":"ODbL","transport_raw":1.268,"transport_count":6,"transport_activity":0.324,"representation":"major-road transport-event activity","timing_note":"Road color is a three-year transport-event activity surface on current OSM major road geometry, not measured traffic volume or congestion."},"geometry":{"type":"LineString","coordinates":[[-73.9164629,40.6767149],[-73.9165648,40.6767194],[-73.916572,40.6767198],[-73.9172447,40.6767578],[-73.9173172,40.6767623],[-73.9173863,40.6767661],[-73.91821,40.6768229],[-73.9182973,40.6768307],[-73.918376,40.6768367],[-73.919219,40.676886],[-73.920106,40.676934],[-73.920946,40.67698],[-73.9216598,40.6770273],[-73.9217256,40.6770309],[-73.9218144,40.6770346]]}},{"type":"Feature","properties":{"id":"lens-traffic-road-nyc-way/420304947","layer":"traffic_road","category":"transport","year":1970,"visible_year":2025,"rank":4,"name":"Eastern Parkway","source_id":"way/420304947","source_url":"https://www.openstreetmap.org/way/420304947","license":"ODbL","transport_raw":1.26,"transport_count":6,"transport_activity":0.322,"representation":"major-road transport-event activity","timing_note":"Road color is a three-year transport-event activity surface on current OSM major road geometry, not measured traffic volume or congestion."},"geometry":{"type":"LineString","coordinates":[[-73.9290797,40.6687069],[-73.9284534,40.6686702],[-73.9283482,40.668664]]}},{"type":"Feature","properties":{"id":"lens-traffic-road-nyc-way/482109801","layer":"traffic_road","category":"transport","year":1970,"visible_year":2025,"rank":2,"name":"Buffalo Avenue","source_id":"way/482109801","source_url":"https://www.openstreetmap.org/way/482109801","license":"ODbL","transport_raw":1.231,"transport_count":6,"transport_activity":0.314,"representation":"major-road transport-event activity","timing_note":"Road color is a three-year transport-event activity surface on current OSM major road geometry, not measured traffic volume or congestion."},"geometry":{"type":"LineString","coordinates":[[-73.925614,40.6683712],[-73.9256242,40.6682906]]}},{"type":"Feature","properties":{"id":"lens-traffic-road-nyc-way/1265073059","layer":"traffic_road","category":"transport","year":1970,"visible_year":2025,"rank":4,"name":"Atlantic Avenue","source_id":"way/1265073059","source_url":"https://www.openstreetmap.org/way/1265073059","license":"ODbL","transport_raw":1.215,"transport_count":6,"transport_activity":0.31,"representation":"major-road transport-event activity","timing_note":"Road color is a three-year transport-event activity surface on current OSM major road geometry, not measured traffic volume or congestion."},"geometry":{"type":"LineString","coordinates":[[-73.9330836,40.6774763],[-73.9329969,40.6774715]]}},{"type":"Feature","properties":{"id":"lens-traffic-road-nyc-way/420304934","layer":"traffic_road","category":"transport","year":1970,"visible_year":2025,"rank":4,"name":"Eastern Parkway","source_id":"way/420304934","source_url":"https://www.openstreetmap.org/way/420304934","license":"ODbL","transport_raw":1.174,"transport_count":6,"transport_activity":0.3,"representation":"major-road transport-event activity","timing_note":"Road color is a three-year transport-event activity surface on current OSM major road geometry, not measured traffic volume or congestion."},"geometry":{"type":"LineString","coordinates":[[-73.9249455,40.668466],[-73.9233115,40.6683915]]}},{"type":"Feature","properties":{"id":"lens-traffic-road-nyc-way/420304951","layer":"traffic_road","category":"transport","year":1970,"visible_year":2025,"rank":4,"name":"Eastern Parkway","source_id":"way/420304951","source_url":"https://www.openstreetmap.org/way/420304951","license":"ODbL","transport_raw":1.064,"transport_count":6,"transport_activity":0.272,"representation":"major-road transport-event activity","timing_note":"Road color is a three-year transport-event activity surface on current OSM major road geometry, not measured traffic volume or congestion."},"geometry":{"type":"LineString","coordinates":[[-73.9302749,40.6687704],[-73.9290797,40.6687069]]}},{"type":"Feature","properties":{"id":"lens-traffic-road-nyc-way/1093218203","layer":"traffic_road","category":"transport","year":1970,"visible_year":2025,"rank":2,"name":"Buffalo Avenue","source_id":"way/1093218203","source_url":"https://www.openstreetmap.org/way/1093218203","license":"ODbL","transport_raw":1.062,"transport_count":6,"transport_activity":0.271,"representation":"major-road transport-event activity","timing_note":"Road color is a three-year transport-event activity surface on current OSM major road geometry, not measured traffic volume or congestion."},"geometry":{"type":"LineString","coordinates":[[-73.9256242,40.6682906],[-73.925631,40.6682322],[-73.925637,40.6681852],[-73.925693,40.6677416]]}},{"type":"Feature","properties":{"id":"lens-traffic-road-nyc-way/497253772","layer":"traffic_road","category":"transport","year":1970,"visible_year":2023,"rank":3,"name":"Utica Avenue","source_id":"way/497253772","source_url":"https://www.openstreetmap.org/way/497253772","license":"ODbL","transport_raw":1.057,"transport_count":6,"transport_activity":0.27,"representation":"major-road transport-event activity","timing_note":"Road color is a three-year transport-event activity surface on current OSM major road geometry, not measured traffic volume or congestion."},"geometry":{"type":"LineString","coordinates":[[-73.931033,40.669738],[-73.9310373,40.6696948],[-73.9310999,40.6690738],[-73.9311067,40.6690089]]}},{"type":"Feature","properties":{"id":"lens-traffic-road-nyc-way/420304936","layer":"traffic_road","category":"transport","year":1970,"visible_year":2025,"rank":4,"name":"Eastern Parkway","source_id":"way/420304936","source_url":"https://www.openstreetmap.org/way/420304936","license":"ODbL","transport_raw":0.905,"transport_count":6,"transport_activity":0.231,"representation":"major-road transport-event activity","timing_note":"Road color is a three-year transport-event activity surface on current OSM major road geometry, not measured traffic volume or congestion."},"geometry":{"type":"LineString","coordinates":[[-73.9233115,40.6683915],[-73.9227275,40.6683649],[-73.9226328,40.6683606]]}},{"type":"Feature","properties":{"id":"lens-traffic-road-nyc-way/221583036","layer":"traffic_road","category":"transport","year":1970,"visible_year":2026,"rank":4,"name":"Eastern Parkway","source_id":"way/221583036","source_url":"https://www.openstreetmap.org/way/221583036","license":"ODbL","transport_raw":0.879,"transport_count":6,"transport_activity":0.225,"representation":"major-road transport-event activity","timing_note":"Road color is a three-year transport-event activity surface on current OSM major road geometry, not measured traffic volume or congestion."},"geometry":{"type":"LineString","coordinates":[[-73.9199152,40.6695683],[-73.92011,40.6694878],[-73.9203448,40.6693887],[-73.9210252,40.6691151],[-73.921591,40.6688769],[-73.9216269,40.6688618],[-73.9217771,40.6687987],[-73.9218549,40.668758],[-73.9220429,40.6686583]]}},{"type":"Feature","properties":{"id":"lens-traffic-road-nyc-way/420304955","layer":"traffic_road","category":"transport","year":1970,"visible_year":2026,"rank":4,"name":"Eastern Parkway","source_id":"way/420304955","source_url":"https://www.openstreetmap.org/way/420304955","license":"ODbL","transport_raw":0.875,"transport_count":6,"transport_activity":0.223,"representation":"major-road transport-event activity","timing_note":"Road color is a three-year transport-event activity surface on current OSM major road geometry, not measured traffic volume or congestion."},"geometry":{"type":"LineString","coordinates":[[-73.9220429,40.6686583],[-73.9222247,40.668549],[-73.9223201,40.6685006]]}},{"type":"Feature","properties":{"id":"lens-traffic-road-nyc-way/221583032","layer":"traffic_road","category":"transport","year":1970,"visible_year":2026,"rank":4,"name":"Eastern Parkway","source_id":"way/221583032","source_url":"https://www.openstreetmap.org/way/221583032","license":"ODbL","transport_raw":0.852,"transport_count":6,"transport_activity":0.218,"representation":"major-road transport-event activity","timing_note":"Road color is a three-year transport-event activity surface on current OSM major road geometry, not measured traffic volume or congestion."},"geometry":{"type":"LineString","coordinates":[[-73.9223201,40.6685006],[-73.9223924,40.6684703],[-73.9224663,40.6684442],[-73.9225354,40.6684135],[-73.9225817,40.668392],[-73.9226328,40.6683606]]}},{"type":"Feature","properties":{"id":"lens-traffic-road-nyc-way/1283392969","layer":"traffic_road","category":"transport","year":1970,"visible_year":2026,"rank":2,"name":"Howard Avenue","source_id":"way/1283392969","source_url":"https://www.openstreetmap.org/way/1283392969","license":"ODbL","transport_raw":0.825,"transport_count":6,"transport_activity":0.211,"representation":"major-road transport-event activity","timing_note":"Road color is a three-year transport-event activity surface on current OSM major road geometry, not measured traffic volume or congestion."},"geometry":{"type":"LineString","coordinates":[[-73.9199152,40.6695683],[-73.9199052,40.6696492],[-73.9198885,40.6698843],[-73.919878,40.669978]]}},{"type":"Feature","properties":{"id":"lens-traffic-road-nyc-way/68523777","layer":"traffic_road","category":"transport","year":1970,"visible_year":2026,"rank":4,"name":"Eastern Parkway","source_id":"way/68523777","source_url":"https://www.openstreetmap.org/way/68523777","license":"ODbL","transport_raw":0.816,"transport_count":6,"transport_activity":0.208,"representation":"major-road transport-event activity","timing_note":"Road color is a three-year transport-event activity surface on current OSM major road geometry, not measured traffic volume or congestion."},"geometry":{"type":"LineString","coordinates":[[-73.9226328,40.6683606],[-73.9225421,40.6683456],[-73.9224114,40.6683809],[-73.9223306,40.6684128],[-73.9222518,40.6684469],[-73.9219862,40.6685703],[-73.9218343,40.6686446]]}},{"type":"Feature","properties":{"id":"lens-traffic-road-nyc-way/957074213","layer":"traffic_road","category":"transport","year":1970,"visible_year":2026,"rank":4,"name":"Eastern Parkway","source_id":"way/957074213","source_url":"https://www.openstreetmap.org/way/957074213","license":"ODbL","transport_raw":0.81,"transport_count":6,"transport_activity":0.207,"representation":"major-road transport-event activity","timing_note":"Road color is a three-year transport-event activity surface on current OSM major road geometry, not measured traffic volume or congestion."},"geometry":{"type":"LineString","coordinates":[[-73.9218343,40.6686446],[-73.921707,40.668708],[-73.9216356,40.6687434],[-73.9216064,40.6687578],[-73.9215274,40.6687889],[-73.9215059,40.6687969],[-73.9214661,40.6688116],[-73.9214222,40.6688278],[-73.9213863,40.6688411],[-73.9213332,40.6688608],[-73.9208075,40.6690765],[-73.9205766,40.6691713],[-73.9201695,40.6693355],[-73.920085,40.66937]]}},{"type":"Feature","properties":{"id":"lens-traffic-road-nyc-way/420304932","layer":"traffic_road","category":"transport","year":1970,"visible_year":2025,"rank":4,"name":"Eastern Parkway","source_id":"way/420304932","source_url":"https://www.openstreetmap.org/way/420304932","license":"ODbL","transport_raw":0.775,"transport_count":6,"transport_activity":0.198,"representation":"major-road transport-event activity","timing_note":"Road color is a three-year transport-event activity surface on current OSM major road geometry, not measured traffic volume or congestion."},"geometry":{"type":"LineString","coordinates":[[-73.931126,40.6688139],[-73.9310147,40.6688082],[-73.9302749,40.6687704]]}},{"type":"Feature","properties":{"id":"lens-traffic-road-nyc-way/221583049","layer":"traffic_road","category":"transport","year":1970,"visible_year":2023,"rank":3,"name":"Utica Avenue","source_id":"way/221583049","source_url":"https://www.openstreetmap.org/way/221583049","license":"ODbL","transport_raw":0.75,"transport_count":6,"transport_activity":0.192,"representation":"major-road transport-event activity","timing_note":"Road color is a three-year transport-event activity surface on current OSM major road geometry, not measured traffic volume or congestion."},"geometry":{"type":"LineString","coordinates":[[-73.9311067,40.6690089],[-73.9311145,40.6689318],[-73.931126,40.6688139]]}},{"type":"Feature","properties":{"id":"lens-traffic-road-nyc-way/1492933615","layer":"traffic_road","category":"transport","year":1970,"visible_year":2026,"rank":2,"name":"Pitkin Avenue","source_id":"way/1492933615","source_url":"https://www.openstreetmap.org/way/1492933615","license":"ODbL","transport_raw":0.739,"transport_count":6,"transport_activity":0.189,"representation":"major-road transport-event activity","timing_note":"Road color is a three-year transport-event activity surface on current OSM major road geometry, not measured traffic volume or congestion."},"geometry":{"type":"LineString","coordinates":[[-73.9219862,40.6685703],[-73.9219165,40.6685099],[-73.9218961,40.6685008],[-73.9218039,40.6684794],[-73.9217209,40.6684653]]}},{"type":"Feature","properties":{"id":"lens-traffic-road-nyc-way/183794560","layer":"traffic_road","category":"transport","year":1970,"visible_year":2026,"rank":4,"name":"Howard Avenue","source_id":"way/183794560","source_url":"https://www.openstreetmap.org/way/183794560","license":"ODbL","transport_raw":0.7,"transport_count":6,"transport_activity":0.179,"representation":"major-road transport-event activity","timing_note":"Road color is a three-year transport-event activity surface on current OSM major road geometry, not measured traffic volume or congestion."},"geometry":{"type":"LineString","coordinates":[[-73.9199152,40.6695683],[-73.920085,40.66937]]}},{"type":"Feature","properties":{"id":"lens-traffic-road-nyc-way/421084099","layer":"traffic_road","category":"transport","year":1970,"visible_year":2026,"rank":4,"name":"Howard Avenue","source_id":"way/421084099","source_url":"https://www.openstreetmap.org/way/421084099","license":"ODbL","transport_raw":0.686,"transport_count":6,"transport_activity":0.175,"representation":"major-road transport-event activity","timing_note":"Road color is a three-year transport-event activity surface on current OSM major road geometry, not measured traffic volume or congestion."},"geometry":{"type":"LineString","coordinates":[[-73.9199343,40.6694309],[-73.9199152,40.6695683]]}},{"type":"Feature","properties":{"id":"lens-traffic-road-nyc-way/420304949","layer":"traffic_road","category":"transport","year":1970,"visible_year":2022,"rank":4,"name":"Eastern Parkway","source_id":"way/420304949","source_url":"https://www.openstreetmap.org/way/420304949","license":"ODbL","transport_raw":0.682,"transport_count":6,"transport_activity":0.174,"representation":"major-road transport-event activity","timing_note":"Road color is a three-year transport-event activity surface on current OSM major road geometry, not measured traffic volume or congestion."},"geometry":{"type":"LineString","coordinates":[[-73.919431,40.669755],[-73.9198234,40.6696062],[-73.9199152,40.6695683]]}},{"type":"Feature","properties":{"id":"lens-traffic-road-nyc-way/1320607278","layer":"traffic_road","category":"transport","year":1970,"visible_year":2024,"rank":4,"name":"Atlantic Avenue","source_id":"way/1320607278","source_url":"https://www.openstreetmap.org/way/1320607278","license":"ODbL","transport_raw":0.677,"transport_count":6,"transport_activity":0.173,"representation":"major-road transport-event activity","timing_note":"Road color is a three-year transport-event activity surface on current OSM major road geometry, not measured traffic volume or congestion."},"geometry":{"type":"LineString","coordinates":[[-73.9179168,40.6766642],[-73.9175516,40.676642],[-73.9174014,40.6766329]]}},{"type":"Feature","properties":{"id":"lens-traffic-road-nyc-way/1305188412","layer":"traffic_road","category":"transport","year":1970,"visible_year":2026,"rank":4,"name":"Eastern Parkway","source_id":"way/1305188412","source_url":"https://www.openstreetmap.org/way/1305188412","license":"ODbL","transport_raw":0.664,"transport_count":6,"transport_activity":0.17,"representation":"major-road transport-event activity","timing_note":"Road color is a three-year transport-event activity surface on current OSM major road geometry, not measured traffic volume or congestion."},"geometry":{"type":"LineString","coordinates":[[-73.920085,40.66937],[-73.9199343,40.6694309]]}},{"type":"Feature","properties":{"id":"lens-traffic-road-nyc-way/420304927","layer":"traffic_road","category":"transport","year":1970,"visible_year":2025,"rank":4,"name":"Eastern Parkway","source_id":"way/420304927","source_url":"https://www.openstreetmap.org/way/420304927","license":"ODbL","transport_raw":0.632,"transport_count":6,"transport_activity":0.161,"representation":"major-road transport-event activity","timing_note":"Road color is a three-year transport-event activity surface on current OSM major road geometry, not measured traffic volume or congestion."},"geometry":{"type":"LineString","coordinates":[[-73.931501,40.6688373],[-73.9312289,40.6688203],[-73.931126,40.6688139]]}},{"type":"Feature","properties":{"id":"lens-traffic-road-nyc-way/1305188411","layer":"traffic_road","category":"transport","year":1970,"visible_year":2026,"rank":4,"name":"Howard Avenue","source_id":"way/1305188411","source_url":"https://www.openstreetmap.org/way/1305188411","license":"ODbL","transport_raw":0.625,"transport_count":6,"transport_activity":0.16,"representation":"major-road transport-event activity","timing_note":"Road color is a three-year transport-event activity surface on current OSM major road geometry, not measured traffic volume or congestion."},"geometry":{"type":"LineString","coordinates":[[-73.920085,40.66937],[-73.9200901,40.6692994],[-73.9201059,40.6691527]]}},{"type":"Feature","properties":{"id":"lens-traffic-road-nyc-way/497253773","layer":"traffic_road","category":"transport","year":1970,"visible_year":2023,"rank":3,"name":"Utica Avenue","source_id":"way/497253773","source_url":"https://www.openstreetmap.org/way/497253773","license":"ODbL","transport_raw":0.597,"transport_count":6,"transport_activity":0.153,"representation":"major-road transport-event activity","timing_note":"Road color is a three-year transport-event activity surface on current OSM major road geometry, not measured traffic volume or congestion."},"geometry":{"type":"LineString","coordinates":[[-73.931126,40.6688139],[-73.9311396,40.6686688],[-73.9311466,40.6685916]]}},{"type":"Feature","properties":{"id":"lens-traffic-road-nyc-way/421084098","layer":"traffic_road","category":"transport","year":1970,"visible_year":2026,"rank":4,"name":"Howard Avenue","source_id":"way/421084098","source_url":"https://www.openstreetmap.org/way/421084098","license":"ODbL","transport_raw":0.584,"transport_count":6,"transport_activity":0.149,"representation":"major-road transport-event activity","timing_note":"Road color is a three-year transport-event activity surface on current OSM major road geometry, not measured traffic volume or congestion."},"geometry":{"type":"LineString","coordinates":[[-73.9199613,40.6691345],[-73.9199443,40.6693516],[-73.9199343,40.6694309]]}},{"type":"Feature","properties":{"id":"lens-traffic-road-nyc-way/880250436","layer":"traffic_road","category":"transport","year":1970,"visible_year":2026,"rank":4,"name":"Eastern Parkway","source_id":"way/880250436","source_url":"https://www.openstreetmap.org/way/880250436","license":"ODbL","transport_raw":0.57,"transport_count":6,"transport_activity":0.146,"representation":"major-road transport-event activity","timing_note":"Road color is a three-year transport-event activity surface on current OSM major road geometry, not measured traffic volume or congestion."},"geometry":{"type":"LineString","coordinates":[[-73.9189911,40.6699368],[-73.9192505,40.6698361],[-73.919431,40.669755]]}},{"type":"Feature","properties":{"id":"lens-traffic-road-nyc-way/1270611418","layer":"traffic_road","category":"transport","year":1970,"visible_year":2026,"rank":4,"name":"Eastern Parkway","source_id":"way/1270611418","source_url":"https://www.openstreetmap.org/way/1270611418","license":"ODbL","transport_raw":0.542,"transport_count":6,"transport_activity":0.138,"representation":"major-road transport-event activity","timing_note":"Road color is a three-year transport-event activity surface on current OSM major road geometry, not measured traffic volume or congestion."},"geometry":{"type":"LineString","coordinates":[[-73.9199343,40.6694309],[-73.9198372,40.6694714],[-73.9189683,40.669826],[-73.9187539,40.6699223]]}},{"type":"Feature","properties":{"id":"lens-traffic-road-nyc-way/221585918","layer":"traffic_road","category":"transport","year":1970,"visible_year":2025,"rank":3,"name":"Fulton Street","source_id":"way/221585918","source_url":"https://www.openstreetmap.org/way/221585918","license":"ODbL","transport_raw":0.539,"transport_count":6,"transport_activity":0.138,"representation":"major-road transport-event activity","timing_note":"Road color is a three-year transport-event activity surface on current OSM major road geometry, not measured traffic volume or congestion."},"geometry":{"type":"LineString","coordinates":[[-73.937398,40.67973],[-73.9373214,40.6797258],[-73.9352678,40.6796145],[-73.9350325,40.6796017],[-73.934872,40.679593],[-73.9347599,40.6795868],[-73.9345913,40.6795774],[-73.934351,40.679564],[-73.9342779,40.67956],[-73.9329973,40.6794905],[-73.932897,40.679485],[-73.9328086,40.6794795],[-73.9325019,40.6794603],[-73.9318053,40.6794167],[-73.9314812,40.6793964],[-73.9313654,40.6793892],[-73.9312619,40.6793838],[-73.9307245,40.6793568],[-73.9305305,40.679347],[-73.9295075,40.6792954],[-73.9294386,40.6792919],[-73.9291881,40.679283],[-73.929058,40.679277],[-73.9289408,40.6792717],[-73.9287238,40.6792585]]}},{"type":"Feature","properties":{"id":"lens-traffic-road-nyc-way/420304910","layer":"traffic_road","category":"transport","year":1970,"visible_year":2025,"rank":4,"name":"Atlantic Avenue","source_id":"way/420304910","source_url":"https://www.openstreetmap.org/way/420304910","license":"ODbL","transport_raw":0.499,"transport_count":6,"transport_activity":0.127,"representation":"major-road transport-event activity","timing_note":"Road color is a three-year transport-event activity surface on current OSM major road geometry, not measured traffic volume or congestion."},"geometry":{"type":"LineString","coordinates":[[-73.9358531,40.6776289],[-73.9357563,40.6776236],[-73.9338636,40.6775192],[-73.9331918,40.6774822],[-73.9330836,40.6774763]]}},{"type":"Feature","properties":{"id":"lens-traffic-road-nyc-way/1305188413","layer":"traffic_road","category":"transport","year":1970,"visible_year":2024,"rank":4,"name":"Howard Avenue","source_id":"way/1305188413","source_url":"https://www.openstreetmap.org/way/1305188413","license":"ODbL","transport_raw":0.483,"transport_count":6,"transport_activity":0.123,"representation":"major-road transport-event activity","timing_note":"Road color is a three-year transport-event activity surface on current OSM major road geometry, not measured traffic volume or congestion."},"geometry":{"type":"LineString","coordinates":[[-73.9201059,40.6691527],[-73.9201296,40.6688848]]}},{"type":"Feature","properties":{"id":"lens-traffic-road-nyc-way/110277554","layer":"traffic_road","category":"transport","year":1970,"visible_year":2026,"rank":2,"name":"Pitkin Avenue","source_id":"way/110277554","source_url":"https://www.openstreetmap.org/way/110277554","license":"ODbL","transport_raw":0.411,"transport_count":6,"transport_activity":0.105,"representation":"major-road transport-event activity","timing_note":"Road color is a three-year transport-event activity surface on current OSM major road geometry, not measured traffic volume or congestion."},"geometry":{"type":"LineString","coordinates":[[-73.9217209,40.6684653],[-73.9216848,40.6684592],[-73.9215438,40.6684516],[-73.9204747,40.6683943],[-73.9203172,40.6683763],[-73.920155,40.6683546]]}},{"type":"Feature","properties":{"id":"lens-traffic-road-nyc-way/1265073058","layer":"traffic_road","category":"transport","year":1970,"visible_year":2024,"rank":4,"name":"Atlantic Avenue","source_id":"way/1265073058","source_url":"https://www.openstreetmap.org/way/1265073058","license":"ODbL","transport_raw":0.381,"transport_count":6,"transport_activity":0.097,"representation":"major-road transport-event activity","timing_note":"Road color is a three-year transport-event activity surface on current OSM major road geometry, not measured traffic volume or congestion."},"geometry":{"type":"LineString","coordinates":[[-73.9330673,40.6776487],[-73.9331734,40.6776544],[-73.9357385,40.6777941],[-73.9358365,40.6777995]]}},{"type":"Feature","properties":{"id":"lens-traffic-road-nyc-way/943536742","layer":"traffic_road","category":"transport","year":1970,"visible_year":2025,"rank":3,"name":"Bushwick Avenue","source_id":"way/943536742","source_url":"https://www.openstreetmap.org/way/943536742","license":"ODbL","transport_raw":0.319,"transport_count":1,"transport_activity":0.082,"representation":"major-road transport-event activity","timing_note":"Road color is a three-year transport-event activity surface on current OSM major road geometry, not measured traffic volume or congestion."},"geometry":{"type":"LineString","coordinates":[[-73.9264921,40.6941461],[-73.9264306,40.6941146],[-73.925972,40.693866],[-73.9257891,40.6937646],[-73.925715,40.693724]]}},{"type":"Feature","properties":{"id":"lens-traffic-road-nyc-way/221725601","layer":"traffic_road","category":"transport","year":1970,"visible_year":2025,"rank":3,"name":"Bushwick Avenue","source_id":"way/221725601","source_url":"https://www.openstreetmap.org/way/221725601","license":"ODbL","transport_raw":0.317,"transport_count":1,"transport_activity":0.081,"representation":"major-road transport-event activity","timing_note":"Road color is a three-year transport-event activity surface on current OSM major road geometry, not measured traffic volume or congestion."},"geometry":{"type":"LineString","coordinates":[[-73.9264921,40.6941461],[-73.9265584,40.6941832],[-73.926736,40.69428]]}},{"type":"Feature","properties":{"id":"lens-traffic-road-nyc-way/798233924","layer":"traffic_road","category":"transport","year":1970,"visible_year":2025,"rank":3,"name":"Bushwick Avenue","source_id":"way/798233924","source_url":"https://www.openstreetmap.org/way/798233924","license":"ODbL","transport_raw":0.303,"transport_count":1,"transport_activity":0.077,"representation":"major-road transport-event activity","timing_note":"Road color is a three-year transport-event activity surface on current OSM major road geometry, not measured traffic volume or congestion."},"geometry":{"type":"LineString","coordinates":[[-73.926736,40.69428],[-73.9271753,40.6945197],[-73.927227,40.694548]]}},{"type":"Feature","properties":{"id":"lens-traffic-road-nyc-way/798224594","layer":"traffic_road","category":"transport","year":1970,"visible_year":2025,"rank":3,"name":"Bushwick Avenue","source_id":"way/798224594","source_url":"https://www.openstreetmap.org/way/798224594","license":"ODbL","transport_raw":0.292,"transport_count":1,"transport_activity":0.074,"representation":"major-road transport-event activity","timing_note":"Road color is a three-year transport-event activity surface on current OSM major road geometry, not measured traffic volume or congestion."},"geometry":{"type":"LineString","coordinates":[[-73.927227,40.694548],[-73.9272993,40.6945879],[-73.927497,40.694697]]}},{"type":"Feature","properties":{"id":"lens-traffic-road-nyc-way/221583060","layer":"traffic_road","category":"transport","year":1970,"visible_year":2026,"rank":3,"name":"Utica Avenue","source_id":"way/221583060","source_url":"https://www.openstreetmap.org/way/221583060","license":"ODbL","transport_raw":0.285,"transport_count":6,"transport_activity":0.073,"representation":"major-road transport-event activity","timing_note":"Road color is a three-year transport-event activity surface on current OSM major road geometry, not measured traffic volume or congestion."},"geometry":{"type":"LineString","coordinates":[[-73.9311466,40.6685916],[-73.931152,40.6685305],[-73.9311563,40.6684814],[-73.931183,40.6681782],[-73.9311867,40.6681362],[-73.9312076,40.6678982],[-73.931214,40.667825]]}},{"type":"Feature","properties":{"id":"lens-traffic-road-nyc-way/1320607277","layer":"traffic_road","category":"transport","year":1970,"visible_year":2024,"rank":4,"name":"Atlantic Avenue","source_id":"way/1320607277","source_url":"https://www.openstreetmap.org/way/1320607277","license":"ODbL","transport_raw":0.271,"transport_count":6,"transport_activity":0.069,"representation":"major-road transport-event activity","timing_note":"Road color is a three-year transport-event activity surface on current OSM major road geometry, not measured traffic volume or congestion."},"geometry":{"type":"LineString","coordinates":[[-73.9174014,40.6766329],[-73.9173182,40.6766256],[-73.9166475,40.6765858],[-73.9165942,40.6765833],[-73.916477,40.6765785]]}},{"type":"Feature","properties":{"id":"lens-traffic-road-nyc-way/420304946","layer":"traffic_road","category":"transport","year":1970,"visible_year":2025,"rank":4,"name":"Eastern Parkway","source_id":"way/420304946","source_url":"https://www.openstreetmap.org/way/420304946","license":"ODbL","transport_raw":0.272,"transport_count":6,"transport_activity":0.069,"representation":"major-road transport-event activity","timing_note":"Road color is a three-year transport-event activity surface on current OSM major road geometry, not measured traffic volume or congestion."},"geometry":{"type":"LineString","coordinates":[[-73.9332236,40.6689304],[-73.931501,40.6688373]]}},{"type":"Feature","properties":{"id":"lens-traffic-road-nyc-way/798224595","layer":"traffic_road","category":"transport","year":1970,"visible_year":2025,"rank":3,"name":"Bushwick Avenue","source_id":"way/798224595","source_url":"https://www.openstreetmap.org/way/798224595","license":"ODbL","transport_raw":0.266,"transport_count":1,"transport_activity":0.068,"representation":"major-road transport-event activity","timing_note":"Road color is a three-year transport-event activity surface on current OSM major road geometry, not measured traffic volume or congestion."},"geometry":{"type":"LineString","coordinates":[[-73.927497,40.694697],[-73.9282116,40.6950861],[-73.928259,40.695111]]}},{"type":"Feature","properties":{"id":"lens-traffic-road-nyc-way/880250434","layer":"traffic_road","category":"transport","year":1970,"visible_year":2026,"rank":4,"name":"Eastern Parkway","source_id":"way/880250434","source_url":"https://www.openstreetmap.org/way/880250434","license":"ODbL","transport_raw":0.259,"transport_count":6,"transport_activity":0.066,"representation":"major-road transport-event activity","timing_note":"Road color is a three-year transport-event activity surface on current OSM major road geometry, not measured traffic volume or congestion."},"geometry":{"type":"LineString","coordinates":[[-73.9187539,40.6699223],[-73.9185291,40.6700111],[-73.9175086,40.6704376]]}},{"type":"Feature","properties":{"id":"lens-traffic-road-nyc-way/587067522","layer":"traffic_road","category":"transport","year":1970,"visible_year":2025,"rank":3,"name":"Bushwick Avenue","source_id":"way/587067522","source_url":"https://www.openstreetmap.org/way/587067522","license":"ODbL","transport_raw":0.252,"transport_count":1,"transport_activity":0.064,"representation":"major-road transport-event activity","timing_note":"Road color is a three-year transport-event activity surface on current OSM major road geometry, not measured traffic volume or congestion."},"geometry":{"type":"LineString","coordinates":[[-73.928259,40.695111],[-73.9283475,40.6951592],[-73.928431,40.695205]]}},{"type":"Feature","properties":{"id":"lens-traffic-road-nyc-way/976468228","layer":"traffic_road","category":"transport","year":1970,"visible_year":2022,"rank":4,"name":"Broadway","source_id":"way/976468228","source_url":"https://www.openstreetmap.org/way/976468228","license":"ODbL","transport_raw":0.246,"transport_count":1,"transport_activity":0.063,"representation":"major-road transport-event activity","timing_note":"Road color is a three-year transport-event activity surface on current OSM major road geometry, not measured traffic volume or congestion."},"geometry":{"type":"LineString","coordinates":[[-73.9278278,40.6927883],[-73.9277589,40.6927487],[-73.927507,40.692604]]}},{"type":"Feature","properties":{"id":"lens-traffic-road-nyc-way/219964442","layer":"traffic_road","category":"transport","year":1970,"visible_year":2025,"rank":4,"name":"Broadway","source_id":"way/219964442","source_url":"https://www.openstreetmap.org/way/219964442","license":"ODbL","transport_raw":0.245,"transport_count":1,"transport_activity":0.062,"representation":"major-road transport-event activity","timing_note":"Road color is a three-year transport-event activity surface on current OSM major road geometry, not measured traffic volume or congestion."},"geometry":{"type":"LineString","coordinates":[[-73.928043,40.692904],[-73.9278997,40.692827],[-73.9278278,40.6927883]]}},{"type":"Feature","properties":{"id":"lens-traffic-road-nyc-way/943536741","layer":"traffic_road","category":"transport","year":1970,"visible_year":2022,"rank":4,"name":"Broadway","source_id":"way/943536741","source_url":"https://www.openstreetmap.org/way/943536741","license":"ODbL","transport_raw":0.244,"transport_count":1,"transport_activity":0.062,"representation":"major-road transport-event activity","timing_note":"Road color is a three-year transport-event activity surface on current OSM major road geometry, not measured traffic volume or congestion."},"geometry":{"type":"LineString","coordinates":[[-73.927507,40.692604],[-73.927071,40.692346]]}},{"type":"Feature","properties":{"id":"lens-traffic-road-nyc-way/221688754","layer":"traffic_road","category":"transport","year":1970,"visible_year":2025,"rank":4,"name":"Broadway","source_id":"way/221688754","source_url":"https://www.openstreetmap.org/way/221688754","license":"ODbL","transport_raw":0.24,"transport_count":1,"transport_activity":0.061,"representation":"major-road transport-event activity","timing_note":"Road color is a three-year transport-event activity surface on current OSM major road geometry, not measured traffic volume or congestion."},"geometry":{"type":"LineString","coordinates":[[-73.928043,40.692904],[-73.9284735,40.6931456],[-73.9285537,40.6931929],[-73.9285934,40.6932147]]}},{"type":"Feature","properties":{"id":"lens-traffic-road-nyc-way/221725599","layer":"traffic_road","category":"transport","year":1970,"visible_year":2022,"rank":4,"name":"Broadway","source_id":"way/221725599","source_url":"https://www.openstreetmap.org/way/221725599","license":"ODbL","transport_raw":0.238,"transport_count":1,"transport_activity":0.061,"representation":"major-road transport-event activity","timing_note":"Road color is a three-year transport-event activity surface on current OSM major road geometry, not measured traffic volume or congestion."},"geometry":{"type":"LineString","coordinates":[[-73.927071,40.692346],[-73.9266137,40.6920921],[-73.9264292,40.6919886]]}},{"type":"Feature","properties":{"id":"lens-traffic-road-nyc-way/733737815","layer":"traffic_road","category":"transport","year":1970,"visible_year":2025,"rank":4,"name":"Broadway","source_id":"way/733737815","source_url":"https://www.openstreetmap.org/way/733737815","license":"ODbL","transport_raw":0.236,"transport_count":1,"transport_activity":0.06,"representation":"major-road transport-event activity","timing_note":"Road color is a three-year transport-event activity surface on current OSM major road geometry, not measured traffic volume or congestion."},"geometry":{"type":"LineString","coordinates":[[-73.9285934,40.6932147],[-73.9286433,40.693243]]}},{"type":"Feature","properties":{"id":"lens-traffic-road-nyc-way/421266535","layer":"traffic_road","category":"transport","year":1970,"visible_year":2022,"rank":4,"name":"Eastern Parkway","source_id":"way/421266535","source_url":"https://www.openstreetmap.org/way/421266535","license":"ODbL","transport_raw":0.226,"transport_count":6,"transport_activity":0.058,"representation":"major-road transport-event activity","timing_note":"Road color is a three-year transport-event activity surface on current OSM major road geometry, not measured traffic volume or congestion."},"geometry":{"type":"LineString","coordinates":[[-73.9170133,40.6707576],[-73.9171483,40.670704],[-73.9172428,40.6706675],[-73.9187301,40.6700478],[-73.9187893,40.6700219],[-73.9189911,40.6699368]]}},{"type":"Feature","properties":{"id":"lens-traffic-road-nyc-way/944136520","layer":"traffic_road","category":"transport","year":1970,"visible_year":2025,"rank":4,"name":"Broadway","source_id":"way/944136520","source_url":"https://www.openstreetmap.org/way/944136520","license":"ODbL","transport_raw":0.226,"transport_count":1,"transport_activity":0.058,"representation":"major-road transport-event activity","timing_note":"Road color is a three-year transport-event activity surface on current OSM major road geometry, not measured traffic volume or congestion."},"geometry":{"type":"LineString","coordinates":[[-73.9286433,40.693243],[-73.9288131,40.693343],[-73.9288663,40.6933742],[-73.9296717,40.6938462],[-73.929702,40.693864]]}},{"type":"Feature","properties":{"id":"lens-traffic-road-nyc-way/421085394","layer":"traffic_road","category":"transport","year":1970,"visible_year":2024,"rank":4,"name":"Howard Avenue","source_id":"way/421085394","source_url":"https://www.openstreetmap.org/way/421085394","license":"ODbL","transport_raw":0.222,"transport_count":6,"transport_activity":0.057,"representation":"major-road transport-event activity","timing_note":"Road color is a three-year transport-event activity surface on current OSM major road geometry, not measured traffic volume or congestion."},"geometry":{"type":"LineString","coordinates":[[-73.9201296,40.6688848],[-73.9201675,40.668466],[-73.920155,40.6683546]]}},{"type":"Feature","properties":{"id":"lens-traffic-road-nyc-way/432554453","layer":"traffic_road","category":"transport","year":1970,"visible_year":2025,"rank":3,"name":"Bushwick Avenue","source_id":"way/432554453","source_url":"https://www.openstreetmap.org/way/432554453","license":"ODbL","transport_raw":0.218,"transport_count":1,"transport_activity":0.056,"representation":"major-road transport-event activity","timing_note":"Road color is a three-year transport-event activity surface on current OSM major road geometry, not measured traffic volume or congestion."},"geometry":{"type":"LineString","coordinates":[[-73.925715,40.693724],[-73.925678,40.6937045],[-73.9252734,40.6934907],[-73.925206,40.693455],[-73.9251325,40.6934154],[-73.924951,40.693315],[-73.924439,40.693041],[-73.9242718,40.6929469],[-73.924185,40.692901],[-73.924128,40.6928704],[-73.9237489,40.6926672],[-73.923672,40.692626],[-73.9236056,40.6925894],[-73.922961,40.692236],[-73.922919,40.692213],[-73.9225714,40.692019],[-73.9222936,40.6918616],[-73.92223,40.691823],[-73.9221726,40.6917903],[-73.9214762,40.691391],[-73.921411,40.691353],[-73.9213456,40.6913167],[-73.9207372,40.6909698],[-73.920657,40.690927]]}},{"type":"Feature","properties":{"id":"lens-traffic-road-nyc-way/221725602","layer":"traffic_road","category":"transport","year":1970,"visible_year":2022,"rank":4,"name":"Broadway","source_id":"way/221725602","source_url":"https://www.openstreetmap.org/way/221725602","license":"ODbL","transport_raw":0.21,"transport_count":1,"transport_activity":0.054,"representation":"major-road transport-event activity","timing_note":"Road color is a three-year transport-event activity surface on current OSM major road geometry, not measured traffic volume or congestion."},"geometry":{"type":"LineString","coordinates":[[-73.9264292,40.6919886],[-73.9263918,40.6919688],[-73.9263182,40.6919268],[-73.9262533,40.6918897],[-73.9256142,40.6915251],[-73.92555,40.6914885],[-73.9254996,40.6914598],[-73.9253312,40.6913638],[-73.924394,40.690829],[-73.9243244,40.6907893],[-73.9242273,40.690735]]}},{"type":"Feature","properties":{"id":"lens-traffic-road-nyc-way/227074765","layer":"traffic_road","category":"transport","year":1970,"visible_year":2025,"rank":3,"name":"Bushwick Avenue","source_id":"way/227074765","source_url":"https://www.openstreetmap.org/way/227074765","license":"ODbL","transport_raw":0.2,"transport_count":1,"transport_activity":0.051,"representation":"major-road transport-event activity","timing_note":"Road color is a three-year transport-event activity surface on current OSM major road geometry, not measured traffic volume or congestion."},"geometry":{"type":"LineString","coordinates":[[-73.9303582,40.6962589],[-73.9302998,40.6962281],[-73.929962,40.696042],[-73.9299007,40.6960083],[-73.9298542,40.6959837],[-73.9296596,40.6958802],[-73.929584,40.69584],[-73.9295063,40.6957962],[-73.9293032,40.6956819],[-73.9292431,40.6956481],[-73.9291931,40.6956208],[-73.928431,40.695205]]}},{"type":"Feature","properties":{"id":"lens-traffic-road-nyc-way/733737814","layer":"traffic_road","category":"transport","year":1970,"visible_year":2025,"rank":4,"name":"Broadway","source_id":"way/733737814","source_url":"https://www.openstreetmap.org/way/733737814","license":"ODbL","transport_raw":0.187,"transport_count":1,"transport_activity":0.048,"representation":"major-road transport-event activity","timing_note":"Road color is a three-year transport-event activity surface on current OSM major road geometry, not measured traffic volume or congestion."},"geometry":{"type":"LineString","coordinates":[[-73.929702,40.693864],[-73.9298666,40.6939561],[-73.930512,40.694317],[-73.931085,40.6946412],[-73.931144,40.6946746]]}},{"type":"Feature","properties":{"id":"lens-traffic-road-nyc-way/227074787","layer":"traffic_road","category":"transport","year":1970,"visible_year":2022,"rank":4,"name":"Myrtle Avenue","source_id":"way/227074787","source_url":"https://www.openstreetmap.org/way/227074787","license":"ODbL","transport_raw":0.175,"transport_count":1,"transport_activity":0.045,"representation":"major-road transport-event activity","timing_note":"Road color is a three-year transport-event activity surface on current OSM major road geometry, not measured traffic volume or congestion."},"geometry":{"type":"LineString","coordinates":[[-73.9293235,40.6976464],[-73.9291911,40.6976614],[-73.9285037,40.6977373],[-73.9278298,40.6978104],[-73.9265776,40.6979544],[-73.9260331,40.6980098]]}},{"type":"Feature","properties":{"id":"lens-traffic-road-nyc-way/682886115","layer":"traffic_road","category":"transport","year":1970,"visible_year":2022,"rank":4,"name":"Myrtle Avenue","source_id":"way/682886115","source_url":"https://www.openstreetmap.org/way/682886115","license":"ODbL","transport_raw":0.176,"transport_count":1,"transport_activity":0.045,"representation":"major-road transport-event activity","timing_note":"Road color is a three-year transport-event activity surface on current OSM major road geometry, not measured traffic volume or congestion."},"geometry":{"type":"LineString","coordinates":[[-73.9260331,40.6980098],[-73.9255009,40.6980647],[-73.925352,40.69808],[-73.9251631,40.6981006]]}},{"type":"Feature","properties":{"id":"lens-traffic-road-nyc-way/221583067","layer":"traffic_road","category":"transport","year":1970,"visible_year":2024,"rank":4,"name":"Howard Avenue","source_id":"way/221583067","source_url":"https://www.openstreetmap.org/way/221583067","license":"ODbL","transport_raw":0.166,"transport_count":6,"transport_activity":0.042,"representation":"major-road transport-event activity","timing_note":"Road color is a three-year transport-event activity surface on current OSM major road geometry, not measured traffic volume or congestion."},"geometry":{"type":"LineString","coordinates":[[-73.9199877,40.6683029],[-73.920014,40.6683783],[-73.9200308,40.6684614],[-73.9199613,40.6691345]]}},{"type":"Feature","properties":{"id":"lens-traffic-road-nyc-way/227074764","layer":"traffic_road","category":"transport","year":1970,"visible_year":2025,"rank":3,"name":"Bushwick Avenue","source_id":"way/227074764","source_url":"https://www.openstreetmap.org/way/227074764","license":"ODbL","transport_raw":0.166,"transport_count":1,"transport_activity":0.042,"representation":"major-road transport-event activity","timing_note":"Road color is a three-year transport-event activity surface on current OSM major road geometry, not measured traffic volume or congestion."},"geometry":{"type":"LineString","coordinates":[[-73.930507,40.6963423],[-73.9304208,40.6962944],[-73.9303582,40.6962589]]}},{"type":"Feature","properties":{"id":"lens-traffic-road-nyc-way/944145791","layer":"traffic_road","category":"transport","year":1970,"visible_year":2022,"rank":4,"name":"Broadway","source_id":"way/944145791","source_url":"https://www.openstreetmap.org/way/944145791","license":"ODbL","transport_raw":0.163,"transport_count":1,"transport_activity":0.042,"representation":"major-road transport-event activity","timing_note":"Road color is a three-year transport-event activity surface on current OSM major road geometry, not measured traffic volume or congestion."},"geometry":{"type":"LineString","coordinates":[[-73.931144,40.6946746],[-73.9312145,40.6947139]]}},{"type":"Feature","properties":{"id":"lens-traffic-road-nyc-way/440633382","layer":"traffic_road","category":"transport","year":1970,"visible_year":2025,"rank":4,"name":"Broadway","source_id":"way/440633382","source_url":"https://www.openstreetmap.org/way/440633382","license":"ODbL","transport_raw":0.158,"transport_count":1,"transport_activity":0.04,"representation":"major-road transport-event activity","timing_note":"Road color is a three-year transport-event activity surface on current OSM major road geometry, not measured traffic volume or congestion."},"geometry":{"type":"LineString","coordinates":[[-73.9312145,40.6947139],[-73.9312482,40.6947348],[-73.9314396,40.6948393]]}},{"type":"Feature","properties":{"id":"lens-traffic-road-nyc-way/227074763","layer":"traffic_road","category":"transport","year":1970,"visible_year":2026,"rank":4,"name":"Broadway","source_id":"way/227074763","source_url":"https://www.openstreetmap.org/way/227074763","license":"ODbL","transport_raw":0.147,"transport_count":1,"transport_activity":0.038,"representation":"major-road transport-event activity","timing_note":"Road color is a three-year transport-event activity surface on current OSM major road geometry, not measured traffic volume or congestion."},"geometry":{"type":"LineString","coordinates":[[-73.9317736,40.6950273],[-73.9317286,40.695002],[-73.9315583,40.6949061],[-73.9314965,40.6948713],[-73.9314396,40.6948393]]}},{"type":"Feature","properties":{"id":"lens-traffic-road-nyc-way/227074786","layer":"traffic_road","category":"transport","year":1970,"visible_year":2024,"rank":4,"name":"Myrtle Avenue","source_id":"way/227074786","source_url":"https://www.openstreetmap.org/way/227074786","license":"ODbL","transport_raw":0.148,"transport_count":1,"transport_activity":0.038,"representation":"major-road transport-event activity","timing_note":"Road color is a three-year transport-event activity surface on current OSM major road geometry, not measured traffic volume or congestion."},"geometry":{"type":"LineString","coordinates":[[-73.9251631,40.6981006],[-73.9250592,40.69811],[-73.924598,40.698157],[-73.924043,40.6982185],[-73.9228818,40.6983366],[-73.9227473,40.6983503],[-73.9226474,40.6983607],[-73.9218936,40.6984391],[-73.921772,40.6984517]]}},{"type":"Feature","properties":{"id":"lens-traffic-road-nyc-way/682886111","layer":"traffic_road","category":"transport","year":1970,"visible_year":2022,"rank":4,"name":"Myrtle Avenue","source_id":"way/682886111","source_url":"https://www.openstreetmap.org/way/682886111","license":"ODbL","transport_raw":0.138,"transport_count":1,"transport_activity":0.035,"representation":"major-road transport-event activity","timing_note":"Road color is a three-year transport-event activity surface on current OSM major road geometry, not measured traffic volume or congestion."},"geometry":{"type":"LineString","coordinates":[[-73.9313132,40.6974228],[-73.931221,40.697433],[-73.9311498,40.6974409],[-73.9298006,40.6975905],[-73.9295415,40.6976192],[-73.9294272,40.6976346],[-73.9293235,40.6976464]]}},{"type":"Feature","properties":{"id":"lens-traffic-road-nyc-way/68523760","layer":"traffic_road","category":"transport","year":1970,"visible_year":2025,"rank":3,"name":"Bushwick Avenue","source_id":"way/68523760","source_url":"https://www.openstreetmap.org/way/68523760","license":"ODbL","transport_raw":0.121,"transport_count":1,"transport_activity":0.031,"representation":"major-road transport-event activity","timing_note":"Road color is a three-year transport-event activity surface on current OSM major road geometry, not measured traffic volume or congestion."},"geometry":{"type":"LineString","coordinates":[[-73.932267,40.697315],[-73.9321509,40.6972512],[-73.9319249,40.6971264],[-73.9318458,40.6970814],[-73.9317831,40.6970488],[-73.9311646,40.6967044],[-73.9310876,40.696662],[-73.9310194,40.6966248],[-73.930507,40.6963423]]}},{"type":"Feature","properties":{"id":"lens-traffic-road-nyc-way/997124856","layer":"traffic_road","category":"transport","year":1970,"visible_year":2022,"rank":4,"name":"Myrtle Avenue","source_id":"way/997124856","source_url":"https://www.openstreetmap.org/way/997124856","license":"ODbL","transport_raw":0.108,"transport_count":1,"transport_activity":0.027,"representation":"major-road transport-event activity","timing_note":"Road color is a three-year transport-event activity surface on current OSM major road geometry, not measured traffic volume or congestion."},"geometry":{"type":"LineString","coordinates":[[-73.921772,40.6984517],[-73.9216171,40.6984673],[-73.9214715,40.6984827]]}},{"type":"Feature","properties":{"id":"lens-traffic-road-nyc-way/321542908","layer":"traffic_road","category":"transport","year":1970,"visible_year":2025,"rank":4,"name":"Myrtle Avenue","source_id":"way/321542908","source_url":"https://www.openstreetmap.org/way/321542908","license":"ODbL","transport_raw":0.1,"transport_count":1,"transport_activity":0.025,"representation":"major-road transport-event activity","timing_note":"Road color is a three-year transport-event activity surface on current OSM major road geometry, not measured traffic volume or congestion."},"geometry":{"type":"LineString","coordinates":[[-73.932267,40.697315],[-73.9321202,40.6973316],[-73.9313132,40.6974228]]}},{"type":"Feature","properties":{"id":"lens-traffic-road-nyc-way/823846116","layer":"traffic_road","category":"transport","year":1970,"visible_year":2026,"rank":4,"name":"Broadway","source_id":"way/823846116","source_url":"https://www.openstreetmap.org/way/823846116","license":"ODbL","transport_raw":0.083,"transport_count":1,"transport_activity":0.021,"representation":"major-road transport-event activity","timing_note":"Road color is a three-year transport-event activity surface on current OSM major road geometry, not measured traffic volume or congestion."},"geometry":{"type":"LineString","coordinates":[[-73.9352934,40.6969854],[-73.9351815,40.6969237],[-73.9349002,40.6967687],[-73.9347795,40.6967021],[-73.9341373,40.6963449],[-73.933828,40.696184],[-73.9333792,40.6959313],[-73.9332325,40.6958487],[-73.9331377,40.6957953],[-73.9330376,40.6957417],[-73.9325645,40.6954731],[-73.9324501,40.6954082],[-73.9323704,40.6953633],[-73.9323118,40.6953303],[-73.9319291,40.6951149],[-73.9318635,40.6950779],[-73.9317736,40.6950273]]}},{"type":"Feature","properties":{"id":"lens-traffic-road-nyc-way/432554456","layer":"traffic_road","category":"transport","year":1970,"visible_year":2025,"rank":3,"name":"Bushwick Avenue","source_id":"way/432554456","source_url":"https://www.openstreetmap.org/way/432554456","license":"ODbL","transport_raw":0.074,"transport_count":1,"transport_activity":0.019,"representation":"major-road transport-event activity","timing_note":"Road color is a three-year transport-event activity surface on current OSM major road geometry, not measured traffic volume or congestion."},"geometry":{"type":"LineString","coordinates":[[-73.920657,40.690927],[-73.9205975,40.6908927],[-73.9199752,40.6905383],[-73.919906,40.690499],[-73.9198513,40.6904675],[-73.919213,40.6901114],[-73.919153,40.690076]]}},{"type":"Feature","properties":{"id":"lens-traffic-road-nyc-way/823846115","layer":"traffic_road","category":"transport","year":1970,"visible_year":2025,"rank":4,"name":"Myrtle Avenue","source_id":"way/823846115","source_url":"https://www.openstreetmap.org/way/823846115","license":"ODbL","transport_raw":0.074,"transport_count":1,"transport_activity":0.019,"representation":"major-road transport-event activity","timing_note":"Road color is a three-year transport-event activity surface on current OSM major road geometry, not measured traffic volume or congestion."},"geometry":{"type":"LineString","coordinates":[[-73.934008,40.697118],[-73.932935,40.697236],[-73.932835,40.697247],[-73.932693,40.697264],[-73.9324108,40.6972978],[-73.932267,40.697315]]}},{"type":"Feature","properties":{"id":"lens-traffic-road-nyc-way/997124852","layer":"traffic_road","category":"transport","year":1970,"visible_year":2024,"rank":4,"name":"Myrtle Avenue","source_id":"way/997124852","source_url":"https://www.openstreetmap.org/way/997124852","license":"ODbL","transport_raw":0.074,"transport_count":1,"transport_activity":0.019,"representation":"major-road transport-event activity","timing_note":"Road color is a three-year transport-event activity surface on current OSM major road geometry, not measured traffic volume or congestion."},"geometry":{"type":"LineString","coordinates":[[-73.9214715,40.6984827],[-73.9213369,40.6984994],[-73.9202457,40.6986167],[-73.9201003,40.6986327],[-73.9200412,40.6986388],[-73.9188354,40.6987624]]}},{"type":"Feature","properties":{"id":"lens-traffic-road-nyc-way/421085392","layer":"traffic_road","category":"transport","year":1970,"visible_year":2022,"rank":4,"name":"Howard Avenue","source_id":"way/421085392","source_url":"https://www.openstreetmap.org/way/421085392","license":"ODbL","transport_raw":0.065,"transport_count":5,"transport_activity":0.017,"representation":"major-road transport-event activity","timing_note":"Road color is a three-year transport-event activity surface on current OSM major road geometry, not measured traffic volume or congestion."},"geometry":{"type":"LineString","coordinates":[[-73.920155,40.6683546],[-73.9201296,40.6682504]]}},{"type":"Feature","properties":{"id":"lens-traffic-road-nyc-way/730268296","layer":"traffic_road","category":"transport","year":1970,"visible_year":2023,"rank":3,"name":"East New York Avenue","source_id":"way/730268296","source_url":"https://www.openstreetmap.org/way/730268296","license":"ODbL","transport_raw":0.065,"transport_count":5,"transport_activity":0.017,"representation":"major-road transport-event activity","timing_note":"Road color is a three-year transport-event activity surface on current OSM major road geometry, not measured traffic volume or congestion."},"geometry":{"type":"LineString","coordinates":[[-73.9222056,40.6673376],[-73.921872,40.667481],[-73.9214891,40.6676477],[-73.92102,40.667852],[-73.9202744,40.6681869],[-73.9201296,40.6682504]]}},{"type":"Feature","properties":{"id":"lens-traffic-road-nyc-way/476335194","layer":"traffic_road","category":"transport","year":1970,"visible_year":2026,"rank":2,"name":"Pitkin Avenue","source_id":"way/476335194","source_url":"https://www.openstreetmap.org/way/476335194","license":"ODbL","transport_raw":0.058,"transport_count":5,"transport_activity":0.015,"representation":"major-road transport-event activity","timing_note":"Road color is a three-year transport-event activity surface on current OSM major road geometry, not measured traffic volume or congestion."},"geometry":{"type":"LineString","coordinates":[[-73.920155,40.6683546],[-73.9199877,40.6683029]]}},{"type":"Feature","properties":{"id":"lens-traffic-road-nyc-way/221777100","layer":"traffic_road","category":"transport","year":1970,"visible_year":2025,"rank":4,"name":"Broadway","source_id":"way/221777100","source_url":"https://www.openstreetmap.org/way/221777100","license":"ODbL","transport_raw":0.044,"transport_count":1,"transport_activity":0.011,"representation":"major-road transport-event activity","timing_note":"Road color is a three-year transport-event activity surface on current OSM major road geometry, not measured traffic volume or congestion."},"geometry":{"type":"LineString","coordinates":[[-73.9242273,40.690735],[-73.9240604,40.690639],[-73.9236421,40.6904009],[-73.9233893,40.6902525],[-73.9231623,40.6901279],[-73.922806,40.689925],[-73.9222067,40.689582],[-73.9221058,40.6895256],[-73.9220104,40.6894722],[-73.9218331,40.6893713],[-73.9216007,40.689239],[-73.9215715,40.6892224],[-73.9213509,40.6890969],[-73.9213064,40.6890716],[-73.921214,40.689019],[-73.920967,40.6888784],[-73.9206243,40.6886833],[-73.92055,40.688641],[-73.9204889,40.6886053],[-73.9201327,40.6883975],[-73.9200451,40.6883464],[-73.9198629,40.68824],[-73.91981,40.688211],[-73.9197862,40.6881969],[-73.9191612,40.6878411],[-73.919061,40.687784],[-73.9189443,40.6877204],[-73.918733,40.6875997],[-73.9187098,40.6875869],[-73.918294,40.687357],[-73.918046,40.687213]]}},{"type":"Feature","properties":{"id":"lens-traffic-road-nyc-way/476335195","layer":"traffic_road","category":"transport","year":1970,"visible_year":2025,"rank":3,"name":"East New York Avenue","source_id":"way/476335195","source_url":"https://www.openstreetmap.org/way/476335195","license":"ODbL","transport_raw":0.032,"transport_count":4,"transport_activity":0.008,"representation":"major-road transport-event activity","timing_note":"Road color is a three-year transport-event activity surface on current OSM major road geometry, not measured traffic volume or congestion."},"geometry":{"type":"LineString","coordinates":[[-73.9201296,40.6682504],[-73.9199877,40.6683029]]}},{"type":"Feature","properties":{"id":"lens-traffic-road-nyc-way/910346276","layer":"traffic_road","category":"transport","year":1970,"visible_year":2023,"rank":3,"name":"Bushwick Avenue","source_id":"way/910346276","source_url":"https://www.openstreetmap.org/way/910346276","license":"ODbL","transport_raw":0.03,"transport_count":1,"transport_activity":0.008,"representation":"major-road transport-event activity","timing_note":"Road color is a three-year transport-event activity surface on current OSM major road geometry, not measured traffic volume or congestion."},"geometry":{"type":"LineString","coordinates":[[-73.9354939,40.6990632],[-73.9353921,40.6990451],[-73.9348638,40.6987564],[-73.9347751,40.6987078],[-73.9347216,40.6986779],[-73.9340698,40.6983162],[-73.9339951,40.6982746],[-73.9339361,40.6982419],[-73.9336931,40.698107],[-73.9333228,40.6979032],[-73.9332299,40.6978497],[-73.9331682,40.6978154],[-73.9331404,40.6978],[-73.9329846,40.6977135],[-73.9327781,40.6975988],[-73.9326213,40.6975117],[-73.9323804,40.697378],[-73.932267,40.697315]]}},{"type":"Feature","properties":{"id":"lens-traffic-road-nyc-way/734889456","layer":"traffic_road","category":"transport","year":1970,"visible_year":2025,"rank":4,"name":"Myrtle Avenue","source_id":"way/734889456","source_url":"https://www.openstreetmap.org/way/734889456","license":"ODbL","transport_raw":0.026,"transport_count":1,"transport_activity":0.007,"representation":"major-road transport-event activity","timing_note":"Road color is a three-year transport-event activity surface on current OSM major road geometry, not measured traffic volume or congestion."},"geometry":{"type":"LineString","coordinates":[[-73.9188354,40.6987624],[-73.9186222,40.6987835],[-73.9184878,40.6987967]]}},{"type":"Feature","properties":{"id":"lens-traffic-road-nyc-way/1035094699","layer":"traffic_road","category":"transport","year":1970,"visible_year":2025,"rank":4,"name":"Myrtle Avenue","source_id":"way/1035094699","source_url":"https://www.openstreetmap.org/way/1035094699","license":"ODbL","transport_raw":0.02,"transport_count":1,"transport_activity":0.005,"representation":"major-road transport-event activity","timing_note":"Road color is a three-year transport-event activity surface on current OSM major road geometry, not measured traffic volume or congestion."},"geometry":{"type":"LineString","coordinates":[[-73.9184878,40.6987967],[-73.918443,40.6988012],[-73.9183898,40.6988065]]}},{"type":"Feature","properties":{"id":"lens-traffic-road-nyc-way/1061439411","layer":"traffic_road","category":"transport","year":1970,"visible_year":2023,"rank":4,"name":"Myrtle Avenue","source_id":"way/1061439411","source_url":"https://www.openstreetmap.org/way/1061439411","license":"ODbL","transport_raw":0.019,"transport_count":1,"transport_activity":0.005,"representation":"major-road transport-event activity","timing_note":"Road color is a three-year transport-event activity surface on current OSM major road geometry, not measured traffic volume or congestion."},"geometry":{"type":"LineString","coordinates":[[-73.9352934,40.6969854],[-73.9350786,40.6970076],[-73.934008,40.697118]]}},{"type":"Feature","properties":{"id":"lens-traffic-road-nyc-way/221584050","layer":"traffic_road","category":"transport","year":1970,"visible_year":2023,"rank":3,"name":"East New York Avenue","source_id":"way/221584050","source_url":"https://www.openstreetmap.org/way/221584050","license":"ODbL","transport_raw":0.019,"transport_count":3,"transport_activity":0.005,"representation":"major-road transport-event activity","timing_note":"Road color is a three-year transport-event activity surface on current OSM major road geometry, not measured traffic volume or congestion."},"geometry":{"type":"LineString","coordinates":[[-73.922753,40.667098],[-73.9226569,40.6671401],[-73.9222056,40.6673376]]}},{"type":"Feature","properties":{"id":"lens-traffic-road-nyc-way/1426351614","layer":"traffic_road","category":"transport","year":1970,"visible_year":2025,"rank":4,"name":"Myrtle Avenue","source_id":"way/1426351614","source_url":"https://www.openstreetmap.org/way/1426351614","license":"ODbL","transport_raw":0.017,"transport_count":1,"transport_activity":0.004,"representation":"major-road transport-event activity","timing_note":"Road color is a three-year transport-event activity surface on current OSM major road geometry, not measured traffic volume or congestion."},"geometry":{"type":"LineString","coordinates":[[-73.9183898,40.6988065],[-73.9182858,40.698817]]}},{"type":"Feature","properties":{"id":"lens-traffic-road-nyc-way/221583065","layer":"traffic_road","category":"transport","year":1970,"visible_year":2024,"rank":3,"name":"East New York Avenue","source_id":"way/221583065","source_url":"https://www.openstreetmap.org/way/221583065","license":"ODbL","transport_raw":0.006,"transport_count":1,"transport_activity":0.002,"representation":"major-road transport-event activity","timing_note":"Road color is a three-year transport-event activity surface on current OSM major road geometry, not measured traffic volume or congestion."},"geometry":{"type":"LineString","coordinates":[[-73.9199877,40.6683029],[-73.9198851,40.6683333],[-73.9198215,40.668352],[-73.9194358,40.6684067]]}},{"type":"Feature","properties":{"id":"lens-traffic-road-nyc-way/497256396","layer":"traffic_road","category":"transport","year":1970,"visible_year":2025,"rank":2,"name":"Buffalo Avenue","source_id":"way/497256396","source_url":"https://www.openstreetmap.org/way/497256396","license":"ODbL","transport_raw":0.001,"transport_count":1,"transport_activity":0,"representation":"major-road transport-event activity","timing_note":"Road color is a three-year transport-event activity surface on current OSM major road geometry, not measured traffic volume or congestion."},"geometry":{"type":"LineString","coordinates":[[-73.925693,40.6677416],[-73.9257938,40.6667195],[-73.9258329,40.6663237],[-73.9258336,40.6662971],[-73.9258293,40.6662718],[-73.9258118,40.6662412]]}}]}
