{"type":"FeatureCollection","name":"nyc_transport_roads_1969","metadata":{"schema_version":"1.0.0","city_id":"nyc","year":1969,"road_source":"data/raw/overpass/nyc_major_roads_osm_2026.geojson","method":"Road features are colored from nearby source-backed transport records in a rolling three-year window.","caveat":"Transport road colors are activity hotspots, not measured traffic counts or live congestion."},"features":[{"type":"Feature","properties":{"id":"lens-traffic-road-nyc-way/943536742","layer":"traffic_road","category":"transport","year":1969,"visible_year":2025,"rank":3,"name":"Bushwick Avenue","source_id":"way/943536742","source_url":"https://www.openstreetmap.org/way/943536742","license":"ODbL","transport_raw":0.545,"transport_count":1,"transport_activity":1,"representation":"major-road transport-event activity","timing_note":"Road color is a three-year transport-event activity surface on current OSM major road geometry, not measured traffic volume or congestion."},"geometry":{"type":"LineString","coordinates":[[-73.9264921,40.6941461],[-73.9264306,40.6941146],[-73.925972,40.693866],[-73.9257891,40.6937646],[-73.925715,40.693724]]}},{"type":"Feature","properties":{"id":"lens-traffic-road-nyc-way/221725601","layer":"traffic_road","category":"transport","year":1969,"visible_year":2025,"rank":3,"name":"Bushwick Avenue","source_id":"way/221725601","source_url":"https://www.openstreetmap.org/way/221725601","license":"ODbL","transport_raw":0.54,"transport_count":1,"transport_activity":0.991,"representation":"major-road transport-event activity","timing_note":"Road color is a three-year transport-event activity surface on current OSM major road geometry, not measured traffic volume or congestion."},"geometry":{"type":"LineString","coordinates":[[-73.9264921,40.6941461],[-73.9265584,40.6941832],[-73.926736,40.69428]]}},{"type":"Feature","properties":{"id":"lens-traffic-road-nyc-way/798233924","layer":"traffic_road","category":"transport","year":1969,"visible_year":2025,"rank":3,"name":"Bushwick Avenue","source_id":"way/798233924","source_url":"https://www.openstreetmap.org/way/798233924","license":"ODbL","transport_raw":0.516,"transport_count":1,"transport_activity":0.947,"representation":"major-road transport-event activity","timing_note":"Road color is a three-year transport-event activity surface on current OSM major road geometry, not measured traffic volume or congestion."},"geometry":{"type":"LineString","coordinates":[[-73.926736,40.69428],[-73.9271753,40.6945197],[-73.927227,40.694548]]}},{"type":"Feature","properties":{"id":"lens-traffic-road-nyc-way/798224594","layer":"traffic_road","category":"transport","year":1969,"visible_year":2025,"rank":3,"name":"Bushwick Avenue","source_id":"way/798224594","source_url":"https://www.openstreetmap.org/way/798224594","license":"ODbL","transport_raw":0.498,"transport_count":1,"transport_activity":0.913,"representation":"major-road transport-event activity","timing_note":"Road color is a three-year transport-event activity surface on current OSM major road geometry, not measured traffic volume or congestion."},"geometry":{"type":"LineString","coordinates":[[-73.927227,40.694548],[-73.9272993,40.6945879],[-73.927497,40.694697]]}},{"type":"Feature","properties":{"id":"lens-traffic-road-nyc-way/798224595","layer":"traffic_road","category":"transport","year":1969,"visible_year":2025,"rank":3,"name":"Bushwick Avenue","source_id":"way/798224595","source_url":"https://www.openstreetmap.org/way/798224595","license":"ODbL","transport_raw":0.454,"transport_count":1,"transport_activity":0.833,"representation":"major-road transport-event activity","timing_note":"Road color is a three-year transport-event activity surface on current OSM major road geometry, not measured traffic volume or congestion."},"geometry":{"type":"LineString","coordinates":[[-73.927497,40.694697],[-73.9282116,40.6950861],[-73.928259,40.695111]]}},{"type":"Feature","properties":{"id":"lens-traffic-road-nyc-way/587067522","layer":"traffic_road","category":"transport","year":1969,"visible_year":2025,"rank":3,"name":"Bushwick Avenue","source_id":"way/587067522","source_url":"https://www.openstreetmap.org/way/587067522","license":"ODbL","transport_raw":0.43,"transport_count":1,"transport_activity":0.788,"representation":"major-road transport-event activity","timing_note":"Road color is a three-year transport-event activity surface on current OSM major road geometry, not measured traffic volume or congestion."},"geometry":{"type":"LineString","coordinates":[[-73.928259,40.695111],[-73.9283475,40.6951592],[-73.928431,40.695205]]}},{"type":"Feature","properties":{"id":"lens-traffic-road-nyc-way/976468228","layer":"traffic_road","category":"transport","year":1969,"visible_year":2022,"rank":4,"name":"Broadway","source_id":"way/976468228","source_url":"https://www.openstreetmap.org/way/976468228","license":"ODbL","transport_raw":0.419,"transport_count":1,"transport_activity":0.769,"representation":"major-road transport-event activity","timing_note":"Road color is a three-year transport-event activity surface on current OSM major road geometry, not measured traffic volume or congestion."},"geometry":{"type":"LineString","coordinates":[[-73.9278278,40.6927883],[-73.9277589,40.6927487],[-73.927507,40.692604]]}},{"type":"Feature","properties":{"id":"lens-traffic-road-nyc-way/219964442","layer":"traffic_road","category":"transport","year":1969,"visible_year":2025,"rank":4,"name":"Broadway","source_id":"way/219964442","source_url":"https://www.openstreetmap.org/way/219964442","license":"ODbL","transport_raw":0.417,"transport_count":1,"transport_activity":0.766,"representation":"major-road transport-event activity","timing_note":"Road color is a three-year transport-event activity surface on current OSM major road geometry, not measured traffic volume or congestion."},"geometry":{"type":"LineString","coordinates":[[-73.928043,40.692904],[-73.9278997,40.692827],[-73.9278278,40.6927883]]}},{"type":"Feature","properties":{"id":"lens-traffic-road-nyc-way/943536741","layer":"traffic_road","category":"transport","year":1969,"visible_year":2022,"rank":4,"name":"Broadway","source_id":"way/943536741","source_url":"https://www.openstreetmap.org/way/943536741","license":"ODbL","transport_raw":0.417,"transport_count":1,"transport_activity":0.765,"representation":"major-road transport-event activity","timing_note":"Road color is a three-year transport-event activity surface on current OSM major road geometry, not measured traffic volume or congestion."},"geometry":{"type":"LineString","coordinates":[[-73.927507,40.692604],[-73.927071,40.692346]]}},{"type":"Feature","properties":{"id":"lens-traffic-road-nyc-way/221688754","layer":"traffic_road","category":"transport","year":1969,"visible_year":2025,"rank":4,"name":"Broadway","source_id":"way/221688754","source_url":"https://www.openstreetmap.org/way/221688754","license":"ODbL","transport_raw":0.409,"transport_count":1,"transport_activity":0.75,"representation":"major-road transport-event activity","timing_note":"Road color is a three-year transport-event activity surface on current OSM major road geometry, not measured traffic volume or congestion."},"geometry":{"type":"LineString","coordinates":[[-73.928043,40.692904],[-73.9284735,40.6931456],[-73.9285537,40.6931929],[-73.9285934,40.6932147]]}},{"type":"Feature","properties":{"id":"lens-traffic-road-nyc-way/221725599","layer":"traffic_road","category":"transport","year":1969,"visible_year":2022,"rank":4,"name":"Broadway","source_id":"way/221725599","source_url":"https://www.openstreetmap.org/way/221725599","license":"ODbL","transport_raw":0.406,"transport_count":1,"transport_activity":0.745,"representation":"major-road transport-event activity","timing_note":"Road color is a three-year transport-event activity surface on current OSM major road geometry, not measured traffic volume or congestion."},"geometry":{"type":"LineString","coordinates":[[-73.927071,40.692346],[-73.9266137,40.6920921],[-73.9264292,40.6919886]]}},{"type":"Feature","properties":{"id":"lens-traffic-road-nyc-way/733737815","layer":"traffic_road","category":"transport","year":1969,"visible_year":2025,"rank":4,"name":"Broadway","source_id":"way/733737815","source_url":"https://www.openstreetmap.org/way/733737815","license":"ODbL","transport_raw":0.403,"transport_count":1,"transport_activity":0.74,"representation":"major-road transport-event activity","timing_note":"Road color is a three-year transport-event activity surface on current OSM major road geometry, not measured traffic volume or congestion."},"geometry":{"type":"LineString","coordinates":[[-73.9285934,40.6932147],[-73.9286433,40.693243]]}},{"type":"Feature","properties":{"id":"lens-traffic-road-nyc-way/944136520","layer":"traffic_road","category":"transport","year":1969,"visible_year":2025,"rank":4,"name":"Broadway","source_id":"way/944136520","source_url":"https://www.openstreetmap.org/way/944136520","license":"ODbL","transport_raw":0.385,"transport_count":1,"transport_activity":0.707,"representation":"major-road transport-event activity","timing_note":"Road color is a three-year transport-event activity surface on current OSM major road geometry, not measured traffic volume or congestion."},"geometry":{"type":"LineString","coordinates":[[-73.9286433,40.693243],[-73.9288131,40.693343],[-73.9288663,40.6933742],[-73.9296717,40.6938462],[-73.929702,40.693864]]}},{"type":"Feature","properties":{"id":"lens-traffic-road-nyc-way/432554453","layer":"traffic_road","category":"transport","year":1969,"visible_year":2025,"rank":3,"name":"Bushwick Avenue","source_id":"way/432554453","source_url":"https://www.openstreetmap.org/way/432554453","license":"ODbL","transport_raw":0.372,"transport_count":1,"transport_activity":0.683,"representation":"major-road transport-event activity","timing_note":"Road color is a three-year transport-event activity surface on current OSM major road geometry, not measured traffic volume or congestion."},"geometry":{"type":"LineString","coordinates":[[-73.925715,40.693724],[-73.925678,40.6937045],[-73.9252734,40.6934907],[-73.925206,40.693455],[-73.9251325,40.6934154],[-73.924951,40.693315],[-73.924439,40.693041],[-73.9242718,40.6929469],[-73.924185,40.692901],[-73.924128,40.6928704],[-73.9237489,40.6926672],[-73.923672,40.692626],[-73.9236056,40.6925894],[-73.922961,40.692236],[-73.922919,40.692213],[-73.9225714,40.692019],[-73.9222936,40.6918616],[-73.92223,40.691823],[-73.9221726,40.6917903],[-73.9214762,40.691391],[-73.921411,40.691353],[-73.9213456,40.6913167],[-73.9207372,40.6909698],[-73.920657,40.690927]]}},{"type":"Feature","properties":{"id":"lens-traffic-road-nyc-way/221725602","layer":"traffic_road","category":"transport","year":1969,"visible_year":2022,"rank":4,"name":"Broadway","source_id":"way/221725602","source_url":"https://www.openstreetmap.org/way/221725602","license":"ODbL","transport_raw":0.358,"transport_count":1,"transport_activity":0.657,"representation":"major-road transport-event activity","timing_note":"Road color is a three-year transport-event activity surface on current OSM major road geometry, not measured traffic volume or congestion."},"geometry":{"type":"LineString","coordinates":[[-73.9264292,40.6919886],[-73.9263918,40.6919688],[-73.9263182,40.6919268],[-73.9262533,40.6918897],[-73.9256142,40.6915251],[-73.92555,40.6914885],[-73.9254996,40.6914598],[-73.9253312,40.6913638],[-73.924394,40.690829],[-73.9243244,40.6907893],[-73.9242273,40.690735]]}},{"type":"Feature","properties":{"id":"lens-traffic-road-nyc-way/227074765","layer":"traffic_road","category":"transport","year":1969,"visible_year":2025,"rank":3,"name":"Bushwick Avenue","source_id":"way/227074765","source_url":"https://www.openstreetmap.org/way/227074765","license":"ODbL","transport_raw":0.341,"transport_count":1,"transport_activity":0.627,"representation":"major-road transport-event activity","timing_note":"Road color is a three-year transport-event activity surface on current OSM major road geometry, not measured traffic volume or congestion."},"geometry":{"type":"LineString","coordinates":[[-73.9303582,40.6962589],[-73.9302998,40.6962281],[-73.929962,40.696042],[-73.9299007,40.6960083],[-73.9298542,40.6959837],[-73.9296596,40.6958802],[-73.929584,40.69584],[-73.9295063,40.6957962],[-73.9293032,40.6956819],[-73.9292431,40.6956481],[-73.9291931,40.6956208],[-73.928431,40.695205]]}},{"type":"Feature","properties":{"id":"lens-traffic-road-nyc-way/733737814","layer":"traffic_road","category":"transport","year":1969,"visible_year":2025,"rank":4,"name":"Broadway","source_id":"way/733737814","source_url":"https://www.openstreetmap.org/way/733737814","license":"ODbL","transport_raw":0.32,"transport_count":1,"transport_activity":0.587,"representation":"major-road transport-event activity","timing_note":"Road color is a three-year transport-event activity surface on current OSM major road geometry, not measured traffic volume or congestion."},"geometry":{"type":"LineString","coordinates":[[-73.929702,40.693864],[-73.9298666,40.6939561],[-73.930512,40.694317],[-73.931085,40.6946412],[-73.931144,40.6946746]]}},{"type":"Feature","properties":{"id":"lens-traffic-road-nyc-way/682886115","layer":"traffic_road","category":"transport","year":1969,"visible_year":2022,"rank":4,"name":"Myrtle Avenue","source_id":"way/682886115","source_url":"https://www.openstreetmap.org/way/682886115","license":"ODbL","transport_raw":0.301,"transport_count":1,"transport_activity":0.552,"representation":"major-road transport-event activity","timing_note":"Road color is a three-year transport-event activity surface on current OSM major road geometry, not measured traffic volume or congestion."},"geometry":{"type":"LineString","coordinates":[[-73.9260331,40.6980098],[-73.9255009,40.6980647],[-73.925352,40.69808],[-73.9251631,40.6981006]]}},{"type":"Feature","properties":{"id":"lens-traffic-road-nyc-way/227074787","layer":"traffic_road","category":"transport","year":1969,"visible_year":2022,"rank":4,"name":"Myrtle Avenue","source_id":"way/227074787","source_url":"https://www.openstreetmap.org/way/227074787","license":"ODbL","transport_raw":0.298,"transport_count":1,"transport_activity":0.546,"representation":"major-road transport-event activity","timing_note":"Road color is a three-year transport-event activity surface on current OSM major road geometry, not measured traffic volume or congestion."},"geometry":{"type":"LineString","coordinates":[[-73.9293235,40.6976464],[-73.9291911,40.6976614],[-73.9285037,40.6977373],[-73.9278298,40.6978104],[-73.9265776,40.6979544],[-73.9260331,40.6980098]]}},{"type":"Feature","properties":{"id":"lens-traffic-road-nyc-way/227074764","layer":"traffic_road","category":"transport","year":1969,"visible_year":2025,"rank":3,"name":"Bushwick Avenue","source_id":"way/227074764","source_url":"https://www.openstreetmap.org/way/227074764","license":"ODbL","transport_raw":0.284,"transport_count":1,"transport_activity":0.521,"representation":"major-road transport-event activity","timing_note":"Road color is a three-year transport-event activity surface on current OSM major road geometry, not measured traffic volume or congestion."},"geometry":{"type":"LineString","coordinates":[[-73.930507,40.6963423],[-73.9304208,40.6962944],[-73.9303582,40.6962589]]}},{"type":"Feature","properties":{"id":"lens-traffic-road-nyc-way/944145791","layer":"traffic_road","category":"transport","year":1969,"visible_year":2022,"rank":4,"name":"Broadway","source_id":"way/944145791","source_url":"https://www.openstreetmap.org/way/944145791","license":"ODbL","transport_raw":0.277,"transport_count":1,"transport_activity":0.509,"representation":"major-road transport-event activity","timing_note":"Road color is a three-year transport-event activity surface on current OSM major road geometry, not measured traffic volume or congestion."},"geometry":{"type":"LineString","coordinates":[[-73.931144,40.6946746],[-73.9312145,40.6947139]]}},{"type":"Feature","properties":{"id":"lens-traffic-road-nyc-way/440633382","layer":"traffic_road","category":"transport","year":1969,"visible_year":2025,"rank":4,"name":"Broadway","source_id":"way/440633382","source_url":"https://www.openstreetmap.org/way/440633382","license":"ODbL","transport_raw":0.27,"transport_count":1,"transport_activity":0.496,"representation":"major-road transport-event activity","timing_note":"Road color is a three-year transport-event activity surface on current OSM major road geometry, not measured traffic volume or congestion."},"geometry":{"type":"LineString","coordinates":[[-73.9312145,40.6947139],[-73.9312482,40.6947348],[-73.9314396,40.6948393]]}},{"type":"Feature","properties":{"id":"lens-traffic-road-nyc-way/227074763","layer":"traffic_road","category":"transport","year":1969,"visible_year":2026,"rank":4,"name":"Broadway","source_id":"way/227074763","source_url":"https://www.openstreetmap.org/way/227074763","license":"ODbL","transport_raw":0.252,"transport_count":1,"transport_activity":0.462,"representation":"major-road transport-event activity","timing_note":"Road color is a three-year transport-event activity surface on current OSM major road geometry, not measured traffic volume or congestion."},"geometry":{"type":"LineString","coordinates":[[-73.9317736,40.6950273],[-73.9317286,40.695002],[-73.9315583,40.6949061],[-73.9314965,40.6948713],[-73.9314396,40.6948393]]}},{"type":"Feature","properties":{"id":"lens-traffic-road-nyc-way/227074786","layer":"traffic_road","category":"transport","year":1969,"visible_year":2024,"rank":4,"name":"Myrtle Avenue","source_id":"way/227074786","source_url":"https://www.openstreetmap.org/way/227074786","license":"ODbL","transport_raw":0.252,"transport_count":1,"transport_activity":0.462,"representation":"major-road transport-event activity","timing_note":"Road color is a three-year transport-event activity surface on current OSM major road geometry, not measured traffic volume or congestion."},"geometry":{"type":"LineString","coordinates":[[-73.9251631,40.6981006],[-73.9250592,40.69811],[-73.924598,40.698157],[-73.924043,40.6982185],[-73.9228818,40.6983366],[-73.9227473,40.6983503],[-73.9226474,40.6983607],[-73.9218936,40.6984391],[-73.921772,40.6984517]]}},{"type":"Feature","properties":{"id":"lens-traffic-road-nyc-way/682886111","layer":"traffic_road","category":"transport","year":1969,"visible_year":2022,"rank":4,"name":"Myrtle Avenue","source_id":"way/682886111","source_url":"https://www.openstreetmap.org/way/682886111","license":"ODbL","transport_raw":0.236,"transport_count":1,"transport_activity":0.432,"representation":"major-road transport-event activity","timing_note":"Road color is a three-year transport-event activity surface on current OSM major road geometry, not measured traffic volume or congestion."},"geometry":{"type":"LineString","coordinates":[[-73.9313132,40.6974228],[-73.931221,40.697433],[-73.9311498,40.6974409],[-73.9298006,40.6975905],[-73.9295415,40.6976192],[-73.9294272,40.6976346],[-73.9293235,40.6976464]]}},{"type":"Feature","properties":{"id":"lens-traffic-road-nyc-way/68523760","layer":"traffic_road","category":"transport","year":1969,"visible_year":2025,"rank":3,"name":"Bushwick Avenue","source_id":"way/68523760","source_url":"https://www.openstreetmap.org/way/68523760","license":"ODbL","transport_raw":0.206,"transport_count":1,"transport_activity":0.378,"representation":"major-road transport-event activity","timing_note":"Road color is a three-year transport-event activity surface on current OSM major road geometry, not measured traffic volume or congestion."},"geometry":{"type":"LineString","coordinates":[[-73.932267,40.697315],[-73.9321509,40.6972512],[-73.9319249,40.6971264],[-73.9318458,40.6970814],[-73.9317831,40.6970488],[-73.9311646,40.6967044],[-73.9310876,40.696662],[-73.9310194,40.6966248],[-73.930507,40.6963423]]}},{"type":"Feature","properties":{"id":"lens-traffic-road-nyc-way/997124856","layer":"traffic_road","category":"transport","year":1969,"visible_year":2022,"rank":4,"name":"Myrtle Avenue","source_id":"way/997124856","source_url":"https://www.openstreetmap.org/way/997124856","license":"ODbL","transport_raw":0.184,"transport_count":1,"transport_activity":0.337,"representation":"major-road transport-event activity","timing_note":"Road color is a three-year transport-event activity surface on current OSM major road geometry, not measured traffic volume or congestion."},"geometry":{"type":"LineString","coordinates":[[-73.921772,40.6984517],[-73.9216171,40.6984673],[-73.9214715,40.6984827]]}},{"type":"Feature","properties":{"id":"lens-traffic-road-nyc-way/321542908","layer":"traffic_road","category":"transport","year":1969,"visible_year":2025,"rank":4,"name":"Myrtle Avenue","source_id":"way/321542908","source_url":"https://www.openstreetmap.org/way/321542908","license":"ODbL","transport_raw":0.17,"transport_count":1,"transport_activity":0.312,"representation":"major-road transport-event activity","timing_note":"Road color is a three-year transport-event activity surface on current OSM major road geometry, not measured traffic volume or congestion."},"geometry":{"type":"LineString","coordinates":[[-73.932267,40.697315],[-73.9321202,40.6973316],[-73.9313132,40.6974228]]}},{"type":"Feature","properties":{"id":"lens-traffic-road-nyc-way/823846116","layer":"traffic_road","category":"transport","year":1969,"visible_year":2026,"rank":4,"name":"Broadway","source_id":"way/823846116","source_url":"https://www.openstreetmap.org/way/823846116","license":"ODbL","transport_raw":0.141,"transport_count":1,"transport_activity":0.259,"representation":"major-road transport-event activity","timing_note":"Road color is a three-year transport-event activity surface on current OSM major road geometry, not measured traffic volume or congestion."},"geometry":{"type":"LineString","coordinates":[[-73.9352934,40.6969854],[-73.9351815,40.6969237],[-73.9349002,40.6967687],[-73.9347795,40.6967021],[-73.9341373,40.6963449],[-73.933828,40.696184],[-73.9333792,40.6959313],[-73.9332325,40.6958487],[-73.9331377,40.6957953],[-73.9330376,40.6957417],[-73.9325645,40.6954731],[-73.9324501,40.6954082],[-73.9323704,40.6953633],[-73.9323118,40.6953303],[-73.9319291,40.6951149],[-73.9318635,40.6950779],[-73.9317736,40.6950273]]}},{"type":"Feature","properties":{"id":"lens-traffic-road-nyc-way/823846115","layer":"traffic_road","category":"transport","year":1969,"visible_year":2025,"rank":4,"name":"Myrtle Avenue","source_id":"way/823846115","source_url":"https://www.openstreetmap.org/way/823846115","license":"ODbL","transport_raw":0.127,"transport_count":1,"transport_activity":0.232,"representation":"major-road transport-event activity","timing_note":"Road color is a three-year transport-event activity surface on current OSM major road geometry, not measured traffic volume or congestion."},"geometry":{"type":"LineString","coordinates":[[-73.934008,40.697118],[-73.932935,40.697236],[-73.932835,40.697247],[-73.932693,40.697264],[-73.9324108,40.6972978],[-73.932267,40.697315]]}},{"type":"Feature","properties":{"id":"lens-traffic-road-nyc-way/997124852","layer":"traffic_road","category":"transport","year":1969,"visible_year":2024,"rank":4,"name":"Myrtle Avenue","source_id":"way/997124852","source_url":"https://www.openstreetmap.org/way/997124852","license":"ODbL","transport_raw":0.126,"transport_count":1,"transport_activity":0.232,"representation":"major-road transport-event activity","timing_note":"Road color is a three-year transport-event activity surface on current OSM major road geometry, not measured traffic volume or congestion."},"geometry":{"type":"LineString","coordinates":[[-73.9214715,40.6984827],[-73.9213369,40.6984994],[-73.9202457,40.6986167],[-73.9201003,40.6986327],[-73.9200412,40.6986388],[-73.9188354,40.6987624]]}},{"type":"Feature","properties":{"id":"lens-traffic-road-nyc-way/432554456","layer":"traffic_road","category":"transport","year":1969,"visible_year":2025,"rank":3,"name":"Bushwick Avenue","source_id":"way/432554456","source_url":"https://www.openstreetmap.org/way/432554456","license":"ODbL","transport_raw":0.126,"transport_count":1,"transport_activity":0.231,"representation":"major-road transport-event activity","timing_note":"Road color is a three-year transport-event activity surface on current OSM major road geometry, not measured traffic volume or congestion."},"geometry":{"type":"LineString","coordinates":[[-73.920657,40.690927],[-73.9205975,40.6908927],[-73.9199752,40.6905383],[-73.919906,40.690499],[-73.9198513,40.6904675],[-73.919213,40.6901114],[-73.919153,40.690076]]}},{"type":"Feature","properties":{"id":"lens-traffic-road-nyc-way/221777100","layer":"traffic_road","category":"transport","year":1969,"visible_year":2025,"rank":4,"name":"Broadway","source_id":"way/221777100","source_url":"https://www.openstreetmap.org/way/221777100","license":"ODbL","transport_raw":0.075,"transport_count":1,"transport_activity":0.138,"representation":"major-road transport-event activity","timing_note":"Road color is a three-year transport-event activity surface on current OSM major road geometry, not measured traffic volume or congestion."},"geometry":{"type":"LineString","coordinates":[[-73.9242273,40.690735],[-73.9240604,40.690639],[-73.9236421,40.6904009],[-73.9233893,40.6902525],[-73.9231623,40.6901279],[-73.922806,40.689925],[-73.9222067,40.689582],[-73.9221058,40.6895256],[-73.9220104,40.6894722],[-73.9218331,40.6893713],[-73.9216007,40.689239],[-73.9215715,40.6892224],[-73.9213509,40.6890969],[-73.9213064,40.6890716],[-73.921214,40.689019],[-73.920967,40.6888784],[-73.9206243,40.6886833],[-73.92055,40.688641],[-73.9204889,40.6886053],[-73.9201327,40.6883975],[-73.9200451,40.6883464],[-73.9198629,40.68824],[-73.91981,40.688211],[-73.9197862,40.6881969],[-73.9191612,40.6878411],[-73.919061,40.687784],[-73.9189443,40.6877204],[-73.918733,40.6875997],[-73.9187098,40.6875869],[-73.918294,40.687357],[-73.918046,40.687213]]}},{"type":"Feature","properties":{"id":"lens-traffic-road-nyc-way/910346276","layer":"traffic_road","category":"transport","year":1969,"visible_year":2023,"rank":3,"name":"Bushwick Avenue","source_id":"way/910346276","source_url":"https://www.openstreetmap.org/way/910346276","license":"ODbL","transport_raw":0.051,"transport_count":1,"transport_activity":0.094,"representation":"major-road transport-event activity","timing_note":"Road color is a three-year transport-event activity surface on current OSM major road geometry, not measured traffic volume or congestion."},"geometry":{"type":"LineString","coordinates":[[-73.9354939,40.6990632],[-73.9353921,40.6990451],[-73.9348638,40.6987564],[-73.9347751,40.6987078],[-73.9347216,40.6986779],[-73.9340698,40.6983162],[-73.9339951,40.6982746],[-73.9339361,40.6982419],[-73.9336931,40.698107],[-73.9333228,40.6979032],[-73.9332299,40.6978497],[-73.9331682,40.6978154],[-73.9331404,40.6978],[-73.9329846,40.6977135],[-73.9327781,40.6975988],[-73.9326213,40.6975117],[-73.9323804,40.697378],[-73.932267,40.697315]]}},{"type":"Feature","properties":{"id":"lens-traffic-road-nyc-way/734889456","layer":"traffic_road","category":"transport","year":1969,"visible_year":2025,"rank":4,"name":"Myrtle Avenue","source_id":"way/734889456","source_url":"https://www.openstreetmap.org/way/734889456","license":"ODbL","transport_raw":0.044,"transport_count":1,"transport_activity":0.082,"representation":"major-road transport-event activity","timing_note":"Road color is a three-year transport-event activity surface on current OSM major road geometry, not measured traffic volume or congestion."},"geometry":{"type":"LineString","coordinates":[[-73.9188354,40.6987624],[-73.9186222,40.6987835],[-73.9184878,40.6987967]]}},{"type":"Feature","properties":{"id":"lens-traffic-road-nyc-way/1035094699","layer":"traffic_road","category":"transport","year":1969,"visible_year":2025,"rank":4,"name":"Myrtle Avenue","source_id":"way/1035094699","source_url":"https://www.openstreetmap.org/way/1035094699","license":"ODbL","transport_raw":0.034,"transport_count":1,"transport_activity":0.062,"representation":"major-road transport-event activity","timing_note":"Road color is a three-year transport-event activity surface on current OSM major road geometry, not measured traffic volume or congestion."},"geometry":{"type":"LineString","coordinates":[[-73.9184878,40.6987967],[-73.918443,40.6988012],[-73.9183898,40.6988065]]}},{"type":"Feature","properties":{"id":"lens-traffic-road-nyc-way/1061439411","layer":"traffic_road","category":"transport","year":1969,"visible_year":2023,"rank":4,"name":"Myrtle Avenue","source_id":"way/1061439411","source_url":"https://www.openstreetmap.org/way/1061439411","license":"ODbL","transport_raw":0.032,"transport_count":1,"transport_activity":0.059,"representation":"major-road transport-event activity","timing_note":"Road color is a three-year transport-event activity surface on current OSM major road geometry, not measured traffic volume or congestion."},"geometry":{"type":"LineString","coordinates":[[-73.9352934,40.6969854],[-73.9350786,40.6970076],[-73.934008,40.697118]]}},{"type":"Feature","properties":{"id":"lens-traffic-road-nyc-way/1426351614","layer":"traffic_road","category":"transport","year":1969,"visible_year":2025,"rank":4,"name":"Myrtle Avenue","source_id":"way/1426351614","source_url":"https://www.openstreetmap.org/way/1426351614","license":"ODbL","transport_raw":0.029,"transport_count":1,"transport_activity":0.053,"representation":"major-road transport-event activity","timing_note":"Road color is a three-year transport-event activity surface on current OSM major road geometry, not measured traffic volume or congestion."},"geometry":{"type":"LineString","coordinates":[[-73.9183898,40.6988065],[-73.9182858,40.698817]]}}]}
