{"type":"FeatureCollection","schema_version":"1.0.0","city_id":"london","year":2011,"features":[{"type":"Feature","id":"london-milestone-2011-replacement-london-plan-adopted-western-congestion-charge-extension-removed-22","properties":{"city_id":"london","event_id":"london-milestone-2011-replacement-london-plan-adopted-western-congestion-charge-extension-removed-22","title":"Replacement London Plan adopted; western Congestion Charge extension removed","year":2011,"effective_date":"2011","date_precision":"year","category":"built_environment","lens":"built_environment","confidence":"documented","source_ids":["gla-london-plan","dft-road-traffic-counts"],"explanation":"Planning-policy refresh and road-pricing geography change."},"geometry":{"type":"Point","coordinates":[-0.1276,51.5072]}}]}
