{"type":"FeatureCollection","schema_version":"1.0.0","city_id":"london","year":1960,"features":[{"type":"Feature","id":"lon_planning_designation_listed-building-outline_42117289","properties":{"city_id":"london","event_id":"lon_planning_designation_listed-building-outline_42117289","title":"Listed building outline: (North side) No.5 The National Institute for Social Work Training & attached railings & gates","short_description":"Planning Data listed-building outline record LB1293; quality authoritative; LPA Camden.","year":1960,"effective_date":"1960-04-07","date_precision":"day","category":"built_environment","lens":"built_environment","confidence":"documented","source_ids":["lon-extra-planning-data-listed-building-outlines"],"explanation":"Planning/protection evidence record for (North side) No.5 The National Institute for Social Work Training & attached railings & gates; designation/effective date is taken from Planning Data fields where supplied."},"geometry":{"type":"Point","coordinates":[-0.127361,51.525198]}},{"type":"Feature","id":"lon_planning_designation_listed-building-outline_42164896","properties":{"city_id":"london","event_id":"lon_planning_designation_listed-building-outline_42164896","title":"Listed building outline: Palace Theatre 109 - 113 Shaftesbury Avenue London W1D 5AY","short_description":"Planning Data listed-building outline record 1066339; quality authoritative; LPA Westminster.","year":1960,"effective_date":"1960-06-29","date_precision":"day","category":"built_environment","lens":"built_environment","confidence":"documented","source_ids":["lon-extra-planning-data-listed-building-outlines"],"explanation":"Planning/protection evidence record for Palace Theatre 109 - 113 Shaftesbury Avenue London W1D 5AY; designation/effective date is taken from Planning Data fields where supplied."},"geometry":{"type":"Point","coordinates":[-0.129771,51.51312]}},{"type":"Feature","id":"lon_planning_designation_listed-building-outline_42165651","properties":{"city_id":"london","event_id":"lon_planning_designation_listed-building-outline_42165651","title":"Listed building outline: 2 Charing Cross Road London WC2H 0HH","short_description":"Planning Data listed-building outline record 1217927; quality authoritative; LPA Westminster.","year":1960,"effective_date":"1960-09-20","date_precision":"day","category":"built_environment","lens":"built_environment","confidence":"documented","source_ids":["lon-extra-planning-data-listed-building-outlines"],"explanation":"Planning/protection evidence record for 2 Charing Cross Road London WC2H 0HH; designation/effective date is taken from Planning Data fields where supplied."},"geometry":{"type":"Point","coordinates":[-0.127844,51.510025]}},{"type":"Feature","id":"lon_planning_designation_listed-building-outline_42166813","properties":{"city_id":"london","event_id":"lon_planning_designation_listed-building-outline_42166813","title":"Listed building outline: 2 Temple Place London WC2R 3BD","short_description":"Planning Data listed-building outline record 1234514; quality authoritative; LPA Westminster.","year":1960,"effective_date":"1960-09-20","date_precision":"day","category":"built_environment","lens":"built_environment","confidence":"documented","source_ids":["lon-extra-planning-data-listed-building-outlines"],"explanation":"Planning/protection evidence record for 2 Temple Place London WC2R 3BD; designation/effective date is taken from Planning Data fields where supplied."},"geometry":{"type":"Point","coordinates":[-0.112207,51.511646]}},{"type":"Feature","id":"lon_planning_designation_listed-building-outline_42167236","properties":{"city_id":"london","event_id":"lon_planning_designation_listed-building-outline_42167236","title":"Listed building outline: Flat 1 36 St Martin's Lane London WC2N 4ER","short_description":"Planning Data listed-building outline record 1236022; quality authoritative; LPA Westminster.","year":1960,"effective_date":"1960-09-20","date_precision":"day","category":"built_environment","lens":"built_environment","confidence":"documented","source_ids":["lon-extra-planning-data-listed-building-outlines"],"explanation":"Planning/protection evidence record for Flat 1 36 St Martin's Lane London WC2N 4ER; designation/effective date is taken from Planning Data fields where supplied."},"geometry":{"type":"Point","coordinates":[-0.126244,51.51001]}},{"type":"Feature","id":"lon_planning_designation_listed-building-outline_42167241","properties":{"city_id":"london","event_id":"lon_planning_designation_listed-building-outline_42167241","title":"Listed building outline: 102 - 103 St Martin's Lane London WC2N 4BG","short_description":"Planning Data listed-building outline record 1236051; quality authoritative; LPA Westminster.","year":1960,"effective_date":"1960-09-20","date_precision":"day","category":"built_environment","lens":"built_environment","confidence":"documented","source_ids":["lon-extra-planning-data-listed-building-outlines"],"explanation":"Planning/protection evidence record for 102 - 103 St Martin's Lane London WC2N 4BG; designation/effective date is taken from Planning Data fields where supplied."},"geometry":{"type":"Point","coordinates":[-0.127309,51.510211]}},{"type":"Feature","id":"lon_planning_designation_listed-building-outline_42167571","properties":{"city_id":"london","event_id":"lon_planning_designation_listed-building-outline_42167571","title":"Listed building outline: Pitch F3020 Charing Cross Road London WC2H 0DA","short_description":"Planning Data listed-building outline record 1292230; quality authoritative; LPA Westminster.","year":1960,"effective_date":"1960-09-20","date_precision":"day","category":"built_environment","lens":"built_environment","confidence":"documented","source_ids":["lon-extra-planning-data-listed-building-outlines"],"explanation":"Planning/protection evidence record for Pitch F3020 Charing Cross Road London WC2H 0DA; designation/effective date is taken from Planning Data fields where supplied."},"geometry":{"type":"Point","coordinates":[-0.128061,51.5111]}},{"type":"Feature","id":"lon_planning_designation_tree-preservation-zone_19117323","properties":{"city_id":"london","event_id":"lon_planning_designation_tree-preservation-zone_19117323","title":"Tree preservation zone: Borough of Finchley (White Lodge Estate) No. 6. Tree Preservation Order made under The Town and Country Planning Act, 19","short_description":"Planning Data tree-preservation zone record TRE/FI/6/G9; quality authoritative; LPA Haringey.","year":1960,"effective_date":"1960-02-18","date_precision":"day","category":"built_environment","lens":"built_environment","confidence":"documented","source_ids":["lon-extra-planning-data-tree-preservation-zones"],"explanation":"Planning/protection evidence record for Borough of Finchley (White Lodge Estate) No. 6. Tree Preservation Order made under The Town and Country Planning Act, 19; designation/effective date is taken from Planning Data fields where supplied."},"geometry":{"type":"Point","coordinates":[-0.167739,51.577504]}},{"type":"Feature","id":"lon_planning_designation_tree-preservation-zone_19117326","properties":{"city_id":"london","event_id":"lon_planning_designation_tree-preservation-zone_19117326","title":"Tree preservation zone: Borough of Finchley (White Lodge Estate) No. 6. Tree Preservation Order made under The Town and Country Planning Act, 19","short_description":"Planning Data tree-preservation zone record TRE/FI/6/G12; quality authoritative; LPA Haringey.","year":1960,"effective_date":"1960-02-18","date_precision":"day","category":"built_environment","lens":"built_environment","confidence":"documented","source_ids":["lon-extra-planning-data-tree-preservation-zones"],"explanation":"Planning/protection evidence record for Borough of Finchley (White Lodge Estate) No. 6. Tree Preservation Order made under The Town and Country Planning Act, 19; designation/effective date is taken from Planning Data fields where supplied."},"geometry":{"type":"Point","coordinates":[-0.168156,51.577188]}}]}
