{"type":"FeatureCollection","schema_version":"1.0.0","city_id":"london","year":2000,"features":[{"type":"Feature","id":"lon_planning_designation_conservation-area_44005248","properties":{"city_id":"london","event_id":"lon_planning_designation_conservation-area_44005248","title":"Conservation area record: Richmond Hill","year":2000,"effective_date":"2000-01-17","date_precision":"day","category":"built_environment","lens":"built_environment","confidence":"documented","source_ids":["lon-extra-planning-data-conservation-areas"],"explanation":"Planning/protection evidence record for Richmond Hill; designation/effective date is taken from Planning Data fields where supplied."},"geometry":{"type":"Point","coordinates":[-0.301268,51.453301]}},{"type":"Feature","id":"lon_planning_designation_conservation-area_44006238","properties":{"city_id":"london","event_id":"lon_planning_designation_conservation-area_44006238","title":"Conservation area record: Mare Street","year":2000,"effective_date":"2000-01-01","date_precision":"day","category":"built_environment","lens":"built_environment","confidence":"documented","source_ids":["lon-extra-planning-data-conservation-areas"],"explanation":"Planning/protection evidence record for Mare Street; designation/effective date is taken from Planning Data fields where supplied."},"geometry":{"type":"Point","coordinates":[-0.055555,51.541199]}},{"type":"Feature","id":"lon_planning_designation_conservation-area_44007230","properties":{"city_id":"london","event_id":"lon_planning_designation_conservation-area_44007230","title":"Conservation area record: Bromley, Hayes and Keston Commons","year":2000,"effective_date":"2000-01-01","date_precision":"day","category":"built_environment","lens":"built_environment","confidence":"documented","source_ids":["lon-extra-planning-data-conservation-areas"],"explanation":"Planning/protection evidence record for Bromley, Hayes and Keston Commons; designation/effective date is taken from Planning Data fields where supplied."},"geometry":{"type":"Point","coordinates":[0.025299,51.372714]}},{"type":"Feature","id":"lon_planning_designation_conservation-area_44010247","properties":{"city_id":"london","event_id":"lon_planning_designation_conservation-area_44010247","title":"Conservation area record: Union Street","year":2000,"effective_date":"2000-05-11","date_precision":"day","category":"built_environment","lens":"built_environment","confidence":"documented","source_ids":["lon-extra-planning-data-conservation-areas"],"explanation":"Planning/protection evidence record for Union Street; designation/effective date is taken from Planning Data fields where supplied."},"geometry":{"type":"Point","coordinates":[-0.095508,51.503467]}},{"type":"Feature","id":"lon_planning_designation_conservation-area_44010248","properties":{"city_id":"london","event_id":"lon_planning_designation_conservation-area_44010248","title":"Conservation area record: Stradella Road","year":2000,"effective_date":"2000-09-26","date_precision":"day","category":"built_environment","lens":"built_environment","confidence":"documented","source_ids":["lon-extra-planning-data-conservation-areas"],"explanation":"Planning/protection evidence record for Stradella Road; designation/effective date is taken from Planning Data fields where supplied."},"geometry":{"type":"Point","coordinates":[-0.098007,51.451463]}},{"type":"Feature","id":"lon_planning_designation_conservation-area_44010249","properties":{"city_id":"london","event_id":"lon_planning_designation_conservation-area_44010249","title":"Conservation area record: St Georges Circus","year":2000,"effective_date":"2000-10-23","date_precision":"day","category":"built_environment","lens":"built_environment","confidence":"documented","source_ids":["lon-extra-planning-data-conservation-areas"],"explanation":"Planning/protection evidence record for St Georges Circus; designation/effective date is taken from Planning Data fields where supplied."},"geometry":{"type":"Point","coordinates":[-0.103998,51.498498]}},{"type":"Feature","id":"lon_planning_designation_listed-building-outline_42114995","properties":{"city_id":"london","event_id":"lon_planning_designation_listed-building-outline_42114995","title":"Listed building outline: No given name","year":2000,"effective_date":"2000-06-14","date_precision":"day","category":"built_environment","lens":"built_environment","confidence":"documented","source_ids":["lon-extra-planning-data-listed-building-outlines"],"explanation":"Planning/protection evidence record for No given name; designation/effective date is taken from Planning Data fields where supplied."},"geometry":{"type":"Point","coordinates":[-0.103867,51.498595]}},{"type":"Feature","id":"lon_planning_designation_listed-building-outline_42115177","properties":{"city_id":"london","event_id":"lon_planning_designation_listed-building-outline_42115177","title":"Listed building outline: No given name","year":2000,"effective_date":"2000-06-14","date_precision":"day","category":"built_environment","lens":"built_environment","confidence":"documented","source_ids":["lon-extra-planning-data-listed-building-outlines"],"explanation":"Planning/protection evidence record for No given name; designation/effective date is taken from Planning Data fields where supplied."},"geometry":{"type":"Point","coordinates":[-0.103816,51.498277]}},{"type":"Feature","id":"lon_planning_designation_listed-building-outline_42115178","properties":{"city_id":"london","event_id":"lon_planning_designation_listed-building-outline_42115178","title":"Listed building outline: The duke of Clarence public house","year":2000,"effective_date":"2000-06-14","date_precision":"day","category":"built_environment","lens":"built_environment","confidence":"documented","source_ids":["lon-extra-planning-data-listed-building-outlines"],"explanation":"Planning/protection evidence record for The duke of Clarence public house; designation/effective date is taken from Planning Data fields where supplied."},"geometry":{"type":"Point","coordinates":[-0.104162,51.498517]}},{"type":"Feature","id":"lon_planning_designation_listed-building-outline_42115233","properties":{"city_id":"london","event_id":"lon_planning_designation_listed-building-outline_42115233","title":"Listed building outline: St Crispin with Christchurch","year":2000,"effective_date":"2000-12-04","date_precision":"day","category":"built_environment","lens":"built_environment","confidence":"documented","source_ids":["lon-extra-planning-data-listed-building-outlines"],"explanation":"Planning/protection evidence record for St Crispin with Christchurch; designation/effective date is taken from Planning Data fields where supplied."},"geometry":{"type":"Point","coordinates":[-0.060684,51.496858]}},{"type":"Feature","id":"lon_planning_designation_listed-building-outline_42115497","properties":{"city_id":"london","event_id":"lon_planning_designation_listed-building-outline_42115497","title":"Listed building outline: St Luke\u2019s Church","year":2000,"effective_date":"2000-04-13","date_precision":"day","category":"built_environment","lens":"built_environment","confidence":"documented","source_ids":["lon-extra-planning-data-listed-building-outlines"],"explanation":"Planning/protection evidence record for St Luke\u2019s Church; designation/effective date is taken from Planning Data fields where supplied."},"geometry":{"type":"Point","coordinates":[-0.078211,51.477982]}},{"type":"Feature","id":"lon_planning_designation_listed-building-outline_42116551","properties":{"city_id":"london","event_id":"lon_planning_designation_listed-building-outline_42116551","title":"Listed building outline: No 1","year":2000,"effective_date":"2000-04-12","date_precision":"day","category":"built_environment","lens":"built_environment","confidence":"documented","source_ids":["lon-extra-planning-data-listed-building-outlines"],"explanation":"Planning/protection evidence record for No 1; designation/effective date is taken from Planning Data fields where supplied."},"geometry":{"type":"Point","coordinates":[-0.134546,51.519557]}},{"type":"Feature","id":"lon_planning_designation_listed-building-outline_42116552","properties":{"city_id":"london","event_id":"lon_planning_designation_listed-building-outline_42116552","title":"Listed building outline: No: 8A","year":2000,"effective_date":"2000-02-29","date_precision":"day","category":"built_environment","lens":"built_environment","confidence":"documented","source_ids":["lon-extra-planning-data-listed-building-outlines"],"explanation":"Planning/protection evidence record for No: 8A; designation/effective date is taken from Planning Data fields where supplied."},"geometry":{"type":"Point","coordinates":[-0.153831,51.570599]}},{"type":"Feature","id":"lon_planning_designation_listed-building-outline_42116553","properties":{"city_id":"london","event_id":"lon_planning_designation_listed-building-outline_42116553","title":"Listed building outline: (West side) 1-877a O'Donnell Court, 1-212a Foundling Court, Renoir Cinema, shops (The Brunswick Shopping Centre), baseme","year":2000,"effective_date":"2000-09-14","date_precision":"day","category":"built_environment","lens":"built_environment","confidence":"documented","source_ids":["lon-extra-planning-data-listed-building-outlines"],"explanation":"Planning/protection evidence record for (West side) 1-877a O'Donnell Court, 1-212a Foundling Court, Renoir Cinema, shops (The Brunswick Shopping Centre), baseme; designation/effective date is taken from Planning Data fields where supplied."},"geometry":{"type":"Point","coordinates":[-0.123741,51.524378]}},{"type":"Feature","id":"lon_planning_designation_listed-building-outline_42116567","properties":{"city_id":"london","event_id":"lon_planning_designation_listed-building-outline_42116567","title":"Listed building outline: (West side) Wood Field","year":2000,"effective_date":"2000-12-22","date_precision":"day","category":"built_environment","lens":"built_environment","confidence":"documented","source_ids":["lon-extra-planning-data-listed-building-outlines"],"explanation":"Planning/protection evidence record for (West side) Wood Field; designation/effective date is taken from Planning Data fields where supplied."},"geometry":{"type":"Point","coordinates":[-0.159476,51.551219]}},{"type":"Feature","id":"lon_planning_designation_listed-building-outline_42116568","properties":{"city_id":"london","event_id":"lon_planning_designation_listed-building-outline_42116568","title":"Listed building outline: (East side) Barnfield","year":2000,"effective_date":"2000-12-22","date_precision":"day","category":"built_environment","lens":"built_environment","confidence":"documented","source_ids":["lon-extra-planning-data-listed-building-outlines"],"explanation":"Planning/protection evidence record for (East side) Barnfield; designation/effective date is taken from Planning Data fields where supplied."},"geometry":{"type":"Point","coordinates":[-0.160051,51.551115]}},{"type":"Feature","id":"lon_planning_designation_listed-building-outline_42116569","properties":{"city_id":"london","event_id":"lon_planning_designation_listed-building-outline_42116569","title":"Listed building outline: Nos. 17, 20 and 26 Institute of Education, Clore Institute of Advanced Legal Studies and accommodation for University Co","year":2000,"effective_date":"2000-12-04","date_precision":"day","category":"built_environment","lens":"built_environment","confidence":"documented","source_ids":["lon-extra-planning-data-listed-building-outlines"],"explanation":"Planning/protection evidence record for Nos. 17, 20 and 26 Institute of Education, Clore Institute of Advanced Legal Studies and accommodation for University Co; designation/effective date is taken from Planning Data fields where supplied."},"geometry":{"type":"Point","coordinates":[-0.128164,51.523208]}},{"type":"Feature","id":"lon_planning_designation_listed-building-outline_42117697","properties":{"city_id":"london","event_id":"lon_planning_designation_listed-building-outline_42117697","title":"Listed building outline: Nos 127 and 129 York and Albany Public House","year":2000,"effective_date":"2000-02-15","date_precision":"day","category":"built_environment","lens":"built_environment","confidence":"documented","source_ids":["lon-extra-planning-data-listed-building-outlines"],"explanation":"Planning/protection evidence record for Nos 127 and 129 York and Albany Public House; designation/effective date is taken from Planning Data fields where supplied."},"geometry":{"type":"Point","coordinates":[-0.146411,51.536097]}},{"type":"Feature","id":"lon_planning_designation_listed-building-outline_42117698","properties":{"city_id":"london","event_id":"lon_planning_designation_listed-building-outline_42117698","title":"Listed building outline: No: 60","year":2000,"effective_date":"2000-05-17","date_precision":"day","category":"built_environment","lens":"built_environment","confidence":"documented","source_ids":["lon-extra-planning-data-listed-building-outlines"],"explanation":"Planning/protection evidence record for No: 60; designation/effective date is taken from Planning Data fields where supplied."},"geometry":{"type":"Point","coordinates":[-0.120276,51.516362]}},{"type":"Feature","id":"lon_planning_designation_listed-building-outline_42117699","properties":{"city_id":"london","event_id":"lon_planning_designation_listed-building-outline_42117699","title":"Listed building outline: Tramwaymens Bus Shelter","year":2000,"effective_date":"2000-07-05","date_precision":"day","category":"built_environment","lens":"built_environment","confidence":"documented","source_ids":["lon-extra-planning-data-listed-building-outlines"],"explanation":"Planning/protection evidence record for Tramwaymens Bus Shelter; designation/effective date is taken from Planning Data fields where supplied."},"geometry":{"type":"Point","coordinates":[-0.165267,51.554429]}},{"type":"Feature","id":"lon_planning_designation_listed-building-outline_42121147","properties":{"city_id":"london","event_id":"lon_planning_designation_listed-building-outline_42121147","title":"Listed building outline: CHURCH OF ST JOHN","year":2000,"effective_date":"2000-01-10","date_precision":"day","category":"built_environment","lens":"built_environment","confidence":"documented","source_ids":["lon-extra-planning-data-listed-building-outlines"],"explanation":"Planning/protection evidence record for CHURCH OF ST JOHN; designation/effective date is taken from Planning Data fields where supplied."},"geometry":{"type":"Point","coordinates":[-0.175384,51.627501]}},{"type":"Feature","id":"lon_planning_designation_listed-building-outline_42121148","properties":{"city_id":"london","event_id":"lon_planning_designation_listed-building-outline_42121148","title":"Listed building outline: 64, MEADWAY NW11","year":2000,"effective_date":"2000-03-23","date_precision":"day","category":"built_environment","lens":"built_environment","confidence":"documented","source_ids":["lon-extra-planning-data-listed-building-outlines"],"explanation":"Planning/protection evidence record for 64, MEADWAY NW11; designation/effective date is taken from Planning Data fields where supplied."},"geometry":{"type":"Point","coordinates":[-0.181391,51.5809]}},{"type":"Feature","id":"lon_planning_designation_listed-building-outline_42121149","properties":{"city_id":"london","event_id":"lon_planning_designation_listed-building-outline_42121149","title":"Listed building outline: KING EDWARD HALL","year":2000,"effective_date":"2000-03-24","date_precision":"day","category":"built_environment","lens":"built_environment","confidence":"documented","source_ids":["lon-extra-planning-data-listed-building-outlines"],"explanation":"Planning/protection evidence record for KING EDWARD HALL; designation/effective date is taken from Planning Data fields where supplied."},"geometry":{"type":"Point","coordinates":[-0.195656,51.599952]}},{"type":"Feature","id":"lon_planning_designation_listed-building-outline_42121150","properties":{"city_id":"london","event_id":"lon_planning_designation_listed-building-outline_42121150","title":"Listed building outline: Welsh Harp Bridge","year":2000,"effective_date":"2000-08-16","date_precision":"day","category":"built_environment","lens":"built_environment","confidence":"documented","source_ids":["lon-extra-planning-data-listed-building-outlines"],"explanation":"Planning/protection evidence record for Welsh Harp Bridge; designation/effective date is taken from Planning Data fields where supplied."},"geometry":{"type":"Point","coordinates":[-0.242432,51.574997]}},{"type":"Feature","id":"lon_planning_designation_listed-building-outline_42121151","properties":{"city_id":"london","event_id":"lon_planning_designation_listed-building-outline_42121151","title":"Listed building outline: CHRIST CHURCH","year":2000,"effective_date":"2000-09-01","date_precision":"day","category":"built_environment","lens":"built_environment","confidence":"documented","source_ids":["lon-extra-planning-data-listed-building-outlines"],"explanation":"Planning/protection evidence record for CHRIST CHURCH; designation/effective date is taken from Planning Data fields where supplied."},"geometry":{"type":"Point","coordinates":[-0.17481,51.610881]}},{"type":"Feature","id":"lon_planning_designation_listed-building-outline_42121152","properties":{"city_id":"london","event_id":"lon_planning_designation_listed-building-outline_42121152","title":"Listed building outline: PHOENIX","year":2000,"effective_date":"2000-10-05","date_precision":"day","category":"built_environment","lens":"built_environment","confidence":"documented","source_ids":["lon-extra-planning-data-listed-building-outlines"],"explanation":"Planning/protection evidence record for PHOENIX; designation/effective date is taken from Planning Data fields where supplied."},"geometry":{"type":"Point","coordinates":[-0.16366,51.588508]}},{"type":"Feature","id":"lon_planning_designation_listed-building-outline_42148724","properties":{"city_id":"london","event_id":"lon_planning_designation_listed-building-outline_42148724","title":"Listed building outline: SEAL HOUSE AND ATTACHED GARDEN WALL","year":2000,"effective_date":"2000-09-27","date_precision":"day","category":"built_environment","lens":"built_environment","confidence":"documented","source_ids":["lon-extra-planning-data-listed-building-outlines"],"explanation":"Planning/protection evidence record for SEAL HOUSE AND ATTACHED GARDEN WALL; designation/effective date is taken from Planning Data fields where supplied."},"geometry":{"type":"Point","coordinates":[-0.209963,51.508955]}},{"type":"Feature","id":"lon_planning_designation_listed-building-outline_42148731","properties":{"city_id":"london","event_id":"lon_planning_designation_listed-building-outline_42148731","title":"Listed building outline: 1 HOLLAND PARK AVENUE","year":2000,"effective_date":"2000-04-19","date_precision":"day","category":"built_environment","lens":"built_environment","confidence":"documented","source_ids":["lon-extra-planning-data-listed-building-outlines"],"explanation":"Planning/protection evidence record for 1 HOLLAND PARK AVENUE; designation/effective date is taken from Planning Data fields where supplied."},"geometry":{"type":"Point","coordinates":[-0.200415,51.508251]}},{"type":"Feature","id":"lon_planning_designation_listed-building-outline_42148929","properties":{"city_id":"london","event_id":"lon_planning_designation_listed-building-outline_42148929","title":"Listed building outline: 48 KENSINGTON COURT","year":2000,"effective_date":"2000-08-23","date_precision":"day","category":"built_environment","lens":"built_environment","confidence":"documented","source_ids":["lon-extra-planning-data-listed-building-outlines"],"explanation":"Planning/protection evidence record for 48 KENSINGTON COURT; designation/effective date is taken from Planning Data fields where supplied."},"geometry":{"type":"Point","coordinates":[-0.188647,51.501864]}},{"type":"Feature","id":"lon_planning_designation_listed-building-outline_42148971","properties":{"city_id":"london","event_id":"lon_planning_designation_listed-building-outline_42148971","title":"Listed building outline: WEST BROMPTON STATION INCLUDING BOOKING HALL AND TRAIN SHED AND STAIRCASES AND RETAINING WALL","year":2000,"effective_date":"2000-10-03","date_precision":"day","category":"built_environment","lens":"built_environment","confidence":"documented","source_ids":["lon-extra-planning-data-listed-building-outlines"],"explanation":"Planning/protection evidence record for WEST BROMPTON STATION INCLUDING BOOKING HALL AND TRAIN SHED AND STAIRCASES AND RETAINING WALL; designation/effective date is taken from Planning Data fields where supplied."},"geometry":{"type":"Point","coordinates":[-0.195527,51.487253]}},{"type":"Feature","id":"lon_planning_designation_listed-building-outline_42149125","properties":{"city_id":"london","event_id":"lon_planning_designation_listed-building-outline_42149125","title":"Listed building outline: THE GATE CINEMA","year":2000,"effective_date":"2000-10-05","date_precision":"day","category":"built_environment","lens":"built_environment","confidence":"documented","source_ids":["lon-extra-planning-data-listed-building-outlines"],"explanation":"Planning/protection evidence record for THE GATE CINEMA; designation/effective date is taken from Planning Data fields where supplied."},"geometry":{"type":"Point","coordinates":[-0.197322,51.508686]}},{"type":"Feature","id":"lon_planning_designation_listed-building-outline_42158631","properties":{"city_id":"london","event_id":"lon_planning_designation_listed-building-outline_42158631","title":"Listed building outline: ABC Cinema","year":2000,"effective_date":"2000-10-05","date_precision":"day","category":"built_environment","lens":"built_environment","confidence":"documented","source_ids":["lon-extra-planning-data-listed-building-outlines"],"explanation":"Planning/protection evidence record for ABC Cinema; designation/effective date is taken from Planning Data fields where supplied."},"geometry":{"type":"Point","coordinates":[-0.020324,51.58597]}},{"type":"Feature","id":"lon_planning_designation_listed-building-outline_42166136","properties":{"city_id":"london","event_id":"lon_planning_designation_listed-building-outline_42166136","title":"Listed building outline: Flat 16 Longleat House 18 Rampayne Street London SW1V 2TG","year":2000,"effective_date":"2000-12-20","date_precision":"day","category":"built_environment","lens":"built_environment","confidence":"documented","source_ids":["lon-extra-planning-data-listed-building-outlines"],"explanation":"Planning/protection evidence record for Flat 16 Longleat House 18 Rampayne Street London SW1V 2TG; designation/effective date is taken from Planning Data fields where supplied."},"geometry":{"type":"Point","coordinates":[-0.134259,51.490053]}},{"type":"Feature","id":"lon_planning_designation_listed-building-outline_42166137","properties":{"city_id":"london","event_id":"lon_planning_designation_listed-building-outline_42166137","title":"Listed building outline: Flat 3 Exbury House 16 Rampayne Street London SW1V 2QR","year":2000,"effective_date":"2000-12-20","date_precision":"day","category":"built_environment","lens":"built_environment","confidence":"documented","source_ids":["lon-extra-planning-data-listed-building-outlines"],"explanation":"Planning/protection evidence record for Flat 3 Exbury House 16 Rampayne Street London SW1V 2QR; designation/effective date is taken from Planning Data fields where supplied."},"geometry":{"type":"Point","coordinates":[-0.133983,51.489887]}},{"type":"Feature","id":"lon_planning_designation_listed-building-outline_42166170","properties":{"city_id":"london","event_id":"lon_planning_designation_listed-building-outline_42166170","title":"Listed building outline: Flat 5 Wisley House 14 Rampayne Street London SW1V 2QS","year":2000,"effective_date":"2000-12-20","date_precision":"day","category":"built_environment","lens":"built_environment","confidence":"documented","source_ids":["lon-extra-planning-data-listed-building-outlines"],"explanation":"Planning/protection evidence record for Flat 5 Wisley House 14 Rampayne Street London SW1V 2QS; designation/effective date is taken from Planning Data fields where supplied."},"geometry":{"type":"Point","coordinates":[-0.133864,51.489604]}},{"type":"Feature","id":"lon_planning_designation_listed-building-outline_42166171","properties":{"city_id":"london","event_id":"lon_planning_designation_listed-building-outline_42166171","title":"Listed building outline: Flat 16 Priory House 12 Rampayne Street London SW1V 2QT","year":2000,"effective_date":"2000-12-20","date_precision":"day","category":"built_environment","lens":"built_environment","confidence":"documented","source_ids":["lon-extra-planning-data-listed-building-outlines"],"explanation":"Planning/protection evidence record for Flat 16 Priory House 12 Rampayne Street London SW1V 2QT; designation/effective date is taken from Planning Data fields where supplied."},"geometry":{"type":"Point","coordinates":[-0.133546,51.489849]}},{"type":"Feature","id":"lon_planning_designation_listed-building-outline_42166298","properties":{"city_id":"london","event_id":"lon_planning_designation_listed-building-outline_42166298","title":"Listed building outline: Flat 33 Thorndike House 35 Vauxhall Bridge Road London SW1V 2TH","year":2000,"effective_date":"2000-12-20","date_precision":"day","category":"built_environment","lens":"built_environment","confidence":"documented","source_ids":["lon-extra-planning-data-listed-building-outlines"],"explanation":"Planning/protection evidence record for Flat 33 Thorndike House 35 Vauxhall Bridge Road London SW1V 2TH; designation/effective date is taken from Planning Data fields where supplied."},"geometry":{"type":"Point","coordinates":[-0.133316,51.490173]}},{"type":"Feature","id":"lon_planning_designation_listed-building-outline_42166299","properties":{"city_id":"london","event_id":"lon_planning_designation_listed-building-outline_42166299","title":"Listed building outline: 95 Tachbrook Street London SW1V 2QA","year":2000,"effective_date":"2000-12-20","date_precision":"day","category":"built_environment","lens":"built_environment","confidence":"documented","source_ids":["lon-extra-planning-data-listed-building-outlines"],"explanation":"Planning/protection evidence record for 95 Tachbrook Street London SW1V 2QA; designation/effective date is taken from Planning Data fields where supplied."},"geometry":{"type":"Point","coordinates":[-0.134444,51.489485]}},{"type":"Feature","id":"lon_planning_designation_listed-building-outline_42167825","properties":{"city_id":"london","event_id":"lon_planning_designation_listed-building-outline_42167825","title":"Listed building outline: 23-24 Tufton Street London","year":2000,"effective_date":"2000-03-23","date_precision":"day","category":"built_environment","lens":"built_environment","confidence":"documented","source_ids":["lon-extra-planning-data-listed-building-outlines"],"explanation":"Planning/protection evidence record for 23-24 Tufton Street London; designation/effective date is taken from Planning Data fields where supplied."},"geometry":{"type":"Point","coordinates":[-0.128728,51.496735]}},{"type":"Feature","id":"lon_planning_designation_listed-building-outline_42167826","properties":{"city_id":"london","event_id":"lon_planning_designation_listed-building-outline_42167826","title":"Listed building outline: Barley Mow 8 Dorset Street London W1U 6QW","year":2000,"effective_date":"2000-07-27","date_precision":"day","category":"built_environment","lens":"built_environment","confidence":"documented","source_ids":["lon-extra-planning-data-listed-building-outlines"],"explanation":"Planning/protection evidence record for Barley Mow 8 Dorset Street London W1U 6QW; designation/effective date is taken from Planning Data fields where supplied."},"geometry":{"type":"Point","coordinates":[-0.15565,51.519711]}},{"type":"Feature","id":"lon_planning_designation_listed-building-outline_42167827","properties":{"city_id":"london","event_id":"lon_planning_designation_listed-building-outline_42167827","title":"Listed building outline: PAXTONS HEAD","year":2000,"effective_date":"2000-07-27","date_precision":"day","category":"built_environment","lens":"built_environment","confidence":"documented","source_ids":["lon-extra-planning-data-listed-building-outlines"],"explanation":"Planning/protection evidence record for PAXTONS HEAD; designation/effective date is taken from Planning Data fields where supplied."},"geometry":{"type":"Point","coordinates":[-0.162295,51.501538]}},{"type":"Feature","id":"lon_planning_designation_listed-building-outline_42167849","properties":{"city_id":"london","event_id":"lon_planning_designation_listed-building-outline_42167849","title":"Listed building outline: First Floor North 51 Charles Street London W1J 5EW","year":2000,"effective_date":"2000-10-03","date_precision":"day","category":"built_environment","lens":"built_environment","confidence":"documented","source_ids":["lon-extra-planning-data-listed-building-outlines"],"explanation":"Planning/protection evidence record for First Floor North 51 Charles Street London W1J 5EW; designation/effective date is taken from Planning Data fields where supplied."},"geometry":{"type":"Point","coordinates":[-0.14546,51.508516]}},{"type":"Feature","id":"lon_planning_designation_listed-building-outline_42168281","properties":{"city_id":"london","event_id":"lon_planning_designation_listed-building-outline_42168281","title":"Listed building outline: Bounds Green Road - Nightingale Primary School","year":2000,"effective_date":"2000-10-04","date_precision":"day","category":"built_environment","lens":"built_environment","confidence":"documented","source_ids":["lon-extra-planning-data-listed-building-outlines"],"explanation":"Planning/protection evidence record for Bounds Green Road - Nightingale Primary School; designation/effective date is taken from Planning Data fields where supplied."},"geometry":{"type":"Point","coordinates":[-0.113451,51.600291]}},{"type":"Feature","id":"lon_planning_designation_listed-building-outline_42168391","properties":{"city_id":"london","event_id":"lon_planning_designation_listed-building-outline_42168391","title":"Listed building outline: View Road - No 9","year":2000,"effective_date":"2000-04-20","date_precision":"day","category":"built_environment","lens":"built_environment","confidence":"documented","source_ids":["lon-extra-planning-data-listed-building-outlines"],"explanation":"Planning/protection evidence record for View Road - No 9; designation/effective date is taken from Planning Data fields where supplied."},"geometry":{"type":"Point","coordinates":[-0.155593,51.577165]}},{"type":"Feature","id":"lon_planning_designation_listed-building-outline_42182396","properties":{"city_id":"london","event_id":"lon_planning_designation_listed-building-outline_42182396","title":"Listed building outline: SEAL HOUSE AND ATTACHED GARDEN WALL","year":2000,"effective_date":"2000-09-27","date_precision":"day","category":"built_environment","lens":"built_environment","confidence":"documented","source_ids":["lon-extra-planning-data-listed-building-outlines"],"explanation":"Planning/protection evidence record for SEAL HOUSE AND ATTACHED GARDEN WALL; designation/effective date is taken from Planning Data fields where supplied."},"geometry":{"type":"Point","coordinates":[-0.209963,51.508955]}},{"type":"Feature","id":"lon_planning_designation_listed-building-outline_42182403","properties":{"city_id":"london","event_id":"lon_planning_designation_listed-building-outline_42182403","title":"Listed building outline: 1 HOLLAND PARK AVENUE","year":2000,"effective_date":"2000-04-19","date_precision":"day","category":"built_environment","lens":"built_environment","confidence":"documented","source_ids":["lon-extra-planning-data-listed-building-outlines"],"explanation":"Planning/protection evidence record for 1 HOLLAND PARK AVENUE; designation/effective date is taken from Planning Data fields where supplied."},"geometry":{"type":"Point","coordinates":[-0.200415,51.508251]}},{"type":"Feature","id":"lon_planning_designation_listed-building-outline_42182588","properties":{"city_id":"london","event_id":"lon_planning_designation_listed-building-outline_42182588","title":"Listed building outline: 48 KENSINGTON COURT","year":2000,"effective_date":"2000-08-23","date_precision":"day","category":"built_environment","lens":"built_environment","confidence":"documented","source_ids":["lon-extra-planning-data-listed-building-outlines"],"explanation":"Planning/protection evidence record for 48 KENSINGTON COURT; designation/effective date is taken from Planning Data fields where supplied."},"geometry":{"type":"Point","coordinates":[-0.188647,51.501864]}},{"type":"Feature","id":"lon_planning_designation_listed-building-outline_42182627","properties":{"city_id":"london","event_id":"lon_planning_designation_listed-building-outline_42182627","title":"Listed building outline: WEST BROMPTON STATION INCLUDING BOOKING HALL AND TRAIN SHED AND STAIRCASES AND RETAINING WALL","year":2000,"effective_date":"2000-10-03","date_precision":"day","category":"built_environment","lens":"built_environment","confidence":"documented","source_ids":["lon-extra-planning-data-listed-building-outlines"],"explanation":"Planning/protection evidence record for WEST BROMPTON STATION INCLUDING BOOKING HALL AND TRAIN SHED AND STAIRCASES AND RETAINING WALL; designation/effective date is taken from Planning Data fields where supplied."},"geometry":{"type":"Point","coordinates":[-0.195527,51.487253]}},{"type":"Feature","id":"lon_planning_designation_listed-building-outline_42182781","properties":{"city_id":"london","event_id":"lon_planning_designation_listed-building-outline_42182781","title":"Listed building outline: THE GATE CINEMA","year":2000,"effective_date":"2000-10-05","date_precision":"day","category":"built_environment","lens":"built_environment","confidence":"documented","source_ids":["lon-extra-planning-data-listed-building-outlines"],"explanation":"Planning/protection evidence record for THE GATE CINEMA; designation/effective date is taken from Planning Data fields where supplied."},"geometry":{"type":"Point","coordinates":[-0.197322,51.508686]}},{"type":"Feature","id":"lon_planning_designation_listed-building-outline_42192544","properties":{"city_id":"london","event_id":"lon_planning_designation_listed-building-outline_42192544","title":"Listed building outline: Bandstand, Queens Park, Harvist Road, London","year":2000,"effective_date":"2000-08-16","date_precision":"day","category":"built_environment","lens":"built_environment","confidence":"documented","source_ids":["lon-extra-planning-data-listed-building-outlines"],"explanation":"Planning/protection evidence record for Bandstand, Queens Park, Harvist Road, London; designation/effective date is taken from Planning Data fields where supplied."},"geometry":{"type":"Point","coordinates":[-0.210964,51.536965]}},{"type":"Feature","id":"lon_planning_designation_listed-building-outline_42192622","properties":{"city_id":"london","event_id":"lon_planning_designation_listed-building-outline_42192622","title":"Listed building outline: Wembley Fire Station, 591A Harrow Road, Wembley, HA0 2EG","year":2000,"effective_date":"2000-11-24","date_precision":"day","category":"built_environment","lens":"built_environment","confidence":"documented","source_ids":["lon-extra-planning-data-listed-building-outlines"],"explanation":"Planning/protection evidence record for Wembley Fire Station, 591A Harrow Road, Wembley, HA0 2EG; designation/effective date is taken from Planning Data fields where supplied."},"geometry":{"type":"Point","coordinates":[-0.304008,51.551724]}},{"type":"Feature","id":"lon_planning_designation_listed-building-outline_42192627","properties":{"city_id":"london","event_id":"lon_planning_designation_listed-building-outline_42192627","title":"Listed building outline: 58 Kingsley Court, Park Avenue, London, NW2 5UA","year":2000,"effective_date":"2000-11-24","date_precision":"day","category":"built_environment","lens":"built_environment","confidence":"documented","source_ids":["lon-extra-planning-data-listed-building-outlines"],"explanation":"Planning/protection evidence record for 58 Kingsley Court, Park Avenue, London, NW2 5UA; designation/effective date is taken from Planning Data fields where supplied."},"geometry":{"type":"Point","coordinates":[-0.228417,51.549883]}},{"type":"Feature","id":"lon_planning_designation_listed-building-outline_42192629","properties":{"city_id":"london","event_id":"lon_planning_designation_listed-building-outline_42192629","title":"Listed building outline: 57 Kingsley Court, Park Avenue, London, NW2 5UA","year":2000,"effective_date":"2000-11-24","date_precision":"day","category":"built_environment","lens":"built_environment","confidence":"documented","source_ids":["lon-extra-planning-data-listed-building-outlines"],"explanation":"Planning/protection evidence record for 57 Kingsley Court, Park Avenue, London, NW2 5UA; designation/effective date is taken from Planning Data fields where supplied."},"geometry":{"type":"Point","coordinates":[-0.228417,51.549883]}},{"type":"Feature","id":"lon_planning_designation_listed-building-outline_42192630","properties":{"city_id":"london","event_id":"lon_planning_designation_listed-building-outline_42192630","title":"Listed building outline: 56 Kingsley Court, Park Avenue, London, NW2 5UA","year":2000,"effective_date":"2000-11-24","date_precision":"day","category":"built_environment","lens":"built_environment","confidence":"documented","source_ids":["lon-extra-planning-data-listed-building-outlines"],"explanation":"Planning/protection evidence record for 56 Kingsley Court, Park Avenue, London, NW2 5UA; designation/effective date is taken from Planning Data fields where supplied."},"geometry":{"type":"Point","coordinates":[-0.228417,51.549883]}},{"type":"Feature","id":"lon_planning_designation_listed-building-outline_42192631","properties":{"city_id":"london","event_id":"lon_planning_designation_listed-building-outline_42192631","title":"Listed building outline: 55 Kingsley Court, Park Avenue, London, NW2 5UA","year":2000,"effective_date":"2000-11-24","date_precision":"day","category":"built_environment","lens":"built_environment","confidence":"documented","source_ids":["lon-extra-planning-data-listed-building-outlines"],"explanation":"Planning/protection evidence record for 55 Kingsley Court, Park Avenue, London, NW2 5UA; designation/effective date is taken from Planning Data fields where supplied."},"geometry":{"type":"Point","coordinates":[-0.228417,51.549883]}},{"type":"Feature","id":"lon_planning_designation_listed-building-outline_42192632","properties":{"city_id":"london","event_id":"lon_planning_designation_listed-building-outline_42192632","title":"Listed building outline: 54 Kingsley Court, Park Avenue, London, NW2 5TY","year":2000,"effective_date":"2000-11-24","date_precision":"day","category":"built_environment","lens":"built_environment","confidence":"documented","source_ids":["lon-extra-planning-data-listed-building-outlines"],"explanation":"Planning/protection evidence record for 54 Kingsley Court, Park Avenue, London, NW2 5TY; designation/effective date is taken from Planning Data fields where supplied."},"geometry":{"type":"Point","coordinates":[-0.228417,51.549883]}},{"type":"Feature","id":"lon_planning_designation_listed-building-outline_42192633","properties":{"city_id":"london","event_id":"lon_planning_designation_listed-building-outline_42192633","title":"Listed building outline: 53 Kingsley Court, Park Avenue, London, NW2 5TY","year":2000,"effective_date":"2000-11-24","date_precision":"day","category":"built_environment","lens":"built_environment","confidence":"documented","source_ids":["lon-extra-planning-data-listed-building-outlines"],"explanation":"Planning/protection evidence record for 53 Kingsley Court, Park Avenue, London, NW2 5TY; designation/effective date is taken from Planning Data fields where supplied."},"geometry":{"type":"Point","coordinates":[-0.228417,51.549883]}},{"type":"Feature","id":"lon_planning_designation_listed-building-outline_42192634","properties":{"city_id":"london","event_id":"lon_planning_designation_listed-building-outline_42192634","title":"Listed building outline: 52 Kingsley Court, Park Avenue, London, NW2 5TY","year":2000,"effective_date":"2000-11-24","date_precision":"day","category":"built_environment","lens":"built_environment","confidence":"documented","source_ids":["lon-extra-planning-data-listed-building-outlines"],"explanation":"Planning/protection evidence record for 52 Kingsley Court, Park Avenue, London, NW2 5TY; designation/effective date is taken from Planning Data fields where supplied."},"geometry":{"type":"Point","coordinates":[-0.228417,51.549883]}},{"type":"Feature","id":"lon_planning_designation_listed-building-outline_42192635","properties":{"city_id":"london","event_id":"lon_planning_designation_listed-building-outline_42192635","title":"Listed building outline: 51 Kingsley Court, Park Avenue, London, NW2 5TY","year":2000,"effective_date":"2000-11-24","date_precision":"day","category":"built_environment","lens":"built_environment","confidence":"documented","source_ids":["lon-extra-planning-data-listed-building-outlines"],"explanation":"Planning/protection evidence record for 51 Kingsley Court, Park Avenue, London, NW2 5TY; designation/effective date is taken from Planning Data fields where supplied."},"geometry":{"type":"Point","coordinates":[-0.228417,51.549883]}},{"type":"Feature","id":"lon_planning_designation_listed-building-outline_42192636","properties":{"city_id":"london","event_id":"lon_planning_designation_listed-building-outline_42192636","title":"Listed building outline: 48 Kingsley Court, Park Avenue, London, NW2 5TX","year":2000,"effective_date":"2000-11-24","date_precision":"day","category":"built_environment","lens":"built_environment","confidence":"documented","source_ids":["lon-extra-planning-data-listed-building-outlines"],"explanation":"Planning/protection evidence record for 48 Kingsley Court, Park Avenue, London, NW2 5TX; designation/effective date is taken from Planning Data fields where supplied."},"geometry":{"type":"Point","coordinates":[-0.228417,51.549883]}},{"type":"Feature","id":"lon_planning_designation_listed-building-outline_42192637","properties":{"city_id":"london","event_id":"lon_planning_designation_listed-building-outline_42192637","title":"Listed building outline: 47 Kingsley Court, Park Avenue, London, NW2 5TX","year":2000,"effective_date":"2000-11-24","date_precision":"day","category":"built_environment","lens":"built_environment","confidence":"documented","source_ids":["lon-extra-planning-data-listed-building-outlines"],"explanation":"Planning/protection evidence record for 47 Kingsley Court, Park Avenue, London, NW2 5TX; designation/effective date is taken from Planning Data fields where supplied."},"geometry":{"type":"Point","coordinates":[-0.228417,51.549883]}},{"type":"Feature","id":"lon_planning_designation_listed-building-outline_42192638","properties":{"city_id":"london","event_id":"lon_planning_designation_listed-building-outline_42192638","title":"Listed building outline: 46 Kingsley Court, Park Avenue, London, NW2 5TX","year":2000,"effective_date":"2000-11-24","date_precision":"day","category":"built_environment","lens":"built_environment","confidence":"documented","source_ids":["lon-extra-planning-data-listed-building-outlines"],"explanation":"Planning/protection evidence record for 46 Kingsley Court, Park Avenue, London, NW2 5TX; designation/effective date is taken from Planning Data fields where supplied."},"geometry":{"type":"Point","coordinates":[-0.228417,51.549883]}},{"type":"Feature","id":"lon_planning_designation_listed-building-outline_42192639","properties":{"city_id":"london","event_id":"lon_planning_designation_listed-building-outline_42192639","title":"Listed building outline: 45 Kingsley Court, Park Avenue, London, NW2 5TX","year":2000,"effective_date":"2000-11-24","date_precision":"day","category":"built_environment","lens":"built_environment","confidence":"documented","source_ids":["lon-extra-planning-data-listed-building-outlines"],"explanation":"Planning/protection evidence record for 45 Kingsley Court, Park Avenue, London, NW2 5TX; designation/effective date is taken from Planning Data fields where supplied."},"geometry":{"type":"Point","coordinates":[-0.228417,51.549883]}},{"type":"Feature","id":"lon_planning_designation_listed-building-outline_42192640","properties":{"city_id":"london","event_id":"lon_planning_designation_listed-building-outline_42192640","title":"Listed building outline: 44 Kingsley Court, Park Avenue, London, NW2 5TU","year":2000,"effective_date":"2000-11-24","date_precision":"day","category":"built_environment","lens":"built_environment","confidence":"documented","source_ids":["lon-extra-planning-data-listed-building-outlines"],"explanation":"Planning/protection evidence record for 44 Kingsley Court, Park Avenue, London, NW2 5TU; designation/effective date is taken from Planning Data fields where supplied."},"geometry":{"type":"Point","coordinates":[-0.228417,51.549883]}},{"type":"Feature","id":"lon_planning_designation_listed-building-outline_42192641","properties":{"city_id":"london","event_id":"lon_planning_designation_listed-building-outline_42192641","title":"Listed building outline: 43 Kingsley Court, Park Avenue, London, NW2 5TU","year":2000,"effective_date":"2000-11-24","date_precision":"day","category":"built_environment","lens":"built_environment","confidence":"documented","source_ids":["lon-extra-planning-data-listed-building-outlines"],"explanation":"Planning/protection evidence record for 43 Kingsley Court, Park Avenue, London, NW2 5TU; designation/effective date is taken from Planning Data fields where supplied."},"geometry":{"type":"Point","coordinates":[-0.228417,51.549883]}},{"type":"Feature","id":"lon_planning_designation_listed-building-outline_42192642","properties":{"city_id":"london","event_id":"lon_planning_designation_listed-building-outline_42192642","title":"Listed building outline: 42 Kingsley Court, Park Avenue, London, NW2 5TU","year":2000,"effective_date":"2000-11-24","date_precision":"day","category":"built_environment","lens":"built_environment","confidence":"documented","source_ids":["lon-extra-planning-data-listed-building-outlines"],"explanation":"Planning/protection evidence record for 42 Kingsley Court, Park Avenue, London, NW2 5TU; designation/effective date is taken from Planning Data fields where supplied."},"geometry":{"type":"Point","coordinates":[-0.228417,51.549883]}},{"type":"Feature","id":"lon_planning_designation_listed-building-outline_42192643","properties":{"city_id":"london","event_id":"lon_planning_designation_listed-building-outline_42192643","title":"Listed building outline: 41 Kingsley Court, Park Avenue, London, NW2 5TU","year":2000,"effective_date":"2000-11-24","date_precision":"day","category":"built_environment","lens":"built_environment","confidence":"documented","source_ids":["lon-extra-planning-data-listed-building-outlines"],"explanation":"Planning/protection evidence record for 41 Kingsley Court, Park Avenue, London, NW2 5TU; designation/effective date is taken from Planning Data fields where supplied."},"geometry":{"type":"Point","coordinates":[-0.228417,51.549883]}},{"type":"Feature","id":"lon_planning_designation_listed-building-outline_42192644","properties":{"city_id":"london","event_id":"lon_planning_designation_listed-building-outline_42192644","title":"Listed building outline: 38 Kingsley Court, Park Avenue, London, NW2 5TT","year":2000,"effective_date":"2000-11-24","date_precision":"day","category":"built_environment","lens":"built_environment","confidence":"documented","source_ids":["lon-extra-planning-data-listed-building-outlines"],"explanation":"Planning/protection evidence record for 38 Kingsley Court, Park Avenue, London, NW2 5TT; designation/effective date is taken from Planning Data fields where supplied."},"geometry":{"type":"Point","coordinates":[-0.228417,51.549883]}},{"type":"Feature","id":"lon_planning_designation_listed-building-outline_42192645","properties":{"city_id":"london","event_id":"lon_planning_designation_listed-building-outline_42192645","title":"Listed building outline: 37 Kingsley Court, Park Avenue, London, NW2 5TT","year":2000,"effective_date":"2000-11-24","date_precision":"day","category":"built_environment","lens":"built_environment","confidence":"documented","source_ids":["lon-extra-planning-data-listed-building-outlines"],"explanation":"Planning/protection evidence record for 37 Kingsley Court, Park Avenue, London, NW2 5TT; designation/effective date is taken from Planning Data fields where supplied."},"geometry":{"type":"Point","coordinates":[-0.228417,51.549883]}},{"type":"Feature","id":"lon_planning_designation_listed-building-outline_42192646","properties":{"city_id":"london","event_id":"lon_planning_designation_listed-building-outline_42192646","title":"Listed building outline: 36 Kingsley Court, Park Avenue, London, NW2 5TT","year":2000,"effective_date":"2000-11-24","date_precision":"day","category":"built_environment","lens":"built_environment","confidence":"documented","source_ids":["lon-extra-planning-data-listed-building-outlines"],"explanation":"Planning/protection evidence record for 36 Kingsley Court, Park Avenue, London, NW2 5TT; designation/effective date is taken from Planning Data fields where supplied."},"geometry":{"type":"Point","coordinates":[-0.228417,51.549883]}},{"type":"Feature","id":"lon_planning_designation_listed-building-outline_42192647","properties":{"city_id":"london","event_id":"lon_planning_designation_listed-building-outline_42192647","title":"Listed building outline: 35 Kingsley Court, Park Avenue, London, NW2 5TT","year":2000,"effective_date":"2000-11-24","date_precision":"day","category":"built_environment","lens":"built_environment","confidence":"documented","source_ids":["lon-extra-planning-data-listed-building-outlines"],"explanation":"Planning/protection evidence record for 35 Kingsley Court, Park Avenue, London, NW2 5TT; designation/effective date is taken from Planning Data fields where supplied."},"geometry":{"type":"Point","coordinates":[-0.228417,51.549883]}},{"type":"Feature","id":"lon_planning_designation_listed-building-outline_42192648","properties":{"city_id":"london","event_id":"lon_planning_designation_listed-building-outline_42192648","title":"Listed building outline: 34 Kingsley Court, Park Avenue, London, NW2 5TS","year":2000,"effective_date":"2000-11-24","date_precision":"day","category":"built_environment","lens":"built_environment","confidence":"documented","source_ids":["lon-extra-planning-data-listed-building-outlines"],"explanation":"Planning/protection evidence record for 34 Kingsley Court, Park Avenue, London, NW2 5TS; designation/effective date is taken from Planning Data fields where supplied."},"geometry":{"type":"Point","coordinates":[-0.228417,51.549883]}},{"type":"Feature","id":"lon_planning_designation_listed-building-outline_42192649","properties":{"city_id":"london","event_id":"lon_planning_designation_listed-building-outline_42192649","title":"Listed building outline: 33 Kingsley Court, Park Avenue, London, NW2 5TS","year":2000,"effective_date":"2000-11-24","date_precision":"day","category":"built_environment","lens":"built_environment","confidence":"documented","source_ids":["lon-extra-planning-data-listed-building-outlines"],"explanation":"Planning/protection evidence record for 33 Kingsley Court, Park Avenue, London, NW2 5TS; designation/effective date is taken from Planning Data fields where supplied."},"geometry":{"type":"Point","coordinates":[-0.228417,51.549883]}},{"type":"Feature","id":"lon_planning_designation_listed-building-outline_42192650","properties":{"city_id":"london","event_id":"lon_planning_designation_listed-building-outline_42192650","title":"Listed building outline: 32 Kingsley Court, Park Avenue, London, NW2 5TS","year":2000,"effective_date":"2000-11-24","date_precision":"day","category":"built_environment","lens":"built_environment","confidence":"documented","source_ids":["lon-extra-planning-data-listed-building-outlines"],"explanation":"Planning/protection evidence record for 32 Kingsley Court, Park Avenue, London, NW2 5TS; designation/effective date is taken from Planning Data fields where supplied."},"geometry":{"type":"Point","coordinates":[-0.228417,51.549883]}},{"type":"Feature","id":"lon_planning_designation_listed-building-outline_42192651","properties":{"city_id":"london","event_id":"lon_planning_designation_listed-building-outline_42192651","title":"Listed building outline: 31 Kingsley Court, Park Avenue, London, NW2 5TS","year":2000,"effective_date":"2000-11-24","date_precision":"day","category":"built_environment","lens":"built_environment","confidence":"documented","source_ids":["lon-extra-planning-data-listed-building-outlines"],"explanation":"Planning/protection evidence record for 31 Kingsley Court, Park Avenue, London, NW2 5TS; designation/effective date is taken from Planning Data fields where supplied."},"geometry":{"type":"Point","coordinates":[-0.228417,51.549883]}},{"type":"Feature","id":"lon_planning_designation_listed-building-outline_42192652","properties":{"city_id":"london","event_id":"lon_planning_designation_listed-building-outline_42192652","title":"Listed building outline: 28 Kingsley Court, Park Avenue, London, NW2 5TR","year":2000,"effective_date":"2000-11-24","date_precision":"day","category":"built_environment","lens":"built_environment","confidence":"documented","source_ids":["lon-extra-planning-data-listed-building-outlines"],"explanation":"Planning/protection evidence record for 28 Kingsley Court, Park Avenue, London, NW2 5TR; designation/effective date is taken from Planning Data fields where supplied."},"geometry":{"type":"Point","coordinates":[-0.228417,51.549883]}},{"type":"Feature","id":"lon_planning_designation_listed-building-outline_42192653","properties":{"city_id":"london","event_id":"lon_planning_designation_listed-building-outline_42192653","title":"Listed building outline: 27 Kingsley Court, Park Avenue, London, NW2 5TR","year":2000,"effective_date":"2000-11-24","date_precision":"day","category":"built_environment","lens":"built_environment","confidence":"documented","source_ids":["lon-extra-planning-data-listed-building-outlines"],"explanation":"Planning/protection evidence record for 27 Kingsley Court, Park Avenue, London, NW2 5TR; designation/effective date is taken from Planning Data fields where supplied."},"geometry":{"type":"Point","coordinates":[-0.228417,51.549883]}},{"type":"Feature","id":"lon_planning_designation_listed-building-outline_42192654","properties":{"city_id":"london","event_id":"lon_planning_designation_listed-building-outline_42192654","title":"Listed building outline: 26 Kingsley Court, Park Avenue, London, NW2 5TR","year":2000,"effective_date":"2000-11-24","date_precision":"day","category":"built_environment","lens":"built_environment","confidence":"documented","source_ids":["lon-extra-planning-data-listed-building-outlines"],"explanation":"Planning/protection evidence record for 26 Kingsley Court, Park Avenue, London, NW2 5TR; designation/effective date is taken from Planning Data fields where supplied."},"geometry":{"type":"Point","coordinates":[-0.228417,51.549883]}},{"type":"Feature","id":"lon_planning_designation_listed-building-outline_42192655","properties":{"city_id":"london","event_id":"lon_planning_designation_listed-building-outline_42192655","title":"Listed building outline: 25 Kingsley Court, Park Avenue, London, NW2 5TR","year":2000,"effective_date":"2000-11-24","date_precision":"day","category":"built_environment","lens":"built_environment","confidence":"documented","source_ids":["lon-extra-planning-data-listed-building-outlines"],"explanation":"Planning/protection evidence record for 25 Kingsley Court, Park Avenue, London, NW2 5TR; designation/effective date is taken from Planning Data fields where supplied."},"geometry":{"type":"Point","coordinates":[-0.228417,51.549883]}},{"type":"Feature","id":"lon_planning_designation_listed-building-outline_42192656","properties":{"city_id":"london","event_id":"lon_planning_designation_listed-building-outline_42192656","title":"Listed building outline: 24 Kingsley Court, Park Avenue, London, NW2 5TP","year":2000,"effective_date":"2000-11-24","date_precision":"day","category":"built_environment","lens":"built_environment","confidence":"documented","source_ids":["lon-extra-planning-data-listed-building-outlines"],"explanation":"Planning/protection evidence record for 24 Kingsley Court, Park Avenue, London, NW2 5TP; designation/effective date is taken from Planning Data fields where supplied."},"geometry":{"type":"Point","coordinates":[-0.228417,51.549883]}},{"type":"Feature","id":"lon_planning_designation_listed-building-outline_42192657","properties":{"city_id":"london","event_id":"lon_planning_designation_listed-building-outline_42192657","title":"Listed building outline: 23 Kingsley Court, Park Avenue, London, NW2 5TP","year":2000,"effective_date":"2000-11-24","date_precision":"day","category":"built_environment","lens":"built_environment","confidence":"documented","source_ids":["lon-extra-planning-data-listed-building-outlines"],"explanation":"Planning/protection evidence record for 23 Kingsley Court, Park Avenue, London, NW2 5TP; designation/effective date is taken from Planning Data fields where supplied."},"geometry":{"type":"Point","coordinates":[-0.228417,51.549883]}},{"type":"Feature","id":"lon_planning_designation_listed-building-outline_42192658","properties":{"city_id":"london","event_id":"lon_planning_designation_listed-building-outline_42192658","title":"Listed building outline: 22 Kingsley Court, Park Avenue, London, NW2 5TP","year":2000,"effective_date":"2000-11-24","date_precision":"day","category":"built_environment","lens":"built_environment","confidence":"documented","source_ids":["lon-extra-planning-data-listed-building-outlines"],"explanation":"Planning/protection evidence record for 22 Kingsley Court, Park Avenue, London, NW2 5TP; designation/effective date is taken from Planning Data fields where supplied."},"geometry":{"type":"Point","coordinates":[-0.228417,51.549883]}},{"type":"Feature","id":"lon_planning_designation_listed-building-outline_42192659","properties":{"city_id":"london","event_id":"lon_planning_designation_listed-building-outline_42192659","title":"Listed building outline: 21 Kingsley Court, Park Avenue, London, NW2 5TP","year":2000,"effective_date":"2000-11-24","date_precision":"day","category":"built_environment","lens":"built_environment","confidence":"documented","source_ids":["lon-extra-planning-data-listed-building-outlines"],"explanation":"Planning/protection evidence record for 21 Kingsley Court, Park Avenue, London, NW2 5TP; designation/effective date is taken from Planning Data fields where supplied."},"geometry":{"type":"Point","coordinates":[-0.228417,51.549883]}},{"type":"Feature","id":"lon_planning_designation_listed-building-outline_42192660","properties":{"city_id":"london","event_id":"lon_planning_designation_listed-building-outline_42192660","title":"Listed building outline: 18 Kingsley Court, Park Avenue, London, NW2 5TN","year":2000,"effective_date":"2000-11-24","date_precision":"day","category":"built_environment","lens":"built_environment","confidence":"documented","source_ids":["lon-extra-planning-data-listed-building-outlines"],"explanation":"Planning/protection evidence record for 18 Kingsley Court, Park Avenue, London, NW2 5TN; designation/effective date is taken from Planning Data fields where supplied."},"geometry":{"type":"Point","coordinates":[-0.228417,51.549883]}},{"type":"Feature","id":"lon_planning_designation_listed-building-outline_42192661","properties":{"city_id":"london","event_id":"lon_planning_designation_listed-building-outline_42192661","title":"Listed building outline: 17 Kingsley Court, Park Avenue, London, NW2 5TN","year":2000,"effective_date":"2000-11-24","date_precision":"day","category":"built_environment","lens":"built_environment","confidence":"documented","source_ids":["lon-extra-planning-data-listed-building-outlines"],"explanation":"Planning/protection evidence record for 17 Kingsley Court, Park Avenue, London, NW2 5TN; designation/effective date is taken from Planning Data fields where supplied."},"geometry":{"type":"Point","coordinates":[-0.228417,51.549883]}},{"type":"Feature","id":"lon_planning_designation_listed-building-outline_42192662","properties":{"city_id":"london","event_id":"lon_planning_designation_listed-building-outline_42192662","title":"Listed building outline: 16 Kingsley Court, Park Avenue, London, NW2 5TN","year":2000,"effective_date":"2000-11-24","date_precision":"day","category":"built_environment","lens":"built_environment","confidence":"documented","source_ids":["lon-extra-planning-data-listed-building-outlines"],"explanation":"Planning/protection evidence record for 16 Kingsley Court, Park Avenue, London, NW2 5TN; designation/effective date is taken from Planning Data fields where supplied."},"geometry":{"type":"Point","coordinates":[-0.228417,51.549883]}},{"type":"Feature","id":"lon_planning_designation_listed-building-outline_42192663","properties":{"city_id":"london","event_id":"lon_planning_designation_listed-building-outline_42192663","title":"Listed building outline: 15 Kingsley Court, Park Avenue, London, NW2 5TN","year":2000,"effective_date":"2000-11-24","date_precision":"day","category":"built_environment","lens":"built_environment","confidence":"documented","source_ids":["lon-extra-planning-data-listed-building-outlines"],"explanation":"Planning/protection evidence record for 15 Kingsley Court, Park Avenue, London, NW2 5TN; designation/effective date is taken from Planning Data fields where supplied."},"geometry":{"type":"Point","coordinates":[-0.228417,51.549883]}},{"type":"Feature","id":"lon_planning_designation_listed-building-outline_42192664","properties":{"city_id":"london","event_id":"lon_planning_designation_listed-building-outline_42192664","title":"Listed building outline: 14 Kingsley Court, Park Avenue, London, NW2 5TL","year":2000,"effective_date":"2000-11-24","date_precision":"day","category":"built_environment","lens":"built_environment","confidence":"documented","source_ids":["lon-extra-planning-data-listed-building-outlines"],"explanation":"Planning/protection evidence record for 14 Kingsley Court, Park Avenue, London, NW2 5TL; designation/effective date is taken from Planning Data fields where supplied."},"geometry":{"type":"Point","coordinates":[-0.228417,51.549883]}},{"type":"Feature","id":"lon_planning_designation_listed-building-outline_42192665","properties":{"city_id":"london","event_id":"lon_planning_designation_listed-building-outline_42192665","title":"Listed building outline: 13 Kingsley Court, Park Avenue, London, NW2 5TL","year":2000,"effective_date":"2000-11-24","date_precision":"day","category":"built_environment","lens":"built_environment","confidence":"documented","source_ids":["lon-extra-planning-data-listed-building-outlines"],"explanation":"Planning/protection evidence record for 13 Kingsley Court, Park Avenue, London, NW2 5TL; designation/effective date is taken from Planning Data fields where supplied."},"geometry":{"type":"Point","coordinates":[-0.228417,51.549883]}},{"type":"Feature","id":"lon_planning_designation_listed-building-outline_42192666","properties":{"city_id":"london","event_id":"lon_planning_designation_listed-building-outline_42192666","title":"Listed building outline: 12 Kingsley Court, Park Avenue, London, NW2 5TL","year":2000,"effective_date":"2000-11-24","date_precision":"day","category":"built_environment","lens":"built_environment","confidence":"documented","source_ids":["lon-extra-planning-data-listed-building-outlines"],"explanation":"Planning/protection evidence record for 12 Kingsley Court, Park Avenue, London, NW2 5TL; designation/effective date is taken from Planning Data fields where supplied."},"geometry":{"type":"Point","coordinates":[-0.228417,51.549883]}},{"type":"Feature","id":"lon_planning_designation_listed-building-outline_42192667","properties":{"city_id":"london","event_id":"lon_planning_designation_listed-building-outline_42192667","title":"Listed building outline: 11 Kingsley Court, Park Avenue, London, NW2 5TL","year":2000,"effective_date":"2000-11-24","date_precision":"day","category":"built_environment","lens":"built_environment","confidence":"documented","source_ids":["lon-extra-planning-data-listed-building-outlines"],"explanation":"Planning/protection evidence record for 11 Kingsley Court, Park Avenue, London, NW2 5TL; designation/effective date is taken from Planning Data fields where supplied."},"geometry":{"type":"Point","coordinates":[-0.228417,51.549883]}},{"type":"Feature","id":"lon_planning_designation_listed-building-outline_42192668","properties":{"city_id":"london","event_id":"lon_planning_designation_listed-building-outline_42192668","title":"Listed building outline: 9 Kingsley Court, Park Avenue, London, NW2 5TJ","year":2000,"effective_date":"2000-11-24","date_precision":"day","category":"built_environment","lens":"built_environment","confidence":"documented","source_ids":["lon-extra-planning-data-listed-building-outlines"],"explanation":"Planning/protection evidence record for 9 Kingsley Court, Park Avenue, London, NW2 5TJ; designation/effective date is taken from Planning Data fields where supplied."},"geometry":{"type":"Point","coordinates":[-0.228417,51.549883]}},{"type":"Feature","id":"lon_planning_designation_listed-building-outline_42192669","properties":{"city_id":"london","event_id":"lon_planning_designation_listed-building-outline_42192669","title":"Listed building outline: 8 Kingsley Court, Park Avenue, London, NW2 5TJ","year":2000,"effective_date":"2000-11-24","date_precision":"day","category":"built_environment","lens":"built_environment","confidence":"documented","source_ids":["lon-extra-planning-data-listed-building-outlines"],"explanation":"Planning/protection evidence record for 8 Kingsley Court, Park Avenue, London, NW2 5TJ; designation/effective date is taken from Planning Data fields where supplied."},"geometry":{"type":"Point","coordinates":[-0.228417,51.549883]}},{"type":"Feature","id":"lon_planning_designation_listed-building-outline_42192670","properties":{"city_id":"london","event_id":"lon_planning_designation_listed-building-outline_42192670","title":"Listed building outline: 7 Kingsley Court, Park Avenue, London, NW2 5TJ","year":2000,"effective_date":"2000-11-24","date_precision":"day","category":"built_environment","lens":"built_environment","confidence":"documented","source_ids":["lon-extra-planning-data-listed-building-outlines"],"explanation":"Planning/protection evidence record for 7 Kingsley Court, Park Avenue, London, NW2 5TJ; designation/effective date is taken from Planning Data fields where supplied."},"geometry":{"type":"Point","coordinates":[-0.228417,51.549883]}},{"type":"Feature","id":"lon_planning_designation_listed-building-outline_42192671","properties":{"city_id":"london","event_id":"lon_planning_designation_listed-building-outline_42192671","title":"Listed building outline: 6 Kingsley Court, Park Avenue, London, NW2 5TJ","year":2000,"effective_date":"2000-11-24","date_precision":"day","category":"built_environment","lens":"built_environment","confidence":"documented","source_ids":["lon-extra-planning-data-listed-building-outlines"],"explanation":"Planning/protection evidence record for 6 Kingsley Court, Park Avenue, London, NW2 5TJ; designation/effective date is taken from Planning Data fields where supplied."},"geometry":{"type":"Point","coordinates":[-0.228417,51.549883]}},{"type":"Feature","id":"lon_planning_designation_listed-building-outline_42192672","properties":{"city_id":"london","event_id":"lon_planning_designation_listed-building-outline_42192672","title":"Listed building outline: 5 Kingsley Court, Park Avenue, London, NW2 5TJ","year":2000,"effective_date":"2000-11-24","date_precision":"day","category":"built_environment","lens":"built_environment","confidence":"documented","source_ids":["lon-extra-planning-data-listed-building-outlines"],"explanation":"Planning/protection evidence record for 5 Kingsley Court, Park Avenue, London, NW2 5TJ; designation/effective date is taken from Planning Data fields where supplied."},"geometry":{"type":"Point","coordinates":[-0.228417,51.549883]}},{"type":"Feature","id":"lon_planning_designation_listed-building-outline_42192673","properties":{"city_id":"london","event_id":"lon_planning_designation_listed-building-outline_42192673","title":"Listed building outline: 4 Kingsley Court, Park Avenue, London, NW2 5TH","year":2000,"effective_date":"2000-11-24","date_precision":"day","category":"built_environment","lens":"built_environment","confidence":"documented","source_ids":["lon-extra-planning-data-listed-building-outlines"],"explanation":"Planning/protection evidence record for 4 Kingsley Court, Park Avenue, London, NW2 5TH; designation/effective date is taken from Planning Data fields where supplied."},"geometry":{"type":"Point","coordinates":[-0.228417,51.549883]}},{"type":"Feature","id":"lon_planning_designation_listed-building-outline_42192674","properties":{"city_id":"london","event_id":"lon_planning_designation_listed-building-outline_42192674","title":"Listed building outline: 3 Kingsley Court, Park Avenue, London, NW2 5TH","year":2000,"effective_date":"2000-11-24","date_precision":"day","category":"built_environment","lens":"built_environment","confidence":"documented","source_ids":["lon-extra-planning-data-listed-building-outlines"],"explanation":"Planning/protection evidence record for 3 Kingsley Court, Park Avenue, London, NW2 5TH; designation/effective date is taken from Planning Data fields where supplied."},"geometry":{"type":"Point","coordinates":[-0.228417,51.549883]}},{"type":"Feature","id":"lon_planning_designation_listed-building-outline_42192675","properties":{"city_id":"london","event_id":"lon_planning_designation_listed-building-outline_42192675","title":"Listed building outline: 2 Kingsley Court, Park Avenue, London, NW2 5TH","year":2000,"effective_date":"2000-11-24","date_precision":"day","category":"built_environment","lens":"built_environment","confidence":"documented","source_ids":["lon-extra-planning-data-listed-building-outlines"],"explanation":"Planning/protection evidence record for 2 Kingsley Court, Park Avenue, London, NW2 5TH; designation/effective date is taken from Planning Data fields where supplied."},"geometry":{"type":"Point","coordinates":[-0.228417,51.549883]}},{"type":"Feature","id":"lon_planning_designation_listed-building-outline_42192676","properties":{"city_id":"london","event_id":"lon_planning_designation_listed-building-outline_42192676","title":"Listed building outline: 1 Kingsley Court, Park Avenue, London, NW2 5TH","year":2000,"effective_date":"2000-11-24","date_precision":"day","category":"built_environment","lens":"built_environment","confidence":"documented","source_ids":["lon-extra-planning-data-listed-building-outlines"],"explanation":"Planning/protection evidence record for 1 Kingsley Court, Park Avenue, London, NW2 5TH; designation/effective date is taken from Planning Data fields where supplied."},"geometry":{"type":"Point","coordinates":[-0.228417,51.549883]}},{"type":"Feature","id":"lon_planning_designation_listed-building-outline_42192677","properties":{"city_id":"london","event_id":"lon_planning_designation_listed-building-outline_42192677","title":"Listed building outline: 1 Burnt Oak Broadway, Edgware, HA8 5LD","year":2000,"effective_date":"2000-10-05","date_precision":"day","category":"built_environment","lens":"built_environment","confidence":"documented","source_ids":["lon-extra-planning-data-listed-building-outlines"],"explanation":"Planning/protection evidence record for 1 Burnt Oak Broadway, Edgware, HA8 5LD; designation/effective date is taken from Planning Data fields where supplied."},"geometry":{"type":"Point","coordinates":[-0.264788,51.597777]}},{"type":"Feature","id":"lon_planning_designation_listed-building-outline_42209545","properties":{"city_id":"london","event_id":"lon_planning_designation_listed-building-outline_42209545","title":"Listed building outline: Listed Building Grade II","year":2000,"effective_date":"2000-01-10","date_precision":"day","category":"built_environment","lens":"built_environment","confidence":"documented","source_ids":["lon-extra-planning-data-listed-building-outlines"],"explanation":"Planning/protection evidence record for Listed Building Grade II; designation/effective date is taken from Planning Data fields where supplied."},"geometry":{"type":"Point","coordinates":[-0.105192,51.49137]}},{"type":"Feature","id":"lon_planning_designation_listed-building-outline_42209546","properties":{"city_id":"london","event_id":"lon_planning_designation_listed-building-outline_42209546","title":"Listed building outline: Listed Building Grade II","year":2000,"effective_date":"2000-05-26","date_precision":"day","category":"built_environment","lens":"built_environment","confidence":"documented","source_ids":["lon-extra-planning-data-listed-building-outlines"],"explanation":"Planning/protection evidence record for Listed Building Grade II; designation/effective date is taken from Planning Data fields where supplied."},"geometry":{"type":"Point","coordinates":[-0.130799,51.42839]}},{"type":"Feature","id":"lon_planning_designation_listed-building-outline_42209919","properties":{"city_id":"london","event_id":"lon_planning_designation_listed-building-outline_42209919","title":"Listed building outline: Listed Building Grade II","year":2000,"effective_date":"2000-01-10","date_precision":"day","category":"built_environment","lens":"built_environment","confidence":"documented","source_ids":["lon-extra-planning-data-listed-building-outlines"],"explanation":"Planning/protection evidence record for Listed Building Grade II; designation/effective date is taken from Planning Data fields where supplied."},"geometry":{"type":"Point","coordinates":[-0.135534,51.445434]}},{"type":"Feature","id":"lon_planning_designation_listed-building-outline_42209938","properties":{"city_id":"london","event_id":"lon_planning_designation_listed-building-outline_42209938","title":"Listed building outline: Listed Building Grade II","year":2000,"effective_date":"2000-05-26","date_precision":"day","category":"built_environment","lens":"built_environment","confidence":"documented","source_ids":["lon-extra-planning-data-listed-building-outlines"],"explanation":"Planning/protection evidence record for Listed Building Grade II; designation/effective date is taken from Planning Data fields where supplied."},"geometry":{"type":"Point","coordinates":[-0.112913,51.453253]}},{"type":"Feature","id":"lon_planning_designation_tree-preservation-zone_19130699","properties":{"city_id":"london","event_id":"lon_planning_designation_tree-preservation-zone_19130699","title":"Tree preservation zone: Half Moon Lane & Village Way","year":2000,"effective_date":"2000-07-17","date_precision":"day","category":"built_environment","lens":"built_environment","confidence":"documented","source_ids":["lon-extra-planning-data-tree-preservation-zones"],"explanation":"Planning/protection evidence record for Half Moon Lane & Village Way; designation/effective date is taken from Planning Data fields where supplied."},"geometry":{"type":"Point","coordinates":[-0.090678,51.453232]}}]}
