{"type":"FeatureCollection","schema_version":"1.0.0","city_id":"london","year":1949,"features":[{"type":"Feature","id":"lon_planning_designation_listed-building-outline_42114955","properties":{"city_id":"london","event_id":"lon_planning_designation_listed-building-outline_42114955","title":"Listed building outline: Tower Bridge (that part that lies within the Borough of Southwark)","short_description":"Planning Data listed-building outline record 471400; quality authoritative; LPA Southwark.","year":1949,"effective_date":"1949-12-06","date_precision":"day","category":"built_environment","lens":"built_environment","confidence":"documented","source_ids":["lon-extra-planning-data-listed-building-outlines"],"explanation":"Planning/protection evidence record for Tower Bridge (that part that lies within the Borough of Southwark); designation/effective date is taken from Planning Data fields where supplied."},"geometry":{"type":"Point","coordinates":[-0.075838,51.504823]}},{"type":"Feature","id":"lon_planning_designation_listed-building-outline_42114958","properties":{"city_id":"london","event_id":"lon_planning_designation_listed-building-outline_42114958","title":"Listed building outline: Nelson House including railings to steps","short_description":"Planning Data listed-building outline record 471249; quality authoritative; LPA Southwark.","year":1949,"effective_date":"1949-12-06","date_precision":"day","category":"built_environment","lens":"built_environment","confidence":"documented","source_ids":["lon-extra-planning-data-listed-building-outlines"],"explanation":"Planning/protection evidence record for Nelson House including railings to steps; designation/effective date is taken from Planning Data fields where supplied."},"geometry":{"type":"Point","coordinates":[-0.033873,51.504434]}},{"type":"Feature","id":"lon_planning_designation_listed-building-outline_42114959","properties":{"city_id":"london","event_id":"lon_planning_designation_listed-building-outline_42114959","title":"Listed building outline: Church of St Mary Rotherhithe","short_description":"Planning Data listed-building outline record 471286; quality authoritative; LPA Southwark.","year":1949,"effective_date":"1949-12-06","date_precision":"day","category":"built_environment","lens":"built_environment","confidence":"documented","source_ids":["lon-extra-planning-data-listed-building-outlines"],"explanation":"Planning/protection evidence record for Church of St Mary Rotherhithe; designation/effective date is taken from Planning Data fields where supplied."},"geometry":{"type":"Point","coordinates":[-0.053921,51.501404]}},{"type":"Feature","id":"lon_planning_designation_listed-building-outline_42114960","properties":{"city_id":"london","event_id":"lon_planning_designation_listed-building-outline_42114960","title":"Listed building outline: Church of St James","short_description":"Planning Data listed-building outline record 471382; quality authoritative; LPA Southwark.","year":1949,"effective_date":"1949-12-06","date_precision":"day","category":"built_environment","lens":"built_environment","confidence":"documented","source_ids":["lon-extra-planning-data-listed-building-outlines"],"explanation":"Planning/protection evidence record for Church of St James; designation/effective date is taken from Planning Data fields where supplied."},"geometry":{"type":"Point","coordinates":[-0.06679,51.497022]}},{"type":"Feature","id":"lon_planning_designation_listed-building-outline_42114969","properties":{"city_id":"london","event_id":"lon_planning_designation_listed-building-outline_42114969","title":"Listed building outline: Church of St Mary Magdalene","short_description":"Planning Data listed-building outline record 470571; quality authoritative; LPA Southwark.","year":1949,"effective_date":"1949-12-06","date_precision":"day","category":"built_environment","lens":"built_environment","confidence":"documented","source_ids":["lon-extra-planning-data-listed-building-outlines"],"explanation":"Planning/protection evidence record for Church of St Mary Magdalene; designation/effective date is taken from Planning Data fields where supplied."},"geometry":{"type":"Point","coordinates":[-0.080817,51.498408]}},{"type":"Feature","id":"lon_planning_designation_listed-building-outline_42114975","properties":{"city_id":"london","event_id":"lon_planning_designation_listed-building-outline_42114975","title":"Listed building outline: Number 142 and attached railings","short_description":"Planning Data listed-building outline record 471070; quality authoritative; LPA Southwark.","year":1949,"effective_date":"1949-12-06","date_precision":"day","category":"built_environment","lens":"built_environment","confidence":"documented","source_ids":["lon-extra-planning-data-listed-building-outlines"],"explanation":"Planning/protection evidence record for Number 142 and attached railings; designation/effective date is taken from Planning Data fields where supplied."},"geometry":{"type":"Point","coordinates":[-0.08708,51.499597]}},{"type":"Feature","id":"lon_planning_designation_listed-building-outline_42114976","properties":{"city_id":"london","event_id":"lon_planning_designation_listed-building-outline_42114976","title":"Listed building outline: Mary Sheridan House (part) and area railings","short_description":"Planning Data listed-building outline record 471293; quality authoritative; LPA Southwark.","year":1949,"effective_date":"1949-12-06","date_precision":"day","category":"built_environment","lens":"built_environment","confidence":"documented","source_ids":["lon-extra-planning-data-listed-building-outlines"],"explanation":"Planning/protection evidence record for Mary Sheridan House (part) and area railings; designation/effective date is taken from Planning Data fields where supplied."},"geometry":{"type":"Point","coordinates":[-0.08802,51.504948]}},{"type":"Feature","id":"lon_planning_designation_listed-building-outline_42114979","properties":{"city_id":"london","event_id":"lon_planning_designation_listed-building-outline_42114979","title":"Listed building outline: Number 9 and attached railings","short_description":"Planning Data listed-building outline record 471291; quality authoritative; LPA Southwark.","year":1949,"effective_date":"1949-12-06","date_precision":"day","category":"built_environment","lens":"built_environment","confidence":"documented","source_ids":["lon-extra-planning-data-listed-building-outlines"],"explanation":"Planning/protection evidence record for Number 9 and attached railings; designation/effective date is taken from Planning Data fields where supplied."},"geometry":{"type":"Point","coordinates":[-0.088239,51.504998]}},{"type":"Feature","id":"lon_planning_designation_listed-building-outline_42114980","properties":{"city_id":"london","event_id":"lon_planning_designation_listed-building-outline_42114980","title":"Listed building outline: No given name","short_description":"Planning Data listed-building outline record 471292; quality authoritative; LPA Southwark.","year":1949,"effective_date":"1949-12-06","date_precision":"day","category":"built_environment","lens":"built_environment","confidence":"documented","source_ids":["lon-extra-planning-data-listed-building-outlines"],"explanation":"Planning/protection evidence record for No given name; designation/effective date is taken from Planning Data fields where supplied."},"geometry":{"type":"Point","coordinates":[-0.0885,51.505059]}},{"type":"Feature","id":"lon_planning_designation_listed-building-outline_42115099","properties":{"city_id":"london","event_id":"lon_planning_designation_listed-building-outline_42115099","title":"Listed building outline: Mary Sheridan House (part) and attached area railings","short_description":"Planning Data listed-building outline record 471294; quality authoritative; LPA Southwark.","year":1949,"effective_date":"1949-12-06","date_precision":"day","category":"built_environment","lens":"built_environment","confidence":"documented","source_ids":["lon-extra-planning-data-listed-building-outlines"],"explanation":"Planning/protection evidence record for Mary Sheridan House (part) and attached area railings; designation/effective date is taken from Planning Data fields where supplied."},"geometry":{"type":"Point","coordinates":[-0.087853,51.504889]}},{"type":"Feature","id":"lon_planning_designation_listed-building-outline_42115182","properties":{"city_id":"london","event_id":"lon_planning_designation_listed-building-outline_42115182","title":"Listed building outline: St Olav\u2019s Kirke","short_description":"Planning Data listed-building outline record 470532; quality authoritative; LPA Southwark.","year":1949,"effective_date":"1949-12-06","date_precision":"day","category":"built_environment","lens":"built_environment","confidence":"documented","source_ids":["lon-extra-planning-data-listed-building-outlines"],"explanation":"Planning/protection evidence record for St Olav\u2019s Kirke; designation/effective date is taken from Planning Data fields where supplied."},"geometry":{"type":"Point","coordinates":[-0.05382,51.499368]}},{"type":"Feature","id":"lon_planning_designation_listed-building-outline_42115324","properties":{"city_id":"london","event_id":"lon_planning_designation_listed-building-outline_42115324","title":"Listed building outline: No given name","short_description":"Planning Data listed-building outline record 471283; quality authoritative; LPA Southwark.","year":1949,"effective_date":"1949-12-06","date_precision":"day","category":"built_environment","lens":"built_environment","confidence":"documented","source_ids":["lon-extra-planning-data-listed-building-outlines"],"explanation":"Planning/protection evidence record for No given name; designation/effective date is taken from Planning Data fields where supplied."},"geometry":{"type":"Point","coordinates":[-0.054063,51.500996]}},{"type":"Feature","id":"lon_planning_designation_listed-building-outline_42120553","properties":{"city_id":"london","event_id":"lon_planning_designation_listed-building-outline_42120553","title":"Listed building outline: LAWRENCE CAMPE ALMSHOUSES","short_description":"Planning Data listed-building outline record 1294592; quality authoritative; LPA Barnet.","year":1949,"effective_date":"1949-02-24","date_precision":"day","category":"built_environment","lens":"built_environment","confidence":"documented","source_ids":["lon-extra-planning-data-listed-building-outlines"],"explanation":"Planning/protection evidence record for LAWRENCE CAMPE ALMSHOUSES; designation/effective date is taken from Planning Data fields where supplied."},"geometry":{"type":"Point","coordinates":[-0.169946,51.62549]}},{"type":"Feature","id":"lon_planning_designation_listed-building-outline_42120554","properties":{"city_id":"london","event_id":"lon_planning_designation_listed-building-outline_42120554","title":"Listed building outline: PARISH CHURCH OF ST JAMES","short_description":"Planning Data listed-building outline record 1359055; quality authoritative; LPA Barnet.","year":1949,"effective_date":"1949-02-24","date_precision":"day","category":"built_environment","lens":"built_environment","confidence":"documented","source_ids":["lon-extra-planning-data-listed-building-outlines"],"explanation":"Planning/protection evidence record for PARISH CHURCH OF ST JAMES; designation/effective date is taken from Planning Data fields where supplied."},"geometry":{"type":"Point","coordinates":[-0.163735,51.620989]}},{"type":"Feature","id":"lon_planning_designation_listed-building-outline_42120555","properties":{"city_id":"london","event_id":"lon_planning_designation_listed-building-outline_42120555","title":"Listed building outline: CHURCH OF ST JOHN THE EVANGELIST","short_description":"Planning Data listed-building outline record 1359056; quality authoritative; LPA Barnet.","year":1949,"effective_date":"1949-02-24","date_precision":"day","category":"built_environment","lens":"built_environment","confidence":"documented","source_ids":["lon-extra-planning-data-listed-building-outlines"],"explanation":"Planning/protection evidence record for CHURCH OF ST JOHN THE EVANGELIST; designation/effective date is taken from Planning Data fields where supplied."},"geometry":{"type":"Point","coordinates":[-0.154471,51.613105]}},{"type":"Feature","id":"lon_planning_designation_listed-building-outline_42120556","properties":{"city_id":"london","event_id":"lon_planning_designation_listed-building-outline_42120556","title":"Listed building outline: THE FELIX AND FIRKIN PUBLIC HOUSE","short_description":"Planning Data listed-building outline record 1061392; quality authoritative; LPA Barnet.","year":1949,"effective_date":"1949-07-18","date_precision":"day","category":"built_environment","lens":"built_environment","confidence":"documented","source_ids":["lon-extra-planning-data-listed-building-outlines"],"explanation":"Planning/protection evidence record for THE FELIX AND FIRKIN PUBLIC HOUSE; designation/effective date is taken from Planning Data fields where supplied."},"geometry":{"type":"Point","coordinates":[-0.199158,51.652434]}},{"type":"Feature","id":"lon_planning_designation_listed-building-outline_42120557","properties":{"city_id":"london","event_id":"lon_planning_designation_listed-building-outline_42120557","title":"Listed building outline: HADLEY HIGHSTONE","short_description":"Planning Data listed-building outline record 1078808; quality authoritative; LPA Barnet.","year":1949,"effective_date":"1949-07-18","date_precision":"day","category":"built_environment","lens":"built_environment","confidence":"documented","source_ids":["lon-extra-planning-data-listed-building-outlines"],"explanation":"Planning/protection evidence record for HADLEY HIGHSTONE; designation/effective date is taken from Planning Data fields where supplied."},"geometry":{"type":"Point","coordinates":[-0.198936,51.665844]}},{"type":"Feature","id":"lon_planning_designation_listed-building-outline_42120558","properties":{"city_id":"london","event_id":"lon_planning_designation_listed-building-outline_42120558","title":"Listed building outline: Hurst Cottage","short_description":"Planning Data listed-building outline record 1078812; quality authoritative; LPA Barnet.","year":1949,"effective_date":"1949-07-18","date_precision":"day","category":"built_environment","lens":"built_environment","confidence":"documented","source_ids":["lon-extra-planning-data-listed-building-outlines"],"explanation":"Planning/protection evidence record for Hurst Cottage; designation/effective date is taken from Planning Data fields where supplied."},"geometry":{"type":"Point","coordinates":[-0.191296,51.659985]}},{"type":"Feature","id":"lon_planning_designation_listed-building-outline_42120559","properties":{"city_id":"london","event_id":"lon_planning_designation_listed-building-outline_42120559","title":"Listed building outline: Cottage adjoining the eastern side of Hurst Cottage","short_description":"Planning Data listed-building outline record 1078813; quality authoritative; LPA Barnet.","year":1949,"effective_date":"1949-07-18","date_precision":"day","category":"built_environment","lens":"built_environment","confidence":"documented","source_ids":["lon-extra-planning-data-listed-building-outlines"],"explanation":"Planning/protection evidence record for Cottage adjoining the eastern side of Hurst Cottage; designation/effective date is taken from Planning Data fields where supplied."},"geometry":{"type":"Point","coordinates":[-0.191198,51.659942]}},{"type":"Feature","id":"lon_planning_designation_listed-building-outline_42120560","properties":{"city_id":"london","event_id":"lon_planning_designation_listed-building-outline_42120560","title":"Listed building outline: THE CHASE","short_description":"Planning Data listed-building outline record 1078815; quality authoritative; LPA Barnet.","year":1949,"effective_date":"1949-07-18","date_precision":"day","category":"built_environment","lens":"built_environment","confidence":"documented","source_ids":["lon-extra-planning-data-listed-building-outlines"],"explanation":"Planning/protection evidence record for THE CHASE; designation/effective date is taken from Planning Data fields where supplied."},"geometry":{"type":"Point","coordinates":[-0.190763,51.659766]}},{"type":"Feature","id":"lon_planning_designation_listed-building-outline_42120561","properties":{"city_id":"london","event_id":"lon_planning_designation_listed-building-outline_42120561","title":"Listed building outline: HADLEY HURST COTTAGES","short_description":"Planning Data listed-building outline record 1078817; quality authoritative; LPA Barnet.","year":1949,"effective_date":"1949-07-18","date_precision":"day","category":"built_environment","lens":"built_environment","confidence":"documented","source_ids":["lon-extra-planning-data-listed-building-outlines"],"explanation":"Planning/protection evidence record for HADLEY HURST COTTAGES; designation/effective date is taken from Planning Data fields where supplied."},"geometry":{"type":"Point","coordinates":[-0.18987,51.659174]}},{"type":"Feature","id":"lon_planning_designation_listed-building-outline_42120562","properties":{"city_id":"london","event_id":"lon_planning_designation_listed-building-outline_42120562","title":"Listed building outline: Parish Church of St Mary the Virgin","short_description":"Planning Data listed-building outline record 1078819; quality authoritative; LPA Barnet.","year":1949,"effective_date":"1949-07-18","date_precision":"day","category":"built_environment","lens":"built_environment","confidence":"documented","source_ids":["lon-extra-planning-data-listed-building-outlines"],"explanation":"Planning/protection evidence record for Parish Church of St Mary the Virgin; designation/effective date is taken from Planning Data fields where supplied."},"geometry":{"type":"Point","coordinates":[-0.193898,51.661588]}},{"type":"Feature","id":"lon_planning_designation_listed-building-outline_42120563","properties":{"city_id":"london","event_id":"lon_planning_designation_listed-building-outline_42120563","title":"Listed building outline: WILBRAHAM ALMSHOUSES","short_description":"Planning Data listed-building outline record 1078821; quality authoritative; LPA Barnet.","year":1949,"effective_date":"1949-07-18","date_precision":"day","category":"built_environment","lens":"built_environment","confidence":"documented","source_ids":["lon-extra-planning-data-listed-building-outlines"],"explanation":"Planning/protection evidence record for WILBRAHAM ALMSHOUSES; designation/effective date is taken from Planning Data fields where supplied."},"geometry":{"type":"Point","coordinates":[-0.195918,51.661643]}},{"type":"Feature","id":"lon_planning_designation_listed-building-outline_42120564","properties":{"city_id":"london","event_id":"lon_planning_designation_listed-building-outline_42120564","title":"Listed building outline: HADLEY HOUSE","short_description":"Planning Data listed-building outline record 1078824; quality authoritative; LPA Barnet.","year":1949,"effective_date":"1949-07-18","date_precision":"day","category":"built_environment","lens":"built_environment","confidence":"documented","source_ids":["lon-extra-planning-data-listed-building-outlines"],"explanation":"Planning/protection evidence record for HADLEY HOUSE; designation/effective date is taken from Planning Data fields where supplied."},"geometry":{"type":"Point","coordinates":[-0.197555,51.660442]}},{"type":"Feature","id":"lon_planning_designation_listed-building-outline_42120565","properties":{"city_id":"london","event_id":"lon_planning_designation_listed-building-outline_42120565","title":"Listed building outline: HADLEY BOURNE","short_description":"Planning Data listed-building outline record 1078840; quality authoritative; LPA Barnet.","year":1949,"effective_date":"1949-07-18","date_precision":"day","category":"built_environment","lens":"built_environment","confidence":"documented","source_ids":["lon-extra-planning-data-listed-building-outlines"],"explanation":"Planning/protection evidence record for HADLEY BOURNE; designation/effective date is taken from Planning Data fields where supplied."},"geometry":{"type":"Point","coordinates":[-0.196317,51.662182]}},{"type":"Feature","id":"lon_planning_designation_listed-building-outline_42120566","properties":{"city_id":"london","event_id":"lon_planning_designation_listed-building-outline_42120566","title":"Listed building outline: OAK HILL COLLEGE","short_description":"Planning Data listed-building outline record 1078868; quality authoritative; LPA Barnet.","year":1949,"effective_date":"1949-07-18","date_precision":"day","category":"built_environment","lens":"built_environment","confidence":"documented","source_ids":["lon-extra-planning-data-listed-building-outlines"],"explanation":"Planning/protection evidence record for OAK HILL COLLEGE; designation/effective date is taken from Planning Data fields where supplied."},"geometry":{"type":"Point","coordinates":[-0.146363,51.640559]}},{"type":"Feature","id":"lon_planning_designation_listed-building-outline_42120567","properties":{"city_id":"london","event_id":"lon_planning_designation_listed-building-outline_42120567","title":"Listed building outline: PARISH CHURCH OF ST MARY THE VIRGIN","short_description":"Planning Data listed-building outline record 1078869; quality authoritative; LPA Barnet.","year":1949,"effective_date":"1949-07-18","date_precision":"day","category":"built_environment","lens":"built_environment","confidence":"documented","source_ids":["lon-extra-planning-data-listed-building-outlines"],"explanation":"Planning/protection evidence record for PARISH CHURCH OF ST MARY THE VIRGIN; designation/effective date is taken from Planning Data fields where supplied."},"geometry":{"type":"Point","coordinates":[-0.156035,51.635313]}},{"type":"Feature","id":"lon_planning_designation_listed-building-outline_42120568","properties":{"city_id":"london","event_id":"lon_planning_designation_listed-building-outline_42120568","title":"Listed building outline: HADLEY HURST","short_description":"Planning Data listed-building outline record 1188803; quality authoritative; LPA Barnet.","year":1949,"effective_date":"1949-07-18","date_precision":"day","category":"built_environment","lens":"built_environment","confidence":"documented","source_ids":["lon-extra-planning-data-listed-building-outlines"],"explanation":"Planning/protection evidence record for HADLEY HURST; designation/effective date is taken from Planning Data fields where supplied."},"geometry":{"type":"Point","coordinates":[-0.189472,51.659049]}},{"type":"Feature","id":"lon_planning_designation_listed-building-outline_42120569","properties":{"city_id":"london","event_id":"lon_planning_designation_listed-building-outline_42120569","title":"Listed building outline: HOLLYBUSH","short_description":"Planning Data listed-building outline record 1188863; quality authoritative; LPA Barnet.","year":1949,"effective_date":"1949-07-18","date_precision":"day","category":"built_environment","lens":"built_environment","confidence":"documented","source_ids":["lon-extra-planning-data-listed-building-outlines"],"explanation":"Planning/protection evidence record for HOLLYBUSH; designation/effective date is taken from Planning Data fields where supplied."},"geometry":{"type":"Point","coordinates":[-0.196525,51.661205]}},{"type":"Feature","id":"lon_planning_designation_listed-building-outline_42120570","properties":{"city_id":"london","event_id":"lon_planning_designation_listed-building-outline_42120570","title":"Listed building outline: FAIRHOLT","short_description":"Planning Data listed-building outline record 1191138; quality authoritative; LPA Barnet.","year":1949,"effective_date":"1949-07-18","date_precision":"day","category":"built_environment","lens":"built_environment","confidence":"documented","source_ids":["lon-extra-planning-data-listed-building-outlines"],"explanation":"Planning/protection evidence record for FAIRHOLT; designation/effective date is taken from Planning Data fields where supplied."},"geometry":{"type":"Point","coordinates":[-0.197308,51.660642]}},{"type":"Feature","id":"lon_planning_designation_listed-building-outline_42120571","properties":{"city_id":"london","event_id":"lon_planning_designation_listed-building-outline_42120571","title":"Listed building outline: STABLE BLOCK TO HADLEY HOUSE","short_description":"Planning Data listed-building outline record 1293470; quality authoritative; LPA Barnet.","year":1949,"effective_date":"1949-07-18","date_precision":"day","category":"built_environment","lens":"built_environment","confidence":"documented","source_ids":["lon-extra-planning-data-listed-building-outlines"],"explanation":"Planning/protection evidence record for STABLE BLOCK TO HADLEY HOUSE; designation/effective date is taken from Planning Data fields where supplied."},"geometry":{"type":"Point","coordinates":[-0.197817,51.660198]}},{"type":"Feature","id":"lon_planning_designation_listed-building-outline_42120572","properties":{"city_id":"london","event_id":"lon_planning_designation_listed-building-outline_42120572","title":"Listed building outline: WHITE LODGE","short_description":"Planning Data listed-building outline record 1294540; quality authoritative; LPA Barnet.","year":1949,"effective_date":"1949-07-18","date_precision":"day","category":"built_environment","lens":"built_environment","confidence":"documented","source_ids":["lon-extra-planning-data-listed-building-outlines"],"explanation":"Planning/protection evidence record for WHITE LODGE; designation/effective date is taken from Planning Data fields where supplied."},"geometry":{"type":"Point","coordinates":[-0.194785,51.661464]}},{"type":"Feature","id":"lon_planning_designation_listed-building-outline_42120573","properties":{"city_id":"london","event_id":"lon_planning_designation_listed-building-outline_42120573","title":"Listed building outline: ST MARTHAS CONVENT (THE MOUNT HOUSE) WITH ATTACHED STABLE BLOCK","short_description":"Planning Data listed-building outline record 1359027; quality authoritative; LPA Barnet.","year":1949,"effective_date":"1949-07-18","date_precision":"day","category":"built_environment","lens":"built_environment","confidence":"documented","source_ids":["lon-extra-planning-data-listed-building-outlines"],"explanation":"Planning/protection evidence record for ST MARTHAS CONVENT (THE MOUNT HOUSE) WITH ATTACHED STABLE BLOCK; designation/effective date is taken from Planning Data fields where supplied."},"geometry":{"type":"Point","coordinates":[-0.189148,51.663161]}},{"type":"Feature","id":"lon_planning_designation_listed-building-outline_42120574","properties":{"city_id":"london","event_id":"lon_planning_designation_listed-building-outline_42120574","title":"Listed building outline: THE GROVE","short_description":"Planning Data listed-building outline record 1359039; quality authoritative; LPA Barnet.","year":1949,"effective_date":"1949-07-18","date_precision":"day","category":"built_environment","lens":"built_environment","confidence":"documented","source_ids":["lon-extra-planning-data-listed-building-outlines"],"explanation":"Planning/protection evidence record for THE GROVE; designation/effective date is taken from Planning Data fields where supplied."},"geometry":{"type":"Point","coordinates":[-0.194456,51.662072]}},{"type":"Feature","id":"lon_planning_designation_listed-building-outline_42120575","properties":{"city_id":"london","event_id":"lon_planning_designation_listed-building-outline_42120575","title":"Listed building outline: GRANDON","short_description":"Planning Data listed-building outline record 1359041; quality authoritative; LPA Barnet.","year":1949,"effective_date":"1949-07-18","date_precision":"day","category":"built_environment","lens":"built_environment","confidence":"documented","source_ids":["lon-extra-planning-data-listed-building-outlines"],"explanation":"Planning/protection evidence record for GRANDON; designation/effective date is taken from Planning Data fields where supplied."},"geometry":{"type":"Point","coordinates":[-0.196306,51.661398]}},{"type":"Feature","id":"lon_planning_designation_listed-building-outline_42120576","properties":{"city_id":"london","event_id":"lon_planning_designation_listed-building-outline_42120576","title":"Listed building outline: MONKENHOLT","short_description":"Planning Data listed-building outline record 1359042; quality authoritative; LPA Barnet.","year":1949,"effective_date":"1949-07-18","date_precision":"day","category":"built_environment","lens":"built_environment","confidence":"documented","source_ids":["lon-extra-planning-data-listed-building-outlines"],"explanation":"Planning/protection evidence record for MONKENHOLT; designation/effective date is taken from Planning Data fields where supplied."},"geometry":{"type":"Point","coordinates":[-0.197153,51.660776]}},{"type":"Feature","id":"lon_planning_designation_listed-building-outline_42120577","properties":{"city_id":"london","event_id":"lon_planning_designation_listed-building-outline_42120577","title":"Listed building outline: THE ABBEY CHURCH OF CHRIST THE KING","short_description":"Planning Data listed-building outline record 1359061; quality authoritative; LPA Barnet.","year":1949,"effective_date":"1949-07-18","date_precision":"day","category":"built_environment","lens":"built_environment","confidence":"documented","source_ids":["lon-extra-planning-data-listed-building-outlines"],"explanation":"Planning/protection evidence record for THE ABBEY CHURCH OF CHRIST THE KING; designation/effective date is taken from Planning Data fields where supplied."},"geometry":{"type":"Point","coordinates":[-0.161199,51.650823]}},{"type":"Feature","id":"lon_planning_designation_listed-building-outline_42120578","properties":{"city_id":"london","event_id":"lon_planning_designation_listed-building-outline_42120578","title":"Listed building outline: GLADSMUIR","short_description":"Planning Data listed-building outline record 1359075; quality authoritative; LPA Barnet.","year":1949,"effective_date":"1949-07-18","date_precision":"day","category":"built_environment","lens":"built_environment","confidence":"documented","source_ids":["lon-extra-planning-data-listed-building-outlines"],"explanation":"Planning/protection evidence record for GLADSMUIR; designation/effective date is taken from Planning Data fields where supplied."},"geometry":{"type":"Point","coordinates":[-0.192191,51.660286]}},{"type":"Feature","id":"lon_planning_designation_listed-building-outline_42120579","properties":{"city_id":"london","event_id":"lon_planning_designation_listed-building-outline_42120579","title":"Listed building outline: THE SPANIARDS INN","short_description":"Planning Data listed-building outline record 1064863; quality authoritative; LPA Barnet.","year":1949,"effective_date":"1949-10-18","date_precision":"day","category":"built_environment","lens":"built_environment","confidence":"documented","source_ids":["lon-extra-planning-data-listed-building-outlines"],"explanation":"Planning/protection evidence record for THE SPANIARDS INN; designation/effective date is taken from Planning Data fields where supplied."},"geometry":{"type":"Point","coordinates":[-0.17409,51.569845]}},{"type":"Feature","id":"lon_planning_designation_listed-building-outline_42120580","properties":{"city_id":"london","event_id":"lon_planning_designation_listed-building-outline_42120580","title":"Listed building outline: THE MANOR HOUSE","short_description":"Planning Data listed-building outline record 1188600; quality authoritative; LPA Barnet.","year":1949,"effective_date":"1949-10-18","date_precision":"day","category":"built_environment","lens":"built_environment","confidence":"documented","source_ids":["lon-extra-planning-data-listed-building-outlines"],"explanation":"Planning/protection evidence record for THE MANOR HOUSE; designation/effective date is taken from Planning Data fields where supplied."},"geometry":{"type":"Point","coordinates":[-0.189186,51.595211]}},{"type":"Feature","id":"lon_planning_designation_listed-building-outline_42120581","properties":{"city_id":"london","event_id":"lon_planning_designation_listed-building-outline_42120581","title":"Listed building outline: PARISH CHURCH OF ST MARY","short_description":"Planning Data listed-building outline record 1287095; quality authoritative; LPA Barnet.","year":1949,"effective_date":"1949-10-18","date_precision":"day","category":"built_environment","lens":"built_environment","confidence":"documented","source_ids":["lon-extra-planning-data-listed-building-outlines"],"explanation":"Planning/protection evidence record for PARISH CHURCH OF ST MARY; designation/effective date is taken from Planning Data fields where supplied."},"geometry":{"type":"Point","coordinates":[-0.197681,51.599702]}},{"type":"Feature","id":"lon_planning_designation_listed-building-outline_42120582","properties":{"city_id":"london","event_id":"lon_planning_designation_listed-building-outline_42120582","title":"Listed building outline: PARK HOUSE","short_description":"Planning Data listed-building outline record 1359068; quality authoritative; LPA Barnet.","year":1949,"effective_date":"1949-10-18","date_precision":"day","category":"built_environment","lens":"built_environment","confidence":"documented","source_ids":["lon-extra-planning-data-listed-building-outlines"],"explanation":"Planning/protection evidence record for PARK HOUSE; designation/effective date is taken from Planning Data fields where supplied."},"geometry":{"type":"Point","coordinates":[-0.199486,51.59855]}},{"type":"Feature","id":"lon_planning_designation_listed-building-outline_42120583","properties":{"city_id":"london","event_id":"lon_planning_designation_listed-building-outline_42120583","title":"Listed building outline: THE LIMES","short_description":"Planning Data listed-building outline record 1287043; quality authoritative; LPA Barnet.","year":1949,"effective_date":"1949-12-01","date_precision":"day","category":"built_environment","lens":"built_environment","confidence":"documented","source_ids":["lon-extra-planning-data-listed-building-outlines"],"explanation":"Planning/protection evidence record for THE LIMES; designation/effective date is taken from Planning Data fields where supplied."},"geometry":{"type":"Point","coordinates":[-0.17584,51.632124]}},{"type":"Feature","id":"lon_planning_designation_listed-building-outline_42148542","properties":{"city_id":"london","event_id":"lon_planning_designation_listed-building-outline_42148542","title":"Listed building outline: 15-27 PELHAM CRESCENT","short_description":"Planning Data listed-building outline record 422670; quality authoritative; LPA Kensington and Chelsea.","year":1949,"effective_date":"1949-07-29","date_precision":"day","category":"built_environment","lens":"built_environment","confidence":"documented","source_ids":["lon-extra-planning-data-listed-building-outlines"],"explanation":"Planning/protection evidence record for 15-27 PELHAM CRESCENT; designation/effective date is taken from Planning Data fields where supplied."},"geometry":{"type":"Point","coordinates":[-0.171311,51.492633]}},{"type":"Feature","id":"lon_planning_designation_listed-building-outline_42148909","properties":{"city_id":"london","event_id":"lon_planning_designation_listed-building-outline_42148909","title":"Listed building outline: 1 AND 2 WHITCHURCH ROAD","short_description":"Planning Data listed-building outline record 421531; quality authoritative; LPA Kensington and Chelsea.","year":1949,"effective_date":"1949-07-29","date_precision":"day","category":"built_environment","lens":"built_environment","confidence":"documented","source_ids":["lon-extra-planning-data-listed-building-outlines"],"explanation":"Planning/protection evidence record for 1 AND 2 WHITCHURCH ROAD; designation/effective date is taken from Planning Data fields where supplied."},"geometry":{"type":"Point","coordinates":[-0.216405,51.51253]}},{"type":"Feature","id":"lon_planning_designation_listed-building-outline_42148978","properties":{"city_id":"london","event_id":"lon_planning_designation_listed-building-outline_42148978","title":"Listed building outline: CHURCH OF ST PETER","short_description":"Planning Data listed-building outline record 420340; quality authoritative; LPA Kensington and Chelsea.","year":1949,"effective_date":"1949-07-29","date_precision":"day","category":"built_environment","lens":"built_environment","confidence":"documented","source_ids":["lon-extra-planning-data-listed-building-outlines"],"explanation":"Planning/protection evidence record for CHURCH OF ST PETER; designation/effective date is taken from Planning Data fields where supplied."},"geometry":{"type":"Point","coordinates":[-0.202684,51.512716]}},{"type":"Feature","id":"lon_planning_designation_listed-building-outline_42149025","properties":{"city_id":"london","event_id":"lon_planning_designation_listed-building-outline_42149025","title":"Listed building outline: HOLLAND HOUSE","short_description":"Planning Data listed-building outline record 419638; quality authoritative; LPA Kensington and Chelsea.","year":1949,"effective_date":"1949-07-29","date_precision":"day","category":"built_environment","lens":"built_environment","confidence":"documented","source_ids":["lon-extra-planning-data-listed-building-outlines"],"explanation":"Planning/protection evidence record for HOLLAND HOUSE; designation/effective date is taken from Planning Data fields where supplied."},"geometry":{"type":"Point","coordinates":[-0.202227,51.502617]}},{"type":"Feature","id":"lon_planning_designation_listed-building-outline_42149087","properties":{"city_id":"london","event_id":"lon_planning_designation_listed-building-outline_42149087","title":"Listed building outline: AUBREY HOUSE","short_description":"Planning Data listed-building outline record 203515; quality authoritative; LPA Kensington and Chelsea.","year":1949,"effective_date":"1949-07-29","date_precision":"day","category":"built_environment","lens":"built_environment","confidence":"documented","source_ids":["lon-extra-planning-data-listed-building-outlines"],"explanation":"Planning/protection evidence record for AUBREY HOUSE; designation/effective date is taken from Planning Data fields where supplied."},"geometry":{"type":"Point","coordinates":[-0.202579,51.505864]}},{"type":"Feature","id":"lon_planning_designation_listed-building-outline_42149163","properties":{"city_id":"london","event_id":"lon_planning_designation_listed-building-outline_42149163","title":"Listed building outline: ST BARNABAS CHURCH","short_description":"Planning Data listed-building outline record 203491; quality authoritative; LPA Kensington and Chelsea.","year":1949,"effective_date":"1949-07-29","date_precision":"day","category":"built_environment","lens":"built_environment","confidence":"documented","source_ids":["lon-extra-planning-data-listed-building-outlines"],"explanation":"Planning/protection evidence record for ST BARNABAS CHURCH; designation/effective date is taken from Planning Data fields where supplied."},"geometry":{"type":"Point","coordinates":[-0.206311,51.499154]}},{"type":"Feature","id":"lon_planning_designation_listed-building-outline_42149165","properties":{"city_id":"london","event_id":"lon_planning_designation_listed-building-outline_42149165","title":"Listed building outline: WOODLANDS HOUSE","short_description":"Planning Data listed-building outline record 421959; quality authoritative; LPA Kensington and Chelsea.","year":1949,"effective_date":"1949-07-29","date_precision":"day","category":"built_environment","lens":"built_environment","confidence":"documented","source_ids":["lon-extra-planning-data-listed-building-outlines"],"explanation":"Planning/protection evidence record for WOODLANDS HOUSE; designation/effective date is taken from Planning Data fields where supplied."},"geometry":{"type":"Point","coordinates":[-0.20274,51.499883]}},{"type":"Feature","id":"lon_planning_designation_listed-building-outline_42149166","properties":{"city_id":"london","event_id":"lon_planning_designation_listed-building-outline_42149166","title":"Listed building outline: THE TOWER HOUSE","short_description":"Planning Data listed-building outline record 421958; quality authoritative; LPA Kensington and Chelsea.","year":1949,"effective_date":"1949-07-29","date_precision":"day","category":"built_environment","lens":"built_environment","confidence":"documented","source_ids":["lon-extra-planning-data-listed-building-outlines"],"explanation":"Planning/protection evidence record for THE TOWER HOUSE; designation/effective date is taken from Planning Data fields where supplied."},"geometry":{"type":"Point","coordinates":[-0.203156,51.499838]}},{"type":"Feature","id":"lon_planning_designation_listed-building-outline_42149189","properties":{"city_id":"london","event_id":"lon_planning_designation_listed-building-outline_42149189","title":"Listed building outline: PARISH CHURCH OF ST MARY ABBOT AND RAILINGS TO CHURCHYARD","short_description":"Planning Data listed-building outline record 417445; quality authoritative; LPA Kensington and Chelsea.","year":1949,"effective_date":"1949-07-29","date_precision":"day","category":"built_environment","lens":"built_environment","confidence":"documented","source_ids":["lon-extra-planning-data-listed-building-outlines"],"explanation":"Planning/protection evidence record for PARISH CHURCH OF ST MARY ABBOT AND RAILINGS TO CHURCHYARD; designation/effective date is taken from Planning Data fields where supplied."},"geometry":{"type":"Point","coordinates":[-0.191697,51.502345]}},{"type":"Feature","id":"lon_planning_designation_listed-building-outline_42149190","properties":{"city_id":"london","event_id":"lon_planning_designation_listed-building-outline_42149190","title":"Listed building outline: ST MARY ABBOT'S CHURCH OF ENGLAND PRIMARY SCHOOL AND PARISH OFFICE","short_description":"Planning Data listed-building outline record 417444; quality authoritative; LPA Kensington and Chelsea.","year":1949,"effective_date":"1949-07-29","date_precision":"day","category":"built_environment","lens":"built_environment","confidence":"documented","source_ids":["lon-extra-planning-data-listed-building-outlines"],"explanation":"Planning/protection evidence record for ST MARY ABBOT'S CHURCH OF ENGLAND PRIMARY SCHOOL AND PARISH OFFICE; designation/effective date is taken from Planning Data fields where supplied."},"geometry":{"type":"Point","coordinates":[-0.192216,51.502028]}},{"type":"Feature","id":"lon_planning_designation_listed-building-outline_42149192","properties":{"city_id":"london","event_id":"lon_planning_designation_listed-building-outline_42149192","title":"Listed building outline: 16 YOUNG STREET","short_description":"Planning Data listed-building outline record 424800; quality authoritative; LPA Kensington and Chelsea.","year":1949,"effective_date":"1949-07-29","date_precision":"day","category":"built_environment","lens":"built_environment","confidence":"documented","source_ids":["lon-extra-planning-data-listed-building-outlines"],"explanation":"Planning/protection evidence record for 16 YOUNG STREET; designation/effective date is taken from Planning Data fields where supplied."},"geometry":{"type":"Point","coordinates":[-0.189879,51.501274]}},{"type":"Feature","id":"lon_planning_designation_listed-building-outline_42149194","properties":{"city_id":"london","event_id":"lon_planning_designation_listed-building-outline_42149194","title":"Listed building outline: 34 KENSINGTON SQUARE","short_description":"Planning Data listed-building outline record 420619; quality authoritative; LPA Kensington and Chelsea.","year":1949,"effective_date":"1949-07-29","date_precision":"day","category":"built_environment","lens":"built_environment","confidence":"documented","source_ids":["lon-extra-planning-data-listed-building-outlines"],"explanation":"Planning/protection evidence record for 34 KENSINGTON SQUARE; designation/effective date is taken from Planning Data fields where supplied."},"geometry":{"type":"Point","coordinates":[-0.191015,51.500643]}},{"type":"Feature","id":"lon_planning_designation_listed-building-outline_42149195","properties":{"city_id":"london","event_id":"lon_planning_designation_listed-building-outline_42149195","title":"Listed building outline: 32 KENSINGTON SQUARE","short_description":"Planning Data listed-building outline record 420617; quality authoritative; LPA Kensington and Chelsea.","year":1949,"effective_date":"1949-07-29","date_precision":"day","category":"built_environment","lens":"built_environment","confidence":"documented","source_ids":["lon-extra-planning-data-listed-building-outlines"],"explanation":"Planning/protection evidence record for 32 KENSINGTON SQUARE; designation/effective date is taken from Planning Data fields where supplied."},"geometry":{"type":"Point","coordinates":[-0.19096,51.50054]}},{"type":"Feature","id":"lon_planning_designation_listed-building-outline_42149201","properties":{"city_id":"london","event_id":"lon_planning_designation_listed-building-outline_42149201","title":"Listed building outline: 18 KENSINGTON SQUARE","short_description":"Planning Data listed-building outline record 420488; quality authoritative; LPA Kensington and Chelsea.","year":1949,"effective_date":"1949-07-29","date_precision":"day","category":"built_environment","lens":"built_environment","confidence":"documented","source_ids":["lon-extra-planning-data-listed-building-outlines"],"explanation":"Planning/protection evidence record for 18 KENSINGTON SQUARE; designation/effective date is taken from Planning Data fields where supplied."},"geometry":{"type":"Point","coordinates":[-0.189863,51.500105]}},{"type":"Feature","id":"lon_planning_designation_listed-building-outline_42149204","properties":{"city_id":"london","event_id":"lon_planning_designation_listed-building-outline_42149204","title":"Listed building outline: 19 KENSINGTON SQUARE","short_description":"Planning Data listed-building outline record 420489; quality authoritative; LPA Kensington and Chelsea.","year":1949,"effective_date":"1949-07-29","date_precision":"day","category":"built_environment","lens":"built_environment","confidence":"documented","source_ids":["lon-extra-planning-data-listed-building-outlines"],"explanation":"Planning/protection evidence record for 19 KENSINGTON SQUARE; designation/effective date is taken from Planning Data fields where supplied."},"geometry":{"type":"Point","coordinates":[-0.189961,51.500072]}},{"type":"Feature","id":"lon_planning_designation_listed-building-outline_42149205","properties":{"city_id":"london","event_id":"lon_planning_designation_listed-building-outline_42149205","title":"Listed building outline: 30 KENSINGTON SQUARE","short_description":"Planning Data listed-building outline record 420613; quality authoritative; LPA Kensington and Chelsea.","year":1949,"effective_date":"1949-07-29","date_precision":"day","category":"built_environment","lens":"built_environment","confidence":"documented","source_ids":["lon-extra-planning-data-listed-building-outlines"],"explanation":"Planning/protection evidence record for 30 KENSINGTON SQUARE; designation/effective date is taken from Planning Data fields where supplied."},"geometry":{"type":"Point","coordinates":[-0.190888,51.500429]}},{"type":"Feature","id":"lon_planning_designation_listed-building-outline_42149213","properties":{"city_id":"london","event_id":"lon_planning_designation_listed-building-outline_42149213","title":"Listed building outline: 17 KENSINGTON SQUARE","short_description":"Planning Data listed-building outline record 420487; quality authoritative; LPA Kensington and Chelsea.","year":1949,"effective_date":"1949-07-29","date_precision":"day","category":"built_environment","lens":"built_environment","confidence":"documented","source_ids":["lon-extra-planning-data-listed-building-outlines"],"explanation":"Planning/protection evidence record for 17 KENSINGTON SQUARE; designation/effective date is taken from Planning Data fields where supplied."},"geometry":{"type":"Point","coordinates":[-0.189746,51.500136]}},{"type":"Feature","id":"lon_planning_designation_listed-building-outline_42149218","properties":{"city_id":"london","event_id":"lon_planning_designation_listed-building-outline_42149218","title":"Listed building outline: CHURCH OF ST JOHN THE BAPTIST","short_description":"Planning Data listed-building outline record 1080593; quality authoritative; LPA Kensington and Chelsea.","year":1949,"effective_date":"1949-07-29","date_precision":"day","category":"built_environment","lens":"built_environment","confidence":"documented","source_ids":["lon-extra-planning-data-listed-building-outlines"],"explanation":"Planning/protection evidence record for CHURCH OF ST JOHN THE BAPTIST; designation/effective date is taken from Planning Data fields where supplied."},"geometry":{"type":"Point","coordinates":[-0.214156,51.503274]}},{"type":"Feature","id":"lon_planning_designation_listed-building-outline_42149231","properties":{"city_id":"london","event_id":"lon_planning_designation_listed-building-outline_42149231","title":"Listed building outline: ALL SAINTS CHURCH","short_description":"Planning Data listed-building outline record 203704; quality authoritative; LPA Kensington and Chelsea.","year":1949,"effective_date":"1949-07-29","date_precision":"day","category":"built_environment","lens":"built_environment","confidence":"documented","source_ids":["lon-extra-planning-data-listed-building-outlines"],"explanation":"Planning/protection evidence record for ALL SAINTS CHURCH; designation/effective date is taken from Planning Data fields where supplied."},"geometry":{"type":"Point","coordinates":[-0.202826,51.51653]}},{"type":"Feature","id":"lon_planning_designation_listed-building-outline_42149238","properties":{"city_id":"london","event_id":"lon_planning_designation_listed-building-outline_42149238","title":"Listed building outline: CHURCH OF ST AUGUSTINE","short_description":"Planning Data listed-building outline record 423289; quality authoritative; LPA Kensington and Chelsea.","year":1949,"effective_date":"1949-07-29","date_precision":"day","category":"built_environment","lens":"built_environment","confidence":"documented","source_ids":["lon-extra-planning-data-listed-building-outlines"],"explanation":"Planning/protection evidence record for CHURCH OF ST AUGUSTINE; designation/effective date is taken from Planning Data fields where supplied."},"geometry":{"type":"Point","coordinates":[-0.177979,51.49336]}},{"type":"Feature","id":"lon_planning_designation_listed-building-outline_42149332","properties":{"city_id":"london","event_id":"lon_planning_designation_listed-building-outline_42149332","title":"Listed building outline: CHURCH OF THE HOLY TRINITY","short_description":"Planning Data listed-building outline record 203548; quality authoritative; LPA Kensington and Chelsea.","year":1949,"effective_date":"1949-07-29","date_precision":"day","category":"built_environment","lens":"built_environment","confidence":"documented","source_ids":["lon-extra-planning-data-listed-building-outlines"],"explanation":"Planning/protection evidence record for CHURCH OF THE HOLY TRINITY; designation/effective date is taken from Planning Data fields where supplied."},"geometry":{"type":"Point","coordinates":[-0.169854,51.49787]}},{"type":"Feature","id":"lon_planning_designation_listed-building-outline_42149440","properties":{"city_id":"london","event_id":"lon_planning_designation_listed-building-outline_42149440","title":"Listed building outline: 11 AND 12 KENSINGTON SQUARE","short_description":"Planning Data listed-building outline record 420482; quality authoritative; LPA Kensington and Chelsea.","year":1949,"effective_date":"1949-07-29","date_precision":"day","category":"built_environment","lens":"built_environment","confidence":"documented","source_ids":["lon-extra-planning-data-listed-building-outlines"],"explanation":"Planning/protection evidence record for 11 AND 12 KENSINGTON SQUARE; designation/effective date is taken from Planning Data fields where supplied."},"geometry":{"type":"Point","coordinates":[-0.189091,51.500306]}},{"type":"Feature","id":"lon_planning_designation_listed-building-outline_42149469","properties":{"city_id":"london","event_id":"lon_planning_designation_listed-building-outline_42149469","title":"Listed building outline: 1-29 PELHAM PLACE","short_description":"Planning Data listed-building outline record 422671; quality authoritative; LPA Kensington and Chelsea.","year":1949,"effective_date":"1949-07-29","date_precision":"day","category":"built_environment","lens":"built_environment","confidence":"documented","source_ids":["lon-extra-planning-data-listed-building-outlines"],"explanation":"Planning/protection evidence record for 1-29 PELHAM PLACE; designation/effective date is taken from Planning Data fields where supplied."},"geometry":{"type":"Point","coordinates":[-0.171627,51.493337]}},{"type":"Feature","id":"lon_planning_designation_listed-building-outline_42149472","properties":{"city_id":"london","event_id":"lon_planning_designation_listed-building-outline_42149472","title":"Listed building outline: 1-14 PELHAM CRESCENT","short_description":"Planning Data listed-building outline record 422669; quality authoritative; LPA Kensington and Chelsea.","year":1949,"effective_date":"1949-07-29","date_precision":"day","category":"built_environment","lens":"built_environment","confidence":"documented","source_ids":["lon-extra-planning-data-listed-building-outlines"],"explanation":"Planning/protection evidence record for 1-14 PELHAM CRESCENT; designation/effective date is taken from Planning Data fields where supplied."},"geometry":{"type":"Point","coordinates":[-0.170143,51.493322]}},{"type":"Feature","id":"lon_planning_designation_listed-building-outline_42149473","properties":{"city_id":"london","event_id":"lon_planning_designation_listed-building-outline_42149473","title":"Listed building outline: 2-14 PELHAM PLACE","short_description":"Planning Data listed-building outline record 422672; quality authoritative; LPA Kensington and Chelsea.","year":1949,"effective_date":"1949-07-29","date_precision":"day","category":"built_environment","lens":"built_environment","confidence":"documented","source_ids":["lon-extra-planning-data-listed-building-outlines"],"explanation":"Planning/protection evidence record for 2-14 PELHAM PLACE; designation/effective date is taken from Planning Data fields where supplied."},"geometry":{"type":"Point","coordinates":[-0.171009,51.493368]}},{"type":"Feature","id":"lon_planning_designation_listed-building-outline_42149723","properties":{"city_id":"london","event_id":"lon_planning_designation_listed-building-outline_42149723","title":"Listed building outline: 24 KENSINGTON SQUARE","short_description":"Planning Data listed-building outline record 420597; quality authoritative; LPA Kensington and Chelsea.","year":1949,"effective_date":"1949-07-29","date_precision":"day","category":"built_environment","lens":"built_environment","confidence":"documented","source_ids":["lon-extra-planning-data-listed-building-outlines"],"explanation":"Planning/protection evidence record for 24 KENSINGTON SQUARE; designation/effective date is taken from Planning Data fields where supplied."},"geometry":{"type":"Point","coordinates":[-0.190718,51.500037]}},{"type":"Feature","id":"lon_planning_designation_listed-building-outline_42182219","properties":{"city_id":"london","event_id":"lon_planning_designation_listed-building-outline_42182219","title":"Listed building outline: 15-27 PELHAM CRESCENT","short_description":"Planning Data listed-building outline record 1357470; quality authoritative; LPA Kensington and Chelsea.","year":1949,"effective_date":"1949-07-29","date_precision":"day","category":"built_environment","lens":"built_environment","confidence":"documented","source_ids":["lon-extra-planning-data-listed-building-outlines"],"explanation":"Planning/protection evidence record for 15-27 PELHAM CRESCENT; designation/effective date is taken from Planning Data fields where supplied."},"geometry":{"type":"Point","coordinates":[-0.171311,51.492633]}},{"type":"Feature","id":"lon_planning_designation_listed-building-outline_42182568","properties":{"city_id":"london","event_id":"lon_planning_designation_listed-building-outline_42182568","title":"Listed building outline: 1 AND 2 WHITCHURCH ROAD","short_description":"Planning Data listed-building outline record 1225245; quality authoritative; LPA Kensington and Chelsea.","year":1949,"effective_date":"1949-07-29","date_precision":"day","category":"built_environment","lens":"built_environment","confidence":"documented","source_ids":["lon-extra-planning-data-listed-building-outlines"],"explanation":"Planning/protection evidence record for 1 AND 2 WHITCHURCH ROAD; designation/effective date is taken from Planning Data fields where supplied."},"geometry":{"type":"Point","coordinates":[-0.216405,51.51253]}},{"type":"Feature","id":"lon_planning_designation_listed-building-outline_42182634","properties":{"city_id":"london","event_id":"lon_planning_designation_listed-building-outline_42182634","title":"Listed building outline: CHURCH OF ST PETER","short_description":"Planning Data listed-building outline record 1224309; quality authoritative; LPA Kensington and Chelsea.","year":1949,"effective_date":"1949-07-29","date_precision":"day","category":"built_environment","lens":"built_environment","confidence":"documented","source_ids":["lon-extra-planning-data-listed-building-outlines"],"explanation":"Planning/protection evidence record for CHURCH OF ST PETER; designation/effective date is taken from Planning Data fields where supplied."},"geometry":{"type":"Point","coordinates":[-0.202684,51.512716]}},{"type":"Feature","id":"lon_planning_designation_listed-building-outline_42182681","properties":{"city_id":"london","event_id":"lon_planning_designation_listed-building-outline_42182681","title":"Listed building outline: HOLLAND HOUSE","short_description":"Planning Data listed-building outline record 1267135; quality authoritative; LPA Kensington and Chelsea.","year":1949,"effective_date":"1949-07-29","date_precision":"day","category":"built_environment","lens":"built_environment","confidence":"documented","source_ids":["lon-extra-planning-data-listed-building-outlines"],"explanation":"Planning/protection evidence record for HOLLAND HOUSE; designation/effective date is taken from Planning Data fields where supplied."},"geometry":{"type":"Point","coordinates":[-0.202227,51.502617]}},{"type":"Feature","id":"lon_planning_designation_listed-building-outline_42182743","properties":{"city_id":"london","event_id":"lon_planning_designation_listed-building-outline_42182743","title":"Listed building outline: AUBREY HOUSE","short_description":"Planning Data listed-building outline record 1188804; quality authoritative; LPA Kensington and Chelsea.","year":1949,"effective_date":"1949-07-29","date_precision":"day","category":"built_environment","lens":"built_environment","confidence":"documented","source_ids":["lon-extra-planning-data-listed-building-outlines"],"explanation":"Planning/protection evidence record for AUBREY HOUSE; designation/effective date is taken from Planning Data fields where supplied."},"geometry":{"type":"Point","coordinates":[-0.202579,51.505864]}},{"type":"Feature","id":"lon_planning_designation_listed-building-outline_42182818","properties":{"city_id":"london","event_id":"lon_planning_designation_listed-building-outline_42182818","title":"Listed building outline: ST BARNABAS CHURCH","short_description":"Planning Data listed-building outline record 1358092; quality authoritative; LPA Kensington and Chelsea.","year":1949,"effective_date":"1949-07-29","date_precision":"day","category":"built_environment","lens":"built_environment","confidence":"documented","source_ids":["lon-extra-planning-data-listed-building-outlines"],"explanation":"Planning/protection evidence record for ST BARNABAS CHURCH; designation/effective date is taken from Planning Data fields where supplied."},"geometry":{"type":"Point","coordinates":[-0.206311,51.499154]}},{"type":"Feature","id":"lon_planning_designation_listed-building-outline_42182820","properties":{"city_id":"london","event_id":"lon_planning_designation_listed-building-outline_42182820","title":"Listed building outline: WOODLANDS HOUSE","short_description":"Planning Data listed-building outline record 1225541; quality authoritative; LPA Kensington and Chelsea.","year":1949,"effective_date":"1949-07-29","date_precision":"day","category":"built_environment","lens":"built_environment","confidence":"documented","source_ids":["lon-extra-planning-data-listed-building-outlines"],"explanation":"Planning/protection evidence record for WOODLANDS HOUSE; designation/effective date is taken from Planning Data fields where supplied."},"geometry":{"type":"Point","coordinates":[-0.20274,51.499883]}},{"type":"Feature","id":"lon_planning_designation_listed-building-outline_42182821","properties":{"city_id":"london","event_id":"lon_planning_designation_listed-building-outline_42182821","title":"Listed building outline: THE TOWER HOUSE","short_description":"Planning Data listed-building outline record 1225632; quality authoritative; LPA Kensington and Chelsea.","year":1949,"effective_date":"1949-07-29","date_precision":"day","category":"built_environment","lens":"built_environment","confidence":"documented","source_ids":["lon-extra-planning-data-listed-building-outlines"],"explanation":"Planning/protection evidence record for THE TOWER HOUSE; designation/effective date is taken from Planning Data fields where supplied."},"geometry":{"type":"Point","coordinates":[-0.203156,51.499838]}},{"type":"Feature","id":"lon_planning_designation_listed-building-outline_42182844","properties":{"city_id":"london","event_id":"lon_planning_designation_listed-building-outline_42182844","title":"Listed building outline: PARISH CHURCH OF ST MARY ABBOT AND RAILINGS TO CHURCHYARD","short_description":"Planning Data listed-building outline record 1239529; quality authoritative; LPA Kensington and Chelsea.","year":1949,"effective_date":"1949-07-29","date_precision":"day","category":"built_environment","lens":"built_environment","confidence":"documented","source_ids":["lon-extra-planning-data-listed-building-outlines"],"explanation":"Planning/protection evidence record for PARISH CHURCH OF ST MARY ABBOT AND RAILINGS TO CHURCHYARD; designation/effective date is taken from Planning Data fields where supplied."},"geometry":{"type":"Point","coordinates":[-0.191697,51.502345]}},{"type":"Feature","id":"lon_planning_designation_listed-building-outline_42182845","properties":{"city_id":"london","event_id":"lon_planning_designation_listed-building-outline_42182845","title":"Listed building outline: ST MARY ABBOT'S CHURCH OF ENGLAND PRIMARY SCHOOL AND PARISH OFFICE","short_description":"Planning Data listed-building outline record 1239624; quality authoritative; LPA Kensington and Chelsea.","year":1949,"effective_date":"1949-07-29","date_precision":"day","category":"built_environment","lens":"built_environment","confidence":"documented","source_ids":["lon-extra-planning-data-listed-building-outlines"],"explanation":"Planning/protection evidence record for ST MARY ABBOT'S CHURCH OF ENGLAND PRIMARY SCHOOL AND PARISH OFFICE; designation/effective date is taken from Planning Data fields where supplied."},"geometry":{"type":"Point","coordinates":[-0.192216,51.502028]}},{"type":"Feature","id":"lon_planning_designation_listed-building-outline_42182847","properties":{"city_id":"london","event_id":"lon_planning_designation_listed-building-outline_42182847","title":"Listed building outline: 16 YOUNG STREET","short_description":"Planning Data listed-building outline record 1227157; quality authoritative; LPA Kensington and Chelsea.","year":1949,"effective_date":"1949-07-29","date_precision":"day","category":"built_environment","lens":"built_environment","confidence":"documented","source_ids":["lon-extra-planning-data-listed-building-outlines"],"explanation":"Planning/protection evidence record for 16 YOUNG STREET; designation/effective date is taken from Planning Data fields where supplied."},"geometry":{"type":"Point","coordinates":[-0.189879,51.501274]}},{"type":"Feature","id":"lon_planning_designation_listed-building-outline_42182849","properties":{"city_id":"london","event_id":"lon_planning_designation_listed-building-outline_42182849","title":"Listed building outline: 34 KENSINGTON SQUARE","short_description":"Planning Data listed-building outline record 1266783; quality authoritative; LPA Kensington and Chelsea.","year":1949,"effective_date":"1949-07-29","date_precision":"day","category":"built_environment","lens":"built_environment","confidence":"documented","source_ids":["lon-extra-planning-data-listed-building-outlines"],"explanation":"Planning/protection evidence record for 34 KENSINGTON SQUARE; designation/effective date is taken from Planning Data fields where supplied."},"geometry":{"type":"Point","coordinates":[-0.191015,51.500643]}},{"type":"Feature","id":"lon_planning_designation_listed-building-outline_42182850","properties":{"city_id":"london","event_id":"lon_planning_designation_listed-building-outline_42182850","title":"Listed building outline: 32 KENSINGTON SQUARE","short_description":"Planning Data listed-building outline record 1266738; quality authoritative; LPA Kensington and Chelsea.","year":1949,"effective_date":"1949-07-29","date_precision":"day","category":"built_environment","lens":"built_environment","confidence":"documented","source_ids":["lon-extra-planning-data-listed-building-outlines"],"explanation":"Planning/protection evidence record for 32 KENSINGTON SQUARE; designation/effective date is taken from Planning Data fields where supplied."},"geometry":{"type":"Point","coordinates":[-0.19096,51.50054]}},{"type":"Feature","id":"lon_planning_designation_listed-building-outline_42182856","properties":{"city_id":"london","event_id":"lon_planning_designation_listed-building-outline_42182856","title":"Listed building outline: 18 KENSINGTON SQUARE","short_description":"Planning Data listed-building outline record 1266811; quality authoritative; LPA Kensington and Chelsea.","year":1949,"effective_date":"1949-07-29","date_precision":"day","category":"built_environment","lens":"built_environment","confidence":"documented","source_ids":["lon-extra-planning-data-listed-building-outlines"],"explanation":"Planning/protection evidence record for 18 KENSINGTON SQUARE; designation/effective date is taken from Planning Data fields where supplied."},"geometry":{"type":"Point","coordinates":[-0.189863,51.500105]}},{"type":"Feature","id":"lon_planning_designation_listed-building-outline_42182859","properties":{"city_id":"london","event_id":"lon_planning_designation_listed-building-outline_42182859","title":"Listed building outline: 19 KENSINGTON SQUARE","short_description":"Planning Data listed-building outline record 1224425; quality authoritative; LPA Kensington and Chelsea.","year":1949,"effective_date":"1949-07-29","date_precision":"day","category":"built_environment","lens":"built_environment","confidence":"documented","source_ids":["lon-extra-planning-data-listed-building-outlines"],"explanation":"Planning/protection evidence record for 19 KENSINGTON SQUARE; designation/effective date is taken from Planning Data fields where supplied."},"geometry":{"type":"Point","coordinates":[-0.189961,51.500072]}},{"type":"Feature","id":"lon_planning_designation_listed-building-outline_42182860","properties":{"city_id":"london","event_id":"lon_planning_designation_listed-building-outline_42182860","title":"Listed building outline: 30 KENSINGTON SQUARE","short_description":"Planning Data listed-building outline record 1224578; quality authoritative; LPA Kensington and Chelsea.","year":1949,"effective_date":"1949-07-29","date_precision":"day","category":"built_environment","lens":"built_environment","confidence":"documented","source_ids":["lon-extra-planning-data-listed-building-outlines"],"explanation":"Planning/protection evidence record for 30 KENSINGTON SQUARE; designation/effective date is taken from Planning Data fields where supplied."},"geometry":{"type":"Point","coordinates":[-0.190888,51.500429]}},{"type":"Feature","id":"lon_planning_designation_listed-building-outline_42182868","properties":{"city_id":"london","event_id":"lon_planning_designation_listed-building-outline_42182868","title":"Listed building outline: 17 KENSINGTON SQUARE","short_description":"Planning Data listed-building outline record 1224479; quality authoritative; LPA Kensington and Chelsea.","year":1949,"effective_date":"1949-07-29","date_precision":"day","category":"built_environment","lens":"built_environment","confidence":"documented","source_ids":["lon-extra-planning-data-listed-building-outlines"],"explanation":"Planning/protection evidence record for 17 KENSINGTON SQUARE; designation/effective date is taken from Planning Data fields where supplied."},"geometry":{"type":"Point","coordinates":[-0.189746,51.500136]}},{"type":"Feature","id":"lon_planning_designation_listed-building-outline_42182885","properties":{"city_id":"london","event_id":"lon_planning_designation_listed-building-outline_42182885","title":"Listed building outline: ALL SAINTS CHURCH","short_description":"Planning Data listed-building outline record 1080701; quality authoritative; LPA Kensington and Chelsea.","year":1949,"effective_date":"1949-07-29","date_precision":"day","category":"built_environment","lens":"built_environment","confidence":"documented","source_ids":["lon-extra-planning-data-listed-building-outlines"],"explanation":"Planning/protection evidence record for ALL SAINTS CHURCH; designation/effective date is taken from Planning Data fields where supplied."},"geometry":{"type":"Point","coordinates":[-0.202826,51.51653]}},{"type":"Feature","id":"lon_planning_designation_listed-building-outline_42182892","properties":{"city_id":"london","event_id":"lon_planning_designation_listed-building-outline_42182892","title":"Listed building outline: CHURCH OF ST AUGUSTINE","short_description":"Planning Data listed-building outline record 1226161; quality authoritative; LPA Kensington and Chelsea.","year":1949,"effective_date":"1949-07-29","date_precision":"day","category":"built_environment","lens":"built_environment","confidence":"documented","source_ids":["lon-extra-planning-data-listed-building-outlines"],"explanation":"Planning/protection evidence record for CHURCH OF ST AUGUSTINE; designation/effective date is taken from Planning Data fields where supplied."},"geometry":{"type":"Point","coordinates":[-0.177979,51.49336]}},{"type":"Feature","id":"lon_planning_designation_listed-building-outline_42182984","properties":{"city_id":"london","event_id":"lon_planning_designation_listed-building-outline_42182984","title":"Listed building outline: CHURCH OF THE HOLY TRINITY","short_description":"Planning Data listed-building outline record 1189293; quality authoritative; LPA Kensington and Chelsea.","year":1949,"effective_date":"1949-07-29","date_precision":"day","category":"built_environment","lens":"built_environment","confidence":"documented","source_ids":["lon-extra-planning-data-listed-building-outlines"],"explanation":"Planning/protection evidence record for CHURCH OF THE HOLY TRINITY; designation/effective date is taken from Planning Data fields where supplied."},"geometry":{"type":"Point","coordinates":[-0.169854,51.49787]}},{"type":"Feature","id":"lon_planning_designation_listed-building-outline_42183090","properties":{"city_id":"london","event_id":"lon_planning_designation_listed-building-outline_42183090","title":"Listed building outline: 11 AND 12 KENSINGTON SQUARE","short_description":"Planning Data listed-building outline record 1266848; quality authoritative; LPA Kensington and Chelsea.","year":1949,"effective_date":"1949-07-29","date_precision":"day","category":"built_environment","lens":"built_environment","confidence":"documented","source_ids":["lon-extra-planning-data-listed-building-outlines"],"explanation":"Planning/protection evidence record for 11 AND 12 KENSINGTON SQUARE; designation/effective date is taken from Planning Data fields where supplied."},"geometry":{"type":"Point","coordinates":[-0.189091,51.500306]}},{"type":"Feature","id":"lon_planning_designation_listed-building-outline_42183119","properties":{"city_id":"london","event_id":"lon_planning_designation_listed-building-outline_42183119","title":"Listed building outline: 1-29 PELHAM PLACE","short_description":"Planning Data listed-building outline record 1357487; quality authoritative; LPA Kensington and Chelsea.","year":1949,"effective_date":"1949-07-29","date_precision":"day","category":"built_environment","lens":"built_environment","confidence":"documented","source_ids":["lon-extra-planning-data-listed-building-outlines"],"explanation":"Planning/protection evidence record for 1-29 PELHAM PLACE; designation/effective date is taken from Planning Data fields where supplied."},"geometry":{"type":"Point","coordinates":[-0.171627,51.493337]}},{"type":"Feature","id":"lon_planning_designation_listed-building-outline_42183122","properties":{"city_id":"london","event_id":"lon_planning_designation_listed-building-outline_42183122","title":"Listed building outline: 1-14 PELHAM CRESCENT","short_description":"Planning Data listed-building outline record 1065887; quality authoritative; LPA Kensington and Chelsea.","year":1949,"effective_date":"1949-07-29","date_precision":"day","category":"built_environment","lens":"built_environment","confidence":"documented","source_ids":["lon-extra-planning-data-listed-building-outlines"],"explanation":"Planning/protection evidence record for 1-14 PELHAM CRESCENT; designation/effective date is taken from Planning Data fields where supplied."},"geometry":{"type":"Point","coordinates":[-0.170143,51.493322]}},{"type":"Feature","id":"lon_planning_designation_listed-building-outline_42183123","properties":{"city_id":"london","event_id":"lon_planning_designation_listed-building-outline_42183123","title":"Listed building outline: 2-14 PELHAM PLACE","short_description":"Planning Data listed-building outline record 1065845; quality authoritative; LPA Kensington and Chelsea.","year":1949,"effective_date":"1949-07-29","date_precision":"day","category":"built_environment","lens":"built_environment","confidence":"documented","source_ids":["lon-extra-planning-data-listed-building-outlines"],"explanation":"Planning/protection evidence record for 2-14 PELHAM PLACE; designation/effective date is taken from Planning Data fields where supplied."},"geometry":{"type":"Point","coordinates":[-0.171009,51.493368]}},{"type":"Feature","id":"lon_planning_designation_listed-building-outline_42183321","properties":{"city_id":"london","event_id":"lon_planning_designation_listed-building-outline_42183321","title":"Listed building outline: 24 KENSINGTON SQUARE","short_description":"Planning Data listed-building outline record 1224517; quality authoritative; LPA Kensington and Chelsea.","year":1949,"effective_date":"1949-07-29","date_precision":"day","category":"built_environment","lens":"built_environment","confidence":"documented","source_ids":["lon-extra-planning-data-listed-building-outlines"],"explanation":"Planning/protection evidence record for 24 KENSINGTON SQUARE; designation/effective date is taken from Planning Data fields where supplied."},"geometry":{"type":"Point","coordinates":[-0.190718,51.500037]}}]}
