{"type":"FeatureCollection","schema_version":"1.0.0","city_id":"london","year":1863,"features":[{"type":"Feature","id":"london-milestone-1863-metropolitan-railway-opens-3","properties":{"city_id":"london","event_id":"london-milestone-1863-metropolitan-railway-opens-3","title":"Metropolitan Railway opens","subtitle":"Lambeth / 1863 / Documented / TfL Unified API","details":"World's first underground railway; starts rail-led suburban expansion.","year":1863,"effective_date":"1863","date_precision":"year","short_description":"World's first underground railway; starts rail-led suburban expansion.","category":"transport","lens":"traffic","confidence":"documented","source_ids":["tfl-unified-api"],"affected_area_label":"Lambeth","explanation":"World's first underground railway; starts rail-led suburban expansion."},"geometry":{"type":"Point","coordinates":[-0.122752,51.466436]}}]}
