{"type":"FeatureCollection","schema_version":"1.0.0","city_id":"london","year":1980,"features":[{"type":"Feature","id":"lon_planning_designation_conservation-area_44002394","properties":{"city_id":"london","event_id":"lon_planning_designation_conservation-area_44002394","title":"Conservation area record: Liverpool Road","year":1980,"effective_date":"1980-11-05","date_precision":"day","category":"built_environment","lens":"built_environment","confidence":"documented","source_ids":["lon-extra-planning-data-conservation-areas"],"explanation":"Planning/protection evidence record for Liverpool Road; designation/effective date is taken from Planning Data fields where supplied."},"geometry":{"type":"Point","coordinates":[-0.285218,51.419032]}},{"type":"Feature","id":"lon_planning_designation_conservation-area_44006592","properties":{"city_id":"london","event_id":"lon_planning_designation_conservation-area_44006592","title":"Conservation area record: Brixton","year":1980,"effective_date":"1980-10-20","date_precision":"day","category":"built_environment","lens":"built_environment","confidence":"documented","source_ids":["lon-extra-planning-data-conservation-areas"],"explanation":"Planning/protection evidence record for Brixton; designation/effective date is taken from Planning Data fields where supplied."},"geometry":{"type":"Point","coordinates":[-0.114006,51.46231]}},{"type":"Feature","id":"lon_planning_designation_conservation-area_44007441","properties":{"city_id":"london","event_id":"lon_planning_designation_conservation-area_44007441","title":"Conservation area record: Trafalgar Avenue","year":1980,"effective_date":"1980-02-05","date_precision":"day","category":"built_environment","lens":"built_environment","confidence":"documented","source_ids":["lon-extra-planning-data-conservation-areas"],"explanation":"Planning/protection evidence record for Trafalgar Avenue; designation/effective date is taken from Planning Data fields where supplied."},"geometry":{"type":"Point","coordinates":[-0.074227,51.485776]}},{"type":"Feature","id":"lon_planning_designation_conservation-area_44008587","properties":{"city_id":"london","event_id":"lon_planning_designation_conservation-area_44008587","title":"Conservation area record: Minet Estate","year":1980,"effective_date":"1980-10-20","date_precision":"day","category":"built_environment","lens":"built_environment","confidence":"documented","source_ids":["lon-extra-planning-data-conservation-areas"],"explanation":"Planning/protection evidence record for Minet Estate; designation/effective date is taken from Planning Data fields where supplied."},"geometry":{"type":"Point","coordinates":[-0.10441,51.472535]}},{"type":"Feature","id":"lon_planning_designation_conservation-area_44009330","properties":{"city_id":"london","event_id":"lon_planning_designation_conservation-area_44009330","title":"Conservation area record: Copper Mill Lock","year":1980,"effective_date":"1980-01-01","date_precision":"day","category":"built_environment","lens":"built_environment","confidence":"documented","source_ids":["lon-extra-planning-data-conservation-areas"],"explanation":"Planning/protection evidence record for Copper Mill Lock; designation/effective date is taken from Planning Data fields where supplied."},"geometry":{"type":"Point","coordinates":[-0.498625,51.608977]}},{"type":"Feature","id":"lon_planning_designation_conservation-area_44009619","properties":{"city_id":"london","event_id":"lon_planning_designation_conservation-area_44009619","title":"Conservation area record: Camden Square","year":1980,"effective_date":"1980-04-01","date_precision":"day","category":"built_environment","lens":"built_environment","confidence":"documented","source_ids":["lon-extra-planning-data-conservation-areas"],"explanation":"Planning/protection evidence record for Camden Square; designation/effective date is taken from Planning Data fields where supplied."},"geometry":{"type":"Point","coordinates":[-0.130485,51.544846]}},{"type":"Feature","id":"lon_planning_designation_conservation-area_44009625","properties":{"city_id":"london","event_id":"lon_planning_designation_conservation-area_44009625","title":"Conservation area record: Kelly Street","year":1980,"effective_date":"1980-07-01","date_precision":"day","category":"built_environment","lens":"built_environment","confidence":"documented","source_ids":["lon-extra-planning-data-conservation-areas"],"explanation":"Planning/protection evidence record for Kelly Street; designation/effective date is taken from Planning Data fields where supplied."},"geometry":{"type":"Point","coordinates":[-0.14338,51.5457]}},{"type":"Feature","id":"lon_planning_designation_conservation-area_44010233","properties":{"city_id":"london","event_id":"lon_planning_designation_conservation-area_44010233","title":"Conservation area record: Cobourg Road","year":1980,"effective_date":"1980-02-05","date_precision":"day","category":"built_environment","lens":"built_environment","confidence":"documented","source_ids":["lon-extra-planning-data-conservation-areas"],"explanation":"Planning/protection evidence record for Cobourg Road; designation/effective date is taken from Planning Data fields where supplied."},"geometry":{"type":"Point","coordinates":[-0.076109,51.485573]}},{"type":"Feature","id":"lon_planning_designation_listed-building-outline_42115058","properties":{"city_id":"london","event_id":"lon_planning_designation_listed-building-outline_42115058","title":"Listed building outline: Hays Galleria","year":1980,"effective_date":"1980-06-20","date_precision":"day","category":"built_environment","lens":"built_environment","confidence":"documented","source_ids":["lon-extra-planning-data-listed-building-outlines"],"explanation":"Planning/protection evidence record for Hays Galleria; designation/effective date is taken from Planning Data fields where supplied."},"geometry":{"type":"Point","coordinates":[-0.083574,51.505833]}},{"type":"Feature","id":"lon_planning_designation_listed-building-outline_42115108","properties":{"city_id":"london","event_id":"lon_planning_designation_listed-building-outline_42115108","title":"Listed building outline: Chadwick House and attached railings","year":1980,"effective_date":"1980-12-29","date_precision":"day","category":"built_environment","lens":"built_environment","confidence":"documented","source_ids":["lon-extra-planning-data-listed-building-outlines"],"explanation":"Planning/protection evidence record for Chadwick House and attached railings; designation/effective date is taken from Planning Data fields where supplied."},"geometry":{"type":"Point","coordinates":[-0.10212,51.501724]}},{"type":"Feature","id":"lon_planning_designation_listed-building-outline_42116199","properties":{"city_id":"london","event_id":"lon_planning_designation_listed-building-outline_42116199","title":"Listed building outline: (East side) Archway to former Pitt House garden in woodland approx 5m east of road","year":1980,"effective_date":"1980-03-10","date_precision":"day","category":"built_environment","lens":"built_environment","confidence":"documented","source_ids":["lon-extra-planning-data-listed-building-outlines"],"explanation":"Planning/protection evidence record for (East side) Archway to former Pitt House garden in woodland approx 5m east of road; designation/effective date is taken from Planning Data fields where supplied."},"geometry":{"type":"Point","coordinates":[-0.181255,51.566163]}},{"type":"Feature","id":"lon_planning_designation_listed-building-outline_42116227","properties":{"city_id":"london","event_id":"lon_planning_designation_listed-building-outline_42116227","title":"Listed building outline: (North side) Great Ormond Street Hospital Chapel in central block","year":1980,"effective_date":"1980-03-10","date_precision":"day","category":"built_environment","lens":"built_environment","confidence":"documented","source_ids":["lon-extra-planning-data-listed-building-outlines"],"explanation":"Planning/protection evidence record for (North side) Great Ormond Street Hospital Chapel in central block; designation/effective date is taken from Planning Data fields where supplied."},"geometry":{"type":"Point","coordinates":[-0.120898,51.522236]}},{"type":"Feature","id":"lon_planning_designation_listed-building-outline_42116605","properties":{"city_id":"london","event_id":"lon_planning_designation_listed-building-outline_42116605","title":"Listed building outline: (South side) No.7","year":1980,"effective_date":"1980-02-19","date_precision":"day","category":"built_environment","lens":"built_environment","confidence":"documented","source_ids":["lon-extra-planning-data-listed-building-outlines"],"explanation":"Planning/protection evidence record for (South side) No.7; designation/effective date is taken from Planning Data fields where supplied."},"geometry":{"type":"Point","coordinates":[-0.117633,51.521895]}},{"type":"Feature","id":"lon_planning_designation_listed-building-outline_42116607","properties":{"city_id":"london","event_id":"lon_planning_designation_listed-building-outline_42116607","title":"Listed building outline: (South side) No.9","year":1980,"effective_date":"1980-02-19","date_precision":"day","category":"built_environment","lens":"built_environment","confidence":"documented","source_ids":["lon-extra-planning-data-listed-building-outlines"],"explanation":"Planning/protection evidence record for (South side) No.9; designation/effective date is taken from Planning Data fields where supplied."},"geometry":{"type":"Point","coordinates":[-0.117749,51.521887]}},{"type":"Feature","id":"lon_planning_designation_listed-building-outline_42120512","properties":{"city_id":"london","event_id":"lon_planning_designation_listed-building-outline_42120512","title":"Listed building outline: THE VICARAGE","year":1980,"effective_date":"1980-01-28","date_precision":"day","category":"built_environment","lens":"built_environment","confidence":"documented","source_ids":["lon-extra-planning-data-listed-building-outlines"],"explanation":"Planning/protection evidence record for THE VICARAGE; designation/effective date is taken from Planning Data fields where supplied."},"geometry":{"type":"Point","coordinates":[0.162452,51.540239]}},{"type":"Feature","id":"lon_planning_designation_listed-building-outline_42120749","properties":{"city_id":"london","event_id":"lon_planning_designation_listed-building-outline_42120749","title":"Listed building outline: U SHAPED WALL APPROXIMATELY 170 YARDS LONG TO REAR OF NUMBERS 8, 10, 12 AND 16","year":1980,"effective_date":"1980-12-31","date_precision":"day","category":"built_environment","lens":"built_environment","confidence":"documented","source_ids":["lon-extra-planning-data-listed-building-outlines"],"explanation":"Planning/protection evidence record for U SHAPED WALL APPROXIMATELY 170 YARDS LONG TO REAR OF NUMBERS 8, 10, 12 AND 16; designation/effective date is taken from Planning Data fields where supplied."},"geometry":{"type":"Point","coordinates":[-0.193686,51.630817]}},{"type":"Feature","id":"lon_planning_designation_listed-building-outline_42158636","properties":{"city_id":"london","event_id":"lon_planning_designation_listed-building-outline_42158636","title":"Listed building outline: ORFORD HOUSE SOCIAL CLUB","year":1980,"effective_date":"1980-05-07","date_precision":"day","category":"built_environment","lens":"built_environment","confidence":"documented","source_ids":["lon-extra-planning-data-listed-building-outlines"],"explanation":"Planning/protection evidence record for ORFORD HOUSE SOCIAL CLUB; designation/effective date is taken from Planning Data fields where supplied."},"geometry":{"type":"Point","coordinates":[-0.013836,51.581976]}},{"type":"Feature","id":"lon_planning_designation_listed-building-outline_42164804","properties":{"city_id":"london","event_id":"lon_planning_designation_listed-building-outline_42164804","title":"Listed building outline: Imo Office 27 Three Kings Yard London W1K 4DF","year":1980,"effective_date":"1980-06-12","date_precision":"day","category":"built_environment","lens":"built_environment","confidence":"documented","source_ids":["lon-extra-planning-data-listed-building-outlines"],"explanation":"Planning/protection evidence record for Imo Office 27 Three Kings Yard London W1K 4DF; designation/effective date is taken from Planning Data fields where supplied."},"geometry":{"type":"Point","coordinates":[-0.148632,51.51217]}},{"type":"Feature","id":"lon_planning_designation_listed-building-outline_42164818","properties":{"city_id":"london","event_id":"lon_planning_designation_listed-building-outline_42164818","title":"Listed building outline: FLEMINGS HOTEL","year":1980,"effective_date":"1980-03-24","date_precision":"day","category":"built_environment","lens":"built_environment","confidence":"documented","source_ids":["lon-extra-planning-data-listed-building-outlines"],"explanation":"Planning/protection evidence record for FLEMINGS HOTEL; designation/effective date is taken from Planning Data fields where supplied."},"geometry":{"type":"Point","coordinates":[-0.145028,51.506604]}},{"type":"Feature","id":"lon_planning_designation_listed-building-outline_42164933","properties":{"city_id":"london","event_id":"lon_planning_designation_listed-building-outline_42164933","title":"Listed building outline: 65 Brook Street Mayfair London W1K 4AH","year":1980,"effective_date":"1980-06-12","date_precision":"day","category":"built_environment","lens":"built_environment","confidence":"documented","source_ids":["lon-extra-planning-data-listed-building-outlines"],"explanation":"Planning/protection evidence record for 65 Brook Street Mayfair London W1K 4AH; designation/effective date is taken from Planning Data fields where supplied."},"geometry":{"type":"Point","coordinates":[-0.148752,51.512425]}},{"type":"Feature","id":"lon_planning_designation_listed-building-outline_42165088","properties":{"city_id":"london","event_id":"lon_planning_designation_listed-building-outline_42165088","title":"Listed building outline: 13 Hertford Street London W1J 7RW","year":1980,"effective_date":"1980-03-24","date_precision":"day","category":"built_environment","lens":"built_environment","confidence":"documented","source_ids":["lon-extra-planning-data-listed-building-outlines"],"explanation":"Planning/protection evidence record for 13 Hertford Street London W1J 7RW; designation/effective date is taken from Planning Data fields where supplied."},"geometry":{"type":"Point","coordinates":[-0.148225,51.505547]}},{"type":"Feature","id":"lon_planning_designation_listed-building-outline_42165166","properties":{"city_id":"london","event_id":"lon_planning_designation_listed-building-outline_42165166","title":"Listed building outline: 80A Great Portland Street London W1W 7NW","year":1980,"effective_date":"1980-09-22","date_precision":"day","category":"built_environment","lens":"built_environment","confidence":"documented","source_ids":["lon-extra-planning-data-listed-building-outlines"],"explanation":"Planning/protection evidence record for 80A Great Portland Street London W1W 7NW; designation/effective date is taken from Planning Data fields where supplied."},"geometry":{"type":"Point","coordinates":[-0.141732,51.518411]}},{"type":"Feature","id":"lon_planning_designation_listed-building-outline_42165207","properties":{"city_id":"london","event_id":"lon_planning_designation_listed-building-outline_42165207","title":"Listed building outline: Basement 6 Half Moon Street London W1J 7BA","year":1980,"effective_date":"1980-03-24","date_precision":"day","category":"built_environment","lens":"built_environment","confidence":"documented","source_ids":["lon-extra-planning-data-listed-building-outlines"],"explanation":"Planning/protection evidence record for Basement 6 Half Moon Street London W1J 7BA; designation/effective date is taken from Planning Data fields where supplied."},"geometry":{"type":"Point","coordinates":[-0.144924,51.506321]}},{"type":"Feature","id":"lon_planning_designation_listed-building-outline_42165208","properties":{"city_id":"london","event_id":"lon_planning_designation_listed-building-outline_42165208","title":"Listed building outline: 7-12 Half Moon Street London W1J 7BH","year":1980,"effective_date":"1980-03-24","date_precision":"day","category":"built_environment","lens":"built_environment","confidence":"documented","source_ids":["lon-extra-planning-data-listed-building-outlines"],"explanation":"Planning/protection evidence record for 7-12 Half Moon Street London W1J 7BH; designation/effective date is taken from Planning Data fields where supplied."},"geometry":{"type":"Point","coordinates":[-0.145187,51.506493]}},{"type":"Feature","id":"lon_planning_designation_listed-building-outline_42166351","properties":{"city_id":"london","event_id":"lon_planning_designation_listed-building-outline_42166351","title":"Listed building outline: 7 AND 8, HALF MOON STREET W1","year":1980,"effective_date":"1980-03-24","date_precision":"day","category":"built_environment","lens":"built_environment","confidence":"documented","source_ids":["lon-extra-planning-data-listed-building-outlines"],"explanation":"Planning/protection evidence record for 7 AND 8, HALF MOON STREET W1; designation/effective date is taken from Planning Data fields where supplied."},"geometry":{"type":"Point","coordinates":[-0.145017,51.506382]}},{"type":"Feature","id":"lon_planning_designation_listed-building-outline_42167186","properties":{"city_id":"london","event_id":"lon_planning_designation_listed-building-outline_42167186","title":"Listed building outline: 12A Half Moon Street London W1J 7BB","year":1980,"effective_date":"1980-03-24","date_precision":"day","category":"built_environment","lens":"built_environment","confidence":"documented","source_ids":["lon-extra-planning-data-listed-building-outlines"],"explanation":"Planning/protection evidence record for 12A Half Moon Street London W1J 7BB; designation/effective date is taken from Planning Data fields where supplied."},"geometry":{"type":"Point","coordinates":[-0.145328,51.506585]}},{"type":"Feature","id":"lon_planning_designation_listed-building-outline_42167187","properties":{"city_id":"london","event_id":"lon_planning_designation_listed-building-outline_42167187","title":"Listed building outline: 15 Half Moon Street London W1J 7DZ","year":1980,"effective_date":"1980-03-24","date_precision":"day","category":"built_environment","lens":"built_environment","confidence":"documented","source_ids":["lon-extra-planning-data-listed-building-outlines"],"explanation":"Planning/protection evidence record for 15 Half Moon Street London W1J 7DZ; designation/effective date is taken from Planning Data fields where supplied."},"geometry":{"type":"Point","coordinates":[-0.145449,51.506664]}},{"type":"Feature","id":"lon_planning_designation_listed-building-outline_42167319","properties":{"city_id":"london","event_id":"lon_planning_designation_listed-building-outline_42167319","title":"Listed building outline: Flat 13 12 Hertford Street London W1J 7RW","year":1980,"effective_date":"1980-03-24","date_precision":"day","category":"built_environment","lens":"built_environment","confidence":"documented","source_ids":["lon-extra-planning-data-listed-building-outlines"],"explanation":"Planning/protection evidence record for Flat 13 12 Hertford Street London W1J 7RW; designation/effective date is taken from Planning Data fields where supplied."},"geometry":{"type":"Point","coordinates":[-0.148125,51.505562]}},{"type":"Feature","id":"lon_planning_designation_listed-building-outline_42167540","properties":{"city_id":"london","event_id":"lon_planning_designation_listed-building-outline_42167540","title":"Listed building outline: 14 Half Moon Street London W1J 7BD","year":1980,"effective_date":"1980-03-24","date_precision":"day","category":"built_environment","lens":"built_environment","confidence":"documented","source_ids":["lon-extra-planning-data-listed-building-outlines"],"explanation":"Planning/protection evidence record for 14 Half Moon Street London W1J 7BD; designation/effective date is taken from Planning Data fields where supplied."},"geometry":{"type":"Point","coordinates":[-0.145389,51.506624]}},{"type":"Feature","id":"lon_planning_designation_listed-building-outline_42167770","properties":{"city_id":"london","event_id":"lon_planning_designation_listed-building-outline_42167770","title":"Listed building outline: Concession - Basement Sauna 30 The Piazza Covent Garden London WC2E 8BE","year":1980,"effective_date":"1980-07-04","date_precision":"day","category":"built_environment","lens":"built_environment","confidence":"documented","source_ids":["lon-extra-planning-data-listed-building-outlines"],"explanation":"Planning/protection evidence record for Concession - Basement Sauna 30 The Piazza Covent Garden London WC2E 8BE; designation/effective date is taken from Planning Data fields where supplied."},"geometry":{"type":"Point","coordinates":[-0.121857,51.511638]}},{"type":"Feature","id":"lon_planning_designation_listed-building-outline_42172690","properties":{"city_id":"london","event_id":"lon_planning_designation_listed-building-outline_42172690","title":"Listed building outline: Curtilage of ORFORD HOUSE SOCIAL CLUB","year":1980,"effective_date":"1980-05-07","date_precision":"day","category":"built_environment","lens":"built_environment","confidence":"documented","source_ids":["lon-extra-planning-data-listed-building-outlines"],"explanation":"Planning/protection evidence record for Curtilage of ORFORD HOUSE SOCIAL CLUB; designation/effective date is taken from Planning Data fields where supplied."},"geometry":{"type":"Point","coordinates":[-0.013851,51.581856]}},{"type":"Feature","id":"lon_planning_designation_listed-building-outline_42192745","properties":{"city_id":"london","event_id":"lon_planning_designation_listed-building-outline_42192745","title":"Listed building outline: 197-199 Kilburn High Road, London, NW6 7HY","year":1980,"effective_date":"1980-10-10","date_precision":"day","category":"built_environment","lens":"built_environment","confidence":"documented","source_ids":["lon-extra-planning-data-listed-building-outlines"],"explanation":"Planning/protection evidence record for 197-199 Kilburn High Road, London, NW6 7HY; designation/effective date is taken from Planning Data fields where supplied."},"geometry":{"type":"Point","coordinates":[-0.198148,51.541194]}},{"type":"Feature","id":"lon_planning_designation_listed-building-outline_42209422","properties":{"city_id":"london","event_id":"lon_planning_designation_listed-building-outline_42209422","title":"Listed building outline: Listed Building Grade II","year":1980,"effective_date":"1980-05-30","date_precision":"day","category":"built_environment","lens":"built_environment","confidence":"documented","source_ids":["lon-extra-planning-data-listed-building-outlines"],"explanation":"Planning/protection evidence record for Listed Building Grade II; designation/effective date is taken from Planning Data fields where supplied."},"geometry":{"type":"Point","coordinates":[-0.100517,51.4331]}},{"type":"Feature","id":"lon_planning_designation_listed-building-outline_42209497","properties":{"city_id":"london","event_id":"lon_planning_designation_listed-building-outline_42209497","title":"Listed building outline: Listed Building Grade II","year":1980,"effective_date":"1980-05-15","date_precision":"day","category":"built_environment","lens":"built_environment","confidence":"documented","source_ids":["lon-extra-planning-data-listed-building-outlines"],"explanation":"Planning/protection evidence record for Listed Building Grade II; designation/effective date is taken from Planning Data fields where supplied."},"geometry":{"type":"Point","coordinates":[-0.11309,51.505393]}},{"type":"Feature","id":"lon_planning_designation_listed-building-outline_42209555","properties":{"city_id":"london","event_id":"lon_planning_designation_listed-building-outline_42209555","title":"Listed building outline: Listed Building Grade II","year":1980,"effective_date":"1980-05-15","date_precision":"day","category":"built_environment","lens":"built_environment","confidence":"documented","source_ids":["lon-extra-planning-data-listed-building-outlines"],"explanation":"Planning/protection evidence record for Listed Building Grade II; designation/effective date is taken from Planning Data fields where supplied."},"geometry":{"type":"Point","coordinates":[-0.129126,51.46323]}},{"type":"Feature","id":"lon_planning_designation_listed-building-outline_42209604","properties":{"city_id":"london","event_id":"lon_planning_designation_listed-building-outline_42209604","title":"Listed building outline: Listed Building Grade II","year":1980,"effective_date":"1980-05-15","date_precision":"day","category":"built_environment","lens":"built_environment","confidence":"documented","source_ids":["lon-extra-planning-data-listed-building-outlines"],"explanation":"Planning/protection evidence record for Listed Building Grade II; designation/effective date is taken from Planning Data fields where supplied."},"geometry":{"type":"Point","coordinates":[-0.137302,51.471348]}},{"type":"Feature","id":"lon_planning_designation_listed-building-outline_42209644","properties":{"city_id":"london","event_id":"lon_planning_designation_listed-building-outline_42209644","title":"Listed building outline: Listed Building Grade II","year":1980,"effective_date":"1980-05-30","date_precision":"day","category":"built_environment","lens":"built_environment","confidence":"documented","source_ids":["lon-extra-planning-data-listed-building-outlines"],"explanation":"Planning/protection evidence record for Listed Building Grade II; designation/effective date is taken from Planning Data fields where supplied."},"geometry":{"type":"Point","coordinates":[-0.131016,51.424228]}},{"type":"Feature","id":"lon_planning_designation_listed-building-outline_42209766","properties":{"city_id":"london","event_id":"lon_planning_designation_listed-building-outline_42209766","title":"Listed building outline: Listed Building Grade II","year":1980,"effective_date":"1980-05-15","date_precision":"day","category":"built_environment","lens":"built_environment","confidence":"documented","source_ids":["lon-extra-planning-data-listed-building-outlines"],"explanation":"Planning/protection evidence record for Listed Building Grade II; designation/effective date is taken from Planning Data fields where supplied."},"geometry":{"type":"Point","coordinates":[-0.115067,51.474511]}},{"type":"Feature","id":"lon_planning_designation_listed-building-outline_42209948","properties":{"city_id":"london","event_id":"lon_planning_designation_listed-building-outline_42209948","title":"Listed building outline: Listed Building Grade II","year":1980,"effective_date":"1980-05-15","date_precision":"day","category":"built_environment","lens":"built_environment","confidence":"documented","source_ids":["lon-extra-planning-data-listed-building-outlines"],"explanation":"Planning/protection evidence record for Listed Building Grade II; designation/effective date is taken from Planning Data fields where supplied."},"geometry":{"type":"Point","coordinates":[-0.12214,51.484773]}},{"type":"Feature","id":"lon_planning_designation_listed-building-outline_42210132","properties":{"city_id":"london","event_id":"lon_planning_designation_listed-building-outline_42210132","title":"Listed building outline: Listed Building Grade II","year":1980,"effective_date":"1980-05-15","date_precision":"day","category":"built_environment","lens":"built_environment","confidence":"documented","source_ids":["lon-extra-planning-data-listed-building-outlines"],"explanation":"Planning/protection evidence record for Listed Building Grade II; designation/effective date is taken from Planning Data fields where supplied."},"geometry":{"type":"Point","coordinates":[-0.128033,51.474651]}},{"type":"Feature","id":"lon_planning_designation_tree-preservation-zone_19114880","properties":{"city_id":"london","event_id":"lon_planning_designation_tree-preservation-zone_19114880","title":"Tree preservation zone: The London Borough of Barnet (21-49 Ballards Lane and 2-8 The Grove, N.3.) Tree Preservation Order 1980 made under The T","year":1980,"effective_date":"1980-09-04","date_precision":"day","category":"built_environment","lens":"built_environment","confidence":"documented","source_ids":["lon-extra-planning-data-tree-preservation-zones"],"explanation":"Planning/protection evidence record for The London Borough of Barnet (21-49 Ballards Lane and 2-8 The Grove, N.3.) Tree Preservation Order 1980 made under The T; designation/effective date is taken from Planning Data fields where supplied."},"geometry":{"type":"Point","coordinates":[-0.192158,51.602771]}},{"type":"Feature","id":"lon_planning_designation_tree-preservation-zone_19114881","properties":{"city_id":"london","event_id":"lon_planning_designation_tree-preservation-zone_19114881","title":"Tree preservation zone: The London Borough of Barnet (21-49 Ballards Lane and 2-8 The Grove, N.3.) Tree Preservation Order 1980 made under The T","year":1980,"effective_date":"1980-09-04","date_precision":"day","category":"built_environment","lens":"built_environment","confidence":"documented","source_ids":["lon-extra-planning-data-tree-preservation-zones"],"explanation":"Planning/protection evidence record for The London Borough of Barnet (21-49 Ballards Lane and 2-8 The Grove, N.3.) Tree Preservation Order 1980 made under The T; designation/effective date is taken from Planning Data fields where supplied."},"geometry":{"type":"Point","coordinates":[-0.192558,51.602845]}},{"type":"Feature","id":"lon_planning_designation_tree-preservation-zone_19114882","properties":{"city_id":"london","event_id":"lon_planning_designation_tree-preservation-zone_19114882","title":"Tree preservation zone: The London Borough of Barnet (21-49 Ballards Lane and 2-8 The Grove, N.3.) Tree Preservation Order 1980 made under The T","year":1980,"effective_date":"1980-09-04","date_precision":"day","category":"built_environment","lens":"built_environment","confidence":"documented","source_ids":["lon-extra-planning-data-tree-preservation-zones"],"explanation":"Planning/protection evidence record for The London Borough of Barnet (21-49 Ballards Lane and 2-8 The Grove, N.3.) Tree Preservation Order 1980 made under The T; designation/effective date is taken from Planning Data fields where supplied."},"geometry":{"type":"Point","coordinates":[-0.193072,51.603176]}},{"type":"Feature","id":"lon_planning_designation_tree-preservation-zone_19114883","properties":{"city_id":"london","event_id":"lon_planning_designation_tree-preservation-zone_19114883","title":"Tree preservation zone: The London Borough of Barnet (21-49 Ballards Lane and 2-8 The Grove, N.3.) Tree Preservation Order 1980 made under The T","year":1980,"effective_date":"1980-09-04","date_precision":"day","category":"built_environment","lens":"built_environment","confidence":"documented","source_ids":["lon-extra-planning-data-tree-preservation-zones"],"explanation":"Planning/protection evidence record for The London Borough of Barnet (21-49 Ballards Lane and 2-8 The Grove, N.3.) Tree Preservation Order 1980 made under The T; designation/effective date is taken from Planning Data fields where supplied."},"geometry":{"type":"Point","coordinates":[-0.19281,51.603351]}},{"type":"Feature","id":"lon_planning_designation_tree-preservation-zone_19114884","properties":{"city_id":"london","event_id":"lon_planning_designation_tree-preservation-zone_19114884","title":"Tree preservation zone: The London Borough of Barnet (21-49 Ballards Lane and 2-8 The Grove, N.3.) Tree Preservation Order 1980 made under The T","year":1980,"effective_date":"1980-09-04","date_precision":"day","category":"built_environment","lens":"built_environment","confidence":"documented","source_ids":["lon-extra-planning-data-tree-preservation-zones"],"explanation":"Planning/protection evidence record for The London Borough of Barnet (21-49 Ballards Lane and 2-8 The Grove, N.3.) Tree Preservation Order 1980 made under The T; designation/effective date is taken from Planning Data fields where supplied."},"geometry":{"type":"Point","coordinates":[-0.19226,51.603656]}},{"type":"Feature","id":"lon_planning_designation_tree-preservation-zone_19114885","properties":{"city_id":"london","event_id":"lon_planning_designation_tree-preservation-zone_19114885","title":"Tree preservation zone: The London Borough of Barnet (21-49 Ballards Lane and 2-8 The Grove, N.3.) Tree Preservation Order 1980 made under The T","year":1980,"effective_date":"1980-09-04","date_precision":"day","category":"built_environment","lens":"built_environment","confidence":"documented","source_ids":["lon-extra-planning-data-tree-preservation-zones"],"explanation":"Planning/protection evidence record for The London Borough of Barnet (21-49 Ballards Lane and 2-8 The Grove, N.3.) Tree Preservation Order 1980 made under The T; designation/effective date is taken from Planning Data fields where supplied."},"geometry":{"type":"Point","coordinates":[-0.191919,51.603707]}},{"type":"Feature","id":"lon_planning_designation_tree-preservation-zone_19114886","properties":{"city_id":"london","event_id":"lon_planning_designation_tree-preservation-zone_19114886","title":"Tree preservation zone: The London Borough of Barnet (21-49 Ballards Lane and 2-8 The Grove, N.3.) Tree Preservation Order 1980 made under The T","year":1980,"effective_date":"1980-09-04","date_precision":"day","category":"built_environment","lens":"built_environment","confidence":"documented","source_ids":["lon-extra-planning-data-tree-preservation-zones"],"explanation":"Planning/protection evidence record for The London Borough of Barnet (21-49 Ballards Lane and 2-8 The Grove, N.3.) Tree Preservation Order 1980 made under The T; designation/effective date is taken from Planning Data fields where supplied."},"geometry":{"type":"Point","coordinates":[-0.191649,51.603726]}},{"type":"Feature","id":"lon_planning_designation_tree-preservation-zone_19114887","properties":{"city_id":"london","event_id":"lon_planning_designation_tree-preservation-zone_19114887","title":"Tree preservation zone: The London Borough of Barnet (21-49 Ballards Lane and 2-8 The Grove, N.3.) Tree Preservation Order 1980 made under The T","year":1980,"effective_date":"1980-09-04","date_precision":"day","category":"built_environment","lens":"built_environment","confidence":"documented","source_ids":["lon-extra-planning-data-tree-preservation-zones"],"explanation":"Planning/protection evidence record for The London Borough of Barnet (21-49 Ballards Lane and 2-8 The Grove, N.3.) Tree Preservation Order 1980 made under The T; designation/effective date is taken from Planning Data fields where supplied."},"geometry":{"type":"Point","coordinates":[-0.191399,51.603848]}},{"type":"Feature","id":"lon_planning_designation_tree-preservation-zone_19114888","properties":{"city_id":"london","event_id":"lon_planning_designation_tree-preservation-zone_19114888","title":"Tree preservation zone: The London Borough of Barnet (21-49 Ballards Lane and 2-8 The Grove, N.3.) Tree Preservation Order 1980 made under The T","year":1980,"effective_date":"1980-09-04","date_precision":"day","category":"built_environment","lens":"built_environment","confidence":"documented","source_ids":["lon-extra-planning-data-tree-preservation-zones"],"explanation":"Planning/protection evidence record for The London Borough of Barnet (21-49 Ballards Lane and 2-8 The Grove, N.3.) Tree Preservation Order 1980 made under The T; designation/effective date is taken from Planning Data fields where supplied."},"geometry":{"type":"Point","coordinates":[-0.191219,51.603678]}},{"type":"Feature","id":"lon_planning_designation_tree-preservation-zone_19114895","properties":{"city_id":"london","event_id":"lon_planning_designation_tree-preservation-zone_19114895","title":"Tree preservation zone: The London Borough of Barnet (RoadSide verges adjacent to Crooked Usage, N.3.) Tree Preservation Order 1980 made under T","year":1980,"effective_date":"1980-06-06","date_precision":"day","category":"built_environment","lens":"built_environment","confidence":"documented","source_ids":["lon-extra-planning-data-tree-preservation-zones"],"explanation":"Planning/protection evidence record for The London Borough of Barnet (RoadSide verges adjacent to Crooked Usage, N.3.) Tree Preservation Order 1980 made under T; designation/effective date is taken from Planning Data fields where supplied."},"geometry":{"type":"Point","coordinates":[-0.207642,51.593165]}},{"type":"Feature","id":"lon_planning_designation_tree-preservation-zone_19114896","properties":{"city_id":"london","event_id":"lon_planning_designation_tree-preservation-zone_19114896","title":"Tree preservation zone: The London Borough of Barnet (RoadSide verges adjacent to Crooked Usage, N.3.) Tree Preservation Order 1980 made under T","year":1980,"effective_date":"1980-06-06","date_precision":"day","category":"built_environment","lens":"built_environment","confidence":"documented","source_ids":["lon-extra-planning-data-tree-preservation-zones"],"explanation":"Planning/protection evidence record for The London Borough of Barnet (RoadSide verges adjacent to Crooked Usage, N.3.) Tree Preservation Order 1980 made under T; designation/effective date is taken from Planning Data fields where supplied."},"geometry":{"type":"Point","coordinates":[-0.20745,51.59357]}},{"type":"Feature","id":"lon_planning_designation_tree-preservation-zone_19114897","properties":{"city_id":"london","event_id":"lon_planning_designation_tree-preservation-zone_19114897","title":"Tree preservation zone: The London Borough of Barnet (RoadSide verges adjacent to Crooked Usage, N.3.) Tree Preservation Order 1980 made under T","year":1980,"effective_date":"1980-06-06","date_precision":"day","category":"built_environment","lens":"built_environment","confidence":"documented","source_ids":["lon-extra-planning-data-tree-preservation-zones"],"explanation":"Planning/protection evidence record for The London Borough of Barnet (RoadSide verges adjacent to Crooked Usage, N.3.) Tree Preservation Order 1980 made under T; designation/effective date is taken from Planning Data fields where supplied."},"geometry":{"type":"Point","coordinates":[-0.207457,51.593335]}},{"type":"Feature","id":"lon_planning_designation_tree-preservation-zone_19114898","properties":{"city_id":"london","event_id":"lon_planning_designation_tree-preservation-zone_19114898","title":"Tree preservation zone: The London Borough of Barnet (RoadSide verges adjacent to Crooked Usage, N.3.) Tree Preservation Order 1980 made under T","year":1980,"effective_date":"1980-06-06","date_precision":"day","category":"built_environment","lens":"built_environment","confidence":"documented","source_ids":["lon-extra-planning-data-tree-preservation-zones"],"explanation":"Planning/protection evidence record for The London Borough of Barnet (RoadSide verges adjacent to Crooked Usage, N.3.) Tree Preservation Order 1980 made under T; designation/effective date is taken from Planning Data fields where supplied."},"geometry":{"type":"Point","coordinates":[-0.20756,51.593056]}},{"type":"Feature","id":"lon_planning_designation_tree-preservation-zone_19114899","properties":{"city_id":"london","event_id":"lon_planning_designation_tree-preservation-zone_19114899","title":"Tree preservation zone: The London Borough of Barnet (RoadSide verges adjacent to Crooked Usage, N.3.) Tree Preservation Order 1980 made under T","year":1980,"effective_date":"1980-06-06","date_precision":"day","category":"built_environment","lens":"built_environment","confidence":"documented","source_ids":["lon-extra-planning-data-tree-preservation-zones"],"explanation":"Planning/protection evidence record for The London Borough of Barnet (RoadSide verges adjacent to Crooked Usage, N.3.) Tree Preservation Order 1980 made under T; designation/effective date is taken from Planning Data fields where supplied."},"geometry":{"type":"Point","coordinates":[-0.207371,51.592511]}},{"type":"Feature","id":"lon_planning_designation_tree-preservation-zone_19114901","properties":{"city_id":"london","event_id":"lon_planning_designation_tree-preservation-zone_19114901","title":"Tree preservation zone: The London Borough of Barnet (Land adjoining 14 Hendon Avenue, N.3.) Tree Preservation Order 1980 made under The Town an","year":1980,"effective_date":"1980-02-25","date_precision":"day","category":"built_environment","lens":"built_environment","confidence":"documented","source_ids":["lon-extra-planning-data-tree-preservation-zones"],"explanation":"Planning/protection evidence record for The London Borough of Barnet (Land adjoining 14 Hendon Avenue, N.3.) Tree Preservation Order 1980 made under The Town an; designation/effective date is taken from Planning Data fields where supplied."},"geometry":{"type":"Point","coordinates":[-0.201669,51.599251]}},{"type":"Feature","id":"lon_planning_designation_tree-preservation-zone_19114902","properties":{"city_id":"london","event_id":"lon_planning_designation_tree-preservation-zone_19114902","title":"Tree preservation zone: The London Borough of Barnet (Land adjoining 14 Hendon Avenue, N.3.) Tree Preservation Order 1980 made under The Town an","year":1980,"effective_date":"1980-02-25","date_precision":"day","category":"built_environment","lens":"built_environment","confidence":"documented","source_ids":["lon-extra-planning-data-tree-preservation-zones"],"explanation":"Planning/protection evidence record for The London Borough of Barnet (Land adjoining 14 Hendon Avenue, N.3.) Tree Preservation Order 1980 made under The Town an; designation/effective date is taken from Planning Data fields where supplied."},"geometry":{"type":"Point","coordinates":[-0.201528,51.599227]}},{"type":"Feature","id":"lon_planning_designation_tree-preservation-zone_19114903","properties":{"city_id":"london","event_id":"lon_planning_designation_tree-preservation-zone_19114903","title":"Tree preservation zone: The London Borough of Barnet (Land adjoining 14 Hendon Avenue, N.3.) Tree Preservation Order 1980 made under The Town an","year":1980,"effective_date":"1980-02-25","date_precision":"day","category":"built_environment","lens":"built_environment","confidence":"documented","source_ids":["lon-extra-planning-data-tree-preservation-zones"],"explanation":"Planning/protection evidence record for The London Borough of Barnet (Land adjoining 14 Hendon Avenue, N.3.) Tree Preservation Order 1980 made under The Town an; designation/effective date is taken from Planning Data fields where supplied."},"geometry":{"type":"Point","coordinates":[-0.20126,51.599411]}},{"type":"Feature","id":"lon_planning_designation_tree-preservation-zone_19114904","properties":{"city_id":"london","event_id":"lon_planning_designation_tree-preservation-zone_19114904","title":"Tree preservation zone: The London Borough of Barnet (Land adjoining 14 Hendon Avenue, N.3.) Tree Preservation Order 1980 made under The Town an","year":1980,"effective_date":"1980-02-25","date_precision":"day","category":"built_environment","lens":"built_environment","confidence":"documented","source_ids":["lon-extra-planning-data-tree-preservation-zones"],"explanation":"Planning/protection evidence record for The London Borough of Barnet (Land adjoining 14 Hendon Avenue, N.3.) Tree Preservation Order 1980 made under The Town an; designation/effective date is taken from Planning Data fields where supplied."},"geometry":{"type":"Point","coordinates":[-0.201578,51.599047]}},{"type":"Feature","id":"lon_planning_designation_tree-preservation-zone_19114905","properties":{"city_id":"london","event_id":"lon_planning_designation_tree-preservation-zone_19114905","title":"Tree preservation zone: The London Borough of Barnet (Land rear of West Avenue, Brent Street and Green Lane NW4) Tree Preservation Order 1980 ma","year":1980,"effective_date":"1980-05-08","date_precision":"day","category":"built_environment","lens":"built_environment","confidence":"documented","source_ids":["lon-extra-planning-data-tree-preservation-zones"],"explanation":"Planning/protection evidence record for The London Borough of Barnet (Land rear of West Avenue, Brent Street and Green Lane NW4) Tree Preservation Order 1980 ma; designation/effective date is taken from Planning Data fields where supplied."},"geometry":{"type":"Point","coordinates":[-0.216533,51.584115]}},{"type":"Feature","id":"lon_planning_designation_tree-preservation-zone_19114906","properties":{"city_id":"london","event_id":"lon_planning_designation_tree-preservation-zone_19114906","title":"Tree preservation zone: The London Borough of Barnet (61 Wood Street, Barnet) Tree Preservation Order 1980 made under The Town and Country Plann","year":1980,"effective_date":"1980-04-18","date_precision":"day","category":"built_environment","lens":"built_environment","confidence":"documented","source_ids":["lon-extra-planning-data-tree-preservation-zones"],"explanation":"Planning/protection evidence record for The London Borough of Barnet (61 Wood Street, Barnet) Tree Preservation Order 1980 made under The Town and Country Plann; designation/effective date is taken from Planning Data fields where supplied."},"geometry":{"type":"Point","coordinates":[-0.207353,51.652925]}},{"type":"Feature","id":"lon_planning_designation_tree-preservation-zone_19114907","properties":{"city_id":"london","event_id":"lon_planning_designation_tree-preservation-zone_19114907","title":"Tree preservation zone: The London Borough of Barnet (61 Wood Street, Barnet) Tree Preservation Order 1980 made under The Town and Country Plann","year":1980,"effective_date":"1980-04-18","date_precision":"day","category":"built_environment","lens":"built_environment","confidence":"documented","source_ids":["lon-extra-planning-data-tree-preservation-zones"],"explanation":"Planning/protection evidence record for The London Borough of Barnet (61 Wood Street, Barnet) Tree Preservation Order 1980 made under The Town and Country Plann; designation/effective date is taken from Planning Data fields where supplied."},"geometry":{"type":"Point","coordinates":[-0.207047,51.652893]}},{"type":"Feature","id":"lon_planning_designation_tree-preservation-zone_19114908","properties":{"city_id":"london","event_id":"lon_planning_designation_tree-preservation-zone_19114908","title":"Tree preservation zone: The London Borough of Barnet (61 Wood Street, Barnet) Tree Preservation Order 1980 made under The Town and Country Plann","year":1980,"effective_date":"1980-04-18","date_precision":"day","category":"built_environment","lens":"built_environment","confidence":"documented","source_ids":["lon-extra-planning-data-tree-preservation-zones"],"explanation":"Planning/protection evidence record for The London Borough of Barnet (61 Wood Street, Barnet) Tree Preservation Order 1980 made under The Town and Country Plann; designation/effective date is taken from Planning Data fields where supplied."},"geometry":{"type":"Point","coordinates":[-0.207028,51.652632]}},{"type":"Feature","id":"lon_planning_designation_tree-preservation-zone_19114909","properties":{"city_id":"london","event_id":"lon_planning_designation_tree-preservation-zone_19114909","title":"Tree preservation zone: The London Borough of Barnet (St. Mary's Church, Hendon Lane, Finchley, N.3) Tree Preservation Order 1980 made under The","year":1980,"effective_date":"1980-08-07","date_precision":"day","category":"built_environment","lens":"built_environment","confidence":"documented","source_ids":["lon-extra-planning-data-tree-preservation-zones"],"explanation":"Planning/protection evidence record for The London Borough of Barnet (St. Mary's Church, Hendon Lane, Finchley, N.3) Tree Preservation Order 1980 made under The; designation/effective date is taken from Planning Data fields where supplied."},"geometry":{"type":"Point","coordinates":[-0.197621,51.60008]}},{"type":"Feature","id":"lon_planning_designation_tree-preservation-zone_19114917","properties":{"city_id":"london","event_id":"lon_planning_designation_tree-preservation-zone_19114917","title":"Tree preservation zone: The London Borough of Barnet (122/124 Nether Street, N.12.) Tree Preservation Order 1980 made under The Town and Country","year":1980,"effective_date":"1980-12-31","date_precision":"day","category":"built_environment","lens":"built_environment","confidence":"documented","source_ids":["lon-extra-planning-data-tree-preservation-zones"],"explanation":"Planning/protection evidence record for The London Borough of Barnet (122/124 Nether Street, N.12.) Tree Preservation Order 1980 made under The Town and Country; designation/effective date is taken from Planning Data fields where supplied."},"geometry":{"type":"Point","coordinates":[-0.186513,51.61139]}},{"type":"Feature","id":"lon_planning_designation_tree-preservation-zone_19114918","properties":{"city_id":"london","event_id":"lon_planning_designation_tree-preservation-zone_19114918","title":"Tree preservation zone: The London Borough of Barnet (Land adjoining Silk Stream, Edgware Road N.W.9) Tree Preservation Order 1980 made under Th","year":1980,"effective_date":"1980-12-11","date_precision":"day","category":"built_environment","lens":"built_environment","confidence":"documented","source_ids":["lon-extra-planning-data-tree-preservation-zones"],"explanation":"Planning/protection evidence record for The London Borough of Barnet (Land adjoining Silk Stream, Edgware Road N.W.9) Tree Preservation Order 1980 made under Th; designation/effective date is taken from Planning Data fields where supplied."},"geometry":{"type":"Point","coordinates":[-0.244534,51.580475]}},{"type":"Feature","id":"lon_planning_designation_tree-preservation-zone_19140739","properties":{"city_id":"london","event_id":"lon_planning_designation_tree-preservation-zone_19140739","title":"Tree preservation zone: 259 Barry Road","year":1980,"effective_date":"1980-07-11","date_precision":"day","category":"built_environment","lens":"built_environment","confidence":"documented","source_ids":["lon-extra-planning-data-tree-preservation-zones"],"explanation":"Planning/protection evidence record for 259 Barry Road; designation/effective date is taken from Planning Data fields where supplied."},"geometry":{"type":"Point","coordinates":[-0.072518,51.44932]}},{"type":"Feature","id":"lon_planning_designation_tree-preservation-zone_19140826","properties":{"city_id":"london","event_id":"lon_planning_designation_tree-preservation-zone_19140826","title":"Tree preservation zone: 2 Dulwich Wood Park","year":1980,"effective_date":"1980-02-26","date_precision":"day","category":"built_environment","lens":"built_environment","confidence":"documented","source_ids":["lon-extra-planning-data-tree-preservation-zones"],"explanation":"Planning/protection evidence record for 2 Dulwich Wood Park; designation/effective date is taken from Planning Data fields where supplied."},"geometry":{"type":"Point","coordinates":[-0.07813,51.42718]}},{"type":"Feature","id":"lon_planning_designation_tree-preservation-zone_19176148","properties":{"city_id":"london","event_id":"lon_planning_designation_tree-preservation-zone_19176148","title":"Tree preservation zone: Byron Road/Peel Road","year":1980,"effective_date":"1980-02-19","date_precision":"day","category":"built_environment","lens":"built_environment","confidence":"documented","source_ids":["lon-extra-planning-data-tree-preservation-zones"],"explanation":"Planning/protection evidence record for Byron Road/Peel Road; designation/effective date is taken from Planning Data fields where supplied."},"geometry":{"type":"Point","coordinates":[-0.307342,51.564315]}},{"type":"Feature","id":"lon_planning_designation_tree-preservation-zone_19176149","properties":{"city_id":"london","event_id":"lon_planning_designation_tree-preservation-zone_19176149","title":"Tree preservation zone: Byron Road/Peel Road","year":1980,"effective_date":"1980-02-19","date_precision":"day","category":"built_environment","lens":"built_environment","confidence":"documented","source_ids":["lon-extra-planning-data-tree-preservation-zones"],"explanation":"Planning/protection evidence record for Byron Road/Peel Road; designation/effective date is taken from Planning Data fields where supplied."},"geometry":{"type":"Point","coordinates":[-0.306648,51.564915]}},{"type":"Feature","id":"lon_planning_designation_tree-preservation-zone_19176150","properties":{"city_id":"london","event_id":"lon_planning_designation_tree-preservation-zone_19176150","title":"Tree preservation zone: Byron Road/Peel Road","year":1980,"effective_date":"1980-02-19","date_precision":"day","category":"built_environment","lens":"built_environment","confidence":"documented","source_ids":["lon-extra-planning-data-tree-preservation-zones"],"explanation":"Planning/protection evidence record for Byron Road/Peel Road; designation/effective date is taken from Planning Data fields where supplied."},"geometry":{"type":"Point","coordinates":[-0.306634,51.565139]}},{"type":"Feature","id":"lon_planning_designation_tree-preservation-zone_19176151","properties":{"city_id":"london","event_id":"lon_planning_designation_tree-preservation-zone_19176151","title":"Tree preservation zone: Byron Road/Peel Road","year":1980,"effective_date":"1980-02-19","date_precision":"day","category":"built_environment","lens":"built_environment","confidence":"documented","source_ids":["lon-extra-planning-data-tree-preservation-zones"],"explanation":"Planning/protection evidence record for Byron Road/Peel Road; designation/effective date is taken from Planning Data fields where supplied."},"geometry":{"type":"Point","coordinates":[-0.307575,51.564778]}},{"type":"Feature","id":"lon_planning_designation_tree-preservation-zone_19176152","properties":{"city_id":"london","event_id":"lon_planning_designation_tree-preservation-zone_19176152","title":"Tree preservation zone: Byron Road/Peel Road","year":1980,"effective_date":"1980-02-19","date_precision":"day","category":"built_environment","lens":"built_environment","confidence":"documented","source_ids":["lon-extra-planning-data-tree-preservation-zones"],"explanation":"Planning/protection evidence record for Byron Road/Peel Road; designation/effective date is taken from Planning Data fields where supplied."},"geometry":{"type":"Point","coordinates":[-0.306361,51.566373]}},{"type":"Feature","id":"lon_planning_designation_tree-preservation-zone_19176153","properties":{"city_id":"london","event_id":"lon_planning_designation_tree-preservation-zone_19176153","title":"Tree preservation zone: Byron Road/Peel Road","year":1980,"effective_date":"1980-02-19","date_precision":"day","category":"built_environment","lens":"built_environment","confidence":"documented","source_ids":["lon-extra-planning-data-tree-preservation-zones"],"explanation":"Planning/protection evidence record for Byron Road/Peel Road; designation/effective date is taken from Planning Data fields where supplied."},"geometry":{"type":"Point","coordinates":[-0.306144,51.564342]}},{"type":"Feature","id":"lon_planning_designation_tree-preservation-zone_19176154","properties":{"city_id":"london","event_id":"lon_planning_designation_tree-preservation-zone_19176154","title":"Tree preservation zone: Byron Road/Peel Road","year":1980,"effective_date":"1980-02-19","date_precision":"day","category":"built_environment","lens":"built_environment","confidence":"documented","source_ids":["lon-extra-planning-data-tree-preservation-zones"],"explanation":"Planning/protection evidence record for Byron Road/Peel Road; designation/effective date is taken from Planning Data fields where supplied."},"geometry":{"type":"Point","coordinates":[-0.306071,51.563978]}}]}
