{"type":"FeatureCollection","schema_version":"1.0.0","city_id":"london","year":2007,"features":[{"type":"Feature","id":"lon_brownfield_1700501","properties":{"city_id":"london","event_id":"lon_brownfield_1700501","title":"Brownfield development site: Block A,B,D,F (Site 1), Islington Square, 116 Upper Street (Former North London Mail Centre) (up to 185 homes)","year":2007,"effective_date":"2007-07-06","date_precision":"day","category":"environment","lens":"green_space","confidence":"documented","source_ids":["lon-extra-planning-data-brownfield-land"],"explanation":"Planning/development evidence record: permissioned; brownfield land capacity marker for 185 net dwellings."},"geometry":{"type":"Point","coordinates":[-0.102704,51.538427]}},{"type":"Feature","id":"lon_brownfield_1710200","properties":{"city_id":"london","event_id":"lon_brownfield_1710200","title":"Brownfield development site: Percival Court, High Road London N17 8ER London","year":2007,"effective_date":"2007-07-10","date_precision":"day","category":"transport","lens":"traffic","confidence":"documented","source_ids":["lon-extra-planning-data-brownfield-land"],"explanation":"Planning/development evidence record: permissioned; brownfield land capacity marker."},"geometry":{"type":"Point","coordinates":[-0.068939,51.606133]}},{"type":"Feature","id":"lon_brownfield_1710201","properties":{"city_id":"london","event_id":"lon_brownfield_1710201","title":"Brownfield development site: Former GLS Supplies Depot, (Hale Village) Ferry Lane London N17 London","year":2007,"effective_date":"2007-10-09","date_precision":"day","category":"built_environment","lens":"built_environment","confidence":"documented","source_ids":["lon-extra-planning-data-brownfield-land"],"explanation":"Planning/development evidence record: permissioned; brownfield land capacity marker."},"geometry":{"type":"Point","coordinates":[-0.057987,51.589267]}},{"type":"Feature","id":"lon_brownfield_1710592","properties":{"city_id":"london","event_id":"lon_brownfield_1710592","title":"Brownfield development site: \u201cThomas St phases 3 & 4, Thomas St, Woolwich New Rd & Wellington St Woolwich\u201c (up to 488 homes)","year":2007,"effective_date":"2007-07-27","date_precision":"day","category":"built_environment","lens":"built_environment","confidence":"documented","source_ids":["lon-extra-planning-data-brownfield-land"],"explanation":"Planning/development evidence record: not-permissioned; brownfield land capacity marker for 488 net dwellings."},"geometry":{"type":"Point","coordinates":[0.066618,51.489369]}},{"type":"Feature","id":"lon_brownfield_1710593","properties":{"city_id":"london","event_id":"lon_brownfield_1710593","title":"Brownfield development site: 64 Plumstead High Street, Plumstead (up to 7 homes)","year":2007,"effective_date":"2007-10-29","date_precision":"day","category":"environment","lens":"green_space","confidence":"documented","source_ids":["lon-extra-planning-data-brownfield-land"],"explanation":"Planning/development evidence record: permissioned; brownfield land capacity marker for 7 net dwellings."},"geometry":{"type":"Point","coordinates":[0.088468,51.488379]}},{"type":"Feature","id":"lon_brownfield_1712336","properties":{"city_id":"london","event_id":"lon_brownfield_1712336","title":"Brownfield development site: RAF West Ruislip, High Road, Ickenham, UB10","year":2007,"effective_date":"2007-07-10","date_precision":"day","category":"transport","lens":"traffic","confidence":"documented","source_ids":["lon-extra-planning-data-brownfield-land"],"explanation":"Planning/development evidence record: permissioned; brownfield land capacity marker."},"geometry":{"type":"Point","coordinates":[-0.438962,51.568259]}},{"type":"Feature","id":"lon_brownfield_1717142","properties":{"city_id":"london","event_id":"lon_brownfield_1717142","title":"Brownfield development site: Grahame Park Estate - Bounded By Lanacre Avenue To The West, Grahame Park Way To The South And Field Mead To The North L (up to 2215 homes)","year":2007,"effective_date":"2007-01-17","date_precision":"day","category":"environment","lens":"green_space","confidence":"documented","source_ids":["lon-extra-planning-data-brownfield-land"],"explanation":"Planning/development evidence record: permissioned; brownfield land capacity marker for 2215 net dwellings."},"geometry":{"type":"Point","coordinates":[-0.244837,51.60302]}},{"type":"Feature","id":"lon_brownfield_1739840","properties":{"city_id":"london","event_id":"lon_brownfield_1739840","title":"Brownfield development site: Barking Riverside (up to 20000 homes)","year":2007,"effective_date":"2007-08-07","date_precision":"day","category":"built_environment","lens":"built_environment","confidence":"documented","source_ids":["lon-extra-planning-data-brownfield-land"],"explanation":"Planning/development evidence record: permissioned; brownfield land capacity marker for 20000 net dwellings."},"geometry":{"type":"Point","coordinates":[0.117919,51.521447]}},{"type":"Feature","id":"london-milestone-2007-congestion-charge-western-extension-introduced-19","properties":{"city_id":"london","event_id":"london-milestone-2007-congestion-charge-western-extension-introduced-19","title":"Congestion Charge western extension introduced","year":2007,"effective_date":"2007","date_precision":"year","category":"transport","lens":"traffic","confidence":"documented","source_ids":["dft-road-traffic-counts","legislation-uk-london-acts-orders"],"explanation":"Policy boundary change affecting traffic/emissions; removed 2011."},"geometry":{"type":"Point","coordinates":[-0.1276,51.5072]}}]}
