{"type":"FeatureCollection","schema_version":"1.0.0","city_id":"london","year":1943,"features":[{"type":"Feature","id":"london-milestone-1943-county-of-london-plan-and-greater-london-plan-7","properties":{"city_id":"london","event_id":"london-milestone-1943-county-of-london-plan-and-greater-london-plan-7","title":"County of London Plan and Greater London Plan","subtitle":"Croydon / 1943 / Documented / UK Government Web Archive for superseded London/TfL/borough policy pages","details":"Abercrombie plans frame post-war reconstruction, green belt and decentralisation.","year":1943,"effective_date":"1943","date_precision":"range","short_description":"Abercrombie plans frame post-war reconstruction, green belt and decentralisation.","category":"built_environment","lens":"built_environment","confidence":"documented","source_ids":["national-archives-webarchive","legislation-uk-london-acts-orders"],"affected_area_label":"Croydon","explanation":"Abercrombie plans frame post-war reconstruction, green belt and decentralisation."},"geometry":{"type":"Point","coordinates":[-0.089402,51.37332]}}],"map_feature_count":1,"withheld_geometry_event_count":0}
