{"type":"FeatureCollection","schema_version":"1.0.0","city_id":"london","year":1994,"map_feature_count":57,"withheld_geometry_event_count":0,"features":[{"type":"Feature","id":"lon_planning_designation_conservation-area_44000885","properties":{"city_id":"london","event_id":"lon_planning_designation_conservation-area_44000885","title":"Conservation area record: Telford Park","subtitle":"Lambeth / 1994-09-09 / Documented / Planning Data: Conservation Areas","details":"Planning/protection evidence record for Telford Park; designation/effective date is taken from Planning Data fields where supplied.","year":1994,"effective_date":"1994-09-09","date_precision":"day","short_description":"Planning Data conservation-area designation record CA44; quality authoritative; LPA Lambeth.","category":"built_environment","lens":"built_environment","confidence":"documented","source_ids":["lon-extra-planning-data-conservation-areas"],"affected_area_label":"Lambeth","explanation":"Planning/protection evidence record for Telford Park; designation/effective date is taken from Planning Data fields where supplied."},"geometry":{"type":"Point","coordinates":[-0.129604,51.441548]}},{"type":"Feature","id":"lon_planning_designation_conservation-area_44000895","properties":{"city_id":"london","event_id":"lon_planning_designation_conservation-area_44000895","title":"Conservation area record: Lancaster Avenue","subtitle":"Lambeth / 1994-10-17 / Documented / Planning Data: Conservation Areas","details":"Planning/protection evidence record for Lancaster Avenue; designation/effective date is taken from Planning Data fields where supplied.","year":1994,"effective_date":"1994-10-17","date_precision":"day","short_description":"Planning Data conservation-area designation record CA45; quality authoritative; LPA Lambeth.","category":"built_environment","lens":"built_environment","confidence":"documented","source_ids":["lon-extra-planning-data-conservation-areas"],"affected_area_label":"Lambeth","explanation":"Planning/protection evidence record for Lancaster Avenue; designation/effective date is taken from Planning Data fields where supplied."},"geometry":{"type":"Point","coordinates":[-0.101317,51.437709]}},{"type":"Feature","id":"lon_planning_designation_conservation-area_44000901","properties":{"city_id":"london","event_id":"lon_planning_designation_conservation-area_44000901","title":"Conservation area record: Ferndale Road (Jennings Estate)","subtitle":"Lambeth / 1994-09-22 / Documented / Planning Data: Conservation Areas","details":"Planning/protection evidence record for Ferndale Road (Jennings Estate); designation/effective date is taken from Planning Data fields where supplied.","year":1994,"effective_date":"1994-09-22","date_precision":"day","short_description":"Planning Data conservation-area designation record CA46; quality authoritative; LPA Lambeth.","category":"built_environment","lens":"built_environment","confidence":"documented","source_ids":["lon-extra-planning-data-conservation-areas"],"affected_area_label":"Lambeth","explanation":"Planning/protection evidence record for Ferndale Road (Jennings Estate); designation/effective date is taken from Planning Data fields where supplied."},"geometry":{"type":"Point","coordinates":[-0.126567,51.462997]}},{"type":"Feature","id":"lon_planning_designation_conservation-area_44002331","properties":{"city_id":"london","event_id":"lon_planning_designation_conservation-area_44002331","title":"Conservation area record: Ealing Town Centre","subtitle":"Ealing / 1994-01-01 / Documented / Planning Data: Conservation Areas","details":"Planning/protection evidence record for Ealing Town Centre; designation/effective date is taken from Planning Data fields where supplied.","year":1994,"effective_date":"1994-01-01","date_precision":"day","short_description":"Planning Data conservation-area designation record 5290; quality some; LPA Ealing.","category":"built_environment","lens":"built_environment","confidence":"documented","source_ids":["lon-extra-planning-data-conservation-areas"],"affected_area_label":"Ealing","explanation":"Planning/protection evidence record for Ealing Town Centre; designation/effective date is taken from Planning Data fields where supplied."},"geometry":{"type":"Point","coordinates":[-0.30234,51.512523]}},{"type":"Feature","id":"lon_planning_designation_conservation-area_44006855","properties":{"city_id":"london","event_id":"lon_planning_designation_conservation-area_44006855","title":"Conservation area record: Streatham Common","subtitle":"Croydon / 1994-06-16 / Documented / Planning Data: Conservation Areas","details":"Planning/protection evidence record for Streatham Common; designation/effective date is taken from Planning Data fields where supplied.","year":1994,"effective_date":"1994-06-16","date_precision":"day","short_description":"Planning Data conservation-area designation record CA43; quality authoritative; LPA Croydon.","category":"built_environment","lens":"built_environment","confidence":"documented","source_ids":["lon-extra-planning-data-conservation-areas"],"affected_area_label":"Croydon","explanation":"Planning/protection evidence record for Streatham Common; designation/effective date is taken from Planning Data fields where supplied."},"geometry":{"type":"Point","coordinates":[-0.12225,51.422198]}},{"type":"Feature","id":"lon_planning_designation_conservation-area_44009326","properties":{"city_id":"london","event_id":"lon_planning_designation_conservation-area_44009326","title":"Conservation area record: Batchworth Heath","subtitle":"Hillingdon / 1994-01-01 / Documented / Planning Data: Conservation Areas","details":"Planning/protection evidence record for Batchworth Heath; designation/effective date is taken from Planning Data fields where supplied.","year":1994,"effective_date":"1994-01-01","date_precision":"day","short_description":"Planning Data conservation-area designation record 8985; quality some; LPA Hillingdon.","category":"built_environment","lens":"built_environment","confidence":"documented","source_ids":["lon-extra-planning-data-conservation-areas"],"affected_area_label":"Hillingdon","explanation":"Planning/protection evidence record for Batchworth Heath; designation/effective date is taken from Planning Data fields where supplied."},"geometry":{"type":"Point","coordinates":[-0.444616,51.620269]}},{"type":"Feature","id":"lon_planning_designation_conservation-area_44009616","properties":{"city_id":"london","event_id":"lon_planning_designation_conservation-area_44009616","title":"Conservation area record: Alexandra Road","subtitle":"Camden / 1994-08-01 / Documented / Planning Data: Conservation Areas","details":"Planning/protection evidence record for Alexandra Road; designation/effective date is taken from Planning Data fields where supplied.","year":1994,"effective_date":"1994-08-01","date_precision":"day","short_description":"Planning Data conservation-area designation record CA1; quality authoritative; LPA Camden.","category":"built_environment","lens":"built_environment","confidence":"documented","source_ids":["lon-extra-planning-data-conservation-areas"],"affected_area_label":"Camden","explanation":"Planning/protection evidence record for Alexandra Road; designation/effective date is taken from Planning Data fields where supplied."},"geometry":{"type":"Point","coordinates":[-0.182849,51.539781]}},{"type":"Feature","id":"lon_planning_designation_conservation-area_44009624","properties":{"city_id":"london","event_id":"lon_planning_designation_conservation-area_44009624","title":"Conservation area record: Kings Cross St Pancras","subtitle":"Camden / 1994-02-01 / Documented / Planning Data: Conservation Areas","details":"Planning/protection evidence record for Kings Cross St Pancras; designation/effective date is taken from Planning Data fields where supplied.","year":1994,"effective_date":"1994-02-01","date_precision":"day","short_description":"Planning Data conservation-area designation record CA25; quality authoritative; LPA Camden.","category":"built_environment","lens":"built_environment","confidence":"documented","source_ids":["lon-extra-planning-data-conservation-areas"],"affected_area_label":"Camden","explanation":"Planning/protection evidence record for Kings Cross St Pancras; designation/effective date is taken from Planning Data fields where supplied."},"geometry":{"type":"Point","coordinates":[-0.126113,51.532823]}},{"type":"Feature","id":"lon_planning_designation_conservation-area_44014356","properties":{"city_id":"london","event_id":"lon_planning_designation_conservation-area_44014356","title":"Conservation area record: Hillfield","subtitle":"Haringey / 1994-11-29 / Documented / Planning Data: Conservation Areas","details":"Planning/protection evidence record for Hillfield; designation/effective date is taken from Planning Data fields where supplied.","year":1994,"effective_date":"1994-11-29","date_precision":"day","short_description":"Planning Data conservation-area designation record CA25; quality authoritative; LPA Haringey.","category":"built_environment","lens":"built_environment","confidence":"documented","source_ids":["lon-extra-planning-data-conservation-areas"],"affected_area_label":"Haringey","explanation":"Planning/protection evidence record for Hillfield; designation/effective date is taken from Planning Data fields where supplied."},"geometry":{"type":"Point","coordinates":[-0.117424,51.585359]}},{"type":"Feature","id":"lon_planning_designation_conservation-area_44014799","properties":{"city_id":"london","event_id":"lon_planning_designation_conservation-area_44014799","title":"Conservation area record: Harlesden","subtitle":"Brent / 1994-03-01 / Documented / Planning Data: Conservation Areas","details":"Planning/protection evidence record for Harlesden; designation/effective date is taken from Planning Data fields where supplied.","year":1994,"effective_date":"1994-03-01","date_precision":"day","short_description":"Planning Data conservation-area designation record CA04; quality authoritative; LPA Brent.","category":"built_environment","lens":"built_environment","confidence":"documented","source_ids":["lon-extra-planning-data-conservation-areas"],"affected_area_label":"Brent","explanation":"Planning/protection evidence record for Harlesden; designation/effective date is taken from Planning Data fields where supplied."},"geometry":{"type":"Point","coordinates":[-0.248083,51.536779]}},{"type":"Feature","id":"lon_planning_designation_conservation-area_44014810","properties":{"city_id":"london","event_id":"lon_planning_designation_conservation-area_44014810","title":"Conservation area record: North Kilburn","subtitle":"Brent / 1994-03-01 / Documented / Planning Data: Conservation Areas","details":"Planning/protection evidence record for North Kilburn; designation/effective date is taken from Planning Data fields where supplied.","year":1994,"effective_date":"1994-03-01","date_precision":"day","short_description":"Planning Data conservation-area designation record CA13; quality authoritative; LPA Brent.","category":"built_environment","lens":"built_environment","confidence":"documented","source_ids":["lon-extra-planning-data-conservation-areas"],"affected_area_label":"Brent","explanation":"Planning/protection evidence record for North Kilburn; designation/effective date is taken from Planning Data fields where supplied."},"geometry":{"type":"Point","coordinates":[-0.203143,51.542541]}},{"type":"Feature","id":"lon_planning_designation_listed-building-outline_42114993","properties":{"city_id":"london","event_id":"lon_planning_designation_listed-building-outline_42114993","title":"Listed building outline: No given name — Southwark","subtitle":"Southwark / 1994-05-16 / Documented / Planning Data: Listed Building Outlines","details":"Planning/protection evidence record for No given name; designation/effective date is taken from Planning Data fields where supplied.","year":1994,"effective_date":"1994-05-16","date_precision":"day","short_description":"Planning Data listed-building outline record 470673; quality authoritative; LPA Southwark.","category":"built_environment","lens":"built_environment","confidence":"documented","source_ids":["lon-extra-planning-data-listed-building-outlines"],"affected_area_label":"Southwark","explanation":"Planning/protection evidence record for No given name; designation/effective date is taken from Planning Data fields where supplied."},"geometry":{"type":"Point","coordinates":[-0.098538,51.499322]}},{"type":"Feature","id":"lon_planning_designation_listed-building-outline_42115117","properties":{"city_id":"london","event_id":"lon_planning_designation_listed-building-outline_42115117","title":"Listed building outline: Cromwell building numbers 5-24 and attached railings","subtitle":"Southwark / 1994-03-11 / Documented / Planning Data: Listed Building Outlines","details":"Planning/protection evidence record for Cromwell building numbers 5-24 and attached railings; designation/effective date is taken from Planning Data fields where supplied.","year":1994,"effective_date":"1994-03-11","date_precision":"day","short_description":"Planning Data listed-building outline record 471225; quality authoritative; LPA Southwark.","category":"built_environment","lens":"built_environment","confidence":"documented","source_ids":["lon-extra-planning-data-listed-building-outlines"],"affected_area_label":"Southwark","explanation":"Planning/protection evidence record for Cromwell building numbers 5-24 and attached railings; designation/effective date is taken from Planning Data fields where supplied."},"geometry":{"type":"Point","coordinates":[-0.092967,51.504965]}},{"type":"Feature","id":"lon_planning_designation_listed-building-outline_42115125","properties":{"city_id":"london","event_id":"lon_planning_designation_listed-building-outline_42115125","title":"Listed building outline: No given name — Southwark · 42115125","subtitle":"Southwark / 1994-11-22 / Documented / Planning Data: Listed Building Outlines","details":"Planning/protection evidence record for No given name; designation/effective date is taken from Planning Data fields where supplied.","year":1994,"effective_date":"1994-11-22","date_precision":"day","short_description":"Planning Data listed-building outline record 471431; quality authoritative; LPA Southwark.","category":"built_environment","lens":"built_environment","confidence":"documented","source_ids":["lon-extra-planning-data-listed-building-outlines"],"affected_area_label":"Southwark","explanation":"Planning/protection evidence record for No given name; designation/effective date is taken from Planning Data fields where supplied."},"geometry":{"type":"Point","coordinates":[-0.094907,51.504111]}},{"type":"Feature","id":"lon_planning_designation_listed-building-outline_42115193","properties":{"city_id":"london","event_id":"lon_planning_designation_listed-building-outline_42115193","title":"Listed building outline: Lady Margaret church","subtitle":"Southwark / 1994-08-11 / Documented / Planning Data: Listed Building Outlines","details":"Planning/protection evidence record for Lady Margaret church; designation/effective date is taken from Planning Data fields where supplied.","year":1994,"effective_date":"1994-08-11","date_precision":"day","short_description":"Planning Data listed-building outline record 470776; quality authoritative; LPA Southwark.","category":"built_environment","lens":"built_environment","confidence":"documented","source_ids":["lon-extra-planning-data-listed-building-outlines"],"affected_area_label":"Southwark","explanation":"Planning/protection evidence record for Lady Margaret church; designation/effective date is taken from Planning Data fields where supplied."},"geometry":{"type":"Point","coordinates":[-0.090664,51.492313]}},{"type":"Feature","id":"lon_planning_designation_listed-building-outline_42115483","properties":{"city_id":"london","event_id":"lon_planning_designation_listed-building-outline_42115483","title":"Listed building outline: Church of St John the Evangelist","subtitle":"Southwark / 1994-12-23 / Documented / Planning Data: Listed Building Outlines","details":"Planning/protection evidence record for Church of St John the Evangelist; designation/effective date is taken from Planning Data fields where supplied.","year":1994,"effective_date":"1994-12-23","date_precision":"day","short_description":"Planning Data listed-building outline record 470909; quality authoritative; LPA Southwark.","category":"built_environment","lens":"built_environment","confidence":"documented","source_ids":["lon-extra-planning-data-listed-building-outlines"],"affected_area_label":"Southwark","explanation":"Planning/protection evidence record for Church of St John the Evangelist; designation/effective date is taken from Planning Data fields where supplied."},"geometry":{"type":"Point","coordinates":[-0.072306,51.462388]}},{"type":"Feature","id":"lon_planning_designation_listed-building-outline_42115505","properties":{"city_id":"london","event_id":"lon_planning_designation_listed-building-outline_42115505","title":"Listed building outline: The Old Library, Dulwich College","subtitle":"Southwark / 1994-01-21 / Documented / Planning Data: Listed Building Outlines","details":"Planning/protection evidence record for The Old Library, Dulwich College; designation/effective date is taken from Planning Data fields where supplied.","year":1994,"effective_date":"1994-01-21","date_precision":"day","short_description":"Planning Data listed-building outline record 470818; quality authoritative; LPA Southwark.","category":"built_environment","lens":"built_environment","confidence":"documented","source_ids":["lon-extra-planning-data-listed-building-outlines"],"affected_area_label":"Southwark","explanation":"Planning/protection evidence record for The Old Library, Dulwich College; designation/effective date is taken from Planning Data fields where supplied."},"geometry":{"type":"Point","coordinates":[-0.085797,51.441093]}},{"type":"Feature","id":"lon_planning_designation_listed-building-outline_42115651","properties":{"city_id":"london","event_id":"lon_planning_designation_listed-building-outline_42115651","title":"Listed building outline: Number 549 and gate piers","subtitle":"Southwark / 1994-04-08 / Documented / Planning Data: Listed Building Outlines","details":"Planning/protection evidence record for Number 549 and gate piers; designation/effective date is taken from Planning Data fields where supplied.","year":1994,"effective_date":"1994-04-08","date_precision":"day","short_description":"Planning Data listed-building outline record 471073; quality authoritative; LPA Southwark.","category":"built_environment","lens":"built_environment","confidence":"documented","source_ids":["lon-extra-planning-data-listed-building-outlines"],"affected_area_label":"Southwark","explanation":"Planning/protection evidence record for Number 549 and gate piers; designation/effective date is taken from Planning Data fields where supplied."},"geometry":{"type":"Point","coordinates":[-0.066534,51.442863]}},{"type":"Feature","id":"lon_planning_designation_listed-building-outline_42115725","properties":{"city_id":"london","event_id":"lon_planning_designation_listed-building-outline_42115725","title":"Listed building outline: Butlers grinders and operators warehouse","subtitle":"Southwark / 1994-08-02 / Documented / Planning Data: Listed Building Outlines","details":"Planning/protection evidence record for Butlers grinders and operators warehouse; designation/effective date is taken from Planning Data fields where supplied.","year":1994,"effective_date":"1994-08-02","date_precision":"day","short_description":"Planning Data listed-building outline record 471309; quality authoritative; LPA Southwark.","category":"built_environment","lens":"built_environment","confidence":"documented","source_ids":["lon-extra-planning-data-listed-building-outlines"],"affected_area_label":"Southwark","explanation":"Planning/protection evidence record for Butlers grinders and operators warehouse; designation/effective date is taken from Planning Data fields where supplied."},"geometry":{"type":"Point","coordinates":[-0.073011,51.501564]}},{"type":"Feature","id":"lon_planning_designation_listed-building-outline_42116504","properties":{"city_id":"london","event_id":"lon_planning_designation_listed-building-outline_42116504","title":"Listed building outline: (North East side) Nos.108-132 (Even) and attached railings","subtitle":"Camden / 1994-10-28 / Documented / Planning Data: Listed Building Outlines","details":"Planning/protection evidence record for (North East side) Nos.108-132 (Even) and attached railings; designation/effective date is taken from Planning Data fields where supplied.","year":1994,"effective_date":"1994-10-28","date_precision":"day","short_description":"Planning Data listed-building outline record LB1422; quality authoritative; LPA Camden.","category":"built_environment","lens":"built_environment","confidence":"documented","source_ids":["lon-extra-planning-data-listed-building-outlines"],"affected_area_label":"Camden","explanation":"Planning/protection evidence record for (North East side) Nos.108-132 (Even) and attached railings; designation/effective date is taken from Planning Data fields where supplied."},"geometry":{"type":"Point","coordinates":[-0.139618,51.543833]}},{"type":"Feature","id":"lon_planning_designation_listed-building-outline_42116618","properties":{"city_id":"london","event_id":"lon_planning_designation_listed-building-outline_42116618","title":"Listed building outline: (East side) No.235 Bloomsbury Central Baptist Church","subtitle":"Camden / 1994-11-04 / Documented / Planning Data: Listed Building Outlines","details":"Planning/protection evidence record for (East side) No.235 Bloomsbury Central Baptist Church; designation/effective date is taken from Planning Data fields where supplied.","year":1994,"effective_date":"1994-11-04","date_precision":"day","short_description":"Planning Data listed-building outline record LB1204; quality authoritative; LPA Camden.","category":"built_environment","lens":"built_environment","confidence":"documented","source_ids":["lon-extra-planning-data-listed-building-outlines"],"affected_area_label":"Camden","explanation":"Planning/protection evidence record for (East side) No.235 Bloomsbury Central Baptist Church; designation/effective date is taken from Planning Data fields where supplied."},"geometry":{"type":"Point","coordinates":[-0.126857,51.516468]}},{"type":"Feature","id":"lon_planning_designation_listed-building-outline_42116664","properties":{"city_id":"london","event_id":"lon_planning_designation_listed-building-outline_42116664","title":"Listed building outline: (North East side) Derby Lodge, formerly Derby Buildings, flats Nos.1-36","subtitle":"Camden / 1994-03-11 / Documented / Planning Data: Listed Building Outlines","details":"Planning/protection evidence record for (North East side) Derby Lodge, formerly Derby Buildings, flats Nos.1-36; designation/effective date is taken from Planning Data fields where supplied.","year":1994,"effective_date":"1994-03-11","date_precision":"day","short_description":"Planning Data listed-building outline record LB1433; quality authoritative; LPA Camden.","category":"built_environment","lens":"built_environment","confidence":"documented","source_ids":["lon-extra-planning-data-listed-building-outlines"],"affected_area_label":"Camden","explanation":"Planning/protection evidence record for (North East side) Derby Lodge, formerly Derby Buildings, flats Nos.1-36; designation/effective date is taken from Planning Data fields where supplied."},"geometry":{"type":"Point","coordinates":[-0.117465,51.529985]}},{"type":"Feature","id":"lon_planning_designation_listed-building-outline_42116955","properties":{"city_id":"london","event_id":"lon_planning_designation_listed-building-outline_42116955","title":"Listed building outline: (North side) Stanley Buildings, flats Nos.21-30","subtitle":"Camden / 1994-03-11 / Documented / Planning Data: Listed Building Outlines","details":"Planning/protection evidence record for (North side) Stanley Buildings, flats Nos.21-30; designation/effective date is taken from Planning Data fields where supplied.","year":1994,"effective_date":"1994-03-11","date_precision":"day","short_description":"Planning Data listed-building outline record LB1436; quality authoritative; LPA Camden.","category":"built_environment","lens":"built_environment","confidence":"documented","source_ids":["lon-extra-planning-data-listed-building-outlines"],"affected_area_label":"Camden","explanation":"Planning/protection evidence record for (North side) Stanley Buildings, flats Nos.21-30; designation/effective date is taken from Planning Data fields where supplied."},"geometry":{"type":"Point","coordinates":[-0.125674,51.532563]}},{"type":"Feature","id":"lon_planning_designation_listed-building-outline_42117026","properties":{"city_id":"london","event_id":"lon_planning_designation_listed-building-outline_42117026","title":"Listed building outline: Three lamp posts","subtitle":"Camden / 1994-07-13 / Documented / Planning Data: Listed Building Outlines","details":"Planning/protection evidence record for Three lamp posts; designation/effective date is taken from Planning Data fields where supplied.","year":1994,"effective_date":"1994-07-13","date_precision":"day","short_description":"Planning Data listed-building outline record LB1702; quality authoritative; LPA Camden.","category":"built_environment","lens":"built_environment","confidence":"documented","source_ids":["lon-extra-planning-data-listed-building-outlines"],"affected_area_label":"Camden","explanation":"Planning/protection evidence record for Three lamp posts; designation/effective date is taken from Planning Data fields where supplied."},"geometry":{"type":"Point","coordinates":[-0.121398,51.518543]}},{"type":"Feature","id":"lon_planning_designation_listed-building-outline_42117150","properties":{"city_id":"london","event_id":"lon_planning_designation_listed-building-outline_42117150","title":"Listed building outline: (South West side) Hampstead Town Hall and attached walls & piers","subtitle":"Camden / 1994-08-01 / Documented / Planning Data: Listed Building Outlines","details":"Planning/protection evidence record for (South West side) Hampstead Town Hall and attached walls & piers; designation/effective date is taken from Planning Data fields where supplied.","year":1994,"effective_date":"1994-08-01","date_precision":"day","short_description":"Planning Data listed-building outline record LB1816; quality authoritative; LPA Camden.","category":"built_environment","lens":"built_environment","confidence":"documented","source_ids":["lon-extra-planning-data-listed-building-outlines"],"affected_area_label":"Camden","explanation":"Planning/protection evidence record for (South West side) Hampstead Town Hall and attached walls & piers; designation/effective date is taken from Planning Data fields where supplied."},"geometry":{"type":"Point","coordinates":[-0.16633,51.551095]}},{"type":"Feature","id":"lon_planning_designation_listed-building-outline_42117517","properties":{"city_id":"london","event_id":"lon_planning_designation_listed-building-outline_42117517","title":"Listed building outline: (North East side) Derby Lodge, formerly Derby Buildings, flats 37-102","subtitle":"Camden / 1994-03-11 / Documented / Planning Data: Listed Building Outlines","details":"Planning/protection evidence record for (North East side) Derby Lodge, formerly Derby Buildings, flats 37-102; designation/effective date is taken from Planning Data fields where supplied.","year":1994,"effective_date":"1994-03-11","date_precision":"day","short_description":"Planning Data listed-building outline record LB1434; quality authoritative; LPA Camden.","category":"built_environment","lens":"built_environment","confidence":"documented","source_ids":["lon-extra-planning-data-listed-building-outlines"],"affected_area_label":"Camden","explanation":"Planning/protection evidence record for (North East side) Derby Lodge, formerly Derby Buildings, flats 37-102; designation/effective date is taken from Planning Data fields where supplied."},"geometry":{"type":"Point","coordinates":[-0.117074,51.529737]}},{"type":"Feature","id":"lon_planning_designation_listed-building-outline_42148638","properties":{"city_id":"london","event_id":"lon_planning_designation_listed-building-outline_42148638","title":"Listed building outline: 10 DE VERE GARDENS — Kensington and Chelsea","subtitle":"Kensington and Chelsea / 1994-12-14 / Documented / Planning Data: Listed Building Outlines","details":"Planning/protection evidence record for 10 DE VERE GARDENS; designation/effective date is taken from Planning Data fields where supplied.","year":1994,"effective_date":"1994-12-14","date_precision":"day","short_description":"Planning Data listed-building outline record 425994; quality authoritative; LPA Kensington and Chelsea.","category":"built_environment","lens":"built_environment","confidence":"documented","source_ids":["lon-extra-planning-data-listed-building-outlines"],"affected_area_label":"Kensington and Chelsea","explanation":"Planning/protection evidence record for 10 DE VERE GARDENS; designation/effective date is taken from Planning Data fields where supplied."},"geometry":{"type":"Point","coordinates":[-0.185303,51.501121]}},{"type":"Feature","id":"lon_planning_designation_listed-building-outline_42148883","properties":{"city_id":"london","event_id":"lon_planning_designation_listed-building-outline_42148883","title":"Listed building outline: 5 PARK WALK — Kensington and Chelsea","subtitle":"Kensington and Chelsea / 1994-07-26 / Documented / Planning Data: Listed Building Outlines","details":"Planning/protection evidence record for 5 PARK WALK; designation/effective date is taken from Planning Data fields where supplied.","year":1994,"effective_date":"1994-07-26","date_precision":"day","short_description":"Planning Data listed-building outline record 449376; quality authoritative; LPA Kensington and Chelsea.","category":"built_environment","lens":"built_environment","confidence":"documented","source_ids":["lon-extra-planning-data-listed-building-outlines"],"affected_area_label":"Kensington and Chelsea","explanation":"Planning/protection evidence record for 5 PARK WALK; designation/effective date is taken from Planning Data fields where supplied."},"geometry":{"type":"Point","coordinates":[-0.180094,51.486106]}},{"type":"Feature","id":"lon_planning_designation_listed-building-outline_42148901","properties":{"city_id":"london","event_id":"lon_planning_designation_listed-building-outline_42148901","title":"Listed building outline: BROMPTON HOSPITAL (NORTH BLOCK) — Kensington and Chelsea","subtitle":"Kensington and Chelsea / 1994-06-24 / Documented / Planning Data: Listed Building Outlines","details":"Planning/protection evidence record for BROMPTON HOSPITAL (NORTH BLOCK); designation/effective date is taken from Planning Data fields where supplied.","year":1994,"effective_date":"1994-06-24","date_precision":"day","short_description":"Planning Data listed-building outline record 449372; quality authoritative; LPA Kensington and Chelsea.","category":"built_environment","lens":"built_environment","confidence":"documented","source_ids":["lon-extra-planning-data-listed-building-outlines"],"affected_area_label":"Kensington and Chelsea","explanation":"Planning/protection evidence record for BROMPTON HOSPITAL (NORTH BLOCK); designation/effective date is taken from Planning Data fields where supplied."},"geometry":{"type":"Point","coordinates":[-0.174385,51.49089]}},{"type":"Feature","id":"lon_planning_designation_listed-building-outline_42148966","properties":{"city_id":"london","event_id":"lon_planning_designation_listed-building-outline_42148966","title":"Listed building outline: ST CLEMENT'S CHURCH — Kensington and Chelsea","subtitle":"Kensington and Chelsea / 1994-05-19 / Documented / Planning Data: Listed Building Outlines","details":"Planning/protection evidence record for ST CLEMENT'S CHURCH; designation/effective date is taken from Planning Data fields where supplied.","year":1994,"effective_date":"1994-05-19","date_precision":"day","short_description":"Planning Data listed-building outline record 425838; quality authoritative; LPA Kensington and Chelsea.","category":"built_environment","lens":"built_environment","confidence":"documented","source_ids":["lon-extra-planning-data-listed-building-outlines"],"affected_area_label":"Kensington and Chelsea","explanation":"Planning/protection evidence record for ST CLEMENT'S CHURCH; designation/effective date is taken from Planning Data fields where supplied."},"geometry":{"type":"Point","coordinates":[-0.215815,51.51207]}},{"type":"Feature","id":"lon_planning_designation_listed-building-outline_42149502","properties":{"city_id":"london","event_id":"lon_planning_designation_listed-building-outline_42149502","title":"Listed building outline: 6 AND 8 MALLORD STREET — Kensington and Chelsea","subtitle":"Kensington and Chelsea / 1994-10-21 / Documented / Planning Data: Listed Building Outlines","details":"Planning/protection evidence record for 6 AND 8 MALLORD STREET; designation/effective date is taken from Planning Data fields where supplied.","year":1994,"effective_date":"1994-10-21","date_precision":"day","short_description":"Planning Data listed-building outline record 425877; quality authoritative; LPA Kensington and Chelsea.","category":"built_environment","lens":"built_environment","confidence":"documented","source_ids":["lon-extra-planning-data-listed-building-outlines"],"affected_area_label":"Kensington and Chelsea","explanation":"Planning/protection evidence record for 6 AND 8 MALLORD STREET; designation/effective date is taken from Planning Data fields where supplied."},"geometry":{"type":"Point","coordinates":[-0.173876,51.486224]}},{"type":"Feature","id":"lon_planning_designation_listed-building-outline_42166280","properties":{"city_id":"london","event_id":"lon_planning_designation_listed-building-outline_42166280","title":"Listed building outline: 2 Clarendon Flats Balderton Street London W1K 6TH","subtitle":"Westminster / 1994-03-11 / Documented / Planning Data: Listed Building Outlines","details":"Planning/protection evidence record for 2 Clarendon Flats Balderton Street London W1K 6TH; designation/effective date is taken from Planning Data fields where supplied.","year":1994,"effective_date":"1994-03-11","date_precision":"day","short_description":"Planning Data listed-building outline record 1250968; quality authoritative; LPA Westminster.","category":"built_environment","lens":"built_environment","confidence":"documented","source_ids":["lon-extra-planning-data-listed-building-outlines"],"affected_area_label":"Westminster","explanation":"Planning/protection evidence record for 2 Clarendon Flats Balderton Street London W1K 6TH; designation/effective date is taken from Planning Data fields where supplied."},"geometry":{"type":"Point","coordinates":[-0.152496,51.513531]}},{"type":"Feature","id":"lon_planning_designation_listed-building-outline_42166313","properties":{"city_id":"london","event_id":"lon_planning_designation_listed-building-outline_42166313","title":"Listed building outline: The Oval Building Adjacent To 179 Harrow Road London W2 6NB","subtitle":"Westminster / 1994-04-14 / Documented / Planning Data: Listed Building Outlines","details":"Planning/protection evidence record for The Oval Building Adjacent To 179 Harrow Road London W2 6NB; designation/effective date is taken from Planning Data fields where supplied.","year":1994,"effective_date":"1994-04-14","date_precision":"day","short_description":"Planning Data listed-building outline record 1250976; quality authoritative; LPA Westminster.","category":"built_environment","lens":"built_environment","confidence":"documented","source_ids":["lon-extra-planning-data-listed-building-outlines"],"affected_area_label":"Westminster","explanation":"Planning/protection evidence record for The Oval Building Adjacent To 179 Harrow Road London W2 6NB; designation/effective date is taken from Planning Data fields where supplied."},"geometry":{"type":"Point","coordinates":[-0.180922,51.52036]}},{"type":"Feature","id":"lon_planning_designation_listed-building-outline_42166314","properties":{"city_id":"london","event_id":"lon_planning_designation_listed-building-outline_42166314","title":"Listed building outline: Flat 6 78C Chiltern Street London W1U 5AE","subtitle":"Westminster / 1994-05-10 / Documented / Planning Data: Listed Building Outlines","details":"Planning/protection evidence record for Flat 6 78C Chiltern Street London W1U 5AE; designation/effective date is taken from Planning Data fields where supplied.","year":1994,"effective_date":"1994-05-10","date_precision":"day","short_description":"Planning Data listed-building outline record 1250984; quality authoritative; LPA Westminster.","category":"built_environment","lens":"built_environment","confidence":"documented","source_ids":["lon-extra-planning-data-listed-building-outlines"],"affected_area_label":"Westminster","explanation":"Planning/protection evidence record for Flat 6 78C Chiltern Street London W1U 5AE; designation/effective date is taken from Planning Data fields where supplied."},"geometry":{"type":"Point","coordinates":[-0.155607,51.521154]}},{"type":"Feature","id":"lon_planning_designation_listed-building-outline_42166315","properties":{"city_id":"london","event_id":"lon_planning_designation_listed-building-outline_42166315","title":"Listed building outline: Fortune Theatre Russell Street London WC2B 5HH","subtitle":"Westminster / 1994-05-23 / Documented / Planning Data: Listed Building Outlines","details":"Planning/protection evidence record for Fortune Theatre Russell Street London WC2B 5HH; designation/effective date is taken from Planning Data fields where supplied.","year":1994,"effective_date":"1994-05-23","date_precision":"day","short_description":"Planning Data listed-building outline record 1250985; quality authoritative; LPA Westminster.","category":"built_environment","lens":"built_environment","confidence":"documented","source_ids":["lon-extra-planning-data-listed-building-outlines"],"affected_area_label":"Westminster","explanation":"Planning/protection evidence record for Fortune Theatre Russell Street London WC2B 5HH; designation/effective date is taken from Planning Data fields where supplied."},"geometry":{"type":"Point","coordinates":[-0.120753,51.513281]}},{"type":"Feature","id":"lon_planning_designation_listed-building-outline_42166316","properties":{"city_id":"london","event_id":"lon_planning_designation_listed-building-outline_42166316","title":"Listed building outline: 11 Brick Street London W1J 7DF","subtitle":"Westminster / 1994-10-26 / Documented / Planning Data: Listed Building Outlines","details":"Planning/protection evidence record for 11 Brick Street London W1J 7DF; designation/effective date is taken from Planning Data fields where supplied.","year":1994,"effective_date":"1994-10-26","date_precision":"day","short_description":"Planning Data listed-building outline record 1250986; quality authoritative; LPA Westminster.","category":"built_environment","lens":"built_environment","confidence":"documented","source_ids":["lon-extra-planning-data-listed-building-outlines"],"affected_area_label":"Westminster","explanation":"Planning/protection evidence record for 11 Brick Street London W1J 7DF; designation/effective date is taken from Planning Data fields where supplied."},"geometry":{"type":"Point","coordinates":[-0.148967,51.505191]}},{"type":"Feature","id":"lon_planning_designation_listed-building-outline_42166364","properties":{"city_id":"london","event_id":"lon_planning_designation_listed-building-outline_42166364","title":"Listed building outline: Porchester Centre Porchester Road London W2 5HS","subtitle":"Westminster / 1994-11-28 / Documented / Planning Data: Listed Building Outlines","details":"Planning/protection evidence record for Porchester Centre Porchester Road London W2 5HS; designation/effective date is taken from Planning Data fields where supplied.","year":1994,"effective_date":"1994-11-28","date_precision":"day","short_description":"Planning Data listed-building outline record 1262987; quality authoritative; LPA Westminster.","category":"built_environment","lens":"built_environment","confidence":"documented","source_ids":["lon-extra-planning-data-listed-building-outlines"],"affected_area_label":"Westminster","explanation":"Planning/protection evidence record for Porchester Centre Porchester Road London W2 5HS; designation/effective date is taken from Planning Data fields where supplied."},"geometry":{"type":"Point","coordinates":[-0.189023,51.517234]}},{"type":"Feature","id":"lon_planning_designation_listed-building-outline_42166366","properties":{"city_id":"london","event_id":"lon_planning_designation_listed-building-outline_42166366","title":"Listed building outline: Fourth Floor 179 Harrow Road London W2 6NB","subtitle":"Westminster / 1994-04-14 / Documented / Planning Data: Listed Building Outlines","details":"Planning/protection evidence record for Fourth Floor 179 Harrow Road London W2 6NB; designation/effective date is taken from Planning Data fields where supplied.","year":1994,"effective_date":"1994-04-14","date_precision":"day","short_description":"Planning Data listed-building outline record 1263004; quality authoritative; LPA Westminster.","category":"built_environment","lens":"built_environment","confidence":"documented","source_ids":["lon-extra-planning-data-listed-building-outlines"],"affected_area_label":"Westminster","explanation":"Planning/protection evidence record for Fourth Floor 179 Harrow Road London W2 6NB; designation/effective date is taken from Planning Data fields where supplied."},"geometry":{"type":"Point","coordinates":[-0.181716,51.520152]}},{"type":"Feature","id":"lon_planning_designation_listed-building-outline_42166367","properties":{"city_id":"london","event_id":"lon_planning_designation_listed-building-outline_42166367","title":"Listed building outline: 90 Horseferry Road London SW1P 2EE","subtitle":"Westminster / 1994-06-29 / Documented / Planning Data: Listed Building Outlines","details":"Planning/protection evidence record for 90 Horseferry Road London SW1P 2EE; designation/effective date is taken from Planning Data fields where supplied.","year":1994,"effective_date":"1994-06-29","date_precision":"day","short_description":"Planning Data listed-building outline record 1263007; quality authoritative; LPA Westminster.","category":"built_environment","lens":"built_environment","confidence":"documented","source_ids":["lon-extra-planning-data-listed-building-outlines"],"affected_area_label":"Westminster","explanation":"Planning/protection evidence record for 90 Horseferry Road London SW1P 2EE; designation/effective date is taken from Planning Data fields where supplied."},"geometry":{"type":"Point","coordinates":[-0.131058,51.495015]}},{"type":"Feature","id":"lon_planning_designation_listed-building-outline_42168265","properties":{"city_id":"london","event_id":"lon_planning_designation_listed-building-outline_42168265","title":"Listed building outline: Green Lanes - Turnpike Lane LRT Underground Station","subtitle":"Haringey / 1994-05-17 / Documented / Planning Data: Listed Building Outlines","details":"Planning/protection evidence record for Green Lanes - Turnpike Lane LRT Underground Station; designation/effective date is taken from Planning Data fields where supplied.","year":1994,"effective_date":"1994-05-17","date_precision":"day","short_description":"Planning Data listed-building outline record 800-/24/10008; quality authoritative; LPA Haringey.","category":"built_environment","lens":"built_environment","confidence":"documented","source_ids":["lon-extra-planning-data-listed-building-outlines"],"affected_area_label":"Haringey","explanation":"Planning/protection evidence record for Green Lanes - Turnpike Lane LRT Underground Station; designation/effective date is taken from Planning Data fields where supplied."},"geometry":{"type":"Point","coordinates":[-0.10269,51.590323]}},{"type":"Feature","id":"lon_planning_designation_listed-building-outline_42168272","properties":{"city_id":"london","event_id":"lon_planning_designation_listed-building-outline_42168272","title":"Listed building outline: Walpole Road - Vicarage to the Church of St Benet Fink","subtitle":"Haringey / 1994-10-04 / Documented / Planning Data: Listed Building Outlines","details":"Planning/protection evidence record for Walpole Road - Vicarage to the Church of St Benet Fink; designation/effective date is taken from Planning Data fields where supplied.","year":1994,"effective_date":"1994-10-04","date_precision":"day","short_description":"Planning Data listed-building outline record 800-/16/10015; quality authoritative; LPA Haringey.","category":"built_environment","lens":"built_environment","confidence":"documented","source_ids":["lon-extra-planning-data-listed-building-outlines"],"affected_area_label":"Haringey","explanation":"Planning/protection evidence record for Walpole Road - Vicarage to the Church of St Benet Fink; designation/effective date is taken from Planning Data fields where supplied."},"geometry":{"type":"Point","coordinates":[-0.09107,51.596993]}},{"type":"Feature","id":"lon_planning_designation_listed-building-outline_42168273","properties":{"city_id":"london","event_id":"lon_planning_designation_listed-building-outline_42168273","title":"Listed building outline: Walpole Road - Church of St Benet Fink","subtitle":"Haringey / 1994-10-04 / Documented / Planning Data: Listed Building Outlines","details":"Planning/protection evidence record for Walpole Road - Church of St Benet Fink; designation/effective date is taken from Planning Data fields where supplied.","year":1994,"effective_date":"1994-10-04","date_precision":"day","short_description":"Planning Data listed-building outline record 800-/16/10013; quality authoritative; LPA Haringey.","category":"built_environment","lens":"built_environment","confidence":"documented","source_ids":["lon-extra-planning-data-listed-building-outlines"],"affected_area_label":"Haringey","explanation":"Planning/protection evidence record for Walpole Road - Church of St Benet Fink; designation/effective date is taken from Planning Data fields where supplied."},"geometry":{"type":"Point","coordinates":[-0.091082,51.597303]}},{"type":"Feature","id":"lon_planning_designation_listed-building-outline_42168333","properties":{"city_id":"london","event_id":"lon_planning_designation_listed-building-outline_42168333","title":"Listed building outline: North Road - Highgate School Chapel","subtitle":"Haringey / 1994-12-02 / Documented / Planning Data: Listed Building Outlines","details":"Planning/protection evidence record for North Road - Highgate School Chapel; designation/effective date is taken from Planning Data fields where supplied.","year":1994,"effective_date":"1994-12-02","date_precision":"day","short_description":"Planning Data listed-building outline record 800-/40/10016; quality authoritative; LPA Haringey.","category":"built_environment","lens":"built_environment","confidence":"documented","source_ids":["lon-extra-planning-data-listed-building-outlines"],"affected_area_label":"Haringey","explanation":"Planning/protection evidence record for North Road - Highgate School Chapel; designation/effective date is taken from Planning Data fields where supplied."},"geometry":{"type":"Point","coordinates":[-0.149412,51.571491]}},{"type":"Feature","id":"lon_planning_designation_listed-building-outline_42168336","properties":{"city_id":"london","event_id":"lon_planning_designation_listed-building-outline_42168336","title":"Listed building outline: North Road - War Memorial at Highgate School","subtitle":"Haringey / 1994-12-02 / Documented / Planning Data: Listed Building Outlines","details":"Planning/protection evidence record for North Road - War Memorial at Highgate School; designation/effective date is taken from Planning Data fields where supplied.","year":1994,"effective_date":"1994-12-02","date_precision":"day","short_description":"Planning Data listed-building outline record 800-/40/10017; quality authoritative; LPA Haringey.","category":"built_environment","lens":"built_environment","confidence":"documented","source_ids":["lon-extra-planning-data-listed-building-outlines"],"affected_area_label":"Haringey","explanation":"Planning/protection evidence record for North Road - War Memorial at Highgate School; designation/effective date is taken from Planning Data fields where supplied."},"geometry":{"type":"Point","coordinates":[-0.149673,51.571523]}},{"type":"Feature","id":"lon_planning_designation_listed-building-outline_42168338","properties":{"city_id":"london","event_id":"lon_planning_designation_listed-building-outline_42168338","title":"Listed building outline: North Road / Southwood Lane - Highgate School, Old School Building","subtitle":"Haringey / 1994-12-02 / Documented / Planning Data: Listed Building Outlines","details":"Planning/protection evidence record for North Road / Southwood Lane - Highgate School, Old School Building; designation/effective date is taken from Planning Data fields where supplied.","year":1994,"effective_date":"1994-12-02","date_precision":"day","short_description":"Planning Data listed-building outline record 800-/40/10012; quality authoritative; LPA Haringey.","category":"built_environment","lens":"built_environment","confidence":"documented","source_ids":["lon-extra-planning-data-listed-building-outlines"],"affected_area_label":"Haringey","explanation":"Planning/protection evidence record for North Road / Southwood Lane - Highgate School, Old School Building; designation/effective date is taken from Planning Data fields where supplied."},"geometry":{"type":"Point","coordinates":[-0.149364,51.572119]}},{"type":"Feature","id":"lon_planning_designation_listed-building-outline_42168387","properties":{"city_id":"london","event_id":"lon_planning_designation_listed-building-outline_42168387","title":"Listed building outline: Queen's Avenue - Muswell Hill Public Library","subtitle":"Haringey / 1994-02-07 / Documented / Planning Data: Listed Building Outlines","details":"Planning/protection evidence record for Queen's Avenue - Muswell Hill Public Library; designation/effective date is taken from Planning Data fields where supplied.","year":1994,"effective_date":"1994-02-07","date_precision":"day","short_description":"Planning Data listed-building outline record 800-/21/10009; quality authoritative; LPA Haringey.","category":"built_environment","lens":"built_environment","confidence":"documented","source_ids":["lon-extra-planning-data-listed-building-outlines"],"affected_area_label":"Haringey","explanation":"Planning/protection evidence record for Queen's Avenue - Muswell Hill Public Library; designation/effective date is taken from Planning Data fields where supplied."},"geometry":{"type":"Point","coordinates":[-0.143277,51.591134]}},{"type":"Feature","id":"lon_planning_designation_listed-building-outline_42182314","properties":{"city_id":"london","event_id":"lon_planning_designation_listed-building-outline_42182314","title":"Listed building outline: 10 DE VERE GARDENS — Kensington and Chelsea · 42182314","subtitle":"Kensington and Chelsea / 1994-12-14 / Documented / Planning Data: Listed Building Outlines","details":"Planning/protection evidence record for 10 DE VERE GARDENS; designation/effective date is taken from Planning Data fields where supplied.","year":1994,"effective_date":"1994-12-14","date_precision":"day","short_description":"Planning Data listed-building outline record 1235324; quality authoritative; LPA Kensington and Chelsea.","category":"built_environment","lens":"built_environment","confidence":"documented","source_ids":["lon-extra-planning-data-listed-building-outlines"],"affected_area_label":"Kensington and Chelsea","explanation":"Planning/protection evidence record for 10 DE VERE GARDENS; designation/effective date is taken from Planning Data fields where supplied."},"geometry":{"type":"Point","coordinates":[-0.185303,51.501121]}},{"type":"Feature","id":"lon_planning_designation_listed-building-outline_42182543","properties":{"city_id":"london","event_id":"lon_planning_designation_listed-building-outline_42182543","title":"Listed building outline: 5 PARK WALK — Kensington and Chelsea · 42182543","subtitle":"Kensington and Chelsea / 1994-07-26 / Documented / Planning Data: Listed Building Outlines","details":"Planning/protection evidence record for 5 PARK WALK; designation/effective date is taken from Planning Data fields where supplied.","year":1994,"effective_date":"1994-07-26","date_precision":"day","short_description":"Planning Data listed-building outline record 1244336; quality authoritative; LPA Kensington and Chelsea.","category":"built_environment","lens":"built_environment","confidence":"documented","source_ids":["lon-extra-planning-data-listed-building-outlines"],"affected_area_label":"Kensington and Chelsea","explanation":"Planning/protection evidence record for 5 PARK WALK; designation/effective date is taken from Planning Data fields where supplied."},"geometry":{"type":"Point","coordinates":[-0.180094,51.486106]}},{"type":"Feature","id":"lon_planning_designation_listed-building-outline_42182561","properties":{"city_id":"london","event_id":"lon_planning_designation_listed-building-outline_42182561","title":"Listed building outline: BROMPTON HOSPITAL (NORTH BLOCK) — Kensington and Chelsea · 42182561","subtitle":"Kensington and Chelsea / 1994-06-24 / Documented / Planning Data: Listed Building Outlines","details":"Planning/protection evidence record for BROMPTON HOSPITAL (NORTH BLOCK); designation/effective date is taken from Planning Data fields where supplied.","year":1994,"effective_date":"1994-06-24","date_precision":"day","short_description":"Planning Data listed-building outline record 1244331; quality authoritative; LPA Kensington and Chelsea.","category":"built_environment","lens":"built_environment","confidence":"documented","source_ids":["lon-extra-planning-data-listed-building-outlines"],"affected_area_label":"Kensington and Chelsea","explanation":"Planning/protection evidence record for BROMPTON HOSPITAL (NORTH BLOCK); designation/effective date is taken from Planning Data fields where supplied."},"geometry":{"type":"Point","coordinates":[-0.174385,51.49089]}},{"type":"Feature","id":"lon_planning_designation_listed-building-outline_42182622","properties":{"city_id":"london","event_id":"lon_planning_designation_listed-building-outline_42182622","title":"Listed building outline: ST CLEMENT'S CHURCH — Kensington and Chelsea · 42182622","subtitle":"Kensington and Chelsea / 1994-05-19 / Documented / Planning Data: Listed Building Outlines","details":"Planning/protection evidence record for ST CLEMENT'S CHURCH; designation/effective date is taken from Planning Data fields where supplied.","year":1994,"effective_date":"1994-05-19","date_precision":"day","short_description":"Planning Data listed-building outline record 1265169; quality authoritative; LPA Kensington and Chelsea.","category":"built_environment","lens":"built_environment","confidence":"documented","source_ids":["lon-extra-planning-data-listed-building-outlines"],"affected_area_label":"Kensington and Chelsea","explanation":"Planning/protection evidence record for ST CLEMENT'S CHURCH; designation/effective date is taken from Planning Data fields where supplied."},"geometry":{"type":"Point","coordinates":[-0.215815,51.51207]}},{"type":"Feature","id":"lon_planning_designation_listed-building-outline_42183152","properties":{"city_id":"london","event_id":"lon_planning_designation_listed-building-outline_42183152","title":"Listed building outline: 6 AND 8 MALLORD STREET — Kensington and Chelsea · 42183152","subtitle":"Kensington and Chelsea / 1994-10-21 / Documented / Planning Data: Listed Building Outlines","details":"Planning/protection evidence record for 6 AND 8 MALLORD STREET; designation/effective date is taken from Planning Data fields where supplied.","year":1994,"effective_date":"1994-10-21","date_precision":"day","short_description":"Planning Data listed-building outline record 1265139; quality authoritative; LPA Kensington and Chelsea.","category":"built_environment","lens":"built_environment","confidence":"documented","source_ids":["lon-extra-planning-data-listed-building-outlines"],"affected_area_label":"Kensington and Chelsea","explanation":"Planning/protection evidence record for 6 AND 8 MALLORD STREET; designation/effective date is taken from Planning Data fields where supplied."},"geometry":{"type":"Point","coordinates":[-0.173876,51.486224]}},{"type":"Feature","id":"lon_planning_designation_listed-building-outline_42189322","properties":{"city_id":"london","event_id":"lon_planning_designation_listed-building-outline_42189322","title":"Listed building outline: FORMER BARCLAY'S BANK 239 LEWISHAM WAY|FORMER BARCLAY'S BANK FRIENDLY STREET DEPTFORD","subtitle":"Lewisham / 1994-09-20 / Documented / Planning Data: Listed Building Outlines","details":"Planning/protection evidence record for FORMER BARCLAY'S BANK 239 LEWISHAM WAY|FORMER BARCLAY'S BANK FRIENDLY STREET DEPTFORD; designation/effective date is taken from Planning Data fields where supplied.","year":1994,"effective_date":"1994-09-20","date_precision":"day","short_description":"Planning Data listed-building outline record 1253066; quality authoritative; LPA Lewisham.","category":"built_environment","lens":"built_environment","confidence":"documented","source_ids":["lon-extra-planning-data-listed-building-outlines"],"affected_area_label":"Lewisham","explanation":"Planning/protection evidence record for FORMER BARCLAY'S BANK 239 LEWISHAM WAY|FORMER BARCLAY'S BANK FRIENDLY STREET DEPTFORD; designation/effective date is taken from Planning Data fields where supplied."},"geometry":{"type":"Point","coordinates":[-0.027736,51.469811]}},{"type":"Feature","id":"lon_planning_designation_listed-building-outline_42192523","properties":{"city_id":"london","event_id":"lon_planning_designation_listed-building-outline_42192523","title":"Listed building outline: St George's Parish Centre, Harrow Road, Wembley, HA0 2QE","subtitle":"Brent / 1994-02-21 / Documented / Planning Data: Listed Building Outlines","details":"Planning/protection evidence record for St George's Parish Centre, Harrow Road, Wembley, HA0 2QE; designation/effective date is taken from Planning Data fields where supplied.","year":1994,"effective_date":"1994-02-21","date_precision":"day","short_description":"Planning Data listed-building outline record LB12; quality authoritative; LPA Brent.","category":"built_environment","lens":"built_environment","confidence":"documented","source_ids":["lon-extra-planning-data-listed-building-outlines"],"affected_area_label":"Brent","explanation":"Planning/protection evidence record for St George's Parish Centre, Harrow Road, Wembley, HA0 2QE; designation/effective date is taken from Planning Data fields where supplied."},"geometry":{"type":"Point","coordinates":[-0.325469,51.558995]}},{"type":"Feature","id":"lon_planning_designation_listed-building-outline_42192524","properties":{"city_id":"london","event_id":"lon_planning_designation_listed-building-outline_42192524","title":"Listed building outline: St Georges Vicarage, 970 Harrow Road, Wembley, HA0 2QE","subtitle":"Brent / 1994-02-21 / Documented / Planning Data: Listed Building Outlines","details":"Planning/protection evidence record for St Georges Vicarage, 970 Harrow Road, Wembley, HA0 2QE; designation/effective date is taken from Planning Data fields where supplied.","year":1994,"effective_date":"1994-02-21","date_precision":"day","short_description":"Planning Data listed-building outline record LB13; quality authoritative; LPA Brent.","category":"built_environment","lens":"built_environment","confidence":"documented","source_ids":["lon-extra-planning-data-listed-building-outlines"],"affected_area_label":"Brent","explanation":"Planning/protection evidence record for St Georges Vicarage, 970 Harrow Road, Wembley, HA0 2QE; designation/effective date is taken from Planning Data fields where supplied."},"geometry":{"type":"Point","coordinates":[-0.325469,51.558995]}},{"type":"Feature","id":"lon_planning_designation_tree-preservation-zone_19130745","properties":{"city_id":"london","event_id":"lon_planning_designation_tree-preservation-zone_19130745","title":"Tree preservation zone: South Bermondsey Railway Station, Bolina Road — Lewisham","subtitle":"Lewisham / 1994-05-25 / Documented / Planning Data: Tree Preservation Zones","details":"Planning/protection evidence record for South Bermondsey Railway Station, Bolina Road; designation/effective date is taken from Planning Data fields where supplied.","year":1994,"effective_date":"1994-05-25","date_precision":"day","short_description":"Planning Data tree-preservation zone record 9; quality authoritative; LPA Lewisham.","category":"built_environment","lens":"built_environment","confidence":"documented","source_ids":["lon-extra-planning-data-tree-preservation-zones"],"affected_area_label":"Lewisham","explanation":"Planning/protection evidence record for South Bermondsey Railway Station, Bolina Road; designation/effective date is taken from Planning Data fields where supplied."},"geometry":{"type":"Point","coordinates":[-0.053538,51.487961]}},{"type":"Feature","id":"lon_planning_designation_tree-preservation-zone_19140851","properties":{"city_id":"london","event_id":"lon_planning_designation_tree-preservation-zone_19140851","title":"Tree preservation zone: South Bermondsey Railway Station, Bolina Road — Lewisham · 19140851","subtitle":"Lewisham / 1994-05-25 / Documented / Planning Data: Tree Preservation Zones","details":"Planning/protection evidence record for South Bermondsey Railway Station, Bolina Road; designation/effective date is taken from Planning Data fields where supplied.","year":1994,"effective_date":"1994-05-25","date_precision":"day","short_description":"Planning Data tree-preservation zone record 879; quality authoritative; LPA Lewisham.","category":"built_environment","lens":"built_environment","confidence":"documented","source_ids":["lon-extra-planning-data-tree-preservation-zones"],"affected_area_label":"Lewisham","explanation":"Planning/protection evidence record for South Bermondsey Railway Station, Bolina Road; designation/effective date is taken from Planning Data fields where supplied."},"geometry":{"type":"Point","coordinates":[-0.053538,51.487961]}},{"type":"Feature","id":"lon_planning_designation_tree-preservation-zone_19176089","properties":{"city_id":"london","event_id":"lon_planning_designation_tree-preservation-zone_19176089","title":"Tree preservation zone: 7 & 8 Sudbury Hill Close","subtitle":"Brent / 1994-05-30 / Documented / Planning Data: Tree Preservation Zones","details":"Planning/protection evidence record for 7 & 8 Sudbury Hill Close; designation/effective date is taken from Planning Data fields where supplied.","year":1994,"effective_date":"1994-05-30","date_precision":"day","short_description":"Planning Data tree-preservation zone record TPZ12; quality authoritative; LPA Brent.","category":"built_environment","lens":"built_environment","confidence":"documented","source_ids":["lon-extra-planning-data-tree-preservation-zones"],"affected_area_label":"Brent","explanation":"Planning/protection evidence record for 7 & 8 Sudbury Hill Close; designation/effective date is taken from Planning Data fields where supplied."},"geometry":{"type":"Point","coordinates":[-0.328947,51.561807]}}]}
