{"type":"FeatureCollection","schema_version":"1.0.0","city_id":"london","year":1900,"features":[{"type":"Feature","id":"london-milestone-1900-metropolitan-boroughs-created-5","properties":{"city_id":"london","event_id":"london-milestone-1900-metropolitan-boroughs-created-5","title":"Metropolitan boroughs created","year":1900,"effective_date":"1900","date_precision":"year","category":"built_environment","lens":"built_environment","confidence":"documented","source_ids":["legislation-uk-london-acts-orders","ons-geoportal-boundaries"],"explanation":"New local government geography affects historic borough statistics and services."},"geometry":{"type":"Point","coordinates":[-0.121132,51.457448]}}]}
