{"type":"FeatureCollection","schema_version":"1.0.0","city_id":"london","year":1889,"features":[{"type":"Feature","id":"london-milestone-1889-london-county-council-created-4","properties":{"city_id":"london","event_id":"london-milestone-1889-london-county-council-created-4","title":"London County Council created","short_description":"First London-wide elected authority for urban services and planning precursors.","year":1889,"effective_date":"1889","date_precision":"year","category":"built_environment","lens":"built_environment","confidence":"documented","source_ids":["legislation-uk-london-acts-orders"],"explanation":"First London-wide elected authority for urban services and planning precursors."},"geometry":{"type":"Point","coordinates":[0.00581,51.489704]}}]}
