{"type":"FeatureCollection","schema_version":"1.0.0","city_id":"london","year":2022,"features":[{"type":"Feature","id":"london-milestone-2022-elizabeth-line-opens-through-central-london-29","properties":{"city_id":"london","event_id":"london-milestone-2022-elizabeth-line-opens-through-central-london-29","title":"Elizabeth line opens through central London","year":2022,"effective_date":"2022-05-24","date_precision":"day","category":"transport","lens":"traffic","confidence":"documented","source_ids":["tfl-unified-api","dft-naei-traffic-emissions-context"],"explanation":"Major rail capacity and development-access milestone."},"geometry":{"type":"Point","coordinates":[-0.013,51.543]}}]}
