{"type":"FeatureCollection","schema_version":"1.0.0","city_id":"london","year":1829,"features":[{"type":"Feature","id":"london-milestone-1829-metropolitan-police-founded-1","properties":{"city_id":"london","event_id":"london-milestone-1829-metropolitan-police-founded-1","title":"Metropolitan Police founded","year":1829,"effective_date":"1829","date_precision":"year","category":"transport","lens":"traffic","confidence":"documented","source_ids":["legislation-uk-london-acts-orders","police-data-api"],"explanation":"Beginning of modern citywide policing and street-order governance."},"geometry":{"type":"Point","coordinates":[-0.010116,51.44754]}}]}
