{"type":"FeatureCollection","schema_version":"1.0.0","city_id":"london","year":1956,"features":[{"type":"Feature","id":"lon_planning_designation_tree-preservation-zone_19118033","properties":{"city_id":"london","event_id":"lon_planning_designation_tree-preservation-zone_19118033","title":"Tree preservation zone: Tree Preservation Order made under The Town and Country Planning Act, 1947.","short_description":"Planning Data tree-preservation zone record TRE/HE/9/A1; quality authoritative; LPA Camden.","year":1956,"effective_date":"1956-05-29","date_precision":"day","category":"built_environment","lens":"built_environment","confidence":"documented","source_ids":["lon-extra-planning-data-tree-preservation-zones"],"explanation":"Planning/protection evidence record for Tree Preservation Order made under The Town and Country Planning Act, 1947.; designation/effective date is taken from Planning Data fields where supplied."},"geometry":{"type":"Point","coordinates":[-0.190414,51.564071]}},{"type":"Feature","id":"lon_planning_designation_tree-preservation-zone_19153305","properties":{"city_id":"london","event_id":"lon_planning_designation_tree-preservation-zone_19153305","title":"Tree preservation zone: P1_G1","short_description":"Planning Data tree-preservation zone record P1_G1; quality authoritative; LPA Westminster.","year":1956,"effective_date":"1956-07-23","date_precision":"day","category":"built_environment","lens":"built_environment","confidence":"documented","source_ids":["lon-extra-planning-data-tree-preservation-zones"],"explanation":"Planning/protection evidence record for P1_G1; designation/effective date is taken from Planning Data fields where supplied."},"geometry":{"type":"Point","coordinates":[-0.181011,51.527195]}},{"type":"Feature","id":"lon_planning_designation_tree-preservation-zone_19153306","properties":{"city_id":"london","event_id":"lon_planning_designation_tree-preservation-zone_19153306","title":"Tree preservation zone: P1_G2","short_description":"Planning Data tree-preservation zone record P1_G2; quality authoritative; LPA Westminster.","year":1956,"effective_date":"1956-07-23","date_precision":"day","category":"built_environment","lens":"built_environment","confidence":"documented","source_ids":["lon-extra-planning-data-tree-preservation-zones"],"explanation":"Planning/protection evidence record for P1_G2; designation/effective date is taken from Planning Data fields where supplied."},"geometry":{"type":"Point","coordinates":[-0.178151,51.525551]}},{"type":"Feature","id":"lon_planning_designation_tree-preservation-zone_19153307","properties":{"city_id":"london","event_id":"lon_planning_designation_tree-preservation-zone_19153307","title":"Tree preservation zone: P1_G3","short_description":"Planning Data tree-preservation zone record P1_G3; quality authoritative; LPA Westminster.","year":1956,"effective_date":"1956-07-23","date_precision":"day","category":"built_environment","lens":"built_environment","confidence":"documented","source_ids":["lon-extra-planning-data-tree-preservation-zones"],"explanation":"Planning/protection evidence record for P1_G3; designation/effective date is taken from Planning Data fields where supplied."},"geometry":{"type":"Point","coordinates":[-0.177589,51.525036]}},{"type":"Feature","id":"lon_planning_designation_tree-preservation-zone_19153308","properties":{"city_id":"london","event_id":"lon_planning_designation_tree-preservation-zone_19153308","title":"Tree preservation zone: P1_G4","short_description":"Planning Data tree-preservation zone record P1_G4; quality authoritative; LPA Westminster.","year":1956,"effective_date":"1956-07-23","date_precision":"day","category":"built_environment","lens":"built_environment","confidence":"documented","source_ids":["lon-extra-planning-data-tree-preservation-zones"],"explanation":"Planning/protection evidence record for P1_G4; designation/effective date is taken from Planning Data fields where supplied."},"geometry":{"type":"Point","coordinates":[-0.183072,51.527339]}},{"type":"Feature","id":"lon_planning_designation_tree-preservation-zone_19153309","properties":{"city_id":"london","event_id":"lon_planning_designation_tree-preservation-zone_19153309","title":"Tree preservation zone: P1_G5","short_description":"Planning Data tree-preservation zone record P1_G5; quality authoritative; LPA Westminster.","year":1956,"effective_date":"1956-07-23","date_precision":"day","category":"built_environment","lens":"built_environment","confidence":"documented","source_ids":["lon-extra-planning-data-tree-preservation-zones"],"explanation":"Planning/protection evidence record for P1_G5; designation/effective date is taken from Planning Data fields where supplied."},"geometry":{"type":"Point","coordinates":[-0.178589,51.524231]}},{"type":"Feature","id":"lon_planning_designation_tree-preservation-zone_19153310","properties":{"city_id":"london","event_id":"lon_planning_designation_tree-preservation-zone_19153310","title":"Tree preservation zone: P2_G2","short_description":"Planning Data tree-preservation zone record P2_G2; quality authoritative; LPA Westminster.","year":1956,"effective_date":"1956-08-08","date_precision":"day","category":"built_environment","lens":"built_environment","confidence":"documented","source_ids":["lon-extra-planning-data-tree-preservation-zones"],"explanation":"Planning/protection evidence record for P2_G2; designation/effective date is taken from Planning Data fields where supplied."},"geometry":{"type":"Point","coordinates":[-0.184795,51.522636]}},{"type":"Feature","id":"lon_planning_designation_tree-preservation-zone_19153311","properties":{"city_id":"london","event_id":"lon_planning_designation_tree-preservation-zone_19153311","title":"Tree preservation zone: P2_G3","short_description":"Planning Data tree-preservation zone record P2_G3; quality authoritative; LPA Westminster.","year":1956,"effective_date":"1956-08-08","date_precision":"day","category":"built_environment","lens":"built_environment","confidence":"documented","source_ids":["lon-extra-planning-data-tree-preservation-zones"],"explanation":"Planning/protection evidence record for P2_G3; designation/effective date is taken from Planning Data fields where supplied."},"geometry":{"type":"Point","coordinates":[-0.185317,51.522081]}},{"type":"Feature","id":"lon_planning_designation_tree-preservation-zone_19153312","properties":{"city_id":"london","event_id":"lon_planning_designation_tree-preservation-zone_19153312","title":"Tree preservation zone: P2_G4","short_description":"Planning Data tree-preservation zone record P2_G4; quality authoritative; LPA Westminster.","year":1956,"effective_date":"1956-08-08","date_precision":"day","category":"built_environment","lens":"built_environment","confidence":"documented","source_ids":["lon-extra-planning-data-tree-preservation-zones"],"explanation":"Planning/protection evidence record for P2_G4; designation/effective date is taken from Planning Data fields where supplied."},"geometry":{"type":"Point","coordinates":[-0.18387,51.521805]}},{"type":"Feature","id":"lon_planning_designation_tree-preservation-zone_19153313","properties":{"city_id":"london","event_id":"lon_planning_designation_tree-preservation-zone_19153313","title":"Tree preservation zone: P2_G6","short_description":"Planning Data tree-preservation zone record P2_G6; quality authoritative; LPA Westminster.","year":1956,"effective_date":"1956-08-08","date_precision":"day","category":"built_environment","lens":"built_environment","confidence":"documented","source_ids":["lon-extra-planning-data-tree-preservation-zones"],"explanation":"Planning/protection evidence record for P2_G6; designation/effective date is taken from Planning Data fields where supplied."},"geometry":{"type":"Point","coordinates":[-0.182226,51.522031]}},{"type":"Feature","id":"lon_planning_designation_tree-preservation-zone_19153314","properties":{"city_id":"london","event_id":"lon_planning_designation_tree-preservation-zone_19153314","title":"Tree preservation zone: P2_A1","short_description":"Planning Data tree-preservation zone record P2_A1; quality authoritative; LPA Westminster.","year":1956,"effective_date":"1956-08-08","date_precision":"day","category":"built_environment","lens":"built_environment","confidence":"documented","source_ids":["lon-extra-planning-data-tree-preservation-zones"],"explanation":"Planning/protection evidence record for P2_A1; designation/effective date is taken from Planning Data fields where supplied."},"geometry":{"type":"Point","coordinates":[-0.187304,51.525168]}},{"type":"Feature","id":"lon_planning_designation_tree-preservation-zone_19153315","properties":{"city_id":"london","event_id":"lon_planning_designation_tree-preservation-zone_19153315","title":"Tree preservation zone: P2_G1","short_description":"Planning Data tree-preservation zone record P2_G1; quality authoritative; LPA Westminster.","year":1956,"effective_date":"1956-08-08","date_precision":"day","category":"built_environment","lens":"built_environment","confidence":"documented","source_ids":["lon-extra-planning-data-tree-preservation-zones"],"explanation":"Planning/protection evidence record for P2_G1; designation/effective date is taken from Planning Data fields where supplied."},"geometry":{"type":"Point","coordinates":[-0.18428,51.523079]}},{"type":"Feature","id":"lon_planning_designation_tree-preservation-zone_19153316","properties":{"city_id":"london","event_id":"lon_planning_designation_tree-preservation-zone_19153316","title":"Tree preservation zone: P4_A1","short_description":"Planning Data tree-preservation zone record P4_A1; quality authoritative; LPA Westminster.","year":1956,"effective_date":"1956-08-15","date_precision":"day","category":"built_environment","lens":"built_environment","confidence":"documented","source_ids":["lon-extra-planning-data-tree-preservation-zones"],"explanation":"Planning/protection evidence record for P4_A1; designation/effective date is taken from Planning Data fields where supplied."},"geometry":{"type":"Point","coordinates":[-0.188199,51.525837]}},{"type":"Feature","id":"lon_planning_designation_tree-preservation-zone_19153317","properties":{"city_id":"london","event_id":"lon_planning_designation_tree-preservation-zone_19153317","title":"Tree preservation zone: P4_A2","short_description":"Planning Data tree-preservation zone record P4_A2; quality authoritative; LPA Westminster.","year":1956,"effective_date":"1956-08-15","date_precision":"day","category":"built_environment","lens":"built_environment","confidence":"documented","source_ids":["lon-extra-planning-data-tree-preservation-zones"],"explanation":"Planning/protection evidence record for P4_A2; designation/effective date is taken from Planning Data fields where supplied."},"geometry":{"type":"Point","coordinates":[-0.186158,51.526793]}},{"type":"Feature","id":"lon_planning_designation_tree-preservation-zone_19153318","properties":{"city_id":"london","event_id":"lon_planning_designation_tree-preservation-zone_19153318","title":"Tree preservation zone: P7_A1","short_description":"Planning Data tree-preservation zone record P7_A1; quality authoritative; LPA Westminster.","year":1956,"effective_date":"1956-08-21","date_precision":"day","category":"built_environment","lens":"built_environment","confidence":"documented","source_ids":["lon-extra-planning-data-tree-preservation-zones"],"explanation":"Planning/protection evidence record for P7_A1; designation/effective date is taken from Planning Data fields where supplied."},"geometry":{"type":"Point","coordinates":[-0.190545,51.517252]}},{"type":"Feature","id":"lon_planning_designation_tree-preservation-zone_19153319","properties":{"city_id":"london","event_id":"lon_planning_designation_tree-preservation-zone_19153319","title":"Tree preservation zone: P7_A2","short_description":"Planning Data tree-preservation zone record P7_A2; quality authoritative; LPA Westminster.","year":1956,"effective_date":"1956-08-21","date_precision":"day","category":"built_environment","lens":"built_environment","confidence":"documented","source_ids":["lon-extra-planning-data-tree-preservation-zones"],"explanation":"Planning/protection evidence record for P7_A2; designation/effective date is taken from Planning Data fields where supplied."},"geometry":{"type":"Point","coordinates":[-0.193245,51.516266]}},{"type":"Feature","id":"lon_planning_designation_tree-preservation-zone_19153320","properties":{"city_id":"london","event_id":"lon_planning_designation_tree-preservation-zone_19153320","title":"Tree preservation zone: P7_G1","short_description":"Planning Data tree-preservation zone record P7_G1; quality authoritative; LPA Westminster.","year":1956,"effective_date":"1956-08-21","date_precision":"day","category":"built_environment","lens":"built_environment","confidence":"documented","source_ids":["lon-extra-planning-data-tree-preservation-zones"],"explanation":"Planning/protection evidence record for P7_G1; designation/effective date is taken from Planning Data fields where supplied."},"geometry":{"type":"Point","coordinates":[-0.192207,51.518927]}},{"type":"Feature","id":"lon_planning_designation_tree-preservation-zone_19153321","properties":{"city_id":"london","event_id":"lon_planning_designation_tree-preservation-zone_19153321","title":"Tree preservation zone: P3_G1","short_description":"Planning Data tree-preservation zone record P3_G1; quality authoritative; LPA Westminster.","year":1956,"effective_date":"1956-11-07","date_precision":"day","category":"built_environment","lens":"built_environment","confidence":"documented","source_ids":["lon-extra-planning-data-tree-preservation-zones"],"explanation":"Planning/protection evidence record for P3_G1; designation/effective date is taken from Planning Data fields where supplied."},"geometry":{"type":"Point","coordinates":[-0.192146,51.523997]}},{"type":"Feature","id":"lon_planning_designation_tree-preservation-zone_19153322","properties":{"city_id":"london","event_id":"lon_planning_designation_tree-preservation-zone_19153322","title":"Tree preservation zone: P3_G2","short_description":"Planning Data tree-preservation zone record P3_G2; quality authoritative; LPA Westminster.","year":1956,"effective_date":"1956-11-07","date_precision":"day","category":"built_environment","lens":"built_environment","confidence":"documented","source_ids":["lon-extra-planning-data-tree-preservation-zones"],"explanation":"Planning/protection evidence record for P3_G2; designation/effective date is taken from Planning Data fields where supplied."},"geometry":{"type":"Point","coordinates":[-0.190198,51.52446]}}]}
