{"type":"FeatureCollection","schema_version":"1.0.0","city_id":"london","year":1971,"features":[{"type":"Feature","id":"lon_planning_designation_conservation-area_44001045","properties":{"city_id":"london","event_id":"lon_planning_designation_conservation-area_44001045","title":"Conservation area record: Coalecroft Road","year":1971,"effective_date":"1971-02-12","date_precision":"day","category":"built_environment","lens":"built_environment","confidence":"documented","source_ids":["lon-extra-planning-data-conservation-areas"],"explanation":"Planning/protection evidence record for Coalecroft Road; designation/effective date is taken from Planning Data fields where supplied."},"geometry":{"type":"Point","coordinates":[-0.227594,51.460382]}},{"type":"Feature","id":"lon_planning_designation_conservation-area_44002386","properties":{"city_id":"london","event_id":"lon_planning_designation_conservation-area_44002386","title":"Conservation area record: Old Malden","year":1971,"effective_date":"1971-03-04","date_precision":"day","category":"built_environment","lens":"built_environment","confidence":"documented","source_ids":["lon-extra-planning-data-conservation-areas"],"explanation":"Planning/protection evidence record for Old Malden; designation/effective date is taken from Planning Data fields where supplied."},"geometry":{"type":"Point","coordinates":[-0.260124,51.381457]}},{"type":"Feature","id":"lon_planning_designation_conservation-area_44002398","properties":{"city_id":"london","event_id":"lon_planning_designation_conservation-area_44002398","title":"Conservation area record: Kingston Old Town","year":1971,"effective_date":"1971-03-04","date_precision":"day","category":"built_environment","lens":"built_environment","confidence":"documented","source_ids":["lon-extra-planning-data-conservation-areas"],"explanation":"Planning/protection evidence record for Kingston Old Town; designation/effective date is taken from Planning Data fields where supplied."},"geometry":{"type":"Point","coordinates":[-0.307269,51.408836]}},{"type":"Feature","id":"lon_planning_designation_conservation-area_44002403","properties":{"city_id":"london","event_id":"lon_planning_designation_conservation-area_44002403","title":"Conservation area record: St Andrew's Square","year":1971,"effective_date":"1971-03-04","date_precision":"day","category":"built_environment","lens":"built_environment","confidence":"documented","source_ids":["lon-extra-planning-data-conservation-areas"],"explanation":"Planning/protection evidence record for St Andrew's Square; designation/effective date is taken from Planning Data fields where supplied."},"geometry":{"type":"Point","coordinates":[-0.308579,51.39336]}},{"type":"Feature","id":"lon_planning_designation_conservation-area_44002454","properties":{"city_id":"london","event_id":"lon_planning_designation_conservation-area_44002454","title":"Conservation area record: St Margaret's Estate","year":1971,"effective_date":"1971-11-02","date_precision":"day","category":"built_environment","lens":"built_environment","confidence":"documented","source_ids":["lon-extra-planning-data-conservation-areas"],"explanation":"Planning/protection evidence record for St Margaret's Estate; designation/effective date is taken from Planning Data fields where supplied."},"geometry":{"type":"Point","coordinates":[-0.320268,51.460796]}},{"type":"Feature","id":"lon_planning_designation_conservation-area_44003453","properties":{"city_id":"london","event_id":"lon_planning_designation_conservation-area_44003453","title":"Conservation area record: Tredegar Square","year":1971,"effective_date":"1971-01-01","date_precision":"day","category":"built_environment","lens":"built_environment","confidence":"documented","source_ids":["lon-extra-planning-data-conservation-areas"],"explanation":"Planning/protection evidence record for Tredegar Square; designation/effective date is taken from Planning Data fields where supplied."},"geometry":{"type":"Point","coordinates":[-0.031302,51.527211]}},{"type":"Feature","id":"lon_planning_designation_conservation-area_44003454","properties":{"city_id":"london","event_id":"lon_planning_designation_conservation-area_44003454","title":"Conservation area record: Island Gardens","year":1971,"effective_date":"1971-03-01","date_precision":"day","category":"built_environment","lens":"built_environment","confidence":"documented","source_ids":["lon-extra-planning-data-conservation-areas"],"explanation":"Planning/protection evidence record for Island Gardens; designation/effective date is taken from Planning Data fields where supplied."},"geometry":{"type":"Point","coordinates":[-0.007944,51.486808]}},{"type":"Feature","id":"lon_planning_designation_conservation-area_44006231","properties":{"city_id":"london","event_id":"lon_planning_designation_conservation-area_44006231","title":"Conservation area record: De Beauvoir","year":1971,"effective_date":"1971-01-01","date_precision":"day","category":"built_environment","lens":"built_environment","confidence":"documented","source_ids":["lon-extra-planning-data-conservation-areas"],"explanation":"Planning/protection evidence record for De Beauvoir; designation/effective date is taken from Planning Data fields where supplied."},"geometry":{"type":"Point","coordinates":[-0.080751,51.542815]}},{"type":"Feature","id":"lon_planning_designation_conservation-area_44006876","properties":{"city_id":"london","event_id":"lon_planning_designation_conservation-area_44006876","title":"Conservation area record: Clapton Pond","year":1971,"effective_date":"1971-01-01","date_precision":"day","category":"built_environment","lens":"built_environment","confidence":"documented","source_ids":["lon-extra-planning-data-conservation-areas"],"explanation":"Planning/protection evidence record for Clapton Pond; designation/effective date is taken from Planning Data fields where supplied."},"geometry":{"type":"Point","coordinates":[-0.055486,51.556559]}},{"type":"Feature","id":"lon_planning_designation_conservation-area_44009023","properties":{"city_id":"london","event_id":"lon_planning_designation_conservation-area_44009023","title":"Conservation area record: Chislehurst","year":1971,"effective_date":"1971-01-01","date_precision":"day","category":"built_environment","lens":"built_environment","confidence":"documented","source_ids":["lon-extra-planning-data-conservation-areas"],"explanation":"Planning/protection evidence record for Chislehurst; designation/effective date is taken from Planning Data fields where supplied."},"geometry":{"type":"Point","coordinates":[0.077131,51.41415]}},{"type":"Feature","id":"lon_planning_designation_conservation-area_44009630","properties":{"city_id":"london","event_id":"lon_planning_designation_conservation-area_44009630","title":"Conservation area record: Primrose Hill","year":1971,"effective_date":"1971-10-01","date_precision":"day","category":"built_environment","lens":"built_environment","confidence":"documented","source_ids":["lon-extra-planning-data-conservation-areas"],"explanation":"Planning/protection evidence record for Primrose Hill; designation/effective date is taken from Planning Data fields where supplied."},"geometry":{"type":"Point","coordinates":[-0.152214,51.539439]}},{"type":"Feature","id":"lon_planning_designation_conservation-area_44009645","properties":{"city_id":"london","event_id":"lon_planning_designation_conservation-area_44009645","title":"Conservation area record: Seven Dials (Covent Garden)","year":1971,"effective_date":"1971-11-01","date_precision":"day","category":"built_environment","lens":"built_environment","confidence":"documented","source_ids":["lon-extra-planning-data-conservation-areas"],"explanation":"Planning/protection evidence record for Seven Dials (Covent Garden); designation/effective date is taken from Planning Data fields where supplied."},"geometry":{"type":"Point","coordinates":[-0.124319,51.514922]}},{"type":"Feature","id":"lon_planning_designation_conservation-area_44010217","properties":{"city_id":"london","event_id":"lon_planning_designation_conservation-area_44010217","title":"Conservation area record: Addington Square","year":1971,"effective_date":"1971-07-09","date_precision":"day","category":"built_environment","lens":"built_environment","confidence":"documented","source_ids":["lon-extra-planning-data-conservation-areas"],"explanation":"Planning/protection evidence record for Addington Square; designation/effective date is taken from Planning Data fields where supplied."},"geometry":{"type":"Point","coordinates":[-0.092962,51.480702]}},{"type":"Feature","id":"lon_planning_designation_conservation-area_44010223","properties":{"city_id":"london","event_id":"lon_planning_designation_conservation-area_44010223","title":"Conservation area record: Glengall Road","year":1971,"effective_date":"1971-07-09","date_precision":"day","category":"built_environment","lens":"built_environment","confidence":"documented","source_ids":["lon-extra-planning-data-conservation-areas"],"explanation":"Planning/protection evidence record for Glengall Road; designation/effective date is taken from Planning Data fields where supplied."},"geometry":{"type":"Point","coordinates":[-0.072709,51.48499]}},{"type":"Feature","id":"lon_planning_designation_conservation-area_44010229","properties":{"city_id":"london","event_id":"lon_planning_designation_conservation-area_44010229","title":"Conservation area record: West Square","year":1971,"effective_date":"1971-09-17","date_precision":"day","category":"built_environment","lens":"built_environment","confidence":"documented","source_ids":["lon-extra-planning-data-conservation-areas"],"explanation":"Planning/protection evidence record for West Square; designation/effective date is taken from Planning Data fields where supplied."},"geometry":{"type":"Point","coordinates":[-0.107446,51.49613]}},{"type":"Feature","id":"lon_planning_designation_conservation-area_44010257","properties":{"city_id":"london","event_id":"lon_planning_designation_conservation-area_44010257","title":"Conservation area record: Holly Grove","year":1971,"effective_date":"1971-09-06","date_precision":"day","category":"built_environment","lens":"built_environment","confidence":"documented","source_ids":["lon-extra-planning-data-conservation-areas"],"explanation":"Planning/protection evidence record for Holly Grove; designation/effective date is taken from Planning Data fields where supplied."},"geometry":{"type":"Point","coordinates":[-0.073138,51.469605]}},{"type":"Feature","id":"lon_planning_designation_conservation-area_44012763","properties":{"city_id":"london","event_id":"lon_planning_designation_conservation-area_44012763","title":"Conservation area record: Holland Park","year":1971,"effective_date":"1971-01-01","date_precision":"day","category":"built_environment","lens":"built_environment","confidence":"documented","source_ids":["lon-extra-planning-data-conservation-areas"],"explanation":"Planning/protection evidence record for Holland Park; designation/effective date is taken from Planning Data fields where supplied."},"geometry":{"type":"Point","coordinates":[-0.206181,51.502259]}},{"type":"Feature","id":"lon_planning_designation_conservation-area_44012765","properties":{"city_id":"london","event_id":"lon_planning_designation_conservation-area_44012765","title":"Conservation area record: Kensington Palace","year":1971,"effective_date":"1971-01-01","date_precision":"day","category":"built_environment","lens":"built_environment","confidence":"documented","source_ids":["lon-extra-planning-data-conservation-areas"],"explanation":"Planning/protection evidence record for Kensington Palace; designation/effective date is taken from Planning Data fields where supplied."},"geometry":{"type":"Point","coordinates":[-0.189844,51.506085]}},{"type":"Feature","id":"lon_planning_designation_conservation-area_44012773","properties":{"city_id":"london","event_id":"lon_planning_designation_conservation-area_44012773","title":"Conservation area record: Courtfield","year":1971,"effective_date":"1971-01-01","date_precision":"day","category":"built_environment","lens":"built_environment","confidence":"documented","source_ids":["lon-extra-planning-data-conservation-areas"],"explanation":"Planning/protection evidence record for Courtfield; designation/effective date is taken from Planning Data fields where supplied."},"geometry":{"type":"Point","coordinates":[-0.187609,51.49225]}},{"type":"Feature","id":"lon_planning_designation_conservation-area_44012778","properties":{"city_id":"london","event_id":"lon_planning_designation_conservation-area_44012778","title":"Conservation area record: Brompton","year":1971,"effective_date":"1971-01-01","date_precision":"day","category":"built_environment","lens":"built_environment","confidence":"documented","source_ids":["lon-extra-planning-data-conservation-areas"],"explanation":"Planning/protection evidence record for Brompton; designation/effective date is taken from Planning Data fields where supplied."},"geometry":{"type":"Point","coordinates":[-0.16901,51.497942]}},{"type":"Feature","id":"lon_planning_designation_conservation-area_44012779","properties":{"city_id":"london","event_id":"lon_planning_designation_conservation-area_44012779","title":"Conservation area record: Hans Town","year":1971,"effective_date":"1971-01-01","date_precision":"day","category":"built_environment","lens":"built_environment","confidence":"documented","source_ids":["lon-extra-planning-data-conservation-areas"],"explanation":"Planning/protection evidence record for Hans Town; designation/effective date is taken from Planning Data fields where supplied."},"geometry":{"type":"Point","coordinates":[-0.160121,51.496903]}},{"type":"Feature","id":"lon_planning_designation_conservation-area_44012780","properties":{"city_id":"london","event_id":"lon_planning_designation_conservation-area_44012780","title":"Conservation area record: Sloane Square","year":1971,"effective_date":"1971-01-01","date_precision":"day","category":"built_environment","lens":"built_environment","confidence":"documented","source_ids":["lon-extra-planning-data-conservation-areas"],"explanation":"Planning/protection evidence record for Sloane Square; designation/effective date is taken from Planning Data fields where supplied."},"geometry":{"type":"Point","coordinates":[-0.158074,51.492319]}},{"type":"Feature","id":"lon_planning_designation_conservation-area_44012783","properties":{"city_id":"london","event_id":"lon_planning_designation_conservation-area_44012783","title":"Conservation area record: Chelsea Park/Carlyle","year":1971,"effective_date":"1971-01-01","date_precision":"day","category":"built_environment","lens":"built_environment","confidence":"documented","source_ids":["lon-extra-planning-data-conservation-areas"],"explanation":"Planning/protection evidence record for Chelsea Park/Carlyle; designation/effective date is taken from Planning Data fields where supplied."},"geometry":{"type":"Point","coordinates":[-0.174521,51.487392]}},{"type":"Feature","id":"lon_planning_designation_conservation-area_44012784","properties":{"city_id":"london","event_id":"lon_planning_designation_conservation-area_44012784","title":"Conservation area record: Chelsea","year":1971,"effective_date":"1971-01-01","date_precision":"day","category":"built_environment","lens":"built_environment","confidence":"documented","source_ids":["lon-extra-planning-data-conservation-areas"],"explanation":"Planning/protection evidence record for Chelsea; designation/effective date is taken from Planning Data fields where supplied."},"geometry":{"type":"Point","coordinates":[-0.164448,51.494358]}},{"type":"Feature","id":"lon_planning_designation_conservation-area_44012785","properties":{"city_id":"london","event_id":"lon_planning_designation_conservation-area_44012785","title":"Conservation area record: Chelsea","year":1971,"effective_date":"1971-01-01","date_precision":"day","category":"built_environment","lens":"built_environment","confidence":"documented","source_ids":["lon-extra-planning-data-conservation-areas"],"explanation":"Planning/protection evidence record for Chelsea; designation/effective date is taken from Planning Data fields where supplied."},"geometry":{"type":"Point","coordinates":[-0.166848,51.490173]}},{"type":"Feature","id":"lon_planning_designation_listed-building-outline_42114978","properties":{"city_id":"london","event_id":"lon_planning_designation_listed-building-outline_42114978","title":"Listed building outline: St Olaf House","year":1971,"effective_date":"1971-05-13","date_precision":"day","category":"built_environment","lens":"built_environment","confidence":"documented","source_ids":["lon-extra-planning-data-listed-building-outlines"],"explanation":"Planning/protection evidence record for St Olaf House; designation/effective date is taken from Planning Data fields where supplied."},"geometry":{"type":"Point","coordinates":[-0.086419,51.506417]}},{"type":"Feature","id":"lon_planning_designation_listed-building-outline_42114984","properties":{"city_id":"london","event_id":"lon_planning_designation_listed-building-outline_42114984","title":"Listed building outline: Kirkaldy Testing Works and Testing Machine","year":1971,"effective_date":"1971-05-13","date_precision":"day","category":"built_environment","lens":"built_environment","confidence":"documented","source_ids":["lon-extra-planning-data-listed-building-outlines"],"explanation":"Planning/protection evidence record for Kirkaldy Testing Works and Testing Machine; designation/effective date is taken from Planning Data fields where supplied."},"geometry":{"type":"Point","coordinates":[-0.101546,51.50596]}},{"type":"Feature","id":"lon_planning_designation_listed-building-outline_42115000","properties":{"city_id":"london","event_id":"lon_planning_designation_listed-building-outline_42115000","title":"Listed building outline: Rochester House","year":1971,"effective_date":"1971-05-13","date_precision":"day","category":"built_environment","lens":"built_environment","confidence":"documented","source_ids":["lon-extra-planning-data-listed-building-outlines"],"explanation":"Planning/protection evidence record for Rochester House; designation/effective date is taken from Planning Data fields where supplied."},"geometry":{"type":"Point","coordinates":[-0.102899,51.504915]}},{"type":"Feature","id":"lon_planning_designation_listed-building-outline_42115015","properties":{"city_id":"london","event_id":"lon_planning_designation_listed-building-outline_42115015","title":"Listed building outline: Bridge House","year":1971,"effective_date":"1971-05-13","date_precision":"day","category":"built_environment","lens":"built_environment","confidence":"documented","source_ids":["lon-extra-planning-data-listed-building-outlines"],"explanation":"Planning/protection evidence record for Bridge House; designation/effective date is taken from Planning Data fields where supplied."},"geometry":{"type":"Point","coordinates":[-0.088731,51.506349]}},{"type":"Feature","id":"lon_planning_designation_listed-building-outline_42115016","properties":{"city_id":"london","event_id":"lon_planning_designation_listed-building-outline_42115016","title":"Listed building outline: No given name","year":1971,"effective_date":"1971-05-13","date_precision":"day","category":"built_environment","lens":"built_environment","confidence":"documented","source_ids":["lon-extra-planning-data-listed-building-outlines"],"explanation":"Planning/protection evidence record for No given name; designation/effective date is taken from Planning Data fields where supplied."},"geometry":{"type":"Point","coordinates":[-0.088716,51.506216]}},{"type":"Feature","id":"lon_planning_designation_listed-building-outline_42115035","properties":{"city_id":"london","event_id":"lon_planning_designation_listed-building-outline_42115035","title":"Listed building outline: No given name","year":1971,"effective_date":"1971-05-13","date_precision":"day","category":"built_environment","lens":"built_environment","confidence":"documented","source_ids":["lon-extra-planning-data-listed-building-outlines"],"explanation":"Planning/protection evidence record for No given name; designation/effective date is taken from Planning Data fields where supplied."},"geometry":{"type":"Point","coordinates":[-0.090123,51.504496]}},{"type":"Feature","id":"lon_planning_designation_listed-building-outline_42115041","properties":{"city_id":"london","event_id":"lon_planning_designation_listed-building-outline_42115041","title":"Listed building outline: The Grapes Public House","year":1971,"effective_date":"1971-05-13","date_precision":"day","category":"built_environment","lens":"built_environment","confidence":"documented","source_ids":["lon-extra-planning-data-listed-building-outlines"],"explanation":"Planning/protection evidence record for The Grapes Public House; designation/effective date is taken from Planning Data fields where supplied."},"geometry":{"type":"Point","coordinates":[-0.090975,51.503677]}},{"type":"Feature","id":"lon_planning_designation_listed-building-outline_42115050","properties":{"city_id":"london","event_id":"lon_planning_designation_listed-building-outline_42115050","title":"Listed building outline: No given name","year":1971,"effective_date":"1971-05-13","date_precision":"day","category":"built_environment","lens":"built_environment","confidence":"documented","source_ids":["lon-extra-planning-data-listed-building-outlines"],"explanation":"Planning/protection evidence record for No given name; designation/effective date is taken from Planning Data fields where supplied."},"geometry":{"type":"Point","coordinates":[-0.085725,51.505866]}},{"type":"Feature","id":"lon_planning_designation_listed-building-outline_42115051","properties":{"city_id":"london","event_id":"lon_planning_designation_listed-building-outline_42115051","title":"Listed building outline: No given name","year":1971,"effective_date":"1971-05-13","date_precision":"day","category":"built_environment","lens":"built_environment","confidence":"documented","source_ids":["lon-extra-planning-data-listed-building-outlines"],"explanation":"Planning/protection evidence record for No given name; designation/effective date is taken from Planning Data fields where supplied."},"geometry":{"type":"Point","coordinates":[-0.084904,51.505581]}},{"type":"Feature","id":"lon_planning_designation_listed-building-outline_42115106","properties":{"city_id":"london","event_id":"lon_planning_designation_listed-building-outline_42115106","title":"Listed building outline: Numbers 21 and 23 and attached railings","year":1971,"effective_date":"1971-05-13","date_precision":"day","category":"built_environment","lens":"built_environment","confidence":"documented","source_ids":["lon-extra-planning-data-listed-building-outlines"],"explanation":"Planning/protection evidence record for Numbers 21 and 23 and attached railings; designation/effective date is taken from Planning Data fields where supplied."},"geometry":{"type":"Point","coordinates":[-0.092663,51.505396]}},{"type":"Feature","id":"lon_planning_designation_listed-building-outline_42115109","properties":{"city_id":"london","event_id":"lon_planning_designation_listed-building-outline_42115109","title":"Listed building outline: The counting house","year":1971,"effective_date":"1971-05-13","date_precision":"day","category":"built_environment","lens":"built_environment","confidence":"documented","source_ids":["lon-extra-planning-data-listed-building-outlines"],"explanation":"Planning/protection evidence record for The counting house; designation/effective date is taken from Planning Data fields where supplied."},"geometry":{"type":"Point","coordinates":[-0.084258,51.505283]}},{"type":"Feature","id":"lon_planning_designation_listed-building-outline_42115170","properties":{"city_id":"london","event_id":"lon_planning_designation_listed-building-outline_42115170","title":"Listed building outline: Numbers 4-8 and 12-16 and attached railings","year":1971,"effective_date":"1971-05-13","date_precision":"day","category":"built_environment","lens":"built_environment","confidence":"documented","source_ids":["lon-extra-planning-data-listed-building-outlines"],"explanation":"Planning/protection evidence record for Numbers 4-8 and 12-16 and attached railings; designation/effective date is taken from Planning Data fields where supplied."},"geometry":{"type":"Point","coordinates":[-0.088877,51.50486]}},{"type":"Feature","id":"lon_planning_designation_listed-building-outline_42115293","properties":{"city_id":"london","event_id":"lon_planning_designation_listed-building-outline_42115293","title":"Listed building outline: Numbers 35-45 and attached railings","year":1971,"effective_date":"1971-05-03","date_precision":"day","category":"built_environment","lens":"built_environment","confidence":"documented","source_ids":["lon-extra-planning-data-listed-building-outlines"],"explanation":"Planning/protection evidence record for Numbers 35-45 and attached railings; designation/effective date is taken from Planning Data fields where supplied."},"geometry":{"type":"Point","coordinates":[-0.087996,51.472668]}},{"type":"Feature","id":"lon_planning_designation_listed-building-outline_42115634","properties":{"city_id":"london","event_id":"lon_planning_designation_listed-building-outline_42115634","title":"Listed building outline: Numbers 142 and 144 and attached railings","year":1971,"effective_date":"1971-08-25","date_precision":"day","category":"built_environment","lens":"built_environment","confidence":"documented","source_ids":["lon-extra-planning-data-listed-building-outlines"],"explanation":"Planning/protection evidence record for Numbers 142 and 144 and attached railings; designation/effective date is taken from Planning Data fields where supplied."},"geometry":{"type":"Point","coordinates":[-0.056649,51.47318]}},{"type":"Feature","id":"lon_planning_designation_listed-building-outline_42115635","properties":{"city_id":"london","event_id":"lon_planning_designation_listed-building-outline_42115635","title":"Listed building outline: No given name","year":1971,"effective_date":"1971-08-25","date_precision":"day","category":"built_environment","lens":"built_environment","confidence":"documented","source_ids":["lon-extra-planning-data-listed-building-outlines"],"explanation":"Planning/protection evidence record for No given name; designation/effective date is taken from Planning Data fields where supplied."},"geometry":{"type":"Point","coordinates":[-0.056343,51.473153]}},{"type":"Feature","id":"lon_planning_designation_listed-building-outline_42115898","properties":{"city_id":"london","event_id":"lon_planning_designation_listed-building-outline_42115898","title":"Listed building outline: (East side) 32 Cubitt Street","year":1971,"effective_date":"1971-10-25","date_precision":"day","category":"built_environment","lens":"built_environment","confidence":"documented","source_ids":["lon-extra-planning-data-listed-building-outlines"],"explanation":"Planning/protection evidence record for (East side) 32 Cubitt Street; designation/effective date is taken from Planning Data fields where supplied."},"geometry":{"type":"Point","coordinates":[-0.11604,51.528019]}},{"type":"Feature","id":"lon_planning_designation_listed-building-outline_42115899","properties":{"city_id":"london","event_id":"lon_planning_designation_listed-building-outline_42115899","title":"Listed building outline: (East side) No.34 and attached railings","year":1971,"effective_date":"1971-10-25","date_precision":"day","category":"built_environment","lens":"built_environment","confidence":"documented","source_ids":["lon-extra-planning-data-listed-building-outlines"],"explanation":"Planning/protection evidence record for (East side) No.34 and attached railings; designation/effective date is taken from Planning Data fields where supplied."},"geometry":{"type":"Point","coordinates":[-0.116178,51.528163]}},{"type":"Feature","id":"lon_planning_designation_listed-building-outline_42115900","properties":{"city_id":"london","event_id":"lon_planning_designation_listed-building-outline_42115900","title":"Listed building outline: (West side) No.65 and attached railings","year":1971,"effective_date":"1971-10-25","date_precision":"day","category":"built_environment","lens":"built_environment","confidence":"documented","source_ids":["lon-extra-planning-data-listed-building-outlines"],"explanation":"Planning/protection evidence record for (West side) No.65 and attached railings; designation/effective date is taken from Planning Data fields where supplied."},"geometry":{"type":"Point","coordinates":[-0.116483,51.528076]}},{"type":"Feature","id":"lon_planning_designation_listed-building-outline_42116067","properties":{"city_id":"london","event_id":"lon_planning_designation_listed-building-outline_42116067","title":"Listed building outline: (South side) Nos.33-49 (Odd) and attached railings","year":1971,"effective_date":"1971-10-25","date_precision":"day","category":"built_environment","lens":"built_environment","confidence":"documented","source_ids":["lon-extra-planning-data-listed-building-outlines"],"explanation":"Planning/protection evidence record for (South side) Nos.33-49 (Odd) and attached railings; designation/effective date is taken from Planning Data fields where supplied."},"geometry":{"type":"Point","coordinates":[-0.117957,51.527763]}},{"type":"Feature","id":"lon_planning_designation_listed-building-outline_42116068","properties":{"city_id":"london","event_id":"lon_planning_designation_listed-building-outline_42116068","title":"Listed building outline: (North side) Nos.34-40 (Even) and attached railings","year":1971,"effective_date":"1971-10-25","date_precision":"day","category":"built_environment","lens":"built_environment","confidence":"documented","source_ids":["lon-extra-planning-data-listed-building-outlines"],"explanation":"Planning/protection evidence record for (North side) Nos.34-40 (Even) and attached railings; designation/effective date is taken from Planning Data fields where supplied."},"geometry":{"type":"Point","coordinates":[-0.117183,51.528164]}},{"type":"Feature","id":"lon_planning_designation_listed-building-outline_42116070","properties":{"city_id":"london","event_id":"lon_planning_designation_listed-building-outline_42116070","title":"Listed building outline: (North side) Nos.42, 44 AND 46 and attached railings","year":1971,"effective_date":"1971-10-25","date_precision":"day","category":"built_environment","lens":"built_environment","confidence":"documented","source_ids":["lon-extra-planning-data-listed-building-outlines"],"explanation":"Planning/protection evidence record for (North side) Nos.42, 44 AND 46 and attached railings; designation/effective date is taken from Planning Data fields where supplied."},"geometry":{"type":"Point","coordinates":[-0.117434,51.528114]}},{"type":"Feature","id":"lon_planning_designation_listed-building-outline_42116072","properties":{"city_id":"london","event_id":"lon_planning_designation_listed-building-outline_42116072","title":"Listed building outline: (North side) Nos.48, 50 AND 52 and attached railings","year":1971,"effective_date":"1971-10-25","date_precision":"day","category":"built_environment","lens":"built_environment","confidence":"documented","source_ids":["lon-extra-planning-data-listed-building-outlines"],"explanation":"Planning/protection evidence record for (North side) Nos.48, 50 AND 52 and attached railings; designation/effective date is taken from Planning Data fields where supplied."},"geometry":{"type":"Point","coordinates":[-0.11764,51.528066]}},{"type":"Feature","id":"lon_planning_designation_listed-building-outline_42116074","properties":{"city_id":"london","event_id":"lon_planning_designation_listed-building-outline_42116074","title":"Listed building outline: (North side) Nos.54-72 (Even) and attached railings","year":1971,"effective_date":"1971-10-25","date_precision":"day","category":"built_environment","lens":"built_environment","confidence":"documented","source_ids":["lon-extra-planning-data-listed-building-outlines"],"explanation":"Planning/protection evidence record for (North side) Nos.54-72 (Even) and attached railings; designation/effective date is taken from Planning Data fields where supplied."},"geometry":{"type":"Point","coordinates":[-0.118107,51.527969]}},{"type":"Feature","id":"lon_planning_designation_listed-building-outline_42116572","properties":{"city_id":"london","event_id":"lon_planning_designation_listed-building-outline_42116572","title":"Listed building outline: (East side) Nos.4, 5 AND 6 and attached railings","year":1971,"effective_date":"1971-10-25","date_precision":"day","category":"built_environment","lens":"built_environment","confidence":"documented","source_ids":["lon-extra-planning-data-listed-building-outlines"],"explanation":"Planning/protection evidence record for (East side) Nos.4, 5 AND 6 and attached railings; designation/effective date is taken from Planning Data fields where supplied."},"geometry":{"type":"Point","coordinates":[-0.117308,51.527809]}},{"type":"Feature","id":"lon_planning_designation_listed-building-outline_42116573","properties":{"city_id":"london","event_id":"lon_planning_designation_listed-building-outline_42116573","title":"Listed building outline: (South side) Nos.11 AND 13 and attached railings","year":1971,"effective_date":"1971-10-25","date_precision":"day","category":"built_environment","lens":"built_environment","confidence":"documented","source_ids":["lon-extra-planning-data-listed-building-outlines"],"explanation":"Planning/protection evidence record for (South side) Nos.11 AND 13 and attached railings; designation/effective date is taken from Planning Data fields where supplied."},"geometry":{"type":"Point","coordinates":[-0.117016,51.527454]}},{"type":"Feature","id":"lon_planning_designation_listed-building-outline_42116574","properties":{"city_id":"london","event_id":"lon_planning_designation_listed-building-outline_42116574","title":"Listed building outline: (South side) Nos.15, 17 AND 19 and attached railings","year":1971,"effective_date":"1971-10-25","date_precision":"day","category":"built_environment","lens":"built_environment","confidence":"documented","source_ids":["lon-extra-planning-data-listed-building-outlines"],"explanation":"Planning/protection evidence record for (South side) Nos.15, 17 AND 19 and attached railings; designation/effective date is taken from Planning Data fields where supplied."},"geometry":{"type":"Point","coordinates":[-0.117232,51.527377]}},{"type":"Feature","id":"lon_planning_designation_listed-building-outline_42116575","properties":{"city_id":"london","event_id":"lon_planning_designation_listed-building-outline_42116575","title":"Listed building outline: (North side) Nos.18-36 (Even) and attached railings","year":1971,"effective_date":"1971-10-25","date_precision":"day","category":"built_environment","lens":"built_environment","confidence":"documented","source_ids":["lon-extra-planning-data-listed-building-outlines"],"explanation":"Planning/protection evidence record for (North side) Nos.18-36 (Even) and attached railings; designation/effective date is taken from Planning Data fields where supplied."},"geometry":{"type":"Point","coordinates":[-0.117802,51.527485]}},{"type":"Feature","id":"lon_planning_designation_listed-building-outline_42116576","properties":{"city_id":"london","event_id":"lon_planning_designation_listed-building-outline_42116576","title":"Listed building outline: (South side) Nos.21-39 (Odd) and attached railings","year":1971,"effective_date":"1971-10-25","date_precision":"day","category":"built_environment","lens":"built_environment","confidence":"documented","source_ids":["lon-extra-planning-data-listed-building-outlines"],"explanation":"Planning/protection evidence record for (South side) Nos.21-39 (Odd) and attached railings; designation/effective date is taken from Planning Data fields where supplied."},"geometry":{"type":"Point","coordinates":[-0.11768,51.527282]}},{"type":"Feature","id":"lon_planning_designation_listed-building-outline_42116812","properties":{"city_id":"london","event_id":"lon_planning_designation_listed-building-outline_42116812","title":"Listed building outline: (South side) Nos.1-7 (Odd) and attached railings","year":1971,"effective_date":"1971-10-25","date_precision":"day","category":"built_environment","lens":"built_environment","confidence":"documented","source_ids":["lon-extra-planning-data-listed-building-outlines"],"explanation":"Planning/protection evidence record for (South side) Nos.1-7 (Odd) and attached railings; designation/effective date is taken from Planning Data fields where supplied."},"geometry":{"type":"Point","coordinates":[-0.116006,51.528215]}},{"type":"Feature","id":"lon_planning_designation_listed-building-outline_42116815","properties":{"city_id":"london","event_id":"lon_planning_designation_listed-building-outline_42116815","title":"Listed building outline: (South side) Nos.9-27 (Odd) and attached railings","year":1971,"effective_date":"1971-10-25","date_precision":"day","category":"built_environment","lens":"built_environment","confidence":"documented","source_ids":["lon-extra-planning-data-listed-building-outlines"],"explanation":"Planning/protection evidence record for (South side) Nos.9-27 (Odd) and attached railings; designation/effective date is taken from Planning Data fields where supplied."},"geometry":{"type":"Point","coordinates":[-0.116867,51.527986]}},{"type":"Feature","id":"lon_planning_designation_listed-building-outline_42116817","properties":{"city_id":"london","event_id":"lon_planning_designation_listed-building-outline_42116817","title":"Listed building outline: (North side) Nos.12-26 (Even) and attached railings","year":1971,"effective_date":"1971-10-25","date_precision":"day","category":"built_environment","lens":"built_environment","confidence":"documented","source_ids":["lon-extra-planning-data-listed-building-outlines"],"explanation":"Planning/protection evidence record for (North side) Nos.12-26 (Even) and attached railings; designation/effective date is taken from Planning Data fields where supplied."},"geometry":{"type":"Point","coordinates":[-0.116547,51.528299]}},{"type":"Feature","id":"lon_planning_designation_listed-building-outline_42116819","properties":{"city_id":"london","event_id":"lon_planning_designation_listed-building-outline_42116819","title":"Listed building outline: (North side) Nos.28, 30 AND 32 and attached railings","year":1971,"effective_date":"1971-10-25","date_precision":"day","category":"built_environment","lens":"built_environment","confidence":"documented","source_ids":["lon-extra-planning-data-listed-building-outlines"],"explanation":"Planning/protection evidence record for (North side) Nos.28, 30 AND 32 and attached railings; designation/effective date is taken from Planning Data fields where supplied."},"geometry":{"type":"Point","coordinates":[-0.116935,51.528214]}},{"type":"Feature","id":"lon_planning_designation_listed-building-outline_42116821","properties":{"city_id":"london","event_id":"lon_planning_designation_listed-building-outline_42116821","title":"Listed building outline: (South side) No.29 and attached railings","year":1971,"effective_date":"1971-10-25","date_precision":"day","category":"built_environment","lens":"built_environment","confidence":"documented","source_ids":["lon-extra-planning-data-listed-building-outlines"],"explanation":"Planning/protection evidence record for (South side) No.29 and attached railings; designation/effective date is taken from Planning Data fields where supplied."},"geometry":{"type":"Point","coordinates":[-0.117265,51.527945]}},{"type":"Feature","id":"lon_planning_designation_listed-building-outline_42116823","properties":{"city_id":"london","event_id":"lon_planning_designation_listed-building-outline_42116823","title":"Listed building outline: (South side) No.31 and attached railings","year":1971,"effective_date":"1971-10-25","date_precision":"day","category":"built_environment","lens":"built_environment","confidence":"documented","source_ids":["lon-extra-planning-data-listed-building-outlines"],"explanation":"Planning/protection evidence record for (South side) No.31 and attached railings; designation/effective date is taken from Planning Data fields where supplied."},"geometry":{"type":"Point","coordinates":[-0.117356,51.527908]}},{"type":"Feature","id":"lon_planning_designation_listed-building-outline_42116969","properties":{"city_id":"london","event_id":"lon_planning_designation_listed-building-outline_42116969","title":"Listed building outline: (South side) Nos.15 AND 17 and attached railings","year":1971,"effective_date":"1971-10-25","date_precision":"day","category":"built_environment","lens":"built_environment","confidence":"documented","source_ids":["lon-extra-planning-data-listed-building-outlines"],"explanation":"Planning/protection evidence record for (South side) Nos.15 AND 17 and attached railings; designation/effective date is taken from Planning Data fields where supplied."},"geometry":{"type":"Point","coordinates":[-0.116889,51.528528]}},{"type":"Feature","id":"lon_planning_designation_listed-building-outline_42116970","properties":{"city_id":"london","event_id":"lon_planning_designation_listed-building-outline_42116970","title":"Listed building outline: (South side) Nos.19-29 (Odd) and attached railings","year":1971,"effective_date":"1971-10-25","date_precision":"day","category":"built_environment","lens":"built_environment","confidence":"documented","source_ids":["lon-extra-planning-data-listed-building-outlines"],"explanation":"Planning/protection evidence record for (South side) Nos.19-29 (Odd) and attached railings; designation/effective date is taken from Planning Data fields where supplied."},"geometry":{"type":"Point","coordinates":[-0.117176,51.528465]}},{"type":"Feature","id":"lon_planning_designation_listed-building-outline_42116972","properties":{"city_id":"london","event_id":"lon_planning_designation_listed-building-outline_42116972","title":"Listed building outline: (North side) Nos.28-34 (Even) and attached railings","year":1971,"effective_date":"1971-10-25","date_precision":"day","category":"built_environment","lens":"built_environment","confidence":"documented","source_ids":["lon-extra-planning-data-listed-building-outlines"],"explanation":"Planning/protection evidence record for (North side) Nos.28-34 (Even) and attached railings; designation/effective date is taken from Planning Data fields where supplied."},"geometry":{"type":"Point","coordinates":[-0.117199,51.528711]}},{"type":"Feature","id":"lon_planning_designation_listed-building-outline_42116973","properties":{"city_id":"london","event_id":"lon_planning_designation_listed-building-outline_42116973","title":"Listed building outline: (South side) Nos.31-51 (Odd) and attached railings","year":1971,"effective_date":"1971-10-25","date_precision":"day","category":"built_environment","lens":"built_environment","confidence":"documented","source_ids":["lon-extra-planning-data-listed-building-outlines"],"explanation":"Planning/protection evidence record for (South side) Nos.31-51 (Odd) and attached railings; designation/effective date is taken from Planning Data fields where supplied."},"geometry":{"type":"Point","coordinates":[-0.117794,51.528339]}},{"type":"Feature","id":"lon_planning_designation_listed-building-outline_42116974","properties":{"city_id":"london","event_id":"lon_planning_designation_listed-building-outline_42116974","title":"Listed building outline: (North side) Nos.36-42 (Even) and attached railings","year":1971,"effective_date":"1971-10-25","date_precision":"day","category":"built_environment","lens":"built_environment","confidence":"documented","source_ids":["lon-extra-planning-data-listed-building-outlines"],"explanation":"Planning/protection evidence record for (North side) Nos.36-42 (Even) and attached railings; designation/effective date is taken from Planning Data fields where supplied."},"geometry":{"type":"Point","coordinates":[-0.11762,51.528623]}},{"type":"Feature","id":"lon_planning_designation_listed-building-outline_42116975","properties":{"city_id":"london","event_id":"lon_planning_designation_listed-building-outline_42116975","title":"Listed building outline: (South side) Nos.53 AND 55 and attached railings","year":1971,"effective_date":"1971-10-25","date_precision":"day","category":"built_environment","lens":"built_environment","confidence":"documented","source_ids":["lon-extra-planning-data-listed-building-outlines"],"explanation":"Planning/protection evidence record for (South side) Nos.53 AND 55 and attached railings; designation/effective date is taken from Planning Data fields where supplied."},"geometry":{"type":"Point","coordinates":[-0.118271,51.528243]}},{"type":"Feature","id":"lon_planning_designation_listed-building-outline_42116976","properties":{"city_id":"london","event_id":"lon_planning_designation_listed-building-outline_42116976","title":"Listed building outline: (North side) Nos.64, 66 AND 68 Queen's Head Public House (No.66) and attached railings","year":1971,"effective_date":"1971-10-25","date_precision":"day","category":"built_environment","lens":"built_environment","confidence":"documented","source_ids":["lon-extra-planning-data-listed-building-outlines"],"explanation":"Planning/protection evidence record for (North side) Nos.64, 66 AND 68 Queen's Head Public House (No.66) and attached railings; designation/effective date is taken from Planning Data fields where supplied."},"geometry":{"type":"Point","coordinates":[-0.11852,51.528457]}},{"type":"Feature","id":"lon_planning_designation_listed-building-outline_42117217","properties":{"city_id":"london","event_id":"lon_planning_designation_listed-building-outline_42117217","title":"Listed building outline: (South side) No.233","year":1971,"effective_date":"1971-08-11","date_precision":"day","category":"built_environment","lens":"built_environment","confidence":"documented","source_ids":["lon-extra-planning-data-listed-building-outlines"],"explanation":"Planning/protection evidence record for (South side) No.233; designation/effective date is taken from Planning Data fields where supplied."},"geometry":{"type":"Point","coordinates":[-0.119411,51.517422]}},{"type":"Feature","id":"lon_planning_designation_listed-building-outline_42117282","properties":{"city_id":"london","event_id":"lon_planning_designation_listed-building-outline_42117282","title":"Listed building outline: (North side) Nos.4-26 (Even) and attached railings. Swinton Hotel (Nos.22 AND 24)","year":1971,"effective_date":"1971-10-25","date_precision":"day","category":"built_environment","lens":"built_environment","confidence":"documented","source_ids":["lon-extra-planning-data-listed-building-outlines"],"explanation":"Planning/protection evidence record for (North side) Nos.4-26 (Even) and attached railings. Swinton Hotel (Nos.22 AND 24); designation/effective date is taken from Planning Data fields where supplied."},"geometry":{"type":"Point","coordinates":[-0.116614,51.529377]}},{"type":"Feature","id":"lon_planning_designation_listed-building-outline_42117283","properties":{"city_id":"london","event_id":"lon_planning_designation_listed-building-outline_42117283","title":"Listed building outline: (South side) Nos.5-17 (Odd) and attached railings","year":1971,"effective_date":"1971-10-25","date_precision":"day","category":"built_environment","lens":"built_environment","confidence":"documented","source_ids":["lon-extra-planning-data-listed-building-outlines"],"explanation":"Planning/protection evidence record for (South side) Nos.5-17 (Odd) and attached railings; designation/effective date is taken from Planning Data fields where supplied."},"geometry":{"type":"Point","coordinates":[-0.116432,51.529154]}},{"type":"Feature","id":"lon_planning_designation_listed-building-outline_42117284","properties":{"city_id":"london","event_id":"lon_planning_designation_listed-building-outline_42117284","title":"Listed building outline: (South side) Nos.29, 31 AND 33 and attached railings","year":1971,"effective_date":"1971-10-25","date_precision":"day","category":"built_environment","lens":"built_environment","confidence":"documented","source_ids":["lon-extra-planning-data-listed-building-outlines"],"explanation":"Planning/protection evidence record for (South side) Nos.29, 31 AND 33 and attached railings; designation/effective date is taken from Planning Data fields where supplied."},"geometry":{"type":"Point","coordinates":[-0.117373,51.528962]}},{"type":"Feature","id":"lon_planning_designation_listed-building-outline_42117285","properties":{"city_id":"london","event_id":"lon_planning_designation_listed-building-outline_42117285","title":"Listed building outline: (South side) Nos.35-49 (Odd) and attached railings","year":1971,"effective_date":"1971-10-25","date_precision":"day","category":"built_environment","lens":"built_environment","confidence":"documented","source_ids":["lon-extra-planning-data-listed-building-outlines"],"explanation":"Planning/protection evidence record for (South side) Nos.35-49 (Odd) and attached railings; designation/effective date is taken from Planning Data fields where supplied."},"geometry":{"type":"Point","coordinates":[-0.11791,51.528851]}},{"type":"Feature","id":"lon_planning_designation_listed-building-outline_42117286","properties":{"city_id":"london","event_id":"lon_planning_designation_listed-building-outline_42117286","title":"Listed building outline: (South side) Nos.51 AND 53 and attached railings","year":1971,"effective_date":"1971-10-25","date_precision":"day","category":"built_environment","lens":"built_environment","confidence":"documented","source_ids":["lon-extra-planning-data-listed-building-outlines"],"explanation":"Planning/protection evidence record for (South side) Nos.51 AND 53 and attached railings; designation/effective date is taken from Planning Data fields where supplied."},"geometry":{"type":"Point","coordinates":[-0.118261,51.528777]}},{"type":"Feature","id":"lon_planning_designation_listed-building-outline_42117287","properties":{"city_id":"london","event_id":"lon_planning_designation_listed-building-outline_42117287","title":"Listed building outline: 55-67 Swinton Street and attached railings, including the former King's Head Public House (Numbers 61 -63)","year":1971,"effective_date":"1971-10-25","date_precision":"day","category":"built_environment","lens":"built_environment","confidence":"documented","source_ids":["lon-extra-planning-data-listed-building-outlines"],"explanation":"Planning/protection evidence record for 55-67 Swinton Street and attached railings, including the former King's Head Public House (Numbers 61 -63); designation/effective date is taken from Planning Data fields where supplied."},"geometry":{"type":"Point","coordinates":[-0.118615,51.528684]}},{"type":"Feature","id":"lon_planning_designation_listed-building-outline_42117577","properties":{"city_id":"london","event_id":"lon_planning_designation_listed-building-outline_42117577","title":"Listed building outline: (West side) No.63 Kodak House","year":1971,"effective_date":"1971-09-08","date_precision":"day","category":"built_environment","lens":"built_environment","confidence":"documented","source_ids":["lon-extra-planning-data-listed-building-outlines"],"explanation":"Planning/protection evidence record for (West side) No.63 Kodak House; designation/effective date is taken from Planning Data fields where supplied."},"geometry":{"type":"Point","coordinates":[-0.119502,51.515309]}},{"type":"Feature","id":"lon_planning_designation_listed-building-outline_42117645","properties":{"city_id":"london","event_id":"lon_planning_designation_listed-building-outline_42117645","title":"Listed building outline: (North side) No.18 and attached wall, railings and gate piers","year":1971,"effective_date":"1971-04-20","date_precision":"day","category":"built_environment","lens":"built_environment","confidence":"documented","source_ids":["lon-extra-planning-data-listed-building-outlines"],"explanation":"Planning/protection evidence record for (North side) No.18 and attached wall, railings and gate piers; designation/effective date is taken from Planning Data fields where supplied."},"geometry":{"type":"Point","coordinates":[-0.11696,51.517169]}},{"type":"Feature","id":"lon_planning_designation_listed-building-outline_42120707","properties":{"city_id":"london","event_id":"lon_planning_designation_listed-building-outline_42120707","title":"Listed building outline: HAWTHORNE DENE","year":1971,"effective_date":"1971-06-04","date_precision":"day","category":"built_environment","lens":"built_environment","confidence":"documented","source_ids":["lon-extra-planning-data-listed-building-outlines"],"explanation":"Planning/protection evidence record for HAWTHORNE DENE; designation/effective date is taken from Planning Data fields where supplied."},"geometry":{"type":"Point","coordinates":[-0.172029,51.601715]}},{"type":"Feature","id":"lon_planning_designation_listed-building-outline_42120708","properties":{"city_id":"london","event_id":"lon_planning_designation_listed-building-outline_42120708","title":"Listed building outline: TERRACE COTTAGE TERRACE HOUSE","year":1971,"effective_date":"1971-08-06","date_precision":"day","category":"built_environment","lens":"built_environment","confidence":"documented","source_ids":["lon-extra-planning-data-listed-building-outlines"],"explanation":"Planning/protection evidence record for TERRACE COTTAGE TERRACE HOUSE; designation/effective date is taken from Planning Data fields where supplied."},"geometry":{"type":"Point","coordinates":[-0.180833,51.623738]}},{"type":"Feature","id":"lon_planning_designation_listed-building-outline_42148669","properties":{"city_id":"london","event_id":"lon_planning_designation_listed-building-outline_42148669","title":"Listed building outline: 14-17 LINCOLN STREET","year":1971,"effective_date":"1971-09-22","date_precision":"day","category":"built_environment","lens":"built_environment","confidence":"documented","source_ids":["lon-extra-planning-data-listed-building-outlines"],"explanation":"Planning/protection evidence record for 14-17 LINCOLN STREET; designation/effective date is taken from Planning Data fields where supplied."},"geometry":{"type":"Point","coordinates":[-0.161326,51.491214]}},{"type":"Feature","id":"lon_planning_designation_listed-building-outline_42148670","properties":{"city_id":"london","event_id":"lon_planning_designation_listed-building-outline_42148670","title":"Listed building outline: 1-10 LINCOLN STREET","year":1971,"effective_date":"1971-09-22","date_precision":"day","category":"built_environment","lens":"built_environment","confidence":"documented","source_ids":["lon-extra-planning-data-listed-building-outlines"],"explanation":"Planning/protection evidence record for 1-10 LINCOLN STREET; designation/effective date is taken from Planning Data fields where supplied."},"geometry":{"type":"Point","coordinates":[-0.161215,51.491445]}},{"type":"Feature","id":"lon_planning_designation_listed-building-outline_42148671","properties":{"city_id":"london","event_id":"lon_planning_designation_listed-building-outline_42148671","title":"Listed building outline: 16 AND 17 ANDERSON STREET","year":1971,"effective_date":"1971-09-22","date_precision":"day","category":"built_environment","lens":"built_environment","confidence":"documented","source_ids":["lon-extra-planning-data-listed-building-outlines"],"explanation":"Planning/protection evidence record for 16 AND 17 ANDERSON STREET; designation/effective date is taken from Planning Data fields where supplied."},"geometry":{"type":"Point","coordinates":[-0.162183,51.490576]}},{"type":"Feature","id":"lon_planning_designation_listed-building-outline_42148672","properties":{"city_id":"london","event_id":"lon_planning_designation_listed-building-outline_42148672","title":"Listed building outline: 110 AND 112 KINGS ROAD","year":1971,"effective_date":"1971-09-22","date_precision":"day","category":"built_environment","lens":"built_environment","confidence":"documented","source_ids":["lon-extra-planning-data-listed-building-outlines"],"explanation":"Planning/protection evidence record for 110 AND 112 KINGS ROAD; designation/effective date is taken from Planning Data fields where supplied."},"geometry":{"type":"Point","coordinates":[-0.162356,51.490401]}},{"type":"Feature","id":"lon_planning_designation_listed-building-outline_42148673","properties":{"city_id":"london","event_id":"lon_planning_designation_listed-building-outline_42148673","title":"Listed building outline: 19-26 COULSON STREET","year":1971,"effective_date":"1971-09-22","date_precision":"day","category":"built_environment","lens":"built_environment","confidence":"documented","source_ids":["lon-extra-planning-data-listed-building-outlines"],"explanation":"Planning/protection evidence record for 19-26 COULSON STREET; designation/effective date is taken from Planning Data fields where supplied."},"geometry":{"type":"Point","coordinates":[-0.162224,51.491074]}},{"type":"Feature","id":"lon_planning_designation_listed-building-outline_42149260","properties":{"city_id":"london","event_id":"lon_planning_designation_listed-building-outline_42149260","title":"Listed building outline: 27 COULSON STREET","year":1971,"effective_date":"1971-09-22","date_precision":"day","category":"built_environment","lens":"built_environment","confidence":"documented","source_ids":["lon-extra-planning-data-listed-building-outlines"],"explanation":"Planning/protection evidence record for 27 COULSON STREET; designation/effective date is taken from Planning Data fields where supplied."},"geometry":{"type":"Point","coordinates":[-0.162485,51.490927]}},{"type":"Feature","id":"lon_planning_designation_listed-building-outline_42149261","properties":{"city_id":"london","event_id":"lon_planning_designation_listed-building-outline_42149261","title":"Listed building outline: 72 KINGS ROAD","year":1971,"effective_date":"1971-09-22","date_precision":"day","category":"built_environment","lens":"built_environment","confidence":"documented","source_ids":["lon-extra-planning-data-listed-building-outlines"],"explanation":"Planning/protection evidence record for 72 KINGS ROAD; designation/effective date is taken from Planning Data fields where supplied."},"geometry":{"type":"Point","coordinates":[-0.160861,51.491231]}},{"type":"Feature","id":"lon_planning_designation_listed-building-outline_42149262","properties":{"city_id":"london","event_id":"lon_planning_designation_listed-building-outline_42149262","title":"Listed building outline: 15 COULSON STREET","year":1971,"effective_date":"1971-09-22","date_precision":"day","category":"built_environment","lens":"built_environment","confidence":"documented","source_ids":["lon-extra-planning-data-listed-building-outlines"],"explanation":"Planning/protection evidence record for 15 COULSON STREET; designation/effective date is taken from Planning Data fields where supplied."},"geometry":{"type":"Point","coordinates":[-0.161671,51.491336]}},{"type":"Feature","id":"lon_planning_designation_listed-building-outline_42149474","properties":{"city_id":"london","event_id":"lon_planning_designation_listed-building-outline_42149474","title":"Listed building outline: 10 AND 11 ANDERSON STREET","year":1971,"effective_date":"1971-09-22","date_precision":"day","category":"built_environment","lens":"built_environment","confidence":"documented","source_ids":["lon-extra-planning-data-listed-building-outlines"],"explanation":"Planning/protection evidence record for 10 AND 11 ANDERSON STREET; designation/effective date is taken from Planning Data fields where supplied."},"geometry":{"type":"Point","coordinates":[-0.16258,51.490875]}},{"type":"Feature","id":"lon_planning_designation_listed-building-outline_42149475","properties":{"city_id":"london","event_id":"lon_planning_designation_listed-building-outline_42149475","title":"Listed building outline: 1-13 COULSON STREET","year":1971,"effective_date":"1971-09-22","date_precision":"day","category":"built_environment","lens":"built_environment","confidence":"documented","source_ids":["lon-extra-planning-data-listed-building-outlines"],"explanation":"Planning/protection evidence record for 1-13 COULSON STREET; designation/effective date is taken from Planning Data fields where supplied."},"geometry":{"type":"Point","coordinates":[-0.161869,51.490986]}},{"type":"Feature","id":"lon_planning_designation_listed-building-outline_42149476","properties":{"city_id":"london","event_id":"lon_planning_designation_listed-building-outline_42149476","title":"Listed building outline: 16-18 COULSON STREET","year":1971,"effective_date":"1971-09-22","date_precision":"day","category":"built_environment","lens":"built_environment","confidence":"documented","source_ids":["lon-extra-planning-data-listed-building-outlines"],"explanation":"Planning/protection evidence record for 16-18 COULSON STREET; designation/effective date is taken from Planning Data fields where supplied."},"geometry":{"type":"Point","coordinates":[-0.161816,51.4913]}},{"type":"Feature","id":"lon_planning_designation_listed-building-outline_42149477","properties":{"city_id":"london","event_id":"lon_planning_designation_listed-building-outline_42149477","title":"Listed building outline: 11, 11A, 12 AND 13 LINCOLN STREET","year":1971,"effective_date":"1971-09-22","date_precision":"day","category":"built_environment","lens":"built_environment","confidence":"documented","source_ids":["lon-extra-planning-data-listed-building-outlines"],"explanation":"Planning/protection evidence record for 11, 11A, 12 AND 13 LINCOLN STREET; designation/effective date is taken from Planning Data fields where supplied."},"geometry":{"type":"Point","coordinates":[-0.161655,51.491432]}},{"type":"Feature","id":"lon_planning_designation_listed-building-outline_42149478","properties":{"city_id":"london","event_id":"lon_planning_designation_listed-building-outline_42149478","title":"Listed building outline: 12-15 ANDERSON STREET","year":1971,"effective_date":"1971-09-22","date_precision":"day","category":"built_environment","lens":"built_environment","confidence":"documented","source_ids":["lon-extra-planning-data-listed-building-outlines"],"explanation":"Planning/protection evidence record for 12-15 ANDERSON STREET; designation/effective date is taken from Planning Data fields where supplied."},"geometry":{"type":"Point","coordinates":[-0.1623,51.490683]}},{"type":"Feature","id":"lon_planning_designation_listed-building-outline_42149479","properties":{"city_id":"london","event_id":"lon_planning_designation_listed-building-outline_42149479","title":"Listed building outline: 1-9 ANDERSON STREET","year":1971,"effective_date":"1971-09-22","date_precision":"day","category":"built_environment","lens":"built_environment","confidence":"documented","source_ids":["lon-extra-planning-data-listed-building-outlines"],"explanation":"Planning/protection evidence record for 1-9 ANDERSON STREET; designation/effective date is taken from Planning Data fields where supplied."},"geometry":{"type":"Point","coordinates":[-0.162641,51.490611]}},{"type":"Feature","id":"lon_planning_designation_listed-building-outline_42149481","properties":{"city_id":"london","event_id":"lon_planning_designation_listed-building-outline_42149481","title":"Listed building outline: 74-108 KINGS ROAD","year":1971,"effective_date":"1971-09-22","date_precision":"day","category":"built_environment","lens":"built_environment","confidence":"documented","source_ids":["lon-extra-planning-data-listed-building-outlines"],"explanation":"Planning/protection evidence record for 74-108 KINGS ROAD; designation/effective date is taken from Planning Data fields where supplied."},"geometry":{"type":"Point","coordinates":[-0.161667,51.490809]}},{"type":"Feature","id":"lon_planning_designation_listed-building-outline_42158662","properties":{"city_id":"london","event_id":"lon_planning_designation_listed-building-outline_42158662","title":"Listed building outline: BAKERS ALMSHOUSES","year":1971,"effective_date":"1971-09-27","date_precision":"day","category":"built_environment","lens":"built_environment","confidence":"documented","source_ids":["lon-extra-planning-data-listed-building-outlines"],"explanation":"Planning/protection evidence record for BAKERS ALMSHOUSES; designation/effective date is taken from Planning Data fields where supplied."},"geometry":{"type":"Point","coordinates":[-0.014973,51.574756]}},{"type":"Feature","id":"lon_planning_designation_listed-building-outline_42165121","properties":{"city_id":"london","event_id":"lon_planning_designation_listed-building-outline_42165121","title":"Listed building outline: 9 Aldwych London WC2B 4DA","year":1971,"effective_date":"1971-07-20","date_precision":"day","category":"built_environment","lens":"built_environment","confidence":"documented","source_ids":["lon-extra-planning-data-listed-building-outlines"],"explanation":"Planning/protection evidence record for 9 Aldwych London WC2B 4DA; designation/effective date is taken from Planning Data fields where supplied."},"geometry":{"type":"Point","coordinates":[-0.119389,51.512422]}},{"type":"Feature","id":"lon_planning_designation_listed-building-outline_42165452","properties":{"city_id":"london","event_id":"lon_planning_designation_listed-building-outline_42165452","title":"Listed building outline: Aldwych Theatre 43 Aldwych London WC2B 4DA","year":1971,"effective_date":"1971-07-20","date_precision":"day","category":"built_environment","lens":"built_environment","confidence":"documented","source_ids":["lon-extra-planning-data-listed-building-outlines"],"explanation":"Planning/protection evidence record for Aldwych Theatre 43 Aldwych London WC2B 4DA; designation/effective date is taken from Planning Data fields where supplied."},"geometry":{"type":"Point","coordinates":[-0.118812,51.513053]}},{"type":"Feature","id":"lon_planning_designation_listed-building-outline_42165935","properties":{"city_id":"london","event_id":"lon_planning_designation_listed-building-outline_42165935","title":"Listed building outline: 8A Montpelier Square London SW7 1JU","year":1971,"effective_date":"1971-05-11","date_precision":"day","category":"built_environment","lens":"built_environment","confidence":"documented","source_ids":["lon-extra-planning-data-listed-building-outlines"],"explanation":"Planning/protection evidence record for 8A Montpelier Square London SW7 1JU; designation/effective date is taken from Planning Data fields where supplied."},"geometry":{"type":"Point","coordinates":[-0.166484,51.499906]}},{"type":"Feature","id":"lon_planning_designation_listed-building-outline_42165936","properties":{"city_id":"london","event_id":"lon_planning_designation_listed-building-outline_42165936","title":"Listed building outline: 2 Montpelier Square London SW7 1JT","year":1971,"effective_date":"1971-05-11","date_precision":"day","category":"built_environment","lens":"built_environment","confidence":"documented","source_ids":["lon-extra-planning-data-listed-building-outlines"],"explanation":"Planning/protection evidence record for 2 Montpelier Square London SW7 1JT; designation/effective date is taken from Planning Data fields where supplied."},"geometry":{"type":"Point","coordinates":[-0.165845,51.500237]}},{"type":"Feature","id":"lon_planning_designation_listed-building-outline_42165937","properties":{"city_id":"london","event_id":"lon_planning_designation_listed-building-outline_42165937","title":"Listed building outline: 17A Montpelier Square London SW7 1JR","year":1971,"effective_date":"1971-05-11","date_precision":"day","category":"built_environment","lens":"built_environment","confidence":"documented","source_ids":["lon-extra-planning-data-listed-building-outlines"],"explanation":"Planning/protection evidence record for 17A Montpelier Square London SW7 1JR; designation/effective date is taken from Planning Data fields where supplied."},"geometry":{"type":"Point","coordinates":[-0.167115,51.499848]}},{"type":"Feature","id":"lon_planning_designation_listed-building-outline_42165938","properties":{"city_id":"london","event_id":"lon_planning_designation_listed-building-outline_42165938","title":"Listed building outline: 17 Montpelier Square London SW7 1JR","year":1971,"effective_date":"1971-05-11","date_precision":"day","category":"built_environment","lens":"built_environment","confidence":"documented","source_ids":["lon-extra-planning-data-listed-building-outlines"],"explanation":"Planning/protection evidence record for 17 Montpelier Square London SW7 1JR; designation/effective date is taken from Planning Data fields where supplied."},"geometry":{"type":"Point","coordinates":[-0.167216,51.500102]}},{"type":"Feature","id":"lon_planning_designation_listed-building-outline_42165939","properties":{"city_id":"london","event_id":"lon_planning_designation_listed-building-outline_42165939","title":"Listed building outline: 26 Montpelier Square London SW7 1JY","year":1971,"effective_date":"1971-05-11","date_precision":"day","category":"built_environment","lens":"built_environment","confidence":"documented","source_ids":["lon-extra-planning-data-listed-building-outlines"],"explanation":"Planning/protection evidence record for 26 Montpelier Square London SW7 1JY; designation/effective date is taken from Planning Data fields where supplied."},"geometry":{"type":"Point","coordinates":[-0.167328,51.500515]}},{"type":"Feature","id":"lon_planning_designation_listed-building-outline_42165940","properties":{"city_id":"london","event_id":"lon_planning_designation_listed-building-outline_42165940","title":"Listed building outline: 38 Montpelier Square London SW7 1JY","year":1971,"effective_date":"1971-05-11","date_precision":"day","category":"built_environment","lens":"built_environment","confidence":"documented","source_ids":["lon-extra-planning-data-listed-building-outlines"],"explanation":"Planning/protection evidence record for 38 Montpelier Square London SW7 1JY; designation/effective date is taken from Planning Data fields where supplied."},"geometry":{"type":"Point","coordinates":[-0.166231,51.500608]}},{"type":"Feature","id":"lon_planning_designation_listed-building-outline_42165941","properties":{"city_id":"london","event_id":"lon_planning_designation_listed-building-outline_42165941","title":"Listed building outline: 20B Montpelier Street London SW7 1HD","year":1971,"effective_date":"1971-05-11","date_precision":"day","category":"built_environment","lens":"built_environment","confidence":"documented","source_ids":["lon-extra-planning-data-listed-building-outlines"],"explanation":"Planning/protection evidence record for 20B Montpelier Street London SW7 1HD; designation/effective date is taken from Planning Data fields where supplied."},"geometry":{"type":"Point","coordinates":[-0.165713,51.499658]}},{"type":"Feature","id":"lon_planning_designation_listed-building-outline_42165942","properties":{"city_id":"london","event_id":"lon_planning_designation_listed-building-outline_42165942","title":"Listed building outline: 44 Montpelier Street London SW7 1HD","year":1971,"effective_date":"1971-05-11","date_precision":"day","category":"built_environment","lens":"built_environment","confidence":"documented","source_ids":["lon-extra-planning-data-listed-building-outlines"],"explanation":"Planning/protection evidence record for 44 Montpelier Street London SW7 1HD; designation/effective date is taken from Planning Data fields where supplied."},"geometry":{"type":"Point","coordinates":[-0.165825,51.50001]}},{"type":"Feature","id":"lon_planning_designation_listed-building-outline_42165943","properties":{"city_id":"london","event_id":"lon_planning_designation_listed-building-outline_42165943","title":"Listed building outline: 19 Montpelier Street London SW7 1HF","year":1971,"effective_date":"1971-05-11","date_precision":"day","category":"built_environment","lens":"built_environment","confidence":"documented","source_ids":["lon-extra-planning-data-listed-building-outlines"],"explanation":"Planning/protection evidence record for 19 Montpelier Street London SW7 1HF; designation/effective date is taken from Planning Data fields where supplied."},"geometry":{"type":"Point","coordinates":[-0.166151,51.499626]}},{"type":"Feature","id":"lon_planning_designation_listed-building-outline_42165944","properties":{"city_id":"london","event_id":"lon_planning_designation_listed-building-outline_42165944","title":"Listed building outline: 23 Montpelier Street London SW7 1HF","year":1971,"effective_date":"1971-05-11","date_precision":"day","category":"built_environment","lens":"built_environment","confidence":"documented","source_ids":["lon-extra-planning-data-listed-building-outlines"],"explanation":"Planning/protection evidence record for 23 Montpelier Street London SW7 1HF; designation/effective date is taken from Planning Data fields where supplied."},"geometry":{"type":"Point","coordinates":[-0.16615,51.499754]}},{"type":"Feature","id":"lon_planning_designation_listed-building-outline_42166157","properties":{"city_id":"london","event_id":"lon_planning_designation_listed-building-outline_42166157","title":"Listed building outline: 40 Montpelier Street London SW7 1HD","year":1971,"effective_date":"1971-05-11","date_precision":"day","category":"built_environment","lens":"built_environment","confidence":"documented","source_ids":["lon-extra-planning-data-listed-building-outlines"],"explanation":"Planning/protection evidence record for 40 Montpelier Street London SW7 1HD; designation/effective date is taken from Planning Data fields where supplied."},"geometry":{"type":"Point","coordinates":[-0.16577,51.499914]}},{"type":"Feature","id":"lon_planning_designation_listed-building-outline_42166158","properties":{"city_id":"london","event_id":"lon_planning_designation_listed-building-outline_42166158","title":"Listed building outline: 28 Montpelier Square London SW7 1JY","year":1971,"effective_date":"1971-05-11","date_precision":"day","category":"built_environment","lens":"built_environment","confidence":"documented","source_ids":["lon-extra-planning-data-listed-building-outlines"],"explanation":"Planning/protection evidence record for 28 Montpelier Square London SW7 1JY; designation/effective date is taken from Planning Data fields where supplied."},"geometry":{"type":"Point","coordinates":[-0.166942,51.500546]}},{"type":"Feature","id":"lon_planning_designation_listed-building-outline_42166508","properties":{"city_id":"london","event_id":"lon_planning_designation_listed-building-outline_42166508","title":"Listed building outline: 50 Old Bond Street London W1S 4QP","year":1971,"effective_date":"1971-04-07","date_precision":"day","category":"built_environment","lens":"built_environment","confidence":"documented","source_ids":["lon-extra-planning-data-listed-building-outlines"],"explanation":"Planning/protection evidence record for 50 Old Bond Street London W1S 4QP; designation/effective date is taken from Planning Data fields where supplied."},"geometry":{"type":"Point","coordinates":[-0.140339,51.508124]}},{"type":"Feature","id":"lon_planning_designation_listed-building-outline_42166509","properties":{"city_id":"london","event_id":"lon_planning_designation_listed-building-outline_42166509","title":"Listed building outline: 63 - 65 Piccadilly London W1J 0DY","year":1971,"effective_date":"1971-10-07","date_precision":"day","category":"built_environment","lens":"built_environment","confidence":"documented","source_ids":["lon-extra-planning-data-listed-building-outlines"],"explanation":"Planning/protection evidence record for 63 - 65 Piccadilly London W1J 0DY; designation/effective date is taken from Planning Data fields where supplied."},"geometry":{"type":"Point","coordinates":[-0.141,51.507859]}},{"type":"Feature","id":"lon_planning_designation_listed-building-outline_42166827","properties":{"city_id":"london","event_id":"lon_planning_designation_listed-building-outline_42166827","title":"Listed building outline: 1 Sterling Street London SW7 1HN","year":1971,"effective_date":"1971-05-11","date_precision":"day","category":"built_environment","lens":"built_environment","confidence":"documented","source_ids":["lon-extra-planning-data-listed-building-outlines"],"explanation":"Planning/protection evidence record for 1 Sterling Street London SW7 1HN; designation/effective date is taken from Planning Data fields where supplied."},"geometry":{"type":"Point","coordinates":[-0.167073,51.499707]}},{"type":"Feature","id":"lon_planning_designation_listed-building-outline_42166910","properties":{"city_id":"london","event_id":"lon_planning_designation_listed-building-outline_42166910","title":"Listed building outline: 5 Rutland Gate London SW7 1BL","year":1971,"effective_date":"1971-06-01","date_precision":"day","category":"built_environment","lens":"built_environment","confidence":"documented","source_ids":["lon-extra-planning-data-listed-building-outlines"],"explanation":"Planning/protection evidence record for 5 Rutland Gate London SW7 1BL; designation/effective date is taken from Planning Data fields where supplied."},"geometry":{"type":"Point","coordinates":[-0.167703,51.501537]}},{"type":"Feature","id":"lon_planning_designation_listed-building-outline_42167407","properties":{"city_id":"london","event_id":"lon_planning_designation_listed-building-outline_42167407","title":"Listed building outline: First Floor North Albemarle House 1 Albemarle Street London W1S 4HA","year":1971,"effective_date":"1971-04-07","date_precision":"day","category":"built_environment","lens":"built_environment","confidence":"documented","source_ids":["lon-extra-planning-data-listed-building-outlines"],"explanation":"Planning/protection evidence record for First Floor North Albemarle House 1 Albemarle Street London W1S 4HA; designation/effective date is taken from Planning Data fields where supplied."},"geometry":{"type":"Point","coordinates":[-0.140621,51.508068]}},{"type":"Feature","id":"lon_planning_designation_listed-building-outline_42167584","properties":{"city_id":"london","event_id":"lon_planning_designation_listed-building-outline_42167584","title":"Listed building outline: Flat 10 22-23 Hertford Street London W1J 7RX","year":1971,"effective_date":"1971-02-10","date_precision":"day","category":"built_environment","lens":"built_environment","confidence":"documented","source_ids":["lon-extra-planning-data-listed-building-outlines"],"explanation":"Planning/protection evidence record for Flat 10 22-23 Hertford Street London W1J 7RX; designation/effective date is taken from Planning Data fields where supplied."},"geometry":{"type":"Point","coordinates":[-0.149391,51.505279]}},{"type":"Feature","id":"lon_planning_designation_listed-building-outline_42167661","properties":{"city_id":"london","event_id":"lon_planning_designation_listed-building-outline_42167661","title":"Listed building outline: Fourth Floor Waldorf Chambers 11 Aldwych London WC2B 4DG","year":1971,"effective_date":"1971-07-20","date_precision":"day","category":"built_environment","lens":"built_environment","confidence":"documented","source_ids":["lon-extra-planning-data-listed-building-outlines"],"explanation":"Planning/protection evidence record for Fourth Floor Waldorf Chambers 11 Aldwych London WC2B 4DG; designation/effective date is taken from Planning Data fields where supplied."},"geometry":{"type":"Point","coordinates":[-0.119113,51.512739]}},{"type":"Feature","id":"lon_planning_designation_listed-building-outline_42172707","properties":{"city_id":"london","event_id":"lon_planning_designation_listed-building-outline_42172707","title":"Listed building outline: Curtilage of BAKERS ALMSHOUSES","year":1971,"effective_date":"1971-09-27","date_precision":"day","category":"built_environment","lens":"built_environment","confidence":"documented","source_ids":["lon-extra-planning-data-listed-building-outlines"],"explanation":"Planning/protection evidence record for Curtilage of BAKERS ALMSHOUSES; designation/effective date is taken from Planning Data fields where supplied."},"geometry":{"type":"Point","coordinates":[-0.014992,51.574744]}},{"type":"Feature","id":"lon_planning_designation_listed-building-outline_42182344","properties":{"city_id":"london","event_id":"lon_planning_designation_listed-building-outline_42182344","title":"Listed building outline: 14-17 LINCOLN STREET","year":1971,"effective_date":"1971-09-22","date_precision":"day","category":"built_environment","lens":"built_environment","confidence":"documented","source_ids":["lon-extra-planning-data-listed-building-outlines"],"explanation":"Planning/protection evidence record for 14-17 LINCOLN STREET; designation/effective date is taken from Planning Data fields where supplied."},"geometry":{"type":"Point","coordinates":[-0.161326,51.491214]}},{"type":"Feature","id":"lon_planning_designation_listed-building-outline_42182345","properties":{"city_id":"london","event_id":"lon_planning_designation_listed-building-outline_42182345","title":"Listed building outline: 1-10 LINCOLN STREET","year":1971,"effective_date":"1971-09-22","date_precision":"day","category":"built_environment","lens":"built_environment","confidence":"documented","source_ids":["lon-extra-planning-data-listed-building-outlines"],"explanation":"Planning/protection evidence record for 1-10 LINCOLN STREET; designation/effective date is taken from Planning Data fields where supplied."},"geometry":{"type":"Point","coordinates":[-0.161215,51.491445]}},{"type":"Feature","id":"lon_planning_designation_listed-building-outline_42182346","properties":{"city_id":"london","event_id":"lon_planning_designation_listed-building-outline_42182346","title":"Listed building outline: 16 AND 17 ANDERSON STREET","year":1971,"effective_date":"1971-09-22","date_precision":"day","category":"built_environment","lens":"built_environment","confidence":"documented","source_ids":["lon-extra-planning-data-listed-building-outlines"],"explanation":"Planning/protection evidence record for 16 AND 17 ANDERSON STREET; designation/effective date is taken from Planning Data fields where supplied."},"geometry":{"type":"Point","coordinates":[-0.162183,51.490576]}},{"type":"Feature","id":"lon_planning_designation_listed-building-outline_42182347","properties":{"city_id":"london","event_id":"lon_planning_designation_listed-building-outline_42182347","title":"Listed building outline: 110 AND 112 KINGS ROAD","year":1971,"effective_date":"1971-09-22","date_precision":"day","category":"built_environment","lens":"built_environment","confidence":"documented","source_ids":["lon-extra-planning-data-listed-building-outlines"],"explanation":"Planning/protection evidence record for 110 AND 112 KINGS ROAD; designation/effective date is taken from Planning Data fields where supplied."},"geometry":{"type":"Point","coordinates":[-0.162356,51.490401]}},{"type":"Feature","id":"lon_planning_designation_listed-building-outline_42182348","properties":{"city_id":"london","event_id":"lon_planning_designation_listed-building-outline_42182348","title":"Listed building outline: 19-26 COULSON STREET","year":1971,"effective_date":"1971-09-22","date_precision":"day","category":"built_environment","lens":"built_environment","confidence":"documented","source_ids":["lon-extra-planning-data-listed-building-outlines"],"explanation":"Planning/protection evidence record for 19-26 COULSON STREET; designation/effective date is taken from Planning Data fields where supplied."},"geometry":{"type":"Point","coordinates":[-0.162224,51.491074]}},{"type":"Feature","id":"lon_planning_designation_listed-building-outline_42182914","properties":{"city_id":"london","event_id":"lon_planning_designation_listed-building-outline_42182914","title":"Listed building outline: 72 KINGS ROAD","year":1971,"effective_date":"1971-09-22","date_precision":"day","category":"built_environment","lens":"built_environment","confidence":"documented","source_ids":["lon-extra-planning-data-listed-building-outlines"],"explanation":"Planning/protection evidence record for 72 KINGS ROAD; designation/effective date is taken from Planning Data fields where supplied."},"geometry":{"type":"Point","coordinates":[-0.160861,51.491231]}},{"type":"Feature","id":"lon_planning_designation_listed-building-outline_42182915","properties":{"city_id":"london","event_id":"lon_planning_designation_listed-building-outline_42182915","title":"Listed building outline: 15 COULSON STREET","year":1971,"effective_date":"1971-09-22","date_precision":"day","category":"built_environment","lens":"built_environment","confidence":"documented","source_ids":["lon-extra-planning-data-listed-building-outlines"],"explanation":"Planning/protection evidence record for 15 COULSON STREET; designation/effective date is taken from Planning Data fields where supplied."},"geometry":{"type":"Point","coordinates":[-0.161671,51.491336]}},{"type":"Feature","id":"lon_planning_designation_listed-building-outline_42183124","properties":{"city_id":"london","event_id":"lon_planning_designation_listed-building-outline_42183124","title":"Listed building outline: 10 AND 11 ANDERSON STREET","year":1971,"effective_date":"1971-09-22","date_precision":"day","category":"built_environment","lens":"built_environment","confidence":"documented","source_ids":["lon-extra-planning-data-listed-building-outlines"],"explanation":"Planning/protection evidence record for 10 AND 11 ANDERSON STREET; designation/effective date is taken from Planning Data fields where supplied."},"geometry":{"type":"Point","coordinates":[-0.16258,51.490875]}},{"type":"Feature","id":"lon_planning_designation_listed-building-outline_42183125","properties":{"city_id":"london","event_id":"lon_planning_designation_listed-building-outline_42183125","title":"Listed building outline: 1-13 COULSON STREET","year":1971,"effective_date":"1971-09-22","date_precision":"day","category":"built_environment","lens":"built_environment","confidence":"documented","source_ids":["lon-extra-planning-data-listed-building-outlines"],"explanation":"Planning/protection evidence record for 1-13 COULSON STREET; designation/effective date is taken from Planning Data fields where supplied."},"geometry":{"type":"Point","coordinates":[-0.161869,51.490986]}},{"type":"Feature","id":"lon_planning_designation_listed-building-outline_42183126","properties":{"city_id":"london","event_id":"lon_planning_designation_listed-building-outline_42183126","title":"Listed building outline: 16-18 COULSON STREET","year":1971,"effective_date":"1971-09-22","date_precision":"day","category":"built_environment","lens":"built_environment","confidence":"documented","source_ids":["lon-extra-planning-data-listed-building-outlines"],"explanation":"Planning/protection evidence record for 16-18 COULSON STREET; designation/effective date is taken from Planning Data fields where supplied."},"geometry":{"type":"Point","coordinates":[-0.161816,51.4913]}},{"type":"Feature","id":"lon_planning_designation_listed-building-outline_42183127","properties":{"city_id":"london","event_id":"lon_planning_designation_listed-building-outline_42183127","title":"Listed building outline: 11, 11A, 12 AND 13 LINCOLN STREET","year":1971,"effective_date":"1971-09-22","date_precision":"day","category":"built_environment","lens":"built_environment","confidence":"documented","source_ids":["lon-extra-planning-data-listed-building-outlines"],"explanation":"Planning/protection evidence record for 11, 11A, 12 AND 13 LINCOLN STREET; designation/effective date is taken from Planning Data fields where supplied."},"geometry":{"type":"Point","coordinates":[-0.161655,51.491432]}},{"type":"Feature","id":"lon_planning_designation_listed-building-outline_42183128","properties":{"city_id":"london","event_id":"lon_planning_designation_listed-building-outline_42183128","title":"Listed building outline: 12-15 ANDERSON STREET","year":1971,"effective_date":"1971-09-22","date_precision":"day","category":"built_environment","lens":"built_environment","confidence":"documented","source_ids":["lon-extra-planning-data-listed-building-outlines"],"explanation":"Planning/protection evidence record for 12-15 ANDERSON STREET; designation/effective date is taken from Planning Data fields where supplied."},"geometry":{"type":"Point","coordinates":[-0.1623,51.490683]}},{"type":"Feature","id":"lon_planning_designation_listed-building-outline_42183129","properties":{"city_id":"london","event_id":"lon_planning_designation_listed-building-outline_42183129","title":"Listed building outline: 1-9 ANDERSON STREET","year":1971,"effective_date":"1971-09-22","date_precision":"day","category":"built_environment","lens":"built_environment","confidence":"documented","source_ids":["lon-extra-planning-data-listed-building-outlines"],"explanation":"Planning/protection evidence record for 1-9 ANDERSON STREET; designation/effective date is taken from Planning Data fields where supplied."},"geometry":{"type":"Point","coordinates":[-0.162641,51.490611]}},{"type":"Feature","id":"lon_planning_designation_listed-building-outline_42183131","properties":{"city_id":"london","event_id":"lon_planning_designation_listed-building-outline_42183131","title":"Listed building outline: 74-108 KINGS ROAD","year":1971,"effective_date":"1971-09-22","date_precision":"day","category":"built_environment","lens":"built_environment","confidence":"documented","source_ids":["lon-extra-planning-data-listed-building-outlines"],"explanation":"Planning/protection evidence record for 74-108 KINGS ROAD; designation/effective date is taken from Planning Data fields where supplied."},"geometry":{"type":"Point","coordinates":[-0.161667,51.490809]}},{"type":"Feature","id":"lon_planning_designation_listed-building-outline_42192572","properties":{"city_id":"london","event_id":"lon_planning_designation_listed-building-outline_42192572","title":"Listed building outline: Sudbury Town Station, Station Approach, Wembley, HA0 2LA","year":1971,"effective_date":"1971-02-19","date_precision":"day","category":"built_environment","lens":"built_environment","confidence":"documented","source_ids":["lon-extra-planning-data-listed-building-outlines"],"explanation":"Planning/protection evidence record for Sudbury Town Station, Station Approach, Wembley, HA0 2LA; designation/effective date is taken from Planning Data fields where supplied."},"geometry":{"type":"Point","coordinates":[-0.315596,51.550908]}},{"type":"Feature","id":"lon_planning_designation_tree-preservation-zone_19114955","properties":{"city_id":"london","event_id":"lon_planning_designation_tree-preservation-zone_19114955","title":"Tree preservation zone: The London Borough of Barnet (Lawrence Street, Mill Hill, N.W.7.) Tree Preservation Order 1971 made under The Town and C","year":1971,"effective_date":"1971-08-13","date_precision":"day","category":"built_environment","lens":"built_environment","confidence":"documented","source_ids":["lon-extra-planning-data-tree-preservation-zones"],"explanation":"Planning/protection evidence record for The London Borough of Barnet (Lawrence Street, Mill Hill, N.W.7.) Tree Preservation Order 1971 made under The Town and C; designation/effective date is taken from Planning Data fields where supplied."},"geometry":{"type":"Point","coordinates":[-0.237022,51.624816]}},{"type":"Feature","id":"lon_planning_designation_tree-preservation-zone_19114956","properties":{"city_id":"london","event_id":"lon_planning_designation_tree-preservation-zone_19114956","title":"Tree preservation zone: The London Borough of Barnet (Lawrence Street, Mill Hill, N.W.7.) Tree Preservation Order 1971 made under The Town and C","year":1971,"effective_date":"1971-08-13","date_precision":"day","category":"built_environment","lens":"built_environment","confidence":"documented","source_ids":["lon-extra-planning-data-tree-preservation-zones"],"explanation":"Planning/protection evidence record for The London Borough of Barnet (Lawrence Street, Mill Hill, N.W.7.) Tree Preservation Order 1971 made under The Town and C; designation/effective date is taken from Planning Data fields where supplied."},"geometry":{"type":"Point","coordinates":[-0.237368,51.624627]}},{"type":"Feature","id":"lon_planning_designation_tree-preservation-zone_19114957","properties":{"city_id":"london","event_id":"lon_planning_designation_tree-preservation-zone_19114957","title":"Tree preservation zone: The London Borough of Barnet (Lawrence Street, Mill Hill, N.W.7.) Tree Preservation Order 1971 made under The Town and C","year":1971,"effective_date":"1971-08-13","date_precision":"day","category":"built_environment","lens":"built_environment","confidence":"documented","source_ids":["lon-extra-planning-data-tree-preservation-zones"],"explanation":"Planning/protection evidence record for The London Borough of Barnet (Lawrence Street, Mill Hill, N.W.7.) Tree Preservation Order 1971 made under The Town and C; designation/effective date is taken from Planning Data fields where supplied."},"geometry":{"type":"Point","coordinates":[-0.238174,51.623933]}}]}
