{"type":"FeatureCollection","schema_version":"1.0.0","city_id":"london","year":1992,"features":[{"type":"Feature","id":"lon_planning_designation_conservation-area_44001056","properties":{"city_id":"london","event_id":"lon_planning_designation_conservation-area_44001056","title":"Conservation area record: Sutherland Grove","short_description":"Planning Data conservation-area designation record 3822; quality some; LPA Wandsworth.","year":1992,"effective_date":"1992-11-23","date_precision":"day","category":"built_environment","lens":"built_environment","confidence":"documented","source_ids":["lon-extra-planning-data-conservation-areas"],"explanation":"Planning/protection evidence record for Sutherland Grove; designation/effective date is taken from Planning Data fields where supplied."},"geometry":{"type":"Point","coordinates":[-0.210148,51.448713]}},{"type":"Feature","id":"lon_planning_designation_conservation-area_44002464","properties":{"city_id":"london","event_id":"lon_planning_designation_conservation-area_44002464","title":"Conservation area record: Twickenham Green","short_description":"Planning Data conservation-area designation record 7354; quality some; LPA Richmond upon Thames.","year":1992,"effective_date":"1992-03-24","date_precision":"day","category":"built_environment","lens":"built_environment","confidence":"documented","source_ids":["lon-extra-planning-data-conservation-areas"],"explanation":"Planning/protection evidence record for Twickenham Green; designation/effective date is taken from Planning Data fields where supplied."},"geometry":{"type":"Point","coordinates":[-0.342505,51.443809]}},{"type":"Feature","id":"lon_planning_designation_conservation-area_44002791","properties":{"city_id":"london","event_id":"lon_planning_designation_conservation-area_44002791","title":"Conservation area record: Brook Street","short_description":"Planning Data conservation-area designation record 4814; quality some; LPA Bexley.","year":1992,"effective_date":"1992-02-19","date_precision":"day","category":"built_environment","lens":"built_environment","confidence":"documented","source_ids":["lon-extra-planning-data-conservation-areas"],"explanation":"Planning/protection evidence record for Brook Street; designation/effective date is taken from Planning Data fields where supplied."},"geometry":{"type":"Point","coordinates":[0.156371,51.475982]}},{"type":"Feature","id":"lon_planning_designation_conservation-area_44002792","properties":{"city_id":"london","event_id":"lon_planning_designation_conservation-area_44002792","title":"Conservation area record: Christ Church","short_description":"Planning Data conservation-area designation record 4822; quality some; LPA Bexley.","year":1992,"effective_date":"1992-02-19","date_precision":"day","category":"built_environment","lens":"built_environment","confidence":"documented","source_ids":["lon-extra-planning-data-conservation-areas"],"explanation":"Planning/protection evidence record for Christ Church; designation/effective date is taken from Planning Data fields where supplied."},"geometry":{"type":"Point","coordinates":[0.098269,51.429437]}},{"type":"Feature","id":"lon_planning_designation_conservation-area_44002797","properties":{"city_id":"london","event_id":"lon_planning_designation_conservation-area_44002797","title":"Conservation area record: Lesney Park Road","short_description":"Planning Data conservation-area designation record 4823; quality some; LPA Bexley.","year":1992,"effective_date":"1992-02-19","date_precision":"day","category":"built_environment","lens":"built_environment","confidence":"documented","source_ids":["lon-extra-planning-data-conservation-areas"],"explanation":"Planning/protection evidence record for Lesney Park Road; designation/effective date is taken from Planning Data fields where supplied."},"geometry":{"type":"Point","coordinates":[0.175289,51.478225]}},{"type":"Feature","id":"lon_planning_designation_conservation-area_44002798","properties":{"city_id":"london","event_id":"lon_planning_designation_conservation-area_44002798","title":"Conservation area record: Longlands Road","short_description":"Planning Data conservation-area designation record 4824; quality some; LPA Bexley.","year":1992,"effective_date":"1992-02-19","date_precision":"day","category":"built_environment","lens":"built_environment","confidence":"documented","source_ids":["lon-extra-planning-data-conservation-areas"],"explanation":"Planning/protection evidence record for Longlands Road; designation/effective date is taken from Planning Data fields where supplied."},"geometry":{"type":"Point","coordinates":[0.096366,51.433041]}},{"type":"Feature","id":"lon_planning_designation_conservation-area_44002800","properties":{"city_id":"london","event_id":"lon_planning_designation_conservation-area_44002800","title":"Conservation area record: Oak Road","short_description":"Planning Data conservation-area designation record 4828; quality some; LPA Bexley.","year":1992,"effective_date":"1992-02-19","date_precision":"day","category":"built_environment","lens":"built_environment","confidence":"documented","source_ids":["lon-extra-planning-data-conservation-areas"],"explanation":"Planning/protection evidence record for Oak Road; designation/effective date is taken from Planning Data fields where supplied."},"geometry":{"type":"Point","coordinates":[0.192315,51.467202]}},{"type":"Feature","id":"lon_planning_designation_conservation-area_44002804","properties":{"city_id":"london","event_id":"lon_planning_designation_conservation-area_44002804","title":"Conservation area record: Star Hill","short_description":"Planning Data conservation-area designation record 4829; quality some; LPA Bexley.","year":1992,"effective_date":"1992-02-19","date_precision":"day","category":"built_environment","lens":"built_environment","confidence":"documented","source_ids":["lon-extra-planning-data-conservation-areas"],"explanation":"Planning/protection evidence record for Star Hill; designation/effective date is taken from Planning Data fields where supplied."},"geometry":{"type":"Point","coordinates":[0.173254,51.452432]}},{"type":"Feature","id":"lon_planning_designation_conservation-area_44002805","properties":{"city_id":"london","event_id":"lon_planning_designation_conservation-area_44002805","title":"Conservation area record: The Oval","short_description":"Planning Data conservation-area designation record 4831; quality some; LPA Bexley.","year":1992,"effective_date":"1992-02-19","date_precision":"day","category":"built_environment","lens":"built_environment","confidence":"documented","source_ids":["lon-extra-planning-data-conservation-areas"],"explanation":"Planning/protection evidence record for The Oval; designation/effective date is taken from Planning Data fields where supplied."},"geometry":{"type":"Point","coordinates":[0.102774,51.444997]}},{"type":"Feature","id":"lon_planning_designation_conservation-area_44002807","properties":{"city_id":"london","event_id":"lon_planning_designation_conservation-area_44002807","title":"Conservation area record: Woolwich Road","short_description":"Planning Data conservation-area designation record 4833; quality some; LPA Bexley.","year":1992,"effective_date":"1992-02-19","date_precision":"day","category":"built_environment","lens":"built_environment","confidence":"documented","source_ids":["lon-extra-planning-data-conservation-areas"],"explanation":"Planning/protection evidence record for Woolwich Road; designation/effective date is taken from Planning Data fields where supplied."},"geometry":{"type":"Point","coordinates":[0.142462,51.483826]}},{"type":"Feature","id":"lon_planning_designation_conservation-area_44008761","properties":{"city_id":"london","event_id":"lon_planning_designation_conservation-area_44008761","title":"Conservation area record: North Cray Village","short_description":"Planning Data conservation-area designation record 4827; quality some; LPA Bexley.","year":1992,"effective_date":"1992-02-19","date_precision":"day","category":"built_environment","lens":"built_environment","confidence":"documented","source_ids":["lon-extra-planning-data-conservation-areas"],"explanation":"Planning/protection evidence record for North Cray Village; designation/effective date is taken from Planning Data fields where supplied."},"geometry":{"type":"Point","coordinates":[0.13804,51.429702]}},{"type":"Feature","id":"lon_planning_designation_conservation-area_44008774","properties":{"city_id":"london","event_id":"lon_planning_designation_conservation-area_44008774","title":"Conservation area record: Willersley Avenue and Braundton Avenue","short_description":"Planning Data conservation-area designation record 4832; quality some; LPA Bexley.","year":1992,"effective_date":"1992-02-19","date_precision":"day","category":"built_environment","lens":"built_environment","confidence":"documented","source_ids":["lon-extra-planning-data-conservation-areas"],"explanation":"Planning/protection evidence record for Willersley Avenue and Braundton Avenue; designation/effective date is taken from Planning Data fields where supplied."},"geometry":{"type":"Point","coordinates":[0.094109,51.440256]}},{"type":"Feature","id":"lon_planning_designation_conservation-area_44008960","properties":{"city_id":"london","event_id":"lon_planning_designation_conservation-area_44008960","title":"Conservation area record: The Green","short_description":"Planning Data conservation-area designation record 4830; quality some; LPA Bexley.","year":1992,"effective_date":"1992-02-19","date_precision":"day","category":"built_environment","lens":"built_environment","confidence":"documented","source_ids":["lon-extra-planning-data-conservation-areas"],"explanation":"Planning/protection evidence record for The Green; designation/effective date is taken from Planning Data fields where supplied."},"geometry":{"type":"Point","coordinates":[0.10257,51.423176]}},{"type":"Feature","id":"lon_planning_designation_conservation-area_44009620","properties":{"city_id":"london","event_id":"lon_planning_designation_conservation-area_44009620","title":"Conservation area record: Holly Lodge Estate","short_description":"Planning Data conservation-area designation record CA20; quality authoritative; LPA Camden.","year":1992,"effective_date":"1992-06-01","date_precision":"day","category":"built_environment","lens":"built_environment","confidence":"documented","source_ids":["lon-extra-planning-data-conservation-areas"],"explanation":"Planning/protection evidence record for Holly Lodge Estate; designation/effective date is taken from Planning Data fields where supplied."},"geometry":{"type":"Point","coordinates":[-0.150097,51.564976]}},{"type":"Feature","id":"lon_planning_designation_conservation-area_44009622","properties":{"city_id":"london","event_id":"lon_planning_designation_conservation-area_44009622","title":"Conservation area record: Dartmouth Park","short_description":"Planning Data conservation-area designation record CA9; quality authoritative; LPA Camden.","year":1992,"effective_date":"1992-06-01","date_precision":"day","category":"built_environment","lens":"built_environment","confidence":"documented","source_ids":["lon-extra-planning-data-conservation-areas"],"explanation":"Planning/protection evidence record for Dartmouth Park; designation/effective date is taken from Planning Data fields where supplied."},"geometry":{"type":"Point","coordinates":[-0.145442,51.56]}},{"type":"Feature","id":"lon_planning_designation_conservation-area_44009626","properties":{"city_id":"london","event_id":"lon_planning_designation_conservation-area_44009626","title":"Conservation area record: Bartholomew Estate","short_description":"Planning Data conservation-area designation record CA2; quality authoritative; LPA Camden.","year":1992,"effective_date":"1992-02-01","date_precision":"day","category":"built_environment","lens":"built_environment","confidence":"documented","source_ids":["lon-extra-planning-data-conservation-areas"],"explanation":"Planning/protection evidence record for Bartholomew Estate; designation/effective date is taken from Planning Data fields where supplied."},"geometry":{"type":"Point","coordinates":[-0.137453,51.547568]}},{"type":"Feature","id":"lon_planning_designation_conservation-area_44015590","properties":{"city_id":"london","event_id":"lon_planning_designation_conservation-area_44015590","title":"Conservation area record: Hounslow Cavalry Barracks","short_description":"Planning Data conservation-area designation record HSLCA17; quality authoritative; LPA Hounslow.","year":1992,"effective_date":"1992-04-14","date_precision":"day","category":"built_environment","lens":"built_environment","confidence":"documented","source_ids":["lon-extra-planning-data-conservation-areas"],"explanation":"Planning/protection evidence record for Hounslow Cavalry Barracks; designation/effective date is taken from Planning Data fields where supplied."},"geometry":{"type":"Point","coordinates":[-0.390024,51.468688]}},{"type":"Feature","id":"lon_planning_designation_conservation-area_44015597","properties":{"city_id":"london","event_id":"lon_planning_designation_conservation-area_44015597","title":"Conservation area record: St Paul's Church","short_description":"Planning Data conservation-area designation record HSLCA18; quality authoritative; LPA Hounslow.","year":1992,"effective_date":"1992-04-14","date_precision":"day","category":"built_environment","lens":"built_environment","confidence":"documented","source_ids":["lon-extra-planning-data-conservation-areas"],"explanation":"Planning/protection evidence record for St Paul's Church; designation/effective date is taken from Planning Data fields where supplied."},"geometry":{"type":"Point","coordinates":[-0.380917,51.472596]}},{"type":"Feature","id":"lon_planning_designation_listed-building-outline_42115316","properties":{"city_id":"london","event_id":"lon_planning_designation_listed-building-outline_42115316","title":"Listed building outline: Swing footbridge over steelyard cut","short_description":"Planning Data listed-building outline record 471366; quality authoritative; LPA Southwark.","year":1992,"effective_date":"1992-05-07","date_precision":"day","category":"built_environment","lens":"built_environment","confidence":"documented","source_ids":["lon-extra-planning-data-listed-building-outlines"],"explanation":"Planning/protection evidence record for Swing footbridge over steelyard cut; designation/effective date is taken from Planning Data fields where supplied."},"geometry":{"type":"Point","coordinates":[-0.036366,51.494551]}},{"type":"Feature","id":"lon_planning_designation_listed-building-outline_42115739","properties":{"city_id":"london","event_id":"lon_planning_designation_listed-building-outline_42115739","title":"Listed building outline: Monument to Rebekah Horniman, Camberwell Old Cemetery","short_description":"Planning Data listed-building outline record 470932; quality authoritative; LPA Southwark.","year":1992,"effective_date":"1992-05-07","date_precision":"day","category":"built_environment","lens":"built_environment","confidence":"documented","source_ids":["lon-extra-planning-data-listed-building-outlines"],"explanation":"Planning/protection evidence record for Monument to Rebekah Horniman, Camberwell Old Cemetery; designation/effective date is taken from Planning Data fields where supplied."},"geometry":{"type":"Point","coordinates":[-0.059253,51.450342]}},{"type":"Feature","id":"lon_planning_designation_listed-building-outline_42115740","properties":{"city_id":"london","event_id":"lon_planning_designation_listed-building-outline_42115740","title":"Listed building outline: Monument to James John Berkeley, Camberwell Old Cemetery","short_description":"Planning Data listed-building outline record 470930; quality authoritative; LPA Southwark.","year":1992,"effective_date":"1992-05-07","date_precision":"day","category":"built_environment","lens":"built_environment","confidence":"documented","source_ids":["lon-extra-planning-data-listed-building-outlines"],"explanation":"Planning/protection evidence record for Monument to James John Berkeley, Camberwell Old Cemetery; designation/effective date is taken from Planning Data fields where supplied."},"geometry":{"type":"Point","coordinates":[-0.059836,51.450504]}},{"type":"Feature","id":"lon_planning_designation_listed-building-outline_42115741","properties":{"city_id":"london","event_id":"lon_planning_designation_listed-building-outline_42115741","title":"Listed building outline: Monument to Charles waters, Camberwell Old Cemetery","short_description":"Planning Data listed-building outline record 470929; quality authoritative; LPA Southwark.","year":1992,"effective_date":"1992-05-07","date_precision":"day","category":"built_environment","lens":"built_environment","confidence":"documented","source_ids":["lon-extra-planning-data-listed-building-outlines"],"explanation":"Planning/protection evidence record for Monument to Charles waters, Camberwell Old Cemetery; designation/effective date is taken from Planning Data fields where supplied."},"geometry":{"type":"Point","coordinates":[-0.059297,51.449983]}},{"type":"Feature","id":"lon_planning_designation_listed-building-outline_42115742","properties":{"city_id":"london","event_id":"lon_planning_designation_listed-building-outline_42115742","title":"Listed building outline: Monument to members of public killed by zeppelin, Camberwell Old Cemetery","short_description":"Planning Data listed-building outline record 470931; quality authoritative; LPA Southwark.","year":1992,"effective_date":"1992-05-07","date_precision":"day","category":"built_environment","lens":"built_environment","confidence":"documented","source_ids":["lon-extra-planning-data-listed-building-outlines"],"explanation":"Planning/protection evidence record for Monument to members of public killed by zeppelin, Camberwell Old Cemetery; designation/effective date is taken from Planning Data fields where supplied."},"geometry":{"type":"Point","coordinates":[-0.059163,51.451211]}},{"type":"Feature","id":"lon_planning_designation_listed-building-outline_42115799","properties":{"city_id":"london","event_id":"lon_planning_designation_listed-building-outline_42115799","title":"Listed building outline: Footbridge over Greenland Dock","short_description":"Planning Data listed-building outline record 471362; quality authoritative; LPA Southwark.","year":1992,"effective_date":"1992-05-07","date_precision":"day","category":"built_environment","lens":"built_environment","confidence":"documented","source_ids":["lon-extra-planning-data-listed-building-outlines"],"explanation":"Planning/protection evidence record for Footbridge over Greenland Dock; designation/effective date is taken from Planning Data fields where supplied."},"geometry":{"type":"Point","coordinates":[-0.033843,51.495591]}},{"type":"Feature","id":"lon_planning_designation_listed-building-outline_42116491","properties":{"city_id":"london","event_id":"lon_planning_designation_listed-building-outline_42116491","title":"Listed building outline: (South side) Italian Hospital and attached wall and railings","short_description":"Planning Data listed-building outline record LB1158; quality authoritative; LPA Camden.","year":1992,"effective_date":"1992-01-14","date_precision":"day","category":"built_environment","lens":"built_environment","confidence":"documented","source_ids":["lon-extra-planning-data-listed-building-outlines"],"explanation":"Planning/protection evidence record for (South side) Italian Hospital and attached wall and railings; designation/effective date is taken from Planning Data fields where supplied."},"geometry":{"type":"Point","coordinates":[-0.121532,51.520883]}},{"type":"Feature","id":"lon_planning_designation_listed-building-outline_42116684","properties":{"city_id":"london","event_id":"lon_planning_designation_listed-building-outline_42116684","title":"Listed building outline: Hampstead Road Lock on the Grand Union Canal","short_description":"Planning Data listed-building outline record LB300; quality authoritative; LPA Camden.","year":1992,"effective_date":"1992-01-09","date_precision":"day","category":"built_environment","lens":"built_environment","confidence":"documented","source_ids":["lon-extra-planning-data-listed-building-outlines"],"explanation":"Planning/protection evidence record for Hampstead Road Lock on the Grand Union Canal; designation/effective date is taken from Planning Data fields where supplied."},"geometry":{"type":"Point","coordinates":[-0.145681,51.541091]}},{"type":"Feature","id":"lon_planning_designation_listed-building-outline_42117028","properties":{"city_id":"london","event_id":"lon_planning_designation_listed-building-outline_42117028","title":"Listed building outline: Drinking Fountain","short_description":"Planning Data listed-building outline record LB1217; quality authoritative; LPA Camden.","year":1992,"effective_date":"1992-05-26","date_precision":"day","category":"built_environment","lens":"built_environment","confidence":"documented","source_ids":["lon-extra-planning-data-listed-building-outlines"],"explanation":"Planning/protection evidence record for Drinking Fountain; designation/effective date is taken from Planning Data fields where supplied."},"geometry":{"type":"Point","coordinates":[-0.165416,51.554226]}},{"type":"Feature","id":"lon_planning_designation_listed-building-outline_42120939","properties":{"city_id":"london","event_id":"lon_planning_designation_listed-building-outline_42120939","title":"Listed building outline: ICE HOUSE AT ST JOSEPH'S CONVENT SCHOOL","short_description":"Planning Data listed-building outline record 1064764; quality authoritative; LPA Barnet.","year":1992,"effective_date":"1992-08-11","date_precision":"day","category":"built_environment","lens":"built_environment","confidence":"documented","source_ids":["lon-extra-planning-data-listed-building-outlines"],"explanation":"Planning/protection evidence record for ICE HOUSE AT ST JOSEPH'S CONVENT SCHOOL; designation/effective date is taken from Planning Data fields where supplied."},"geometry":{"type":"Point","coordinates":[-0.231413,51.588246]}},{"type":"Feature","id":"lon_planning_designation_listed-building-outline_42149297","properties":{"city_id":"london","event_id":"lon_planning_designation_listed-building-outline_42149297","title":"Listed building outline: MORE HOUSE","short_description":"Planning Data listed-building outline record 425736; quality authoritative; LPA Kensington and Chelsea.","year":1992,"effective_date":"1992-11-04","date_precision":"day","category":"built_environment","lens":"built_environment","confidence":"documented","source_ids":["lon-extra-planning-data-listed-building-outlines"],"explanation":"Planning/protection evidence record for MORE HOUSE; designation/effective date is taken from Planning Data fields where supplied."},"geometry":{"type":"Point","coordinates":[-0.160259,51.485177]}},{"type":"Feature","id":"lon_planning_designation_listed-building-outline_42166273","properties":{"city_id":"london","event_id":"lon_planning_designation_listed-building-outline_42166273","title":"Listed building outline: Central Arbour And Tool Shed Soho Square London W1D 3QH","short_description":"Planning Data listed-building outline record 1249910; quality authoritative; LPA Westminster.","year":1992,"effective_date":"1992-02-26","date_precision":"day","category":"built_environment","lens":"built_environment","confidence":"documented","source_ids":["lon-extra-planning-data-listed-building-outlines"],"explanation":"Planning/protection evidence record for Central Arbour And Tool Shed Soho Square London W1D 3QH; designation/effective date is taken from Planning Data fields where supplied."},"geometry":{"type":"Point","coordinates":[-0.132213,51.515287]}},{"type":"Feature","id":"lon_planning_designation_listed-building-outline_42166274","properties":{"city_id":"london","event_id":"lon_planning_designation_listed-building-outline_42166274","title":"Listed building outline: St Margarets House 24 Wells Mews London W1T 3PQ","short_description":"Planning Data listed-building outline record 1249911; quality authoritative; LPA Westminster.","year":1992,"effective_date":"1992-04-27","date_precision":"day","category":"built_environment","lens":"built_environment","confidence":"documented","source_ids":["lon-extra-planning-data-listed-building-outlines"],"explanation":"Planning/protection evidence record for St Margarets House 24 Wells Mews London W1T 3PQ; designation/effective date is taken from Planning Data fields where supplied."},"geometry":{"type":"Point","coordinates":[-0.137646,51.51726]}},{"type":"Feature","id":"lon_planning_designation_listed-building-outline_42166275","properties":{"city_id":"london","event_id":"lon_planning_designation_listed-building-outline_42166275","title":"Listed building outline: 29 Marsham Street London SW1P 3DW","short_description":"Planning Data listed-building outline record 1249936; quality authoritative; LPA Westminster.","year":1992,"effective_date":"1992-05-21","date_precision":"day","category":"built_environment","lens":"built_environment","confidence":"documented","source_ids":["lon-extra-planning-data-listed-building-outlines"],"explanation":"Planning/protection evidence record for 29 Marsham Street London SW1P 3DW; designation/effective date is taken from Planning Data fields where supplied."},"geometry":{"type":"Point","coordinates":[-0.128907,51.49626]}},{"type":"Feature","id":"lon_planning_designation_listed-building-outline_42166276","properties":{"city_id":"london","event_id":"lon_planning_designation_listed-building-outline_42166276","title":"Listed building outline: 56-58 South Street London W1K 1DL","short_description":"Planning Data listed-building outline record 1249967; quality authoritative; LPA Westminster.","year":1992,"effective_date":"1992-07-23","date_precision":"day","category":"built_environment","lens":"built_environment","confidence":"documented","source_ids":["lon-extra-planning-data-listed-building-outlines"],"explanation":"Planning/protection evidence record for 56-58 South Street London W1K 1DL; designation/effective date is taken from Planning Data fields where supplied."},"geometry":{"type":"Point","coordinates":[-0.149637,51.508589]}},{"type":"Feature","id":"lon_planning_designation_listed-building-outline_42166369","properties":{"city_id":"london","event_id":"lon_planning_designation_listed-building-outline_42166369","title":"Listed building outline: 325 Harrow Road London W9 3RB","short_description":"Planning Data listed-building outline record 1263477; quality authoritative; LPA Westminster.","year":1992,"effective_date":"1992-07-01","date_precision":"day","category":"built_environment","lens":"built_environment","confidence":"documented","source_ids":["lon-extra-planning-data-listed-building-outlines"],"explanation":"Planning/protection evidence record for 325 Harrow Road London W9 3RB; designation/effective date is taken from Planning Data fields where supplied."},"geometry":{"type":"Point","coordinates":[-0.199255,51.523429]}},{"type":"Feature","id":"lon_planning_designation_listed-building-outline_42166404","properties":{"city_id":"london","event_id":"lon_planning_designation_listed-building-outline_42166404","title":"Listed building outline: 68 Old Compton Street London W1D 4UJ","short_description":"Planning Data listed-building outline record 1263530; quality authoritative; LPA Westminster.","year":1992,"effective_date":"1992-02-05","date_precision":"day","category":"built_environment","lens":"built_environment","confidence":"documented","source_ids":["lon-extra-planning-data-listed-building-outlines"],"explanation":"Planning/protection evidence record for 68 Old Compton Street London W1D 4UJ; designation/effective date is taken from Planning Data fields where supplied."},"geometry":{"type":"Point","coordinates":[-0.132823,51.512709]}},{"type":"Feature","id":"lon_planning_designation_listed-building-outline_42168261","properties":{"city_id":"london","event_id":"lon_planning_designation_listed-building-outline_42168261","title":"Listed building outline: High Road - Mecca Bingo Hall (formerly Tottenham Palace Theatre)","short_description":"Planning Data listed-building outline record 800-/26/10004; quality authoritative; LPA Haringey.","year":1992,"effective_date":"1992-12-09","date_precision":"day","category":"built_environment","lens":"built_environment","confidence":"documented","source_ids":["lon-extra-planning-data-listed-building-outlines"],"explanation":"Planning/protection evidence record for High Road - Mecca Bingo Hall (formerly Tottenham Palace Theatre); designation/effective date is taken from Planning Data fields where supplied."},"geometry":{"type":"Point","coordinates":[-0.070603,51.591101]}},{"type":"Feature","id":"lon_planning_designation_listed-building-outline_42168274","properties":{"city_id":"london","event_id":"lon_planning_designation_listed-building-outline_42168274","title":"Listed building outline: Station Road - The Starting Gate P H","short_description":"Planning Data listed-building outline record 800-1/14/10003; quality authoritative; LPA Haringey.","year":1992,"effective_date":"1992-10-14","date_precision":"day","category":"built_environment","lens":"built_environment","confidence":"documented","source_ids":["lon-extra-planning-data-listed-building-outlines"],"explanation":"Planning/protection evidence record for Station Road - The Starting Gate P H; designation/effective date is taken from Planning Data fields where supplied."},"geometry":{"type":"Point","coordinates":[-0.119708,51.598334]}},{"type":"Feature","id":"lon_planning_designation_listed-building-outline_42182949","properties":{"city_id":"london","event_id":"lon_planning_designation_listed-building-outline_42182949","title":"Listed building outline: MORE HOUSE","short_description":"Planning Data listed-building outline record 1235159; quality authoritative; LPA Kensington and Chelsea.","year":1992,"effective_date":"1992-11-04","date_precision":"day","category":"built_environment","lens":"built_environment","confidence":"documented","source_ids":["lon-extra-planning-data-listed-building-outlines"],"explanation":"Planning/protection evidence record for MORE HOUSE; designation/effective date is taken from Planning Data fields where supplied."},"geometry":{"type":"Point","coordinates":[-0.160259,51.485177]}},{"type":"Feature","id":"lon_planning_designation_listed-building-outline_42189316","properties":{"city_id":"london","event_id":"lon_planning_designation_listed-building-outline_42189316","title":"Listed building outline: Hillyfields Sixth Form Centre Eastern Road LEWISHAM","short_description":"Planning Data listed-building outline record 1252990; quality authoritative; LPA Lewisham.","year":1992,"effective_date":"1992-04-27","date_precision":"day","category":"built_environment","lens":"built_environment","confidence":"documented","source_ids":["lon-extra-planning-data-listed-building-outlines"],"explanation":"Planning/protection evidence record for Hillyfields Sixth Form Centre Eastern Road LEWISHAM; designation/effective date is taken from Planning Data fields where supplied."},"geometry":{"type":"Point","coordinates":[-0.025917,51.459359]}},{"type":"Feature","id":"lon_planning_designation_listed-building-outline_42192603","properties":{"city_id":"london","event_id":"lon_planning_designation_listed-building-outline_42192603","title":"Listed building outline: St Matthew C of E Church, St Marys Road, London, NW10 4AU","short_description":"Planning Data listed-building outline record LB92; quality authoritative; LPA Brent.","year":1992,"effective_date":"1992-06-03","date_precision":"day","category":"built_environment","lens":"built_environment","confidence":"documented","source_ids":["lon-extra-planning-data-listed-building-outlines"],"explanation":"Planning/protection evidence record for St Matthew C of E Church, St Marys Road, London, NW10 4AU; designation/effective date is taken from Planning Data fields where supplied."},"geometry":{"type":"Point","coordinates":[-0.248818,51.541744]}},{"type":"Feature","id":"lon_planning_designation_tree-preservation-zone_19130751","properties":{"city_id":"london","event_id":"lon_planning_designation_tree-preservation-zone_19130751","title":"Tree preservation zone: Railway embankment at rear of 2-28 Lugard Road","short_description":"Planning Data tree-preservation zone record 103; quality authoritative; LPA Southwark.","year":1992,"effective_date":"1992-07-24","date_precision":"day","category":"built_environment","lens":"built_environment","confidence":"documented","source_ids":["lon-extra-planning-data-tree-preservation-zones"],"explanation":"Planning/protection evidence record for Railway embankment at rear of 2-28 Lugard Road; designation/effective date is taken from Planning Data fields where supplied."},"geometry":{"type":"Point","coordinates":[-0.058005,51.472741]}},{"type":"Feature","id":"lon_planning_designation_tree-preservation-zone_19140814","properties":{"city_id":"london","event_id":"lon_planning_designation_tree-preservation-zone_19140814","title":"Tree preservation zone: Railway embankment at rear of 2-28 Lugard Road","short_description":"Planning Data tree-preservation zone record 842; quality authoritative; LPA Southwark.","year":1992,"effective_date":"1992-07-24","date_precision":"day","category":"built_environment","lens":"built_environment","confidence":"documented","source_ids":["lon-extra-planning-data-tree-preservation-zones"],"explanation":"Planning/protection evidence record for Railway embankment at rear of 2-28 Lugard Road; designation/effective date is taken from Planning Data fields where supplied."},"geometry":{"type":"Point","coordinates":[-0.058005,51.472741]}}]}
