{"type":"FeatureCollection","schema_version":"1.0.0","city_id":"london","year":1959,"features":[{"type":"Feature","id":"lon_planning_designation_tree-preservation-zone_19139877","properties":{"city_id":"london","event_id":"lon_planning_designation_tree-preservation-zone_19139877","title":"Tree preservation zone: Broad Wood Chaldon","year":1959,"effective_date":"1959-05-21","date_precision":"day","category":"built_environment","lens":"built_environment","confidence":"documented","source_ids":["lon-extra-planning-data-tree-preservation-zones"],"explanation":"Planning/protection evidence record for Broad Wood Chaldon; designation/effective date is taken from Planning Data fields where supplied."},"geometry":{"type":"Point","coordinates":[-0.116369,51.288107]}},{"type":"Feature","id":"lon_planning_designation_tree-preservation-zone_19153383","properties":{"city_id":"london","event_id":"lon_planning_designation_tree-preservation-zone_19153383","title":"Tree preservation zone: STM8_G2","year":1959,"effective_date":"1959-04-27","date_precision":"day","category":"built_environment","lens":"built_environment","confidence":"documented","source_ids":["lon-extra-planning-data-tree-preservation-zones"],"explanation":"Planning/protection evidence record for STM8_G2; designation/effective date is taken from Planning Data fields where supplied."},"geometry":{"type":"Point","coordinates":[-0.178693,51.538978]}},{"type":"Feature","id":"lon_planning_designation_tree-preservation-zone_19153384","properties":{"city_id":"london","event_id":"lon_planning_designation_tree-preservation-zone_19153384","title":"Tree preservation zone: STM8_G1","year":1959,"effective_date":"1959-04-27","date_precision":"day","category":"built_environment","lens":"built_environment","confidence":"documented","source_ids":["lon-extra-planning-data-tree-preservation-zones"],"explanation":"Planning/protection evidence record for STM8_G1; designation/effective date is taken from Planning Data fields where supplied."},"geometry":{"type":"Point","coordinates":[-0.179295,51.539616]}},{"type":"Feature","id":"lon_planning_designation_tree-preservation-zone_19153385","properties":{"city_id":"london","event_id":"lon_planning_designation_tree-preservation-zone_19153385","title":"Tree preservation zone: STM8_G3","year":1959,"effective_date":"1959-04-27","date_precision":"day","category":"built_environment","lens":"built_environment","confidence":"documented","source_ids":["lon-extra-planning-data-tree-preservation-zones"],"explanation":"Planning/protection evidence record for STM8_G3; designation/effective date is taken from Planning Data fields where supplied."},"geometry":{"type":"Point","coordinates":[-0.178825,51.538272]}},{"type":"Feature","id":"lon_planning_designation_tree-preservation-zone_19153386","properties":{"city_id":"london","event_id":"lon_planning_designation_tree-preservation-zone_19153386","title":"Tree preservation zone: STM8_G4","year":1959,"effective_date":"1959-04-27","date_precision":"day","category":"built_environment","lens":"built_environment","confidence":"documented","source_ids":["lon-extra-planning-data-tree-preservation-zones"],"explanation":"Planning/protection evidence record for STM8_G4; designation/effective date is taken from Planning Data fields where supplied."},"geometry":{"type":"Point","coordinates":[-0.179483,51.537249]}},{"type":"Feature","id":"lon_planning_designation_tree-preservation-zone_19153387","properties":{"city_id":"london","event_id":"lon_planning_designation_tree-preservation-zone_19153387","title":"Tree preservation zone: STM8_G5","year":1959,"effective_date":"1959-04-27","date_precision":"day","category":"built_environment","lens":"built_environment","confidence":"documented","source_ids":["lon-extra-planning-data-tree-preservation-zones"],"explanation":"Planning/protection evidence record for STM8_G5; designation/effective date is taken from Planning Data fields where supplied."},"geometry":{"type":"Point","coordinates":[-0.183572,51.537456]}},{"type":"Feature","id":"lon_planning_designation_tree-preservation-zone_19153388","properties":{"city_id":"london","event_id":"lon_planning_designation_tree-preservation-zone_19153388","title":"Tree preservation zone: STM9_G5","year":1959,"effective_date":"1959-05-04","date_precision":"day","category":"built_environment","lens":"built_environment","confidence":"documented","source_ids":["lon-extra-planning-data-tree-preservation-zones"],"explanation":"Planning/protection evidence record for STM9_G5; designation/effective date is taken from Planning Data fields where supplied."},"geometry":{"type":"Point","coordinates":[-0.181538,51.536325]}},{"type":"Feature","id":"lon_planning_designation_tree-preservation-zone_19153389","properties":{"city_id":"london","event_id":"lon_planning_designation_tree-preservation-zone_19153389","title":"Tree preservation zone: STM9_G4","year":1959,"effective_date":"1959-05-04","date_precision":"day","category":"built_environment","lens":"built_environment","confidence":"documented","source_ids":["lon-extra-planning-data-tree-preservation-zones"],"explanation":"Planning/protection evidence record for STM9_G4; designation/effective date is taken from Planning Data fields where supplied."},"geometry":{"type":"Point","coordinates":[-0.181104,51.53648]}},{"type":"Feature","id":"lon_planning_designation_tree-preservation-zone_19153390","properties":{"city_id":"london","event_id":"lon_planning_designation_tree-preservation-zone_19153390","title":"Tree preservation zone: STM9_G7","year":1959,"effective_date":"1959-05-04","date_precision":"day","category":"built_environment","lens":"built_environment","confidence":"documented","source_ids":["lon-extra-planning-data-tree-preservation-zones"],"explanation":"Planning/protection evidence record for STM9_G7; designation/effective date is taken from Planning Data fields where supplied."},"geometry":{"type":"Point","coordinates":[-0.180943,51.535349]}},{"type":"Feature","id":"lon_planning_designation_tree-preservation-zone_19153391","properties":{"city_id":"london","event_id":"lon_planning_designation_tree-preservation-zone_19153391","title":"Tree preservation zone: STM9_G8","year":1959,"effective_date":"1959-05-04","date_precision":"day","category":"built_environment","lens":"built_environment","confidence":"documented","source_ids":["lon-extra-planning-data-tree-preservation-zones"],"explanation":"Planning/protection evidence record for STM9_G8; designation/effective date is taken from Planning Data fields where supplied."},"geometry":{"type":"Point","coordinates":[-0.17899,51.536086]}},{"type":"Feature","id":"lon_planning_designation_tree-preservation-zone_19153392","properties":{"city_id":"london","event_id":"lon_planning_designation_tree-preservation-zone_19153392","title":"Tree preservation zone: STM9_G9","year":1959,"effective_date":"1959-05-04","date_precision":"day","category":"built_environment","lens":"built_environment","confidence":"documented","source_ids":["lon-extra-planning-data-tree-preservation-zones"],"explanation":"Planning/protection evidence record for STM9_G9; designation/effective date is taken from Planning Data fields where supplied."},"geometry":{"type":"Point","coordinates":[-0.180855,51.535664]}},{"type":"Feature","id":"lon_planning_designation_tree-preservation-zone_19153393","properties":{"city_id":"london","event_id":"lon_planning_designation_tree-preservation-zone_19153393","title":"Tree preservation zone: STM9_G1","year":1959,"effective_date":"1959-05-04","date_precision":"day","category":"built_environment","lens":"built_environment","confidence":"documented","source_ids":["lon-extra-planning-data-tree-preservation-zones"],"explanation":"Planning/protection evidence record for STM9_G1; designation/effective date is taken from Planning Data fields where supplied."},"geometry":{"type":"Point","coordinates":[-0.179373,51.5371]}},{"type":"Feature","id":"lon_planning_designation_tree-preservation-zone_19153394","properties":{"city_id":"london","event_id":"lon_planning_designation_tree-preservation-zone_19153394","title":"Tree preservation zone: STM9_G2","year":1959,"effective_date":"1959-05-04","date_precision":"day","category":"built_environment","lens":"built_environment","confidence":"documented","source_ids":["lon-extra-planning-data-tree-preservation-zones"],"explanation":"Planning/protection evidence record for STM9_G2; designation/effective date is taken from Planning Data fields where supplied."},"geometry":{"type":"Point","coordinates":[-0.180091,51.536838]}},{"type":"Feature","id":"lon_planning_designation_tree-preservation-zone_19153395","properties":{"city_id":"london","event_id":"lon_planning_designation_tree-preservation-zone_19153395","title":"Tree preservation zone: STM9_G3","year":1959,"effective_date":"1959-05-04","date_precision":"day","category":"built_environment","lens":"built_environment","confidence":"documented","source_ids":["lon-extra-planning-data-tree-preservation-zones"],"explanation":"Planning/protection evidence record for STM9_G3; designation/effective date is taken from Planning Data fields where supplied."},"geometry":{"type":"Point","coordinates":[-0.180408,51.536733]}},{"type":"Feature","id":"lon_planning_designation_tree-preservation-zone_19153396","properties":{"city_id":"london","event_id":"lon_planning_designation_tree-preservation-zone_19153396","title":"Tree preservation zone: STM9_G10","year":1959,"effective_date":"1959-05-04","date_precision":"day","category":"built_environment","lens":"built_environment","confidence":"documented","source_ids":["lon-extra-planning-data-tree-preservation-zones"],"explanation":"Planning/protection evidence record for STM9_G10; designation/effective date is taken from Planning Data fields where supplied."},"geometry":{"type":"Point","coordinates":[-0.179946,51.534918]}},{"type":"Feature","id":"lon_planning_designation_tree-preservation-zone_19153397","properties":{"city_id":"london","event_id":"lon_planning_designation_tree-preservation-zone_19153397","title":"Tree preservation zone: STM9_G11","year":1959,"effective_date":"1959-05-04","date_precision":"day","category":"built_environment","lens":"built_environment","confidence":"documented","source_ids":["lon-extra-planning-data-tree-preservation-zones"],"explanation":"Planning/protection evidence record for STM9_G11; designation/effective date is taken from Planning Data fields where supplied."},"geometry":{"type":"Point","coordinates":[-0.181506,51.535797]}},{"type":"Feature","id":"lon_planning_designation_tree-preservation-zone_19153398","properties":{"city_id":"london","event_id":"lon_planning_designation_tree-preservation-zone_19153398","title":"Tree preservation zone: STM9_G12","year":1959,"effective_date":"1959-05-04","date_precision":"day","category":"built_environment","lens":"built_environment","confidence":"documented","source_ids":["lon-extra-planning-data-tree-preservation-zones"],"explanation":"Planning/protection evidence record for STM9_G12; designation/effective date is taken from Planning Data fields where supplied."},"geometry":{"type":"Point","coordinates":[-0.181859,51.536103]}},{"type":"Feature","id":"lon_planning_designation_tree-preservation-zone_19153399","properties":{"city_id":"london","event_id":"lon_planning_designation_tree-preservation-zone_19153399","title":"Tree preservation zone: STM9_G13","year":1959,"effective_date":"1959-05-04","date_precision":"day","category":"built_environment","lens":"built_environment","confidence":"documented","source_ids":["lon-extra-planning-data-tree-preservation-zones"],"explanation":"Planning/protection evidence record for STM9_G13; designation/effective date is taken from Planning Data fields where supplied."},"geometry":{"type":"Point","coordinates":[-0.179627,51.535033]}},{"type":"Feature","id":"lon_planning_designation_tree-preservation-zone_19153400","properties":{"city_id":"london","event_id":"lon_planning_designation_tree-preservation-zone_19153400","title":"Tree preservation zone: STM9_G14","year":1959,"effective_date":"1959-05-04","date_precision":"day","category":"built_environment","lens":"built_environment","confidence":"documented","source_ids":["lon-extra-planning-data-tree-preservation-zones"],"explanation":"Planning/protection evidence record for STM9_G14; designation/effective date is taken from Planning Data fields where supplied."},"geometry":{"type":"Point","coordinates":[-0.179425,51.535108]}},{"type":"Feature","id":"lon_planning_designation_tree-preservation-zone_19153401","properties":{"city_id":"london","event_id":"lon_planning_designation_tree-preservation-zone_19153401","title":"Tree preservation zone: STM9_G15","year":1959,"effective_date":"1959-05-04","date_precision":"day","category":"built_environment","lens":"built_environment","confidence":"documented","source_ids":["lon-extra-planning-data-tree-preservation-zones"],"explanation":"Planning/protection evidence record for STM9_G15; designation/effective date is taken from Planning Data fields where supplied."},"geometry":{"type":"Point","coordinates":[-0.179224,51.535181]}},{"type":"Feature","id":"lon_planning_designation_tree-preservation-zone_19153402","properties":{"city_id":"london","event_id":"lon_planning_designation_tree-preservation-zone_19153402","title":"Tree preservation zone: STM11_G1","year":1959,"effective_date":"1959-05-12","date_precision":"day","category":"built_environment","lens":"built_environment","confidence":"documented","source_ids":["lon-extra-planning-data-tree-preservation-zones"],"explanation":"Planning/protection evidence record for STM11_G1; designation/effective date is taken from Planning Data fields where supplied."},"geometry":{"type":"Point","coordinates":[-0.188084,51.534749]}},{"type":"Feature","id":"lon_planning_designation_tree-preservation-zone_19153403","properties":{"city_id":"london","event_id":"lon_planning_designation_tree-preservation-zone_19153403","title":"Tree preservation zone: STM11_G2","year":1959,"effective_date":"1959-05-12","date_precision":"day","category":"built_environment","lens":"built_environment","confidence":"documented","source_ids":["lon-extra-planning-data-tree-preservation-zones"],"explanation":"Planning/protection evidence record for STM11_G2; designation/effective date is taken from Planning Data fields where supplied."},"geometry":{"type":"Point","coordinates":[-0.187626,51.535022]}},{"type":"Feature","id":"lon_planning_designation_tree-preservation-zone_19153404","properties":{"city_id":"london","event_id":"lon_planning_designation_tree-preservation-zone_19153404","title":"Tree preservation zone: STM11_G3","year":1959,"effective_date":"1959-05-12","date_precision":"day","category":"built_environment","lens":"built_environment","confidence":"documented","source_ids":["lon-extra-planning-data-tree-preservation-zones"],"explanation":"Planning/protection evidence record for STM11_G3; designation/effective date is taken from Planning Data fields where supplied."},"geometry":{"type":"Point","coordinates":[-0.186542,51.535721]}},{"type":"Feature","id":"lon_planning_designation_tree-preservation-zone_19153405","properties":{"city_id":"london","event_id":"lon_planning_designation_tree-preservation-zone_19153405","title":"Tree preservation zone: STM11_G4","year":1959,"effective_date":"1959-05-12","date_precision":"day","category":"built_environment","lens":"built_environment","confidence":"documented","source_ids":["lon-extra-planning-data-tree-preservation-zones"],"explanation":"Planning/protection evidence record for STM11_G4; designation/effective date is taken from Planning Data fields where supplied."},"geometry":{"type":"Point","coordinates":[-0.185826,51.535214]}},{"type":"Feature","id":"lon_planning_designation_tree-preservation-zone_19153406","properties":{"city_id":"london","event_id":"lon_planning_designation_tree-preservation-zone_19153406","title":"Tree preservation zone: STM10_G1","year":1959,"effective_date":"1959-05-28","date_precision":"day","category":"built_environment","lens":"built_environment","confidence":"documented","source_ids":["lon-extra-planning-data-tree-preservation-zones"],"explanation":"Planning/protection evidence record for STM10_G1; designation/effective date is taken from Planning Data fields where supplied."},"geometry":{"type":"Point","coordinates":[-0.178363,51.534477]}},{"type":"Feature","id":"lon_planning_designation_tree-preservation-zone_19153407","properties":{"city_id":"london","event_id":"lon_planning_designation_tree-preservation-zone_19153407","title":"Tree preservation zone: STM10_G2","year":1959,"effective_date":"1959-05-28","date_precision":"day","category":"built_environment","lens":"built_environment","confidence":"documented","source_ids":["lon-extra-planning-data-tree-preservation-zones"],"explanation":"Planning/protection evidence record for STM10_G2; designation/effective date is taken from Planning Data fields where supplied."},"geometry":{"type":"Point","coordinates":[-0.178876,51.534238]}},{"type":"Feature","id":"lon_planning_designation_tree-preservation-zone_19153408","properties":{"city_id":"london","event_id":"lon_planning_designation_tree-preservation-zone_19153408","title":"Tree preservation zone: STM10_G9","year":1959,"effective_date":"1959-05-28","date_precision":"day","category":"built_environment","lens":"built_environment","confidence":"documented","source_ids":["lon-extra-planning-data-tree-preservation-zones"],"explanation":"Planning/protection evidence record for STM10_G9; designation/effective date is taken from Planning Data fields where supplied."},"geometry":{"type":"Point","coordinates":[-0.176445,51.53425]}},{"type":"Feature","id":"lon_planning_designation_tree-preservation-zone_19153409","properties":{"city_id":"london","event_id":"lon_planning_designation_tree-preservation-zone_19153409","title":"Tree preservation zone: STM10_G10","year":1959,"effective_date":"1959-05-28","date_precision":"day","category":"built_environment","lens":"built_environment","confidence":"documented","source_ids":["lon-extra-planning-data-tree-preservation-zones"],"explanation":"Planning/protection evidence record for STM10_G10; designation/effective date is taken from Planning Data fields where supplied."},"geometry":{"type":"Point","coordinates":[-0.179323,51.534043]}},{"type":"Feature","id":"lon_planning_designation_tree-preservation-zone_19153410","properties":{"city_id":"london","event_id":"lon_planning_designation_tree-preservation-zone_19153410","title":"Tree preservation zone: STM10_G8","year":1959,"effective_date":"1959-05-28","date_precision":"day","category":"built_environment","lens":"built_environment","confidence":"documented","source_ids":["lon-extra-planning-data-tree-preservation-zones"],"explanation":"Planning/protection evidence record for STM10_G8; designation/effective date is taken from Planning Data fields where supplied."},"geometry":{"type":"Point","coordinates":[-0.176671,51.534405]}},{"type":"Feature","id":"lon_planning_designation_tree-preservation-zone_19153411","properties":{"city_id":"london","event_id":"lon_planning_designation_tree-preservation-zone_19153411","title":"Tree preservation zone: STM10_G5","year":1959,"effective_date":"1959-05-28","date_precision":"day","category":"built_environment","lens":"built_environment","confidence":"documented","source_ids":["lon-extra-planning-data-tree-preservation-zones"],"explanation":"Planning/protection evidence record for STM10_G5; designation/effective date is taken from Planning Data fields where supplied."},"geometry":{"type":"Point","coordinates":[-0.174643,51.534525]}},{"type":"Feature","id":"lon_planning_designation_tree-preservation-zone_19153412","properties":{"city_id":"london","event_id":"lon_planning_designation_tree-preservation-zone_19153412","title":"Tree preservation zone: STM10_G6","year":1959,"effective_date":"1959-05-28","date_precision":"day","category":"built_environment","lens":"built_environment","confidence":"documented","source_ids":["lon-extra-planning-data-tree-preservation-zones"],"explanation":"Planning/protection evidence record for STM10_G6; designation/effective date is taken from Planning Data fields where supplied."},"geometry":{"type":"Point","coordinates":[-0.175142,51.534942]}},{"type":"Feature","id":"lon_planning_designation_tree-preservation-zone_19153413","properties":{"city_id":"london","event_id":"lon_planning_designation_tree-preservation-zone_19153413","title":"Tree preservation zone: STM10_G7","year":1959,"effective_date":"1959-05-28","date_precision":"day","category":"built_environment","lens":"built_environment","confidence":"documented","source_ids":["lon-extra-planning-data-tree-preservation-zones"],"explanation":"Planning/protection evidence record for STM10_G7; designation/effective date is taken from Planning Data fields where supplied."},"geometry":{"type":"Point","coordinates":[-0.175605,51.535324]}},{"type":"Feature","id":"lon_planning_designation_tree-preservation-zone_19153414","properties":{"city_id":"london","event_id":"lon_planning_designation_tree-preservation-zone_19153414","title":"Tree preservation zone: STM10_G11","year":1959,"effective_date":"1959-05-28","date_precision":"day","category":"built_environment","lens":"built_environment","confidence":"documented","source_ids":["lon-extra-planning-data-tree-preservation-zones"],"explanation":"Planning/protection evidence record for STM10_G11; designation/effective date is taken from Planning Data fields where supplied."},"geometry":{"type":"Point","coordinates":[-0.176586,51.535166]}},{"type":"Feature","id":"lon_planning_designation_tree-preservation-zone_19153415","properties":{"city_id":"london","event_id":"lon_planning_designation_tree-preservation-zone_19153415","title":"Tree preservation zone: STM12_G2","year":1959,"effective_date":"1959-06-22","date_precision":"day","category":"built_environment","lens":"built_environment","confidence":"documented","source_ids":["lon-extra-planning-data-tree-preservation-zones"],"explanation":"Planning/protection evidence record for STM12_G2; designation/effective date is taken from Planning Data fields where supplied."},"geometry":{"type":"Point","coordinates":[-0.182826,51.535485]}},{"type":"Feature","id":"lon_planning_designation_tree-preservation-zone_19153416","properties":{"city_id":"london","event_id":"lon_planning_designation_tree-preservation-zone_19153416","title":"Tree preservation zone: STM12_G1","year":1959,"effective_date":"1959-06-22","date_precision":"day","category":"built_environment","lens":"built_environment","confidence":"documented","source_ids":["lon-extra-planning-data-tree-preservation-zones"],"explanation":"Planning/protection evidence record for STM12_G1; designation/effective date is taken from Planning Data fields where supplied."},"geometry":{"type":"Point","coordinates":[-0.183714,51.53533]}},{"type":"Feature","id":"lon_planning_designation_tree-preservation-zone_19153417","properties":{"city_id":"london","event_id":"lon_planning_designation_tree-preservation-zone_19153417","title":"Tree preservation zone: STM12_G3","year":1959,"effective_date":"1959-06-22","date_precision":"day","category":"built_environment","lens":"built_environment","confidence":"documented","source_ids":["lon-extra-planning-data-tree-preservation-zones"],"explanation":"Planning/protection evidence record for STM12_G3; designation/effective date is taken from Planning Data fields where supplied."},"geometry":{"type":"Point","coordinates":[-0.18307,51.533513]}},{"type":"Feature","id":"lon_planning_designation_tree-preservation-zone_19153418","properties":{"city_id":"london","event_id":"lon_planning_designation_tree-preservation-zone_19153418","title":"Tree preservation zone: STM14_A1","year":1959,"effective_date":"1959-07-10","date_precision":"day","category":"built_environment","lens":"built_environment","confidence":"documented","source_ids":["lon-extra-planning-data-tree-preservation-zones"],"explanation":"Planning/protection evidence record for STM14_A1; designation/effective date is taken from Planning Data fields where supplied."},"geometry":{"type":"Point","coordinates":[-0.179775,51.531508]}},{"type":"Feature","id":"lon_planning_designation_tree-preservation-zone_19153419","properties":{"city_id":"london","event_id":"lon_planning_designation_tree-preservation-zone_19153419","title":"Tree preservation zone: STM14_G1","year":1959,"effective_date":"1959-07-10","date_precision":"day","category":"built_environment","lens":"built_environment","confidence":"documented","source_ids":["lon-extra-planning-data-tree-preservation-zones"],"explanation":"Planning/protection evidence record for STM14_G1; designation/effective date is taken from Planning Data fields where supplied."},"geometry":{"type":"Point","coordinates":[-0.178805,51.529858]}},{"type":"Feature","id":"lon_planning_designation_tree-preservation-zone_19153420","properties":{"city_id":"london","event_id":"lon_planning_designation_tree-preservation-zone_19153420","title":"Tree preservation zone: STM14_G2","year":1959,"effective_date":"1959-07-10","date_precision":"day","category":"built_environment","lens":"built_environment","confidence":"documented","source_ids":["lon-extra-planning-data-tree-preservation-zones"],"explanation":"Planning/protection evidence record for STM14_G2; designation/effective date is taken from Planning Data fields where supplied."},"geometry":{"type":"Point","coordinates":[-0.17847,51.529858]}},{"type":"Feature","id":"lon_planning_designation_tree-preservation-zone_19153421","properties":{"city_id":"london","event_id":"lon_planning_designation_tree-preservation-zone_19153421","title":"Tree preservation zone: STM14_G3","year":1959,"effective_date":"1959-07-10","date_precision":"day","category":"built_environment","lens":"built_environment","confidence":"documented","source_ids":["lon-extra-planning-data-tree-preservation-zones"],"explanation":"Planning/protection evidence record for STM14_G3; designation/effective date is taken from Planning Data fields where supplied."},"geometry":{"type":"Point","coordinates":[-0.177682,51.530224]}},{"type":"Feature","id":"lon_planning_designation_tree-preservation-zone_19153422","properties":{"city_id":"london","event_id":"lon_planning_designation_tree-preservation-zone_19153422","title":"Tree preservation zone: STM14_G5","year":1959,"effective_date":"1959-07-10","date_precision":"day","category":"built_environment","lens":"built_environment","confidence":"documented","source_ids":["lon-extra-planning-data-tree-preservation-zones"],"explanation":"Planning/protection evidence record for STM14_G5; designation/effective date is taken from Planning Data fields where supplied."},"geometry":{"type":"Point","coordinates":[-0.179056,51.531147]}},{"type":"Feature","id":"lon_planning_designation_tree-preservation-zone_19153423","properties":{"city_id":"london","event_id":"lon_planning_designation_tree-preservation-zone_19153423","title":"Tree preservation zone: STM14_G4","year":1959,"effective_date":"1959-07-10","date_precision":"day","category":"built_environment","lens":"built_environment","confidence":"documented","source_ids":["lon-extra-planning-data-tree-preservation-zones"],"explanation":"Planning/protection evidence record for STM14_G4; designation/effective date is taken from Planning Data fields where supplied."},"geometry":{"type":"Point","coordinates":[-0.179693,51.530853]}},{"type":"Feature","id":"lon_planning_designation_tree-preservation-zone_19153424","properties":{"city_id":"london","event_id":"lon_planning_designation_tree-preservation-zone_19153424","title":"Tree preservation zone: STM13_G4","year":1959,"effective_date":"1959-08-19","date_precision":"day","category":"built_environment","lens":"built_environment","confidence":"documented","source_ids":["lon-extra-planning-data-tree-preservation-zones"],"explanation":"Planning/protection evidence record for STM13_G4; designation/effective date is taken from Planning Data fields where supplied."},"geometry":{"type":"Point","coordinates":[-0.183586,51.533141]}},{"type":"Feature","id":"lon_planning_designation_tree-preservation-zone_19153425","properties":{"city_id":"london","event_id":"lon_planning_designation_tree-preservation-zone_19153425","title":"Tree preservation zone: STM13_G3","year":1959,"effective_date":"1959-08-19","date_precision":"day","category":"built_environment","lens":"built_environment","confidence":"documented","source_ids":["lon-extra-planning-data-tree-preservation-zones"],"explanation":"Planning/protection evidence record for STM13_G3; designation/effective date is taken from Planning Data fields where supplied."},"geometry":{"type":"Point","coordinates":[-0.180312,51.534508]}},{"type":"Feature","id":"lon_planning_designation_tree-preservation-zone_19153426","properties":{"city_id":"london","event_id":"lon_planning_designation_tree-preservation-zone_19153426","title":"Tree preservation zone: STM13_G2","year":1959,"effective_date":"1959-08-19","date_precision":"day","category":"built_environment","lens":"built_environment","confidence":"documented","source_ids":["lon-extra-planning-data-tree-preservation-zones"],"explanation":"Planning/protection evidence record for STM13_G2; designation/effective date is taken from Planning Data fields where supplied."},"geometry":{"type":"Point","coordinates":[-0.179654,51.533983]}},{"type":"Feature","id":"lon_planning_designation_tree-preservation-zone_19153427","properties":{"city_id":"london","event_id":"lon_planning_designation_tree-preservation-zone_19153427","title":"Tree preservation zone: STM13_G1","year":1959,"effective_date":"1959-08-19","date_precision":"day","category":"built_environment","lens":"built_environment","confidence":"documented","source_ids":["lon-extra-planning-data-tree-preservation-zones"],"explanation":"Planning/protection evidence record for STM13_G1; designation/effective date is taken from Planning Data fields where supplied."},"geometry":{"type":"Point","coordinates":[-0.179175,51.533528]}},{"type":"Feature","id":"lon_planning_designation_tree-preservation-zone_19153428","properties":{"city_id":"london","event_id":"lon_planning_designation_tree-preservation-zone_19153428","title":"Tree preservation zone: STM16_G1","year":1959,"effective_date":"1959-08-24","date_precision":"day","category":"built_environment","lens":"built_environment","confidence":"documented","source_ids":["lon-extra-planning-data-tree-preservation-zones"],"explanation":"Planning/protection evidence record for STM16_G1; designation/effective date is taken from Planning Data fields where supplied."},"geometry":{"type":"Point","coordinates":[-0.178417,51.52967]}},{"type":"Feature","id":"lon_planning_designation_tree-preservation-zone_19153429","properties":{"city_id":"london","event_id":"lon_planning_designation_tree-preservation-zone_19153429","title":"Tree preservation zone: STM16_G2","year":1959,"effective_date":"1959-08-24","date_precision":"day","category":"built_environment","lens":"built_environment","confidence":"documented","source_ids":["lon-extra-planning-data-tree-preservation-zones"],"explanation":"Planning/protection evidence record for STM16_G2; designation/effective date is taken from Planning Data fields where supplied."},"geometry":{"type":"Point","coordinates":[-0.177938,51.529885]}},{"type":"Feature","id":"lon_planning_designation_tree-preservation-zone_19153430","properties":{"city_id":"london","event_id":"lon_planning_designation_tree-preservation-zone_19153430","title":"Tree preservation zone: STM16_G3","year":1959,"effective_date":"1959-08-24","date_precision":"day","category":"built_environment","lens":"built_environment","confidence":"documented","source_ids":["lon-extra-planning-data-tree-preservation-zones"],"explanation":"Planning/protection evidence record for STM16_G3; designation/effective date is taken from Planning Data fields where supplied."},"geometry":{"type":"Point","coordinates":[-0.17751,51.530093]}},{"type":"Feature","id":"lon_planning_designation_tree-preservation-zone_19153431","properties":{"city_id":"london","event_id":"lon_planning_designation_tree-preservation-zone_19153431","title":"Tree preservation zone: STM16_G4","year":1959,"effective_date":"1959-08-24","date_precision":"day","category":"built_environment","lens":"built_environment","confidence":"documented","source_ids":["lon-extra-planning-data-tree-preservation-zones"],"explanation":"Planning/protection evidence record for STM16_G4; designation/effective date is taken from Planning Data fields where supplied."},"geometry":{"type":"Point","coordinates":[-0.177114,51.530276]}},{"type":"Feature","id":"lon_planning_designation_tree-preservation-zone_19153432","properties":{"city_id":"london","event_id":"lon_planning_designation_tree-preservation-zone_19153432","title":"Tree preservation zone: STM16_G5","year":1959,"effective_date":"1959-08-24","date_precision":"day","category":"built_environment","lens":"built_environment","confidence":"documented","source_ids":["lon-extra-planning-data-tree-preservation-zones"],"explanation":"Planning/protection evidence record for STM16_G5; designation/effective date is taken from Planning Data fields where supplied."},"geometry":{"type":"Point","coordinates":[-0.176735,51.530427]}},{"type":"Feature","id":"lon_planning_designation_tree-preservation-zone_19153433","properties":{"city_id":"london","event_id":"lon_planning_designation_tree-preservation-zone_19153433","title":"Tree preservation zone: STM16_G6","year":1959,"effective_date":"1959-08-24","date_precision":"day","category":"built_environment","lens":"built_environment","confidence":"documented","source_ids":["lon-extra-planning-data-tree-preservation-zones"],"explanation":"Planning/protection evidence record for STM16_G6; designation/effective date is taken from Planning Data fields where supplied."},"geometry":{"type":"Point","coordinates":[-0.176671,51.530255]}},{"type":"Feature","id":"lon_planning_designation_tree-preservation-zone_19153434","properties":{"city_id":"london","event_id":"lon_planning_designation_tree-preservation-zone_19153434","title":"Tree preservation zone: STM16_G7","year":1959,"effective_date":"1959-08-24","date_precision":"day","category":"built_environment","lens":"built_environment","confidence":"documented","source_ids":["lon-extra-planning-data-tree-preservation-zones"],"explanation":"Planning/protection evidence record for STM16_G7; designation/effective date is taken from Planning Data fields where supplied."},"geometry":{"type":"Point","coordinates":[-0.176587,51.529639]}},{"type":"Feature","id":"lon_planning_designation_tree-preservation-zone_19153435","properties":{"city_id":"london","event_id":"lon_planning_designation_tree-preservation-zone_19153435","title":"Tree preservation zone: STM16_G8","year":1959,"effective_date":"1959-08-24","date_precision":"day","category":"built_environment","lens":"built_environment","confidence":"documented","source_ids":["lon-extra-planning-data-tree-preservation-zones"],"explanation":"Planning/protection evidence record for STM16_G8; designation/effective date is taken from Planning Data fields where supplied."},"geometry":{"type":"Point","coordinates":[-0.178363,51.526138]}},{"type":"Feature","id":"lon_planning_designation_tree-preservation-zone_19153436","properties":{"city_id":"london","event_id":"lon_planning_designation_tree-preservation-zone_19153436","title":"Tree preservation zone: STM16_G9","year":1959,"effective_date":"1959-08-24","date_precision":"day","category":"built_environment","lens":"built_environment","confidence":"documented","source_ids":["lon-extra-planning-data-tree-preservation-zones"],"explanation":"Planning/protection evidence record for STM16_G9; designation/effective date is taken from Planning Data fields where supplied."},"geometry":{"type":"Point","coordinates":[-0.178083,51.525976]}},{"type":"Feature","id":"lon_planning_designation_tree-preservation-zone_19153437","properties":{"city_id":"london","event_id":"lon_planning_designation_tree-preservation-zone_19153437","title":"Tree preservation zone: STM17_G1","year":1959,"effective_date":"1959-09-03","date_precision":"day","category":"built_environment","lens":"built_environment","confidence":"documented","source_ids":["lon-extra-planning-data-tree-preservation-zones"],"explanation":"Planning/protection evidence record for STM17_G1; designation/effective date is taken from Planning Data fields where supplied."},"geometry":{"type":"Point","coordinates":[-0.176341,51.530948]}},{"type":"Feature","id":"lon_planning_designation_tree-preservation-zone_19153438","properties":{"city_id":"london","event_id":"lon_planning_designation_tree-preservation-zone_19153438","title":"Tree preservation zone: STM17_G5","year":1959,"effective_date":"1959-09-03","date_precision":"day","category":"built_environment","lens":"built_environment","confidence":"documented","source_ids":["lon-extra-planning-data-tree-preservation-zones"],"explanation":"Planning/protection evidence record for STM17_G5; designation/effective date is taken from Planning Data fields where supplied."},"geometry":{"type":"Point","coordinates":[-0.174451,51.53241]}},{"type":"Feature","id":"lon_planning_designation_tree-preservation-zone_19153439","properties":{"city_id":"london","event_id":"lon_planning_designation_tree-preservation-zone_19153439","title":"Tree preservation zone: STM17_G2","year":1959,"effective_date":"1959-09-03","date_precision":"day","category":"built_environment","lens":"built_environment","confidence":"documented","source_ids":["lon-extra-planning-data-tree-preservation-zones"],"explanation":"Planning/protection evidence record for STM17_G2; designation/effective date is taken from Planning Data fields where supplied."},"geometry":{"type":"Point","coordinates":[-0.176745,51.531486]}},{"type":"Feature","id":"lon_planning_designation_tree-preservation-zone_19153440","properties":{"city_id":"london","event_id":"lon_planning_designation_tree-preservation-zone_19153440","title":"Tree preservation zone: STM17_G3","year":1959,"effective_date":"1959-09-03","date_precision":"day","category":"built_environment","lens":"built_environment","confidence":"documented","source_ids":["lon-extra-planning-data-tree-preservation-zones"],"explanation":"Planning/protection evidence record for STM17_G3; designation/effective date is taken from Planning Data fields where supplied."},"geometry":{"type":"Point","coordinates":[-0.176815,51.531861]}},{"type":"Feature","id":"lon_planning_designation_tree-preservation-zone_19153441","properties":{"city_id":"london","event_id":"lon_planning_designation_tree-preservation-zone_19153441","title":"Tree preservation zone: STM18_G1","year":1959,"effective_date":"1959-09-09","date_precision":"day","category":"built_environment","lens":"built_environment","confidence":"documented","source_ids":["lon-extra-planning-data-tree-preservation-zones"],"explanation":"Planning/protection evidence record for STM18_G1; designation/effective date is taken from Planning Data fields where supplied."},"geometry":{"type":"Point","coordinates":[-0.172269,51.532569]}},{"type":"Feature","id":"lon_planning_designation_tree-preservation-zone_19153442","properties":{"city_id":"london","event_id":"lon_planning_designation_tree-preservation-zone_19153442","title":"Tree preservation zone: STM18_G2","year":1959,"effective_date":"1959-09-09","date_precision":"day","category":"built_environment","lens":"built_environment","confidence":"documented","source_ids":["lon-extra-planning-data-tree-preservation-zones"],"explanation":"Planning/protection evidence record for STM18_G2; designation/effective date is taken from Planning Data fields where supplied."},"geometry":{"type":"Point","coordinates":[-0.17371,51.532717]}},{"type":"Feature","id":"lon_planning_designation_tree-preservation-zone_19153443","properties":{"city_id":"london","event_id":"lon_planning_designation_tree-preservation-zone_19153443","title":"Tree preservation zone: STM18_G3","year":1959,"effective_date":"1959-09-09","date_precision":"day","category":"built_environment","lens":"built_environment","confidence":"documented","source_ids":["lon-extra-planning-data-tree-preservation-zones"],"explanation":"Planning/protection evidence record for STM18_G3; designation/effective date is taken from Planning Data fields where supplied."},"geometry":{"type":"Point","coordinates":[-0.174432,51.532142]}},{"type":"Feature","id":"lon_planning_designation_tree-preservation-zone_19153444","properties":{"city_id":"london","event_id":"lon_planning_designation_tree-preservation-zone_19153444","title":"Tree preservation zone: STM18_G5","year":1959,"effective_date":"1959-09-09","date_precision":"day","category":"built_environment","lens":"built_environment","confidence":"documented","source_ids":["lon-extra-planning-data-tree-preservation-zones"],"explanation":"Planning/protection evidence record for STM18_G5; designation/effective date is taken from Planning Data fields where supplied."},"geometry":{"type":"Point","coordinates":[-0.173666,51.532303]}},{"type":"Feature","id":"lon_planning_designation_tree-preservation-zone_19153445","properties":{"city_id":"london","event_id":"lon_planning_designation_tree-preservation-zone_19153445","title":"Tree preservation zone: STM18_G9","year":1959,"effective_date":"1959-09-09","date_precision":"day","category":"built_environment","lens":"built_environment","confidence":"documented","source_ids":["lon-extra-planning-data-tree-preservation-zones"],"explanation":"Planning/protection evidence record for STM18_G9; designation/effective date is taken from Planning Data fields where supplied."},"geometry":{"type":"Point","coordinates":[-0.173307,51.531959]}},{"type":"Feature","id":"lon_planning_designation_tree-preservation-zone_19153446","properties":{"city_id":"london","event_id":"lon_planning_designation_tree-preservation-zone_19153446","title":"Tree preservation zone: STM18_G10","year":1959,"effective_date":"1959-09-09","date_precision":"day","category":"built_environment","lens":"built_environment","confidence":"documented","source_ids":["lon-extra-planning-data-tree-preservation-zones"],"explanation":"Planning/protection evidence record for STM18_G10; designation/effective date is taken from Planning Data fields where supplied."},"geometry":{"type":"Point","coordinates":[-0.172913,51.531639]}},{"type":"Feature","id":"lon_planning_designation_tree-preservation-zone_19153447","properties":{"city_id":"london","event_id":"lon_planning_designation_tree-preservation-zone_19153447","title":"Tree preservation zone: STM18_G6","year":1959,"effective_date":"1959-09-09","date_precision":"day","category":"built_environment","lens":"built_environment","confidence":"documented","source_ids":["lon-extra-planning-data-tree-preservation-zones"],"explanation":"Planning/protection evidence record for STM18_G6; designation/effective date is taken from Planning Data fields where supplied."},"geometry":{"type":"Point","coordinates":[-0.172986,51.532029]}},{"type":"Feature","id":"lon_planning_designation_tree-preservation-zone_19153448","properties":{"city_id":"london","event_id":"lon_planning_designation_tree-preservation-zone_19153448","title":"Tree preservation zone: STM18_G7","year":1959,"effective_date":"1959-09-09","date_precision":"day","category":"built_environment","lens":"built_environment","confidence":"documented","source_ids":["lon-extra-planning-data-tree-preservation-zones"],"explanation":"Planning/protection evidence record for STM18_G7; designation/effective date is taken from Planning Data fields where supplied."},"geometry":{"type":"Point","coordinates":[-0.172316,51.531474]}},{"type":"Feature","id":"lon_planning_designation_tree-preservation-zone_19153449","properties":{"city_id":"london","event_id":"lon_planning_designation_tree-preservation-zone_19153449","title":"Tree preservation zone: STM18_G8","year":1959,"effective_date":"1959-09-09","date_precision":"day","category":"built_environment","lens":"built_environment","confidence":"documented","source_ids":["lon-extra-planning-data-tree-preservation-zones"],"explanation":"Planning/protection evidence record for STM18_G8; designation/effective date is taken from Planning Data fields where supplied."},"geometry":{"type":"Point","coordinates":[-0.171505,51.531222]}},{"type":"Feature","id":"lon_planning_designation_tree-preservation-zone_19153450","properties":{"city_id":"london","event_id":"lon_planning_designation_tree-preservation-zone_19153450","title":"Tree preservation zone: STM18_G4","year":1959,"effective_date":"1959-09-09","date_precision":"day","category":"built_environment","lens":"built_environment","confidence":"documented","source_ids":["lon-extra-planning-data-tree-preservation-zones"],"explanation":"Planning/protection evidence record for STM18_G4; designation/effective date is taken from Planning Data fields where supplied."},"geometry":{"type":"Point","coordinates":[-0.174584,51.531994]}},{"type":"Feature","id":"lon_planning_designation_tree-preservation-zone_19153451","properties":{"city_id":"london","event_id":"lon_planning_designation_tree-preservation-zone_19153451","title":"Tree preservation zone: STM19_G1","year":1959,"effective_date":"1959-09-28","date_precision":"day","category":"built_environment","lens":"built_environment","confidence":"documented","source_ids":["lon-extra-planning-data-tree-preservation-zones"],"explanation":"Planning/protection evidence record for STM19_G1; designation/effective date is taken from Planning Data fields where supplied."},"geometry":{"type":"Point","coordinates":[-0.175174,51.531284]}},{"type":"Feature","id":"lon_planning_designation_tree-preservation-zone_19153452","properties":{"city_id":"london","event_id":"lon_planning_designation_tree-preservation-zone_19153452","title":"Tree preservation zone: STM19_G2","year":1959,"effective_date":"1959-09-28","date_precision":"day","category":"built_environment","lens":"built_environment","confidence":"documented","source_ids":["lon-extra-planning-data-tree-preservation-zones"],"explanation":"Planning/protection evidence record for STM19_G2; designation/effective date is taken from Planning Data fields where supplied."},"geometry":{"type":"Point","coordinates":[-0.175521,51.53102]}},{"type":"Feature","id":"lon_planning_designation_tree-preservation-zone_19153453","properties":{"city_id":"london","event_id":"lon_planning_designation_tree-preservation-zone_19153453","title":"Tree preservation zone: STM19_G3","year":1959,"effective_date":"1959-09-28","date_precision":"day","category":"built_environment","lens":"built_environment","confidence":"documented","source_ids":["lon-extra-planning-data-tree-preservation-zones"],"explanation":"Planning/protection evidence record for STM19_G3; designation/effective date is taken from Planning Data fields where supplied."},"geometry":{"type":"Point","coordinates":[-0.176266,51.530662]}},{"type":"Feature","id":"lon_planning_designation_tree-preservation-zone_19153454","properties":{"city_id":"london","event_id":"lon_planning_designation_tree-preservation-zone_19153454","title":"Tree preservation zone: STM19_G4","year":1959,"effective_date":"1959-09-28","date_precision":"day","category":"built_environment","lens":"built_environment","confidence":"documented","source_ids":["lon-extra-planning-data-tree-preservation-zones"],"explanation":"Planning/protection evidence record for STM19_G4; designation/effective date is taken from Planning Data fields where supplied."},"geometry":{"type":"Point","coordinates":[-0.17636,51.53005]}},{"type":"Feature","id":"lon_planning_designation_tree-preservation-zone_19153455","properties":{"city_id":"london","event_id":"lon_planning_designation_tree-preservation-zone_19153455","title":"Tree preservation zone: STM19_G5","year":1959,"effective_date":"1959-09-28","date_precision":"day","category":"built_environment","lens":"built_environment","confidence":"documented","source_ids":["lon-extra-planning-data-tree-preservation-zones"],"explanation":"Planning/protection evidence record for STM19_G5; designation/effective date is taken from Planning Data fields where supplied."},"geometry":{"type":"Point","coordinates":[-0.176225,51.529554]}},{"type":"Feature","id":"lon_planning_designation_tree-preservation-zone_19153456","properties":{"city_id":"london","event_id":"lon_planning_designation_tree-preservation-zone_19153456","title":"Tree preservation zone: STM19_G6","year":1959,"effective_date":"1959-09-28","date_precision":"day","category":"built_environment","lens":"built_environment","confidence":"documented","source_ids":["lon-extra-planning-data-tree-preservation-zones"],"explanation":"Planning/protection evidence record for STM19_G6; designation/effective date is taken from Planning Data fields where supplied."},"geometry":{"type":"Point","coordinates":[-0.174703,51.530194]}},{"type":"Feature","id":"lon_planning_designation_tree-preservation-zone_19153457","properties":{"city_id":"london","event_id":"lon_planning_designation_tree-preservation-zone_19153457","title":"Tree preservation zone: STM19_G7","year":1959,"effective_date":"1959-09-28","date_precision":"day","category":"built_environment","lens":"built_environment","confidence":"documented","source_ids":["lon-extra-planning-data-tree-preservation-zones"],"explanation":"Planning/protection evidence record for STM19_G7; designation/effective date is taken from Planning Data fields where supplied."},"geometry":{"type":"Point","coordinates":[-0.174498,51.530125]}},{"type":"Feature","id":"lon_planning_designation_tree-preservation-zone_19153458","properties":{"city_id":"london","event_id":"lon_planning_designation_tree-preservation-zone_19153458","title":"Tree preservation zone: STM19_G8","year":1959,"effective_date":"1959-09-28","date_precision":"day","category":"built_environment","lens":"built_environment","confidence":"documented","source_ids":["lon-extra-planning-data-tree-preservation-zones"],"explanation":"Planning/protection evidence record for STM19_G8; designation/effective date is taken from Planning Data fields where supplied."},"geometry":{"type":"Point","coordinates":[-0.174186,51.530272]}},{"type":"Feature","id":"lon_planning_designation_tree-preservation-zone_19153459","properties":{"city_id":"london","event_id":"lon_planning_designation_tree-preservation-zone_19153459","title":"Tree preservation zone: STM20_G1","year":1959,"effective_date":"1959-10-05","date_precision":"day","category":"built_environment","lens":"built_environment","confidence":"documented","source_ids":["lon-extra-planning-data-tree-preservation-zones"],"explanation":"Planning/protection evidence record for STM20_G1; designation/effective date is taken from Planning Data fields where supplied."},"geometry":{"type":"Point","coordinates":[-0.17597,51.528478]}},{"type":"Feature","id":"lon_planning_designation_tree-preservation-zone_19153460","properties":{"city_id":"london","event_id":"lon_planning_designation_tree-preservation-zone_19153460","title":"Tree preservation zone: STM20_G2","year":1959,"effective_date":"1959-10-05","date_precision":"day","category":"built_environment","lens":"built_environment","confidence":"documented","source_ids":["lon-extra-planning-data-tree-preservation-zones"],"explanation":"Planning/protection evidence record for STM20_G2; designation/effective date is taken from Planning Data fields where supplied."},"geometry":{"type":"Point","coordinates":[-0.175697,51.528237]}},{"type":"Feature","id":"lon_planning_designation_tree-preservation-zone_19153461","properties":{"city_id":"london","event_id":"lon_planning_designation_tree-preservation-zone_19153461","title":"Tree preservation zone: STM15_G1","year":1959,"effective_date":"1959-10-14","date_precision":"day","category":"built_environment","lens":"built_environment","confidence":"documented","source_ids":["lon-extra-planning-data-tree-preservation-zones"],"explanation":"Planning/protection evidence record for STM15_G1; designation/effective date is taken from Planning Data fields where supplied."},"geometry":{"type":"Point","coordinates":[-0.183461,51.530992]}},{"type":"Feature","id":"lon_planning_designation_tree-preservation-zone_19153462","properties":{"city_id":"london","event_id":"lon_planning_designation_tree-preservation-zone_19153462","title":"Tree preservation zone: STM21_G1","year":1959,"effective_date":"1959-10-22","date_precision":"day","category":"built_environment","lens":"built_environment","confidence":"documented","source_ids":["lon-extra-planning-data-tree-preservation-zones"],"explanation":"Planning/protection evidence record for STM21_G1; designation/effective date is taken from Planning Data fields where supplied."},"geometry":{"type":"Point","coordinates":[-0.151589,51.522936]}}]}
