{"type":"FeatureCollection","schema_version":"1.0.0","city_id":"london","year":1858,"features":[{"type":"Feature","id":"london-milestone-1858-bazalgette-sewer-embankments-and-metropolitan-board-of-works-era-2","properties":{"city_id":"london","event_id":"london-milestone-1858-bazalgette-sewer-embankments-and-metropolitan-board-of-works-era-2","title":"Bazalgette sewer embankments and Metropolitan Board of Works era","subtitle":"Thames corridor / 1858 / Documented / UK legislation API for London transport, planning and local government instruments","details":"Major infrastructure reshaped Thames frontage, public health and road space.","year":1858,"effective_date":"1858","date_precision":"range","short_description":"Major infrastructure reshaped Thames frontage, public health and road space.","category":"built_environment","lens":"built_environment","confidence":"documented","source_ids":["legislation-uk-london-acts-orders","national-archives-webarchive"],"affected_area_label":"Thames corridor","explanation":"Major infrastructure reshaped Thames frontage, public health and road space."},"geometry":{"type":"Point","coordinates":[-0.112,51.505]}}],"map_feature_count":1,"withheld_geometry_event_count":0}
