{"type":"FeatureCollection","schema_version":"1.0.0","city_id":"london","year":2021,"features":[{"type":"Feature","id":"london-milestone-2021-current-london-plan-adopted-ulez-expands-to-north-south-circular-28","properties":{"city_id":"london","event_id":"london-milestone-2021-current-london-plan-adopted-ulez-expands-to-north-south-circular-28","title":"Current London Plan adopted; ULEZ expands to North/South Circular","year":2021,"effective_date":"2021","date_precision":"year","category":"built_environment","lens":"built_environment","confidence":"documented","source_ids":["gla-london-plan","gla-laei"],"explanation":"Major planning-policy reset and emissions charging boundary expansion."},"geometry":{"type":"Point","coordinates":[-0.1,51.51]}}]}
