{"type":"FeatureCollection","schema_version":"1.0.0","city_id":"london","year":1985,"features":[{"type":"Feature","id":"lon_planning_designation_conservation-area_44000867","properties":{"city_id":"london","event_id":"lon_planning_designation_conservation-area_44000867","title":"Conservation area record: Renfrew Road","short_description":"Planning Data conservation-area designation record CA41; quality authoritative; LPA Lambeth.","year":1985,"effective_date":"1985-10-28","date_precision":"day","category":"built_environment","lens":"built_environment","confidence":"documented","source_ids":["lon-extra-planning-data-conservation-areas"],"explanation":"Planning/protection evidence record for Renfrew Road; designation/effective date is taken from Planning Data fields where supplied."},"geometry":{"type":"Point","coordinates":[-0.105252,51.491962]}},{"type":"Feature","id":"lon_planning_designation_conservation-area_44001072","properties":{"city_id":"london","event_id":"lon_planning_designation_conservation-area_44001072","title":"Conservation area record: Deodar Road","short_description":"Planning Data conservation-area designation record 3666; quality some; LPA Hammersmith and Fulham.","year":1985,"effective_date":"1985-10-11","date_precision":"day","category":"built_environment","lens":"built_environment","confidence":"documented","source_ids":["lon-extra-planning-data-conservation-areas"],"explanation":"Planning/protection evidence record for Deodar Road; designation/effective date is taken from Planning Data fields where supplied."},"geometry":{"type":"Point","coordinates":[-0.209348,51.464821]}},{"type":"Feature","id":"lon_planning_designation_conservation-area_44002400","properties":{"city_id":"london","event_id":"lon_planning_designation_conservation-area_44002400","title":"Conservation area record: Fairfield and Knights Park","short_description":"Planning Data conservation-area designation record 7000; quality some; LPA Kingston upon Thames.","year":1985,"effective_date":"1985-07-30","date_precision":"day","category":"built_environment","lens":"built_environment","confidence":"documented","source_ids":["lon-extra-planning-data-conservation-areas"],"explanation":"Planning/protection evidence record for Fairfield and Knights Park; designation/effective date is taken from Planning Data fields where supplied."},"geometry":{"type":"Point","coordinates":[-0.298887,51.407971]}},{"type":"Feature","id":"lon_planning_designation_conservation-area_44002795","properties":{"city_id":"london","event_id":"lon_planning_designation_conservation-area_44002795","title":"Conservation area record: Halfway Street","short_description":"Planning Data conservation-area designation record 4819; quality some; LPA Bexley.","year":1985,"effective_date":"1985-11-06","date_precision":"day","category":"built_environment","lens":"built_environment","confidence":"documented","source_ids":["lon-extra-planning-data-conservation-areas"],"explanation":"Planning/protection evidence record for Halfway Street; designation/effective date is taken from Planning Data fields where supplied."},"geometry":{"type":"Point","coordinates":[0.101551,51.436373]}},{"type":"Feature","id":"lon_planning_designation_conservation-area_44002796","properties":{"city_id":"london","event_id":"lon_planning_designation_conservation-area_44002796","title":"Conservation area record: Iron Mill Lane","short_description":"Planning Data conservation-area designation record 4817; quality some; LPA Bexley.","year":1985,"effective_date":"1985-02-20","date_precision":"day","category":"built_environment","lens":"built_environment","confidence":"documented","source_ids":["lon-extra-planning-data-conservation-areas"],"explanation":"Planning/protection evidence record for Iron Mill Lane; designation/effective date is taken from Planning Data fields where supplied."},"geometry":{"type":"Point","coordinates":[0.17517,51.454565]}},{"type":"Feature","id":"lon_planning_designation_conservation-area_44002815","properties":{"city_id":"london","event_id":"lon_planning_designation_conservation-area_44002815","title":"Conservation area record: Barnmead Road, Beckenham","short_description":"Planning Data conservation-area designation record 6953; quality some; LPA Bromley.","year":1985,"effective_date":"1985-01-01","date_precision":"day","category":"built_environment","lens":"built_environment","confidence":"documented","source_ids":["lon-extra-planning-data-conservation-areas"],"explanation":"Planning/protection evidence record for Barnmead Road, Beckenham; designation/effective date is taken from Planning Data fields where supplied."},"geometry":{"type":"Point","coordinates":[-0.044888,51.411332]}},{"type":"Feature","id":"lon_planning_designation_conservation-area_44004086","properties":{"city_id":"london","event_id":"lon_planning_designation_conservation-area_44004086","title":"Conservation area record: Grove Crescent","short_description":"Planning Data conservation-area designation record 7001; quality some; LPA Kingston upon Thames.","year":1985,"effective_date":"1985-07-30","date_precision":"day","category":"built_environment","lens":"built_environment","confidence":"documented","source_ids":["lon-extra-planning-data-conservation-areas"],"explanation":"Planning/protection evidence record for Grove Crescent; designation/effective date is taken from Planning Data fields where supplied."},"geometry":{"type":"Point","coordinates":[-0.300985,51.403833]}},{"type":"Feature","id":"lon_planning_designation_conservation-area_44005401","properties":{"city_id":"london","event_id":"lon_planning_designation_conservation-area_44005401","title":"Conservation area record: Wimbeldon Broadway","short_description":"Planning Data conservation-area designation record 2598; quality some; LPA Merton.","year":1985,"effective_date":"1985-01-01","date_precision":"day","category":"built_environment","lens":"built_environment","confidence":"documented","source_ids":["lon-extra-planning-data-conservation-areas"],"explanation":"Planning/protection evidence record for Wimbeldon Broadway; designation/effective date is taken from Planning Data fields where supplied."},"geometry":{"type":"Point","coordinates":[-0.204385,51.420497]}},{"type":"Feature","id":"lon_planning_designation_conservation-area_44006241","properties":{"city_id":"london","event_id":"lon_planning_designation_conservation-area_44006241","title":"Conservation area record: Queensbridge Road","short_description":"Planning Data conservation-area designation record 6007; quality some; LPA Hackney.","year":1985,"effective_date":"1985-01-01","date_precision":"day","category":"built_environment","lens":"built_environment","confidence":"documented","source_ids":["lon-extra-planning-data-conservation-areas"],"explanation":"Planning/protection evidence record for Queensbridge Road; designation/effective date is taken from Planning Data fields where supplied."},"geometry":{"type":"Point","coordinates":[-0.069726,51.541533]}},{"type":"Feature","id":"lon_planning_designation_conservation-area_44006530","properties":{"city_id":"london","event_id":"lon_planning_designation_conservation-area_44006530","title":"Conservation area record: The Hollies","short_description":"Planning Data conservation-area designation record 4818; quality some; LPA Bexley.","year":1985,"effective_date":"1985-05-01","date_precision":"day","category":"built_environment","lens":"built_environment","confidence":"documented","source_ids":["lon-extra-planning-data-conservation-areas"],"explanation":"Planning/protection evidence record for The Hollies; designation/effective date is taken from Planning Data fields where supplied."},"geometry":{"type":"Point","coordinates":[0.099336,51.439788]}},{"type":"Feature","id":"lon_planning_designation_conservation-area_44006549","properties":{"city_id":"london","event_id":"lon_planning_designation_conservation-area_44006549","title":"Conservation area record: West Hill Road","short_description":"Planning Data conservation-area designation record 3825; quality some; LPA Wandsworth.","year":1985,"effective_date":"1985-10-30","date_precision":"day","category":"built_environment","lens":"built_environment","confidence":"documented","source_ids":["lon-extra-planning-data-conservation-areas"],"explanation":"Planning/protection evidence record for West Hill Road; designation/effective date is taken from Planning Data fields where supplied."},"geometry":{"type":"Point","coordinates":[-0.201772,51.452159]}},{"type":"Feature","id":"lon_planning_designation_conservation-area_44007144","properties":{"city_id":"london","event_id":"lon_planning_designation_conservation-area_44007144","title":"Conservation area record: The Priory, Orpington","short_description":"Planning Data conservation-area designation record 6986; quality some; LPA Bromley.","year":1985,"effective_date":"1985-01-01","date_precision":"day","category":"built_environment","lens":"built_environment","confidence":"documented","source_ids":["lon-extra-planning-data-conservation-areas"],"explanation":"Planning/protection evidence record for The Priory, Orpington; designation/effective date is taken from Planning Data fields where supplied."},"geometry":{"type":"Point","coordinates":[0.10423,51.379097]}},{"type":"Feature","id":"lon_planning_designation_conservation-area_44009025","properties":{"city_id":"london","event_id":"lon_planning_designation_conservation-area_44009025","title":"Conservation area record: Bromley Town Centre","short_description":"Planning Data conservation-area designation record 6964; quality some; LPA Bromley.","year":1985,"effective_date":"1985-01-01","date_precision":"day","category":"built_environment","lens":"built_environment","confidence":"documented","source_ids":["lon-extra-planning-data-conservation-areas"],"explanation":"Planning/protection evidence record for Bromley Town Centre; designation/effective date is taken from Planning Data fields where supplied."},"geometry":{"type":"Point","coordinates":[0.012447,51.40538]}},{"type":"Feature","id":"lon_planning_designation_conservation-area_44009042","properties":{"city_id":"london","event_id":"lon_planning_designation_conservation-area_44009042","title":"Conservation area record: Cudham Village","short_description":"Planning Data conservation-area designation record 6973; quality some; LPA Bromley.","year":1985,"effective_date":"1985-01-01","date_precision":"day","category":"built_environment","lens":"built_environment","confidence":"documented","source_ids":["lon-extra-planning-data-conservation-areas"],"explanation":"Planning/protection evidence record for Cudham Village; designation/effective date is taken from Planning Data fields where supplied."},"geometry":{"type":"Point","coordinates":[0.076514,51.318941]}},{"type":"Feature","id":"lon_planning_designation_conservation-area_44009617","properties":{"city_id":"london","event_id":"lon_planning_designation_conservation-area_44009617","title":"Conservation area record: Fitzroy Square","short_description":"Planning Data conservation-area designation record CA14; quality authoritative; LPA Camden.","year":1985,"effective_date":"1985-06-01","date_precision":"day","category":"built_environment","lens":"built_environment","confidence":"documented","source_ids":["lon-extra-planning-data-conservation-areas"],"explanation":"Planning/protection evidence record for Fitzroy Square; designation/effective date is taken from Planning Data fields where supplied."},"geometry":{"type":"Point","coordinates":[-0.139509,51.523176]}},{"type":"Feature","id":"lon_planning_designation_conservation-area_44009634","properties":{"city_id":"london","event_id":"lon_planning_designation_conservation-area_44009634","title":"Conservation area record: Elsworthy","short_description":"Planning Data conservation-area designation record CA11; quality authoritative; LPA Camden.","year":1985,"effective_date":"1985-11-01","date_precision":"day","category":"built_environment","lens":"built_environment","confidence":"documented","source_ids":["lon-extra-planning-data-conservation-areas"],"explanation":"Planning/protection evidence record for Elsworthy; designation/effective date is taken from Planning Data fields where supplied."},"geometry":{"type":"Point","coordinates":[-0.167286,51.540283]}},{"type":"Feature","id":"lon_planning_designation_conservation-area_44009647","properties":{"city_id":"london","event_id":"lon_planning_designation_conservation-area_44009647","title":"Conservation area record: Regents Park","short_description":"Planning Data conservation-area designation record CA33; quality authoritative; LPA Camden.","year":1985,"effective_date":"1985-11-01","date_precision":"day","category":"built_environment","lens":"built_environment","confidence":"documented","source_ids":["lon-extra-planning-data-conservation-areas"],"explanation":"Planning/protection evidence record for Regents Park; designation/effective date is taken from Planning Data fields where supplied."},"geometry":{"type":"Point","coordinates":[-0.146884,51.531597]}},{"type":"Feature","id":"lon_planning_designation_conservation-area_44009648","properties":{"city_id":"london","event_id":"lon_planning_designation_conservation-area_44009648","title":"Conservation area record: Fitzjohns Netherhall","short_description":"Planning Data conservation-area designation record CA13; quality authoritative; LPA Camden.","year":1985,"effective_date":"1985-06-01","date_precision":"day","category":"built_environment","lens":"built_environment","confidence":"documented","source_ids":["lon-extra-planning-data-conservation-areas"],"explanation":"Planning/protection evidence record for Fitzjohns Netherhall; designation/effective date is taken from Planning Data fields where supplied."},"geometry":{"type":"Point","coordinates":[-0.175108,51.551098]}},{"type":"Feature","id":"lon_planning_designation_conservation-area_44009650","properties":{"city_id":"london","event_id":"lon_planning_designation_conservation-area_44009650","title":"Conservation area record: Parkhill","short_description":"Planning Data conservation-area designation record CA28; quality authoritative; LPA Camden.","year":1985,"effective_date":"1985-06-01","date_precision":"day","category":"built_environment","lens":"built_environment","confidence":"documented","source_ids":["lon-extra-planning-data-conservation-areas"],"explanation":"Planning/protection evidence record for Parkhill; designation/effective date is taken from Planning Data fields where supplied."},"geometry":{"type":"Point","coordinates":[-0.160211,51.549858]}},{"type":"Feature","id":"lon_planning_designation_conservation-area_44009885","properties":{"city_id":"london","event_id":"lon_planning_designation_conservation-area_44009885","title":"Conservation area record: Jeffrey's Street","short_description":"Planning Data conservation-area designation record CA22; quality authoritative; LPA Camden.","year":1985,"effective_date":"1985-11-01","date_precision":"day","category":"built_environment","lens":"built_environment","confidence":"documented","source_ids":["lon-extra-planning-data-conservation-areas"],"explanation":"Planning/protection evidence record for Jeffrey's Street; designation/effective date is taken from Planning Data fields where supplied."},"geometry":{"type":"Point","coordinates":[-0.140161,51.54286]}},{"type":"Feature","id":"lon_planning_designation_conservation-area_44010238","properties":{"city_id":"london","event_id":"lon_planning_designation_conservation-area_44010238","title":"Conservation area record: Dulwich Wood","short_description":"Planning Data conservation-area designation record 24; quality authoritative; LPA Lewisham.","year":1985,"effective_date":"1985-09-30","date_precision":"day","category":"built_environment","lens":"built_environment","confidence":"documented","source_ids":["lon-extra-planning-data-conservation-areas"],"explanation":"Planning/protection evidence record for Dulwich Wood; designation/effective date is taken from Planning Data fields where supplied."},"geometry":{"type":"Point","coordinates":[-0.074428,51.438982]}},{"type":"Feature","id":"lon_planning_designation_conservation-area_44010239","properties":{"city_id":"london","event_id":"lon_planning_designation_conservation-area_44010239","title":"Conservation area record: Pages Walk","short_description":"Planning Data conservation-area designation record 25; quality authoritative; LPA Southwark.","year":1985,"effective_date":"1985-06-30","date_precision":"day","category":"built_environment","lens":"built_environment","confidence":"documented","source_ids":["lon-extra-planning-data-conservation-areas"],"explanation":"Planning/protection evidence record for Pages Walk; designation/effective date is taken from Planning Data fields where supplied."},"geometry":{"type":"Point","coordinates":[-0.081558,51.493706]}},{"type":"Feature","id":"lon_planning_designation_conservation-area_44010240","properties":{"city_id":"london","event_id":"lon_planning_designation_conservation-area_44010240","title":"Conservation area record: Honor Oak Rise","short_description":"Planning Data conservation-area designation record 26; quality authoritative; LPA Lewisham.","year":1985,"effective_date":"1985-09-29","date_precision":"day","category":"built_environment","lens":"built_environment","confidence":"documented","source_ids":["lon-extra-planning-data-conservation-areas"],"explanation":"Planning/protection evidence record for Honor Oak Rise; designation/effective date is taken from Planning Data fields where supplied."},"geometry":{"type":"Point","coordinates":[-0.05423,51.45003]}},{"type":"Feature","id":"lon_planning_designation_conservation-area_44012775","properties":{"city_id":"london","event_id":"lon_planning_designation_conservation-area_44012775","title":"Conservation area record: Nevern Square","short_description":"Planning Data conservation-area designation record 17; quality authoritative; LPA Kensington and Chelsea.","year":1985,"effective_date":"1985-01-01","date_precision":"day","category":"built_environment","lens":"built_environment","confidence":"documented","source_ids":["lon-extra-planning-data-conservation-areas"],"explanation":"Planning/protection evidence record for Nevern Square; designation/effective date is taken from Planning Data fields where supplied."},"geometry":{"type":"Point","coordinates":[-0.196408,51.492338]}},{"type":"Feature","id":"lon_planning_designation_conservation-area_44012790","properties":{"city_id":"london","event_id":"lon_planning_designation_conservation-area_44012790","title":"Conservation area record: Brompton Cemetery","short_description":"Planning Data conservation-area designation record 32; quality authoritative; LPA Hammersmith and Fulham.","year":1985,"effective_date":"1985-01-01","date_precision":"day","category":"built_environment","lens":"built_environment","confidence":"documented","source_ids":["lon-extra-planning-data-conservation-areas"],"explanation":"Planning/protection evidence record for Brompton Cemetery; designation/effective date is taken from Planning Data fields where supplied."},"geometry":{"type":"Point","coordinates":[-0.19089,51.485131]}},{"type":"Feature","id":"lon_planning_designation_listed-building-outline_42115586","properties":{"city_id":"london","event_id":"lon_planning_designation_listed-building-outline_42115586","title":"Listed building outline: St Peters parish hall","short_description":"Planning Data listed-building outline record 471075; quality authoritative; LPA Southwark.","year":1985,"effective_date":"1985-02-22","date_precision":"day","category":"built_environment","lens":"built_environment","confidence":"documented","source_ids":["lon-extra-planning-data-listed-building-outlines"],"explanation":"Planning/protection evidence record for St Peters parish hall; designation/effective date is taken from Planning Data fields where supplied."},"geometry":{"type":"Point","coordinates":[-0.0674,51.442796]}},{"type":"Feature","id":"lon_planning_designation_listed-building-outline_42115652","properties":{"city_id":"london","event_id":"lon_planning_designation_listed-building-outline_42115652","title":"Listed building outline: Church of St peter","short_description":"Planning Data listed-building outline record 471074; quality authoritative; LPA Southwark.","year":1985,"effective_date":"1985-02-22","date_precision":"day","category":"built_environment","lens":"built_environment","confidence":"documented","source_ids":["lon-extra-planning-data-listed-building-outlines"],"explanation":"Planning/protection evidence record for Church of St peter; designation/effective date is taken from Planning Data fields where supplied."},"geometry":{"type":"Point","coordinates":[-0.06707,51.442513]}},{"type":"Feature","id":"lon_planning_designation_listed-building-outline_42117557","properties":{"city_id":"london","event_id":"lon_planning_designation_listed-building-outline_42117557","title":"Listed building outline: (East side) Nos.292 AND 294 The Assembly House Public House","short_description":"Planning Data listed-building outline record LB864; quality authoritative; LPA Camden.","year":1985,"effective_date":"1985-11-07","date_precision":"day","category":"built_environment","lens":"built_environment","confidence":"documented","source_ids":["lon-extra-planning-data-listed-building-outlines"],"explanation":"Planning/protection evidence record for (East side) Nos.292 AND 294 The Assembly House Public House; designation/effective date is taken from Planning Data fields where supplied."},"geometry":{"type":"Point","coordinates":[-0.140312,51.550996]}},{"type":"Feature","id":"lon_planning_designation_listed-building-outline_42120908","properties":{"city_id":"london","event_id":"lon_planning_designation_listed-building-outline_42120908","title":"Listed building outline: CHRIST'S COLLEGE","short_description":"Planning Data listed-building outline record 1064776; quality authoritative; LPA Barnet.","year":1985,"effective_date":"1985-03-21","date_precision":"day","category":"built_environment","lens":"built_environment","confidence":"documented","source_ids":["lon-extra-planning-data-listed-building-outlines"],"explanation":"Planning/protection evidence record for CHRIST'S COLLEGE; designation/effective date is taken from Planning Data fields where supplied."},"geometry":{"type":"Point","coordinates":[-0.197469,51.599189]}},{"type":"Feature","id":"lon_planning_designation_listed-building-outline_42120909","properties":{"city_id":"london","event_id":"lon_planning_designation_listed-building-outline_42120909","title":"Listed building outline: MAUSOLEUM TO THE PHILIPSON FAMILY, GOLDERS GREEN CREMATORIUM","short_description":"Planning Data listed-building outline record 1064788; quality authoritative; LPA Barnet.","year":1985,"effective_date":"1985-07-19","date_precision":"day","category":"built_environment","lens":"built_environment","confidence":"documented","source_ids":["lon-extra-planning-data-listed-building-outlines"],"explanation":"Planning/protection evidence record for MAUSOLEUM TO THE PHILIPSON FAMILY, GOLDERS GREEN CREMATORIUM; designation/effective date is taken from Planning Data fields where supplied."},"geometry":{"type":"Point","coordinates":[-0.191973,51.576779]}},{"type":"Feature","id":"lon_planning_designation_listed-building-outline_42120910","properties":{"city_id":"london","event_id":"lon_planning_designation_listed-building-outline_42120910","title":"Listed building outline: ODEON CINEMA","short_description":"Planning Data listed-building outline record 1064759; quality authoritative; LPA Barnet.","year":1985,"effective_date":"1985-10-13","date_precision":"day","category":"built_environment","lens":"built_environment","confidence":"documented","source_ids":["lon-extra-planning-data-listed-building-outlines"],"explanation":"Planning/protection evidence record for ODEON CINEMA; designation/effective date is taken from Planning Data fields where supplied."},"geometry":{"type":"Point","coordinates":[-0.187877,51.646372]}},{"type":"Feature","id":"lon_planning_designation_listed-building-outline_42148968","properties":{"city_id":"london","event_id":"lon_planning_designation_listed-building-outline_42148968","title":"Listed building outline: HOUSE, FORMERLY HOLY TRINITY CLERGY HOUSE","short_description":"Planning Data listed-building outline record 201778; quality authoritative; LPA Kensington and Chelsea.","year":1985,"effective_date":"1985-02-14","date_precision":"day","category":"built_environment","lens":"built_environment","confidence":"documented","source_ids":["lon-extra-planning-data-listed-building-outlines"],"explanation":"Planning/protection evidence record for HOUSE, FORMERLY HOLY TRINITY CLERGY HOUSE; designation/effective date is taken from Planning Data fields where supplied."},"geometry":{"type":"Point","coordinates":[-0.219942,51.513305]}},{"type":"Feature","id":"lon_planning_designation_listed-building-outline_42149656","properties":{"city_id":"london","event_id":"lon_planning_designation_listed-building-outline_42149656","title":"Listed building outline: BUILDING ADJOINING TO WEST OF HARROW CLUB","short_description":"Planning Data listed-building outline record 201747; quality authoritative; LPA Kensington and Chelsea.","year":1985,"effective_date":"1985-02-14","date_precision":"day","category":"built_environment","lens":"built_environment","confidence":"documented","source_ids":["lon-extra-planning-data-listed-building-outlines"],"explanation":"Planning/protection evidence record for BUILDING ADJOINING TO WEST OF HARROW CLUB; designation/effective date is taken from Planning Data fields where supplied."},"geometry":{"type":"Point","coordinates":[-0.220032,51.51311]}},{"type":"Feature","id":"lon_planning_designation_listed-building-outline_42149658","properties":{"city_id":"london","event_id":"lon_planning_designation_listed-building-outline_42149658","title":"Listed building outline: ROCKERY TO CENTRE OF CHELSEA PHYSIC GARDEN, IN NORTH EASTERN SEGMENT","short_description":"Planning Data listed-building outline record 424836; quality authoritative; LPA Kensington and Chelsea.","year":1985,"effective_date":"1985-08-08","date_precision":"day","category":"built_environment","lens":"built_environment","confidence":"documented","source_ids":["lon-extra-planning-data-listed-building-outlines"],"explanation":"Planning/protection evidence record for ROCKERY TO CENTRE OF CHELSEA PHYSIC GARDEN, IN NORTH EASTERN SEGMENT; designation/effective date is taken from Planning Data fields where supplied."},"geometry":{"type":"Point","coordinates":[-0.162284,51.484706]}},{"type":"Feature","id":"lon_planning_designation_listed-building-outline_42149669","properties":{"city_id":"london","event_id":"lon_planning_designation_listed-building-outline_42149669","title":"Listed building outline: 4 AND 5 KENSINGTON PALACE GARDENS","short_description":"Planning Data listed-building outline record 424834; quality authoritative; LPA Kensington and Chelsea.","year":1985,"effective_date":"1985-02-28","date_precision":"day","category":"built_environment","lens":"built_environment","confidence":"documented","source_ids":["lon-extra-planning-data-listed-building-outlines"],"explanation":"Planning/protection evidence record for 4 AND 5 KENSINGTON PALACE GARDENS; designation/effective date is taken from Planning Data fields where supplied."},"geometry":{"type":"Point","coordinates":[-0.191455,51.509715]}},{"type":"Feature","id":"lon_planning_designation_listed-building-outline_42158634","properties":{"city_id":"london","event_id":"lon_planning_designation_listed-building-outline_42158634","title":"Listed building outline: CHURCH OF ST SAVIOUR","short_description":"Planning Data listed-building outline record 1065595; quality authoritative; LPA Waltham Forest.","year":1985,"effective_date":"1985-03-29","date_precision":"day","category":"built_environment","lens":"built_environment","confidence":"documented","source_ids":["lon-extra-planning-data-listed-building-outlines"],"explanation":"Planning/protection evidence record for CHURCH OF ST SAVIOUR; designation/effective date is taken from Planning Data fields where supplied."},"geometry":{"type":"Point","coordinates":[-0.02893,51.573486]}},{"type":"Feature","id":"lon_planning_designation_listed-building-outline_42158658","properties":{"city_id":"london","event_id":"lon_planning_designation_listed-building-outline_42158658","title":"Listed building outline: CLEVELANDS","short_description":"Planning Data listed-building outline record 1191056; quality authoritative; LPA Waltham Forest.","year":1985,"effective_date":"1985-06-20","date_precision":"day","category":"built_environment","lens":"built_environment","confidence":"documented","source_ids":["lon-extra-planning-data-listed-building-outlines"],"explanation":"Planning/protection evidence record for CLEVELANDS; designation/effective date is taken from Planning Data fields where supplied."},"geometry":{"type":"Point","coordinates":[-0.017946,51.580085]}},{"type":"Feature","id":"lon_planning_designation_listed-building-outline_42158663","properties":{"city_id":"london","event_id":"lon_planning_designation_listed-building-outline_42158663","title":"Listed building outline: Old Town Hall","short_description":"Planning Data listed-building outline record 1191150; quality authoritative; LPA Waltham Forest.","year":1985,"effective_date":"1985-08-08","date_precision":"day","category":"built_environment","lens":"built_environment","confidence":"documented","source_ids":["lon-extra-planning-data-listed-building-outlines"],"explanation":"Planning/protection evidence record for Old Town Hall; designation/effective date is taken from Planning Data fields where supplied."},"geometry":{"type":"Point","coordinates":[-0.011627,51.583029]}},{"type":"Feature","id":"lon_planning_designation_listed-building-outline_42158664","properties":{"city_id":"london","event_id":"lon_planning_designation_listed-building-outline_42158664","title":"Listed building outline: CHURCH OF ST MICHAEL AND ALL ANGELS","short_description":"Planning Data listed-building outline record 1191154; quality authoritative; LPA Waltham Forest.","year":1985,"effective_date":"1985-02-18","date_precision":"day","category":"built_environment","lens":"built_environment","confidence":"documented","source_ids":["lon-extra-planning-data-listed-building-outlines"],"explanation":"Planning/protection evidence record for CHURCH OF ST MICHAEL AND ALL ANGELS; designation/effective date is taken from Planning Data fields where supplied."},"geometry":{"type":"Point","coordinates":[-0.029635,51.585288]}},{"type":"Feature","id":"lon_planning_designation_listed-building-outline_42164766","properties":{"city_id":"london","event_id":"lon_planning_designation_listed-building-outline_42164766","title":"Listed building outline: Basement Flat 6 Wilton Crescent London SW1X 8RN","short_description":"Planning Data listed-building outline record 1066080; quality authoritative; LPA Westminster.","year":1985,"effective_date":"1985-02-11","date_precision":"day","category":"built_environment","lens":"built_environment","confidence":"documented","source_ids":["lon-extra-planning-data-listed-building-outlines"],"explanation":"Planning/protection evidence record for Basement Flat 6 Wilton Crescent London SW1X 8RN; designation/effective date is taken from Planning Data fields where supplied."},"geometry":{"type":"Point","coordinates":[-0.1564,51.500182]}},{"type":"Feature","id":"lon_planning_designation_listed-building-outline_42165170","properties":{"city_id":"london","event_id":"lon_planning_designation_listed-building-outline_42165170","title":"Listed building outline: Flat 1 75 Great Titchfield Street London W1W 6RE","short_description":"Planning Data listed-building outline record 1066750; quality authoritative; LPA Westminster.","year":1985,"effective_date":"1985-11-14","date_precision":"day","category":"built_environment","lens":"built_environment","confidence":"documented","source_ids":["lon-extra-planning-data-listed-building-outlines"],"explanation":"Planning/protection evidence record for Flat 1 75 Great Titchfield Street London W1W 6RE; designation/effective date is taken from Planning Data fields where supplied."},"geometry":{"type":"Point","coordinates":[-0.141193,51.519366]}},{"type":"Feature","id":"lon_planning_designation_listed-building-outline_42165238","properties":{"city_id":"london","event_id":"lon_planning_designation_listed-building-outline_42165238","title":"Listed building outline: Flat 1 65 Ennismore Gardens London SW7 1NH","short_description":"Planning Data listed-building outline record 1066816; quality authoritative; LPA Westminster.","year":1985,"effective_date":"1985-06-11","date_precision":"day","category":"built_environment","lens":"built_environment","confidence":"documented","source_ids":["lon-extra-planning-data-listed-building-outlines"],"explanation":"Planning/protection evidence record for Flat 1 65 Ennismore Gardens London SW7 1NH; designation/effective date is taken from Planning Data fields where supplied."},"geometry":{"type":"Point","coordinates":[-0.169603,51.500371]}},{"type":"Feature","id":"lon_planning_designation_listed-building-outline_42165330","properties":{"city_id":"london","event_id":"lon_planning_designation_listed-building-outline_42165330","title":"Listed building outline: 7 Dering Street London W1S 1AE","short_description":"Planning Data listed-building outline record 1066925; quality authoritative; LPA Westminster.","year":1985,"effective_date":"1985-04-12","date_precision":"day","category":"built_environment","lens":"built_environment","confidence":"documented","source_ids":["lon-extra-planning-data-listed-building-outlines"],"explanation":"Planning/protection evidence record for 7 Dering Street London W1S 1AE; designation/effective date is taken from Planning Data fields where supplied."},"geometry":{"type":"Point","coordinates":[-0.14593,51.514259]}},{"type":"Feature","id":"lon_planning_designation_listed-building-outline_42165501","properties":{"city_id":"london","event_id":"lon_planning_designation_listed-building-outline_42165501","title":"Listed building outline: Christ Church Down Street London W1J 7AN","short_description":"Planning Data listed-building outline record 1210739; quality authoritative; LPA Westminster.","year":1985,"effective_date":"1985-11-14","date_precision":"day","category":"built_environment","lens":"built_environment","confidence":"documented","source_ids":["lon-extra-planning-data-listed-building-outlines"],"explanation":"Planning/protection evidence record for Christ Church Down Street London W1J 7AN; designation/effective date is taken from Planning Data fields where supplied."},"geometry":{"type":"Point","coordinates":[-0.148674,51.505235]}},{"type":"Feature","id":"lon_planning_designation_listed-building-outline_42165531","properties":{"city_id":"london","event_id":"lon_planning_designation_listed-building-outline_42165531","title":"Listed building outline: Flat 7 40 Foley Street London W1W 7TR","short_description":"Planning Data listed-building outline record 1211904; quality authoritative; LPA Westminster.","year":1985,"effective_date":"1985-11-14","date_precision":"day","category":"built_environment","lens":"built_environment","confidence":"documented","source_ids":["lon-extra-planning-data-listed-building-outlines"],"explanation":"Planning/protection evidence record for Flat 7 40 Foley Street London W1W 7TR; designation/effective date is taken from Planning Data fields where supplied."},"geometry":{"type":"Point","coordinates":[-0.139474,51.519496]}},{"type":"Feature","id":"lon_planning_designation_listed-building-outline_42165558","properties":{"city_id":"london","event_id":"lon_planning_designation_listed-building-outline_42165558","title":"Listed building outline: 41 Great Cumberland Place London W1H 7LG","short_description":"Planning Data listed-building outline record 1213477; quality authoritative; LPA Westminster.","year":1985,"effective_date":"1985-10-14","date_precision":"day","category":"built_environment","lens":"built_environment","confidence":"documented","source_ids":["lon-extra-planning-data-listed-building-outlines"],"explanation":"Planning/protection evidence record for 41 Great Cumberland Place London W1H 7LG; designation/effective date is taken from Planning Data fields where supplied."},"geometry":{"type":"Point","coordinates":[-0.160366,51.515751]}},{"type":"Feature","id":"lon_planning_designation_listed-building-outline_42165661","properties":{"city_id":"london","event_id":"lon_planning_designation_listed-building-outline_42165661","title":"Listed building outline: 50-54 Blandford Street London W1U 7HX","short_description":"Planning Data listed-building outline record 1218616; quality authoritative; LPA Westminster.","year":1985,"effective_date":"1985-10-29","date_precision":"day","category":"built_environment","lens":"built_environment","confidence":"documented","source_ids":["lon-extra-planning-data-listed-building-outlines"],"explanation":"Planning/protection evidence record for 50-54 Blandford Street London W1U 7HX; designation/effective date is taken from Planning Data fields where supplied."},"geometry":{"type":"Point","coordinates":[-0.154412,51.518468]}},{"type":"Feature","id":"lon_planning_designation_listed-building-outline_42165681","properties":{"city_id":"london","event_id":"lon_planning_designation_listed-building-outline_42165681","title":"Listed building outline: 15B Chester Row London SW1W 9JF","short_description":"Planning Data listed-building outline record 1219251; quality authoritative; LPA Westminster.","year":1985,"effective_date":"1985-04-25","date_precision":"day","category":"built_environment","lens":"built_environment","confidence":"documented","source_ids":["lon-extra-planning-data-listed-building-outlines"],"explanation":"Planning/protection evidence record for 15B Chester Row London SW1W 9JF; designation/effective date is taken from Planning Data fields where supplied."},"geometry":{"type":"Point","coordinates":[-0.152147,51.493598]}},{"type":"Feature","id":"lon_planning_designation_listed-building-outline_42165796","properties":{"city_id":"london","event_id":"lon_planning_designation_listed-building-outline_42165796","title":"Listed building outline: 237 Knightsbridge London SW7 1DJ","short_description":"Planning Data listed-building outline record 1221562; quality authoritative; LPA Westminster.","year":1985,"effective_date":"1985-05-09","date_precision":"day","category":"built_environment","lens":"built_environment","confidence":"documented","source_ids":["lon-extra-planning-data-listed-building-outlines"],"explanation":"Planning/protection evidence record for 237 Knightsbridge London SW7 1DJ; designation/effective date is taken from Planning Data fields where supplied."},"geometry":{"type":"Point","coordinates":[-0.165111,51.501469]}},{"type":"Feature","id":"lon_planning_designation_listed-building-outline_42165799","properties":{"city_id":"london","event_id":"lon_planning_designation_listed-building-outline_42165799","title":"Listed building outline: 235 Knightsbridge London SW7 1DJ","short_description":"Planning Data listed-building outline record 1221621; quality authoritative; LPA Westminster.","year":1985,"effective_date":"1985-05-09","date_precision":"day","category":"built_environment","lens":"built_environment","confidence":"documented","source_ids":["lon-extra-planning-data-listed-building-outlines"],"explanation":"Planning/protection evidence record for 235 Knightsbridge London SW7 1DJ; designation/effective date is taken from Planning Data fields where supplied."},"geometry":{"type":"Point","coordinates":[-0.165016,51.501467]}},{"type":"Feature","id":"lon_planning_designation_listed-building-outline_42165801","properties":{"city_id":"london","event_id":"lon_planning_designation_listed-building-outline_42165801","title":"Listed building outline: 241 Knightsbridge London SW7 1DJ","short_description":"Planning Data listed-building outline record 1221632; quality authoritative; LPA Westminster.","year":1985,"effective_date":"1985-05-09","date_precision":"day","category":"built_environment","lens":"built_environment","confidence":"documented","source_ids":["lon-extra-planning-data-listed-building-outlines"],"explanation":"Planning/protection evidence record for 241 Knightsbridge London SW7 1DJ; designation/effective date is taken from Planning Data fields where supplied."},"geometry":{"type":"Point","coordinates":[-0.165259,51.501448]}},{"type":"Feature","id":"lon_planning_designation_listed-building-outline_42165896","properties":{"city_id":"london","event_id":"lon_planning_designation_listed-building-outline_42165896","title":"Listed building outline: 31-35 Langham Street London W1W 6BU","short_description":"Planning Data listed-building outline record 1221806; quality authoritative; LPA Westminster.","year":1985,"effective_date":"1985-11-14","date_precision":"day","category":"built_environment","lens":"built_environment","confidence":"documented","source_ids":["lon-extra-planning-data-listed-building-outlines"],"explanation":"Planning/protection evidence record for 31-35 Langham Street London W1W 6BU; designation/effective date is taken from Planning Data fields where supplied."},"geometry":{"type":"Point","coordinates":[-0.141297,51.519248]}},{"type":"Feature","id":"lon_planning_designation_listed-building-outline_42166156","properties":{"city_id":"london","event_id":"lon_planning_designation_listed-building-outline_42166156","title":"Listed building outline: 93 Mortimer Street London W1W 7SS","short_description":"Planning Data listed-building outline record 1267276; quality authoritative; LPA Westminster.","year":1985,"effective_date":"1985-10-14","date_precision":"day","category":"built_environment","lens":"built_environment","confidence":"documented","source_ids":["lon-extra-planning-data-listed-building-outlines"],"explanation":"Planning/protection evidence record for 93 Mortimer Street London W1W 7SS; designation/effective date is taken from Planning Data fields where supplied."},"geometry":{"type":"Point","coordinates":[-0.141877,51.517325]}},{"type":"Feature","id":"lon_planning_designation_listed-building-outline_42166439","properties":{"city_id":"london","event_id":"lon_planning_designation_listed-building-outline_42166439","title":"Listed building outline: 58 Maida Vale London W9 1PP","short_description":"Planning Data listed-building outline record 1273956; quality authoritative; LPA Westminster.","year":1985,"effective_date":"1985-03-06","date_precision":"day","category":"built_environment","lens":"built_environment","confidence":"documented","source_ids":["lon-extra-planning-data-listed-building-outlines"],"explanation":"Planning/protection evidence record for 58 Maida Vale London W9 1PP; designation/effective date is taken from Planning Data fields where supplied."},"geometry":{"type":"Point","coordinates":[-0.184102,51.53108]}},{"type":"Feature","id":"lon_planning_designation_listed-building-outline_42166456","properties":{"city_id":"london","event_id":"lon_planning_designation_listed-building-outline_42166456","title":"Listed building outline: 184 Sutherland Avenue London W9 1HR","short_description":"Planning Data listed-building outline record 1264093; quality authoritative; LPA Westminster.","year":1985,"effective_date":"1985-08-09","date_precision":"day","category":"built_environment","lens":"built_environment","confidence":"documented","source_ids":["lon-extra-planning-data-listed-building-outlines"],"explanation":"Planning/protection evidence record for 184 Sutherland Avenue London W9 1HR; designation/effective date is taken from Planning Data fields where supplied."},"geometry":{"type":"Point","coordinates":[-0.18468,51.527082]}},{"type":"Feature","id":"lon_planning_designation_listed-building-outline_42166730","properties":{"city_id":"london","event_id":"lon_planning_designation_listed-building-outline_42166730","title":"Listed building outline: 72 South Audley Street London W1K 1JB","short_description":"Planning Data listed-building outline record 1236433; quality authoritative; LPA Westminster.","year":1985,"effective_date":"1985-11-14","date_precision":"day","category":"built_environment","lens":"built_environment","confidence":"documented","source_ids":["lon-extra-planning-data-listed-building-outlines"],"explanation":"Planning/protection evidence record for 72 South Audley Street London W1K 1JB; designation/effective date is taken from Planning Data fields where supplied."},"geometry":{"type":"Point","coordinates":[-0.151517,51.508235]}},{"type":"Feature","id":"lon_planning_designation_listed-building-outline_42167209","properties":{"city_id":"london","event_id":"lon_planning_designation_listed-building-outline_42167209","title":"Listed building outline: 60 Maida Vale London W9 1PP","short_description":"Planning Data listed-building outline record 1238912; quality authoritative; LPA Westminster.","year":1985,"effective_date":"1985-03-06","date_precision":"day","category":"built_environment","lens":"built_environment","confidence":"documented","source_ids":["lon-extra-planning-data-listed-building-outlines"],"explanation":"Planning/protection evidence record for 60 Maida Vale London W9 1PP; designation/effective date is taken from Planning Data fields where supplied."},"geometry":{"type":"Point","coordinates":[-0.18433,51.53125]}},{"type":"Feature","id":"lon_planning_designation_listed-building-outline_42167267","properties":{"city_id":"london","event_id":"lon_planning_designation_listed-building-outline_42167267","title":"Listed building outline: 72 - 76 Park Road London NW1 4SH","short_description":"Planning Data listed-building outline record 1226113; quality authoritative; LPA Westminster.","year":1985,"effective_date":"1985-11-14","date_precision":"day","category":"built_environment","lens":"built_environment","confidence":"documented","source_ids":["lon-extra-planning-data-listed-building-outlines"],"explanation":"Planning/protection evidence record for 72 - 76 Park Road London NW1 4SH; designation/effective date is taken from Planning Data fields where supplied."},"geometry":{"type":"Point","coordinates":[-0.161881,51.526247]}},{"type":"Feature","id":"lon_planning_designation_listed-building-outline_42167470","properties":{"city_id":"london","event_id":"lon_planning_designation_listed-building-outline_42167470","title":"Listed building outline: 19 Upper Grosvenor Street London W1K 7PE","short_description":"Planning Data listed-building outline record 1357318; quality authoritative; LPA Westminster.","year":1985,"effective_date":"1985-11-14","date_precision":"day","category":"built_environment","lens":"built_environment","confidence":"documented","source_ids":["lon-extra-planning-data-listed-building-outlines"],"explanation":"Planning/protection evidence record for 19 Upper Grosvenor Street London W1K 7PE; designation/effective date is taken from Planning Data fields where supplied."},"geometry":{"type":"Point","coordinates":[-0.155452,51.51031]}},{"type":"Feature","id":"lon_planning_designation_listed-building-outline_42167586","properties":{"city_id":"london","event_id":"lon_planning_designation_listed-building-outline_42167586","title":"Listed building outline: 62 Harley Street London W1G 7HA","short_description":"Planning Data listed-building outline record 1357098; quality authoritative; LPA Westminster.","year":1985,"effective_date":"1985-07-30","date_precision":"day","category":"built_environment","lens":"built_environment","confidence":"documented","source_ids":["lon-extra-planning-data-listed-building-outlines"],"explanation":"Planning/protection evidence record for 62 Harley Street London W1G 7HA; designation/effective date is taken from Planning Data fields where supplied."},"geometry":{"type":"Point","coordinates":[-0.146872,51.519536]}},{"type":"Feature","id":"lon_planning_designation_listed-building-outline_42167700","properties":{"city_id":"london","event_id":"lon_planning_designation_listed-building-outline_42167700","title":"Listed building outline: Fifth Floor And Sixth Floor Maisonette 1 Belgrave Place London SW1X 8BU","short_description":"Planning Data listed-building outline record 1357184; quality authoritative; LPA Westminster.","year":1985,"effective_date":"1985-11-27","date_precision":"day","category":"built_environment","lens":"built_environment","confidence":"documented","source_ids":["lon-extra-planning-data-listed-building-outlines"],"explanation":"Planning/protection evidence record for Fifth Floor And Sixth Floor Maisonette 1 Belgrave Place London SW1X 8BU; designation/effective date is taken from Planning Data fields where supplied."},"geometry":{"type":"Point","coordinates":[-0.15315,51.497633]}},{"type":"Feature","id":"lon_planning_designation_listed-building-outline_42167771","properties":{"city_id":"london","event_id":"lon_planning_designation_listed-building-outline_42167771","title":"Listed building outline: Block Record 1-2 Shaver's Place London SW1Y 4HE","short_description":"Planning Data listed-building outline record 1356974; quality authoritative; LPA Westminster.","year":1985,"effective_date":"1985-08-15","date_precision":"day","category":"built_environment","lens":"built_environment","confidence":"documented","source_ids":["lon-extra-planning-data-listed-building-outlines"],"explanation":"Planning/protection evidence record for Block Record 1-2 Shaver's Place London SW1Y 4HE; designation/effective date is taken from Planning Data fields where supplied."},"geometry":{"type":"Point","coordinates":[-0.132862,51.510061]}},{"type":"Feature","id":"lon_planning_designation_listed-building-outline_42167896","properties":{"city_id":"london","event_id":"lon_planning_designation_listed-building-outline_42167896","title":"Listed building outline: Second Floor Flat 38 Frith Street London W1D 5LJ","short_description":"Planning Data listed-building outline record 1357017; quality authoritative; LPA Westminster.","year":1985,"effective_date":"1985-11-14","date_precision":"day","category":"built_environment","lens":"built_environment","confidence":"documented","source_ids":["lon-extra-planning-data-listed-building-outlines"],"explanation":"Planning/protection evidence record for Second Floor Flat 38 Frith Street London W1D 5LJ; designation/effective date is taken from Planning Data fields where supplied."},"geometry":{"type":"Point","coordinates":[-0.131167,51.512892]}},{"type":"Feature","id":"lon_planning_designation_listed-building-outline_42168326","properties":{"city_id":"london","event_id":"lon_planning_designation_listed-building-outline_42168326","title":"Listed building outline: Duke's Head Yard - The Studio","short_description":"Planning Data listed-building outline record TQ 2887 40/1; quality authoritative; LPA Haringey.","year":1985,"effective_date":"1985-02-27","date_precision":"day","category":"built_environment","lens":"built_environment","confidence":"documented","source_ids":["lon-extra-planning-data-listed-building-outlines"],"explanation":"Planning/protection evidence record for Duke's Head Yard - The Studio; designation/effective date is taken from Planning Data fields where supplied."},"geometry":{"type":"Point","coordinates":[-0.145557,51.570764]}},{"type":"Feature","id":"lon_planning_designation_listed-building-outline_42172703","properties":{"city_id":"london","event_id":"lon_planning_designation_listed-building-outline_42172703","title":"Listed building outline: Curtilage of CLEVELANDS","short_description":"Planning Data listed-building outline record 1191056C; quality authoritative; LPA Waltham Forest.","year":1985,"effective_date":"1985-06-20","date_precision":"day","category":"built_environment","lens":"built_environment","confidence":"documented","source_ids":["lon-extra-planning-data-listed-building-outlines"],"explanation":"Planning/protection evidence record for Curtilage of CLEVELANDS; designation/effective date is taken from Planning Data fields where supplied."},"geometry":{"type":"Point","coordinates":[-0.018004,51.580081]}},{"type":"Feature","id":"lon_planning_designation_listed-building-outline_42172708","properties":{"city_id":"london","event_id":"lon_planning_designation_listed-building-outline_42172708","title":"Listed building outline: Curtilage of CHURCH OF ST MICHAEL AND ALL ANGELS","short_description":"Planning Data listed-building outline record 1191154C; quality authoritative; LPA Waltham Forest.","year":1985,"effective_date":"1985-02-18","date_precision":"day","category":"built_environment","lens":"built_environment","confidence":"documented","source_ids":["lon-extra-planning-data-listed-building-outlines"],"explanation":"Planning/protection evidence record for Curtilage of CHURCH OF ST MICHAEL AND ALL ANGELS; designation/effective date is taken from Planning Data fields where supplied."},"geometry":{"type":"Point","coordinates":[-0.02958,51.585274]}},{"type":"Feature","id":"lon_planning_designation_listed-building-outline_42182624","properties":{"city_id":"london","event_id":"lon_planning_designation_listed-building-outline_42182624","title":"Listed building outline: HOUSE, FORMERLY HOLY TRINITY CLERGY HOUSE","short_description":"Planning Data listed-building outline record 1079812; quality authoritative; LPA Kensington and Chelsea.","year":1985,"effective_date":"1985-02-14","date_precision":"day","category":"built_environment","lens":"built_environment","confidence":"documented","source_ids":["lon-extra-planning-data-listed-building-outlines"],"explanation":"Planning/protection evidence record for HOUSE, FORMERLY HOLY TRINITY CLERGY HOUSE; designation/effective date is taken from Planning Data fields where supplied."},"geometry":{"type":"Point","coordinates":[-0.219942,51.513305]}},{"type":"Feature","id":"lon_planning_designation_listed-building-outline_42183304","properties":{"city_id":"london","event_id":"lon_planning_designation_listed-building-outline_42183304","title":"Listed building outline: BUILDING ADJOINING TO WEST OF HARROW CLUB","short_description":"Planning Data listed-building outline record 1079839; quality authoritative; LPA Kensington and Chelsea.","year":1985,"effective_date":"1985-02-14","date_precision":"day","category":"built_environment","lens":"built_environment","confidence":"documented","source_ids":["lon-extra-planning-data-listed-building-outlines"],"explanation":"Planning/protection evidence record for BUILDING ADJOINING TO WEST OF HARROW CLUB; designation/effective date is taken from Planning Data fields where supplied."},"geometry":{"type":"Point","coordinates":[-0.220032,51.51311]}},{"type":"Feature","id":"lon_planning_designation_listed-building-outline_42183306","properties":{"city_id":"london","event_id":"lon_planning_designation_listed-building-outline_42183306","title":"Listed building outline: ROCKERY TO CENTRE OF CHELSEA PHYSIC GARDEN, IN NORTH EASTERN SEGMENT","short_description":"Planning Data listed-building outline record 1265508; quality authoritative; LPA Kensington and Chelsea.","year":1985,"effective_date":"1985-08-08","date_precision":"day","category":"built_environment","lens":"built_environment","confidence":"documented","source_ids":["lon-extra-planning-data-listed-building-outlines"],"explanation":"Planning/protection evidence record for ROCKERY TO CENTRE OF CHELSEA PHYSIC GARDEN, IN NORTH EASTERN SEGMENT; designation/effective date is taken from Planning Data fields where supplied."},"geometry":{"type":"Point","coordinates":[-0.162282,51.48471]}},{"type":"Feature","id":"lon_planning_designation_listed-building-outline_42189338","properties":{"city_id":"london","event_id":"lon_planning_designation_listed-building-outline_42189338","title":"Listed building outline: THE SACRED HEART CONVENT 97 BELMONT HILL SE13 LEWISHAM","short_description":"Planning Data listed-building outline record 1262073; quality authoritative; LPA Lewisham.","year":1985,"effective_date":"1985-06-30","date_precision":"day","category":"built_environment","lens":"built_environment","confidence":"documented","source_ids":["lon-extra-planning-data-listed-building-outlines"],"explanation":"Planning/protection evidence record for THE SACRED HEART CONVENT 97 BELMONT HILL SE13 LEWISHAM; designation/effective date is taken from Planning Data fields where supplied."},"geometry":{"type":"Point","coordinates":[-0.001373,51.46302]}}]}
