{"type":"FeatureCollection","schema_version":"1.0.0","city_id":"london","year":2023,"features":[{"type":"Feature","id":"lon_brownfield_1700302","properties":{"city_id":"london","event_id":"lon_brownfield_1700302","title":"Brownfield development site: Richmond Upon Thames College, Langhorn Drive, Twickenham TW2 7SJ (up to 212 homes)","year":2023,"effective_date":"2023-02-28","date_precision":"day","category":"built_environment","lens":"built_environment","confidence":"documented","source_ids":["lon-extra-planning-data-brownfield-land"],"explanation":"Planning/development evidence record: permissioned; brownfield land capacity marker for 212 net dwellings."},"geometry":{"type":"Point","coordinates":[-0.340779,51.451022]}},{"type":"Feature","id":"lon_brownfield_1700308","properties":{"city_id":"london","event_id":"lon_brownfield_1700308","title":"Brownfield development site: Ham Close, Ham Village Green, Car Park To East Of Ham Village Green, And Part Of Woodville Day Centre Site And St Richar (up to 260 homes)","year":2023,"effective_date":"2023-03-22","date_precision":"day","category":"environment","lens":"green_space","confidence":"documented","source_ids":["lon-extra-planning-data-brownfield-land"],"explanation":"Planning/development evidence record: permissioned; brownfield land capacity marker for 260 net dwellings."},"geometry":{"type":"Point","coordinates":[-0.315637,51.438063]}},{"type":"Feature","id":"lon_brownfield_1700320","properties":{"city_id":"london","event_id":"lon_brownfield_1700320","title":"Brownfield development site: Hampton Police Station Station Road Hampton TW12 2AX (up to 88 homes)","year":2023,"effective_date":"2023-05-12","date_precision":"day","category":"transport","lens":"traffic","confidence":"documented","source_ids":["lon-extra-planning-data-brownfield-land"],"explanation":"Planning/development evidence record: permissioned; brownfield land capacity marker for 88 net dwellings."},"geometry":{"type":"Point","coordinates":[-0.365538,51.415016]}},{"type":"Feature","id":"lon_brownfield_1702358","properties":{"city_id":"london","event_id":"lon_brownfield_1702358","title":"Brownfield development site: The Greenwood Centre, Greenwood Place & Highgate Day Centre, 19-37 Highgate Road, London, NW5 1LB (up to 47 homes)","year":2023,"effective_date":"2023-03-02","date_precision":"day","category":"transport","lens":"traffic","confidence":"documented","source_ids":["lon-extra-planning-data-brownfield-land"],"explanation":"Planning/development evidence record: permissioned; brownfield land capacity marker for 47 net dwellings."},"geometry":{"type":"Point","coordinates":[-0.14386,51.553155]}},{"type":"Feature","id":"lon_brownfield_1702406","properties":{"city_id":"london","event_id":"lon_brownfield_1702406","title":"Brownfield development site: O2 Centre, carpark and car showroom sites and 14 Blackburn Road (up to 1800 homes)","year":2023,"effective_date":"2023-12-23","date_precision":"day","category":"transport","lens":"traffic","confidence":"documented","source_ids":["lon-extra-planning-data-brownfield-land"],"explanation":"Planning/development evidence record: permissioned; brownfield land capacity marker for 1800 net dwellings."},"geometry":{"type":"Point","coordinates":[-0.18503,51.547748]}},{"type":"Feature","id":"lon_brownfield_1705012","properties":{"city_id":"london","event_id":"lon_brownfield_1705012","title":"Brownfield development site: 1 Brockley Cross (up to 7 homes)","year":2023,"effective_date":"2023-06-30","date_precision":"day","category":"built_environment","lens":"built_environment","confidence":"documented","source_ids":["lon-extra-planning-data-brownfield-land"],"explanation":"Planning/development evidence record: permissioned; brownfield land capacity marker for 7 net dwellings."},"geometry":{"type":"Point","coordinates":[-0.03528,51.46578]}},{"type":"Feature","id":"lon_brownfield_1705066","properties":{"city_id":"london","event_id":"lon_brownfield_1705066","title":"Brownfield development site: Land at Nightingale Grove and Maythorne Cottages (up to 27 homes)","year":2023,"effective_date":"2023-07-06","date_precision":"day","category":"built_environment","lens":"built_environment","confidence":"documented","source_ids":["lon-extra-planning-data-brownfield-land"],"explanation":"Planning/development evidence record: permissioned; brownfield land capacity marker for 27 net dwellings."},"geometry":{"type":"Point","coordinates":[-0.00229,51.45229]}},{"type":"Feature","id":"lon_brownfield_1705073","properties":{"city_id":"london","event_id":"lon_brownfield_1705073","title":"Brownfield development site: PLACE/Ladywell, former Ladywell Leisure Centre (remainder of site) (up to 102 homes)","year":2023,"effective_date":"2023-10-24","date_precision":"day","category":"built_environment","lens":"built_environment","confidence":"documented","source_ids":["lon-extra-planning-data-brownfield-land"],"explanation":"Planning/development evidence record: permissioned; brownfield land capacity marker for 102 net dwellings."},"geometry":{"type":"Point","coordinates":[-0.01334,51.45635]}},{"type":"Feature","id":"lon_brownfield_1705098","properties":{"city_id":"london","event_id":"lon_brownfield_1705098","title":"Brownfield development site: Sun Wharf, Cockpit Arts (up to 220 homes)","year":2023,"effective_date":"2023-08-01","date_precision":"day","category":"built_environment","lens":"built_environment","confidence":"documented","source_ids":["lon-extra-planning-data-brownfield-land"],"explanation":"Planning/development evidence record: permissioned; brownfield land capacity marker for 220 net dwellings."},"geometry":{"type":"Point","coordinates":[-0.02002,51.47867]}},{"type":"Feature","id":"lon_brownfield_1705658","properties":{"city_id":"london","event_id":"lon_brownfield_1705658","title":"Brownfield development site: 143-149 Railton Road (up to 5 homes)","year":2023,"effective_date":"2023-05-18","date_precision":"day","category":"transport","lens":"traffic","confidence":"documented","source_ids":["lon-extra-planning-data-brownfield-land"],"explanation":"Planning/development evidence record: permissioned; brownfield land capacity marker for 5 net dwellings."},"geometry":{"type":"Point","coordinates":[-0.10647,51.45705]}},{"type":"Feature","id":"lon_brownfield_1714966","properties":{"city_id":"london","event_id":"lon_brownfield_1714966","title":"Brownfield development site: Royal Mail Group Site, Ponton Road (Nine Elms Parkside) (up to 1911 homes)","year":2023,"effective_date":"2023-03-01","date_precision":"day","category":"transport","lens":"traffic","confidence":"documented","source_ids":["lon-extra-planning-data-brownfield-land"],"explanation":"Planning/development evidence record: permissioned; brownfield land capacity marker for 1911 net dwellings."},"geometry":{"type":"Point","coordinates":[-0.1354,51.48073]}},{"type":"Feature","id":"lon_brownfield_1714989","properties":{"city_id":"london","event_id":"lon_brownfield_1714989","title":"Brownfield development site: 28 Thessaly Road (up to 17 homes)","year":2023,"effective_date":"2023-01-04","date_precision":"day","category":"transport","lens":"traffic","confidence":"documented","source_ids":["lon-extra-planning-data-brownfield-land"],"explanation":"Planning/development evidence record: permissioned; brownfield land capacity marker for 17 net dwellings."},"geometry":{"type":"Point","coordinates":[-0.13596,51.47443]}},{"type":"Feature","id":"lon_brownfield_1715022","properties":{"city_id":"london","event_id":"lon_brownfield_1715022","title":"Brownfield development site: 67-85 Aslett Street (up to 7 homes)","year":2023,"effective_date":"2023-01-24","date_precision":"day","category":"environment","lens":"green_space","confidence":"documented","source_ids":["lon-extra-planning-data-brownfield-land"],"explanation":"Planning/development evidence record: permissioned; brownfield land capacity marker for 7 net dwellings."},"geometry":{"type":"Point","coordinates":[-0.18666,51.45057]}},{"type":"Feature","id":"lon_brownfield_1715700","properties":{"city_id":"london","event_id":"lon_brownfield_1715700","title":"Brownfield development site: 26-28 Priests Bridge, East Sheen, SW14 8TA (up to 9 homes)","year":2023,"effective_date":"2023-08-08","date_precision":"day","category":"built_environment","lens":"built_environment","confidence":"documented","source_ids":["lon-extra-planning-data-brownfield-land"],"explanation":"Planning/development evidence record: permissioned; brownfield land capacity marker for 9 net dwellings."},"geometry":{"type":"Point","coordinates":[-0.252172,51.466006]}},{"type":"Feature","id":"lon_brownfield_1718589","properties":{"city_id":"london","event_id":"lon_brownfield_1718589","title":"Brownfield development site: Kingswear House, Dartmouth Road (up to 6 homes)","year":2023,"effective_date":"2023-03-24","date_precision":"day","category":"transport","lens":"traffic","confidence":"documented","source_ids":["lon-extra-planning-data-brownfield-land"],"explanation":"Planning/development evidence record: permissioned; brownfield land capacity marker for 6 net dwellings."},"geometry":{"type":"Point","coordinates":[-0.0553,51.4372]}},{"type":"Feature","id":"lon_brownfield_1719367","properties":{"city_id":"london","event_id":"lon_brownfield_1719367","title":"Brownfield development site: Plot Adjacent 29 Sternhold Avenue (up to 8 homes)","year":2023,"effective_date":"2023-12-10","date_precision":"day","category":"built_environment","lens":"built_environment","confidence":"documented","source_ids":["lon-extra-planning-data-brownfield-land"],"explanation":"Planning/development evidence record: permissioned; brownfield land capacity marker for 8 net dwellings."},"geometry":{"type":"Point","coordinates":[-0.126727,51.438136]}},{"type":"Feature","id":"lon_brownfield_1726383","properties":{"city_id":"london","event_id":"lon_brownfield_1726383","title":"Brownfield development site: 158-160 Balham High Road (up to 7 homes)","year":2023,"effective_date":"2023-03-03","date_precision":"day","category":"transport","lens":"traffic","confidence":"documented","source_ids":["lon-extra-planning-data-brownfield-land"],"explanation":"Planning/development evidence record: permissioned; brownfield land capacity marker for 7 net dwellings."},"geometry":{"type":"Point","coordinates":[-0.15191,51.4449]}},{"type":"Feature","id":"lon_brownfield_1726412","properties":{"city_id":"london","event_id":"lon_brownfield_1726412","title":"Brownfield development site: Site of York Road, Winstanley Road (Part of Estate, York Gardens and Winstanley Estate) (up to 1791 homes)","year":2023,"effective_date":"2023-08-15","date_precision":"day","category":"transport","lens":"traffic","confidence":"documented","source_ids":["lon-extra-planning-data-brownfield-land"],"explanation":"Planning/development evidence record: permissioned; brownfield land capacity marker for 1791 net dwellings."},"geometry":{"type":"Point","coordinates":[-0.17416,51.46701]}},{"type":"Feature","id":"lon_brownfield_1726418","properties":{"city_id":"london","event_id":"lon_brownfield_1726418","title":"Brownfield development site: 312-320 Earlsfield Road (up to 7 homes)","year":2023,"effective_date":"2023-06-22","date_precision":"day","category":"transport","lens":"traffic","confidence":"documented","source_ids":["lon-extra-planning-data-brownfield-land"],"explanation":"Planning/development evidence record: permissioned; brownfield land capacity marker for 7 net dwellings."},"geometry":{"type":"Point","coordinates":[-0.18766,51.44383]}},{"type":"Feature","id":"lon_brownfield_1731099","properties":{"city_id":"london","event_id":"lon_brownfield_1731099","title":"Brownfield development site: Brown & Root phase 2 (up to 200 homes)","year":2023,"effective_date":"2023-01-29","date_precision":"day","category":"built_environment","lens":"built_environment","confidence":"documented","source_ids":["lon-extra-planning-data-brownfield-land"],"explanation":"Planning/development evidence record: Site allocation; brownfield land capacity marker for 200 net dwellings."},"geometry":{"type":"Point","coordinates":[-0.178874,51.416893]}},{"type":"Feature","id":"lon_brownfield_1731745","properties":{"city_id":"london","event_id":"lon_brownfield_1731745","title":"Brownfield development site: Fitzhardinge House Portman Square London W1H 6LH (up to 0 homes)","year":2023,"effective_date":"2023-01-10","date_precision":"day","category":"built_environment","lens":"built_environment","confidence":"documented","source_ids":["lon-extra-planning-data-brownfield-land"],"explanation":"Planning/development evidence record: permissioned; brownfield land capacity marker for 0 net dwellings."},"geometry":{"type":"Point","coordinates":[-0.155522,51.51641]}},{"type":"Feature","id":"lon_brownfield_1731749","properties":{"city_id":"london","event_id":"lon_brownfield_1731749","title":"Brownfield development site: 15 Crawford Place London W1H 4LG (up to 0 homes)","year":2023,"effective_date":"2023-01-05","date_precision":"day","category":"built_environment","lens":"built_environment","confidence":"documented","source_ids":["lon-extra-planning-data-brownfield-land"],"explanation":"Planning/development evidence record: permissioned; brownfield land capacity marker for 0 net dwellings."},"geometry":{"type":"Point","coordinates":[-0.16619,51.518502]}},{"type":"Feature","id":"lon_brownfield_1731751","properties":{"city_id":"london","event_id":"lon_brownfield_1731751","title":"Brownfield development site: 47 Great Cumberland Place London W1H 7TQ (up to 0 homes)","year":2023,"effective_date":"2023-02-28","date_precision":"day","category":"built_environment","lens":"built_environment","confidence":"documented","source_ids":["lon-extra-planning-data-brownfield-land"],"explanation":"Planning/development evidence record: permissioned; brownfield land capacity marker for 0 net dwellings."},"geometry":{"type":"Point","coordinates":[-0.160515,51.515904]}},{"type":"Feature","id":"lon_brownfield_1731794","properties":{"city_id":"london","event_id":"lon_brownfield_1731794","title":"Brownfield development site: 114 Allfarthing Lane (up to 8 homes)","year":2023,"effective_date":"2023-05-25","date_precision":"day","category":"built_environment","lens":"built_environment","confidence":"documented","source_ids":["lon-extra-planning-data-brownfield-land"],"explanation":"Planning/development evidence record: permissioned; brownfield land capacity marker for 8 net dwellings."},"geometry":{"type":"Point","coordinates":[-0.18871,51.45168]}},{"type":"Feature","id":"lon_brownfield_1731844","properties":{"city_id":"london","event_id":"lon_brownfield_1731844","title":"Brownfield development site: Sylva Court, 79 Putney Hill (up to 6 homes)","year":2023,"effective_date":"2023-06-21","date_precision":"day","category":"built_environment","lens":"built_environment","confidence":"documented","source_ids":["lon-extra-planning-data-brownfield-land"],"explanation":"Planning/development evidence record: permissioned; brownfield land capacity marker for 6 net dwellings."},"geometry":{"type":"Point","coordinates":[-0.220378,51.450506]}},{"type":"Feature","id":"lon_brownfield_1731852","properties":{"city_id":"london","event_id":"lon_brownfield_1731852","title":"Brownfield development site: Land and Garages Between Phelps House and The Platt Christian Centre, Felsham Road (Platt South) (up to 11 homes)","year":2023,"effective_date":"2023-03-07","date_precision":"day","category":"transport","lens":"traffic","confidence":"documented","source_ids":["lon-extra-planning-data-brownfield-land"],"explanation":"Planning/development evidence record: permissioned; brownfield land capacity marker for 11 net dwellings."},"geometry":{"type":"Point","coordinates":[-0.226598,51.467147]}},{"type":"Feature","id":"lon_brownfield_1734917","properties":{"city_id":"london","event_id":"lon_brownfield_1734917","title":"Brownfield development site: Land At Myrtle Road Adjacent 1 High Street, Hampton Hill (up to 5 homes)","year":2023,"effective_date":"2023-01-05","date_precision":"day","category":"transport","lens":"traffic","confidence":"documented","source_ids":["lon-extra-planning-data-brownfield-land"],"explanation":"Planning/development evidence record: permissioned; brownfield land capacity marker for 5 net dwellings."},"geometry":{"type":"Point","coordinates":[-0.360039,51.422572]}},{"type":"Feature","id":"lon_brownfield_1734918","properties":{"city_id":"london","event_id":"lon_brownfield_1734918","title":"Brownfield development site: Garages Rear Of, 20 - 34 St Marys Grove, Richmond (up to 5 homes)","year":2023,"effective_date":"2023-01-19","date_precision":"day","category":"built_environment","lens":"built_environment","confidence":"documented","source_ids":["lon-extra-planning-data-brownfield-land"],"explanation":"Planning/development evidence record: permissioned; brownfield land capacity marker for 5 net dwellings."},"geometry":{"type":"Point","coordinates":[-0.291916,51.463106]}},{"type":"Feature","id":"lon_brownfield_1734919","properties":{"city_id":"london","event_id":"lon_brownfield_1734919","title":"Brownfield development site: 12 Park Road, Hampton Wick, Kingston Upon Thames, KT1 4AS (up to 5 homes)","year":2023,"effective_date":"2023-07-17","date_precision":"day","category":"transport","lens":"traffic","confidence":"documented","source_ids":["lon-extra-planning-data-brownfield-land"],"explanation":"Planning/development evidence record: permissioned; brownfield land capacity marker for 5 net dwellings."},"geometry":{"type":"Point","coordinates":[-0.312411,51.413183]}},{"type":"Feature","id":"lon_brownfield_1734920","properties":{"city_id":"london","event_id":"lon_brownfield_1734920","title":"Brownfield development site: Meadows Hall, Church Road, Richmond TW10 6LN (up to 12 homes)","year":2023,"effective_date":"2023-09-14","date_precision":"day","category":"transport","lens":"traffic","confidence":"documented","source_ids":["lon-extra-planning-data-brownfield-land"],"explanation":"Planning/development evidence record: permissioned; brownfield land capacity marker for 12 net dwellings."},"geometry":{"type":"Point","coordinates":[-0.297275,51.461026]}},{"type":"Feature","id":"lon_brownfield_1734921","properties":{"city_id":"london","event_id":"lon_brownfield_1734921","title":"Brownfield development site: 217 Kingston Road, Teddington, TW11 9JN (up to 7 homes)","year":2023,"effective_date":"2023-07-10","date_precision":"day","category":"transport","lens":"traffic","confidence":"documented","source_ids":["lon-extra-planning-data-brownfield-land"],"explanation":"Planning/development evidence record: permissioned; brownfield land capacity marker for 7 net dwellings."},"geometry":{"type":"Point","coordinates":[-0.318594,51.421575]}},{"type":"Feature","id":"lon_brownfield_1734923","properties":{"city_id":"london","event_id":"lon_brownfield_1734923","title":"Brownfield development site: Potterill Court, Harlequin Road, Teddington (up to 6 homes)","year":2023,"effective_date":"2023-04-05","date_precision":"day","category":"transport","lens":"traffic","confidence":"documented","source_ids":["lon-extra-planning-data-brownfield-land"],"explanation":"Planning/development evidence record: permissioned; brownfield land capacity marker for 6 net dwellings."},"geometry":{"type":"Point","coordinates":[-0.32265,51.42096]}},{"type":"Feature","id":"lon_brownfield_1735252","properties":{"city_id":"london","event_id":"lon_brownfield_1735252","title":"Brownfield development site: Abbey Co-op Phase 3 (Emminster & Hinstock and Abbey Co-op Community Centre), Abbey Road, London, NW6 4DP (up to 65 homes)","year":2023,"effective_date":"2023-03-03","date_precision":"day","category":"transport","lens":"traffic","confidence":"documented","source_ids":["lon-extra-planning-data-brownfield-land"],"explanation":"Planning/development evidence record: permissioned; brownfield land capacity marker for 65 net dwellings."},"geometry":{"type":"Point","coordinates":[-0.188283,51.539798]}},{"type":"Feature","id":"lon_brownfield_1735254","properties":{"city_id":"london","event_id":"lon_brownfield_1735254","title":"Brownfield development site: 52 Avenue Road London NW8 6HS (up to 11 homes)","year":2023,"effective_date":"2023-05-11","date_precision":"day","category":"transport","lens":"traffic","confidence":"documented","source_ids":["lon-extra-planning-data-brownfield-land"],"explanation":"Planning/development evidence record: permissioned; brownfield land capacity marker for 11 net dwellings."},"geometry":{"type":"Point","coordinates":[-0.169929,51.539266]}},{"type":"Feature","id":"lon_brownfield_1736039","properties":{"city_id":"london","event_id":"lon_brownfield_1736039","title":"Brownfield development site: 362 Norwood Road (up to 3 homes)","year":2023,"effective_date":"2023-01-18","date_precision":"day","category":"transport","lens":"traffic","confidence":"documented","source_ids":["lon-extra-planning-data-brownfield-land"],"explanation":"Planning/development evidence record: permissioned; brownfield land capacity marker for 3 net dwellings."},"geometry":{"type":"Point","coordinates":[-0.104026,51.434303]}},{"type":"Feature","id":"lon_brownfield_1736040","properties":{"city_id":"london","event_id":"lon_brownfield_1736040","title":"Brownfield development site: 49B And Land Rear Of 47 to 49B Leigham Court Road (up to 34 homes)","year":2023,"effective_date":"2023-09-02","date_precision":"day","category":"transport","lens":"traffic","confidence":"documented","source_ids":["lon-extra-planning-data-brownfield-land"],"explanation":"Planning/development evidence record: permissioned; brownfield land capacity marker for 34 net dwellings."},"geometry":{"type":"Point","coordinates":[-0.124646,51.437036]}},{"type":"Feature","id":"lon_brownfield_1736041","properties":{"city_id":"london","event_id":"lon_brownfield_1736041","title":"Brownfield development site: 1 -9 Southville (up to 14 homes)","year":2023,"effective_date":"2023-03-31","date_precision":"day","category":"built_environment","lens":"built_environment","confidence":"documented","source_ids":["lon-extra-planning-data-brownfield-land"],"explanation":"Planning/development evidence record: permissioned; brownfield land capacity marker for 14 net dwellings."},"geometry":{"type":"Point","coordinates":[-0.131335,51.474786]}},{"type":"Feature","id":"lon_brownfield_1736042","properties":{"city_id":"london","event_id":"lon_brownfield_1736042","title":"Brownfield development site: Police Station 47 Cavendish Road (up to 15 homes)","year":2023,"effective_date":"2023-03-31","date_precision":"day","category":"transport","lens":"traffic","confidence":"documented","source_ids":["lon-extra-planning-data-brownfield-land"],"explanation":"Planning/development evidence record: permissioned; brownfield land capacity marker for 15 net dwellings."},"geometry":{"type":"Point","coordinates":[-0.142491,51.452913]}},{"type":"Feature","id":"lon_brownfield_1736043","properties":{"city_id":"london","event_id":"lon_brownfield_1736043","title":"Brownfield development site: 248-250 Norwood Road (up to 5 homes)","year":2023,"effective_date":"2023-04-17","date_precision":"day","category":"transport","lens":"traffic","confidence":"documented","source_ids":["lon-extra-planning-data-brownfield-land"],"explanation":"Planning/development evidence record: permissioned; brownfield land capacity marker for 5 net dwellings."},"geometry":{"type":"Point","coordinates":[-0.106037,51.437528]}},{"type":"Feature","id":"lon_brownfield_1736044","properties":{"city_id":"london","event_id":"lon_brownfield_1736044","title":"Brownfield development site: 141 - 149 Railton Road (up to 5 homes)","year":2023,"effective_date":"2023-05-18","date_precision":"day","category":"transport","lens":"traffic","confidence":"documented","source_ids":["lon-extra-planning-data-brownfield-land"],"explanation":"Planning/development evidence record: permissioned; brownfield land capacity marker for 5 net dwellings."},"geometry":{"type":"Point","coordinates":[-0.106591,51.457168]}},{"type":"Feature","id":"lon_brownfield_1736045","properties":{"city_id":"london","event_id":"lon_brownfield_1736045","title":"Brownfield development site: 1 - 4 Brixton Hill Place (up to 24 homes)","year":2023,"effective_date":"2023-07-28","date_precision":"day","category":"built_environment","lens":"built_environment","confidence":"documented","source_ids":["lon-extra-planning-data-brownfield-land"],"explanation":"Planning/development evidence record: permissioned; brownfield land capacity marker for 24 net dwellings."},"geometry":{"type":"Point","coordinates":[-0.125266,51.4479]}},{"type":"Feature","id":"lon_brownfield_1736046","properties":{"city_id":"london","event_id":"lon_brownfield_1736046","title":"Brownfield development site: Land To The Rear Of 60-62 Streatham High Road (up to 6 homes)","year":2023,"effective_date":"2023-04-08","date_precision":"day","category":"transport","lens":"traffic","confidence":"documented","source_ids":["lon-extra-planning-data-brownfield-land"],"explanation":"Planning/development evidence record: permissioned; brownfield land capacity marker for 6 net dwellings."},"geometry":{"type":"Point","coordinates":[-0.128563,51.436613]}},{"type":"Feature","id":"lon_brownfield_1736047","properties":{"city_id":"london","event_id":"lon_brownfield_1736047","title":"Brownfield development site: Lambeth Hospital 108 Landor Road (up to 553 homes)","year":2023,"effective_date":"2023-11-10","date_precision":"day","category":"transport","lens":"traffic","confidence":"documented","source_ids":["lon-extra-planning-data-brownfield-land"],"explanation":"Planning/development evidence record: permissioned; brownfield land capacity marker for 553 net dwellings."},"geometry":{"type":"Point","coordinates":[-0.122249,51.465315]}},{"type":"Feature","id":"lon_brownfield_1736048","properties":{"city_id":"london","event_id":"lon_brownfield_1736048","title":"Brownfield development site: 7 Moorland Road (up to 3 homes)","year":2023,"effective_date":"2023-09-10","date_precision":"day","category":"transport","lens":"traffic","confidence":"documented","source_ids":["lon-extra-planning-data-brownfield-land"],"explanation":"Planning/development evidence record: permissioned; brownfield land capacity marker for 3 net dwellings."},"geometry":{"type":"Point","coordinates":[-0.106316,51.462424]}},{"type":"Feature","id":"lon_brownfield_1736049","properties":{"city_id":"london","event_id":"lon_brownfield_1736049","title":"Brownfield development site: 206 - 208 Coldharbour Lane (up to 3 homes)","year":2023,"effective_date":"2023-09-10","date_precision":"day","category":"built_environment","lens":"built_environment","confidence":"documented","source_ids":["lon-extra-planning-data-brownfield-land"],"explanation":"Planning/development evidence record: permissioned; brownfield land capacity marker for 3 net dwellings."},"geometry":{"type":"Point","coordinates":[-0.101911,51.466247]}},{"type":"Feature","id":"lon_brownfield_1736050","properties":{"city_id":"london","event_id":"lon_brownfield_1736050","title":"Brownfield development site: Garages by 78 Kingsmead Road And 64 Palace Road (up to 3 homes)","year":2023,"effective_date":"2023-03-11","date_precision":"day","category":"transport","lens":"traffic","confidence":"documented","source_ids":["lon-extra-planning-data-brownfield-land"],"explanation":"Planning/development evidence record: permissioned; brownfield land capacity marker for 3 net dwellings."},"geometry":{"type":"Point","coordinates":[-0.113074,51.438891]}},{"type":"Feature","id":"lon_brownfield_1736051","properties":{"city_id":"london","event_id":"lon_brownfield_1736051","title":"Brownfield development site: 94A And 94B Larkhall Lane (up to 5 homes)","year":2023,"effective_date":"2023-11-20","date_precision":"day","category":"built_environment","lens":"built_environment","confidence":"documented","source_ids":["lon-extra-planning-data-brownfield-land"],"explanation":"Planning/development evidence record: permissioned; brownfield land capacity marker for 5 net dwellings."},"geometry":{"type":"Point","coordinates":[-0.129065,51.472555]}},{"type":"Feature","id":"lon_brownfield_1736069","properties":{"city_id":"london","event_id":"lon_brownfield_1736069","title":"Brownfield development site: Hesper House, Wells Park Road (up to 15 homes)","year":2023,"effective_date":"2023-02-15","date_precision":"day","category":"transport","lens":"traffic","confidence":"documented","source_ids":["lon-extra-planning-data-brownfield-land"],"explanation":"Planning/development evidence record: permissioned; brownfield land capacity marker for 15 net dwellings."},"geometry":{"type":"Point","coordinates":[-0.0696,51.4318]}},{"type":"Feature","id":"lon_brownfield_1736094","properties":{"city_id":"london","event_id":"lon_brownfield_1736094","title":"Brownfield development site: 19-21 Brownhill Road (up to 6 homes)","year":2023,"effective_date":"2023-04-06","date_precision":"day","category":"transport","lens":"traffic","confidence":"documented","source_ids":["lon-extra-planning-data-brownfield-land"],"explanation":"Planning/development evidence record: permissioned; brownfield land capacity marker for 6 net dwellings."},"geometry":{"type":"Point","coordinates":[-0.0147,51.4481]}},{"type":"Feature","id":"lon_brownfield_1736731","properties":{"city_id":"london","event_id":"lon_brownfield_1736731","title":"Brownfield development site: Battersea Ring Main (up to 100 homes)","year":2023,"effective_date":"2023-12-15","date_precision":"day","category":"built_environment","lens":"built_environment","confidence":"documented","source_ids":["lon-extra-planning-data-brownfield-land"],"explanation":"Planning/development evidence record: not-permissioned; brownfield land capacity marker for 100 net dwellings."},"geometry":{"type":"Point","coordinates":[-0.141792,51.481432]}},{"type":"Feature","id":"lon_brownfield_1736734","properties":{"city_id":"london","event_id":"lon_brownfield_1736734","title":"Brownfield development site: 103-111 Mitcham Road (up to 24 homes)","year":2023,"effective_date":"2023-06-27","date_precision":"day","category":"transport","lens":"traffic","confidence":"documented","source_ids":["lon-extra-planning-data-brownfield-land"],"explanation":"Planning/development evidence record: permissioned; brownfield land capacity marker for 24 net dwellings."},"geometry":{"type":"Point","coordinates":[-0.164651,51.425715]}},{"type":"Feature","id":"lon_brownfield_1736735","properties":{"city_id":"london","event_id":"lon_brownfield_1736735","title":"Brownfield development site: 15a Selkirk Road (up to 16 homes)","year":2023,"effective_date":"2023-12-15","date_precision":"day","category":"transport","lens":"traffic","confidence":"documented","source_ids":["lon-extra-planning-data-brownfield-land"],"explanation":"Planning/development evidence record: not-permissioned; brownfield land capacity marker for 16 net dwellings."},"geometry":{"type":"Point","coordinates":[-0.1678,51.42923]}},{"type":"Feature","id":"lon_brownfield_1736741","properties":{"city_id":"london","event_id":"lon_brownfield_1736741","title":"Brownfield development site: 190-194 Mitcham Road (up to 21 homes)","year":2023,"effective_date":"2023-03-31","date_precision":"day","category":"transport","lens":"traffic","confidence":"documented","source_ids":["lon-extra-planning-data-brownfield-land"],"explanation":"Planning/development evidence record: permissioned; brownfield land capacity marker for 21 net dwellings."},"geometry":{"type":"Point","coordinates":[-0.144687,51.421993]}},{"type":"Feature","id":"lon_brownfield_1736743","properties":{"city_id":"london","event_id":"lon_brownfield_1736743","title":"Brownfield development site: 214 Upper Richmond Road (up to 15 homes)","year":2023,"effective_date":"2023-01-18","date_precision":"day","category":"transport","lens":"traffic","confidence":"documented","source_ids":["lon-extra-planning-data-brownfield-land"],"explanation":"Planning/development evidence record: permissioned; brownfield land capacity marker for 15 net dwellings."},"geometry":{"type":"Point","coordinates":[-0.21799,51.461226]}},{"type":"Feature","id":"lon_brownfield_1736751","properties":{"city_id":"london","event_id":"lon_brownfield_1736751","title":"Brownfield development site: Land to the rear of 43, Southfields Road (up to 5 homes)","year":2023,"effective_date":"2023-10-02","date_precision":"day","category":"transport","lens":"traffic","confidence":"documented","source_ids":["lon-extra-planning-data-brownfield-land"],"explanation":"Planning/development evidence record: permissioned; brownfield land capacity marker for 5 net dwellings."},"geometry":{"type":"Point","coordinates":[-0.199438,51.453783]}},{"type":"Feature","id":"lon_brownfield_1737123","properties":{"city_id":"london","event_id":"lon_brownfield_1737123","title":"Brownfield development site: 172-176 Kilburn High Road London NW6 4JD (up to 8 homes)","year":2023,"effective_date":"2023-11-22","date_precision":"day","category":"transport","lens":"traffic","confidence":"documented","source_ids":["lon-extra-planning-data-brownfield-land"],"explanation":"Planning/development evidence record: permissioned; brownfield land capacity marker for 8 net dwellings."},"geometry":{"type":"Point","coordinates":[-0.196304,51.540853]}},{"type":"Feature","id":"lon_brownfield_1737124","properties":{"city_id":"london","event_id":"lon_brownfield_1737124","title":"Brownfield development site: 26-28 Rochester Place London NW1 9DF (up to 10 homes)","year":2023,"effective_date":"2023-10-11","date_precision":"day","category":"built_environment","lens":"built_environment","confidence":"documented","source_ids":["lon-extra-planning-data-brownfield-land"],"explanation":"Planning/development evidence record: permissioned; brownfield land capacity marker for 10 net dwellings."},"geometry":{"type":"Point","coordinates":[-0.137703,51.543837]}},{"type":"Feature","id":"lon_brownfield_1737127","properties":{"city_id":"london","event_id":"lon_brownfield_1737127","title":"Brownfield development site: Battle Bridge House, Offices And Premises At Basement-6th Floors 300-306 Gray's Inn Road London Camden WC1X 8DU (up to 7 homes)","year":2023,"effective_date":"2023-12-20","date_precision":"day","category":"transport","lens":"traffic","confidence":"documented","source_ids":["lon-extra-planning-data-brownfield-land"],"explanation":"Planning/development evidence record: permissioned; brownfield land capacity marker for 7 net dwellings."},"geometry":{"type":"Point","coordinates":[-0.118549,51.528107]}},{"type":"Feature","id":"lon_brownfield_1737129","properties":{"city_id":"london","event_id":"lon_brownfield_1737129","title":"Brownfield development site: Vacant site adjacent No1 Narcissus Road, and to the rear of 132/134 Mill Lane London NW6 (up to 7 homes)","year":2023,"effective_date":"2023-12-20","date_precision":"day","category":"transport","lens":"traffic","confidence":"documented","source_ids":["lon-extra-planning-data-brownfield-land"],"explanation":"Planning/development evidence record: permissioned; brownfield land capacity marker for 7 net dwellings."},"geometry":{"type":"Point","coordinates":[-0.196268,51.551697]}},{"type":"Feature","id":"lon_brownfield_1737132","properties":{"city_id":"london","event_id":"lon_brownfield_1737132","title":"Brownfield development site: 11-13 Macklin Street London WC2B 5NH (up to 12 homes)","year":2023,"effective_date":"2023-12-11","date_precision":"day","category":"environment","lens":"green_space","confidence":"documented","source_ids":["lon-extra-planning-data-brownfield-land"],"explanation":"Planning/development evidence record: permissioned; brownfield land capacity marker for 12 net dwellings."},"geometry":{"type":"Point","coordinates":[-0.122866,51.515928]}},{"type":"Feature","id":"lon_brownfield_1737133","properties":{"city_id":"london","event_id":"lon_brownfield_1737133","title":"Brownfield development site: 100 & 88 Gray's Inn Road and 127 Clerkenwell Road London WC1X 8AL (up to 6 homes)","year":2023,"effective_date":"2023-12-20","date_precision":"day","category":"transport","lens":"traffic","confidence":"documented","source_ids":["lon-extra-planning-data-brownfield-land"],"explanation":"Planning/development evidence record: permissioned; brownfield land capacity marker for 6 net dwellings."},"geometry":{"type":"Point","coordinates":[-0.112662,51.521333]}},{"type":"Feature","id":"lon_brownfield_1737415","properties":{"city_id":"london","event_id":"lon_brownfield_1737415","title":"Brownfield development site: 29 To 31 High Street And Land To Rear Of High Street, Hampton Wick (up to 8 homes)","year":2023,"effective_date":"2023-11-09","date_precision":"day","category":"environment","lens":"green_space","confidence":"documented","source_ids":["lon-extra-planning-data-brownfield-land"],"explanation":"Planning/development evidence record: permissioned; brownfield land capacity marker for 8 net dwellings."},"geometry":{"type":"Point","coordinates":[-0.311313,51.412262]}},{"type":"Feature","id":"lon_brownfield_1737511","properties":{"city_id":"london","event_id":"lon_brownfield_1737511","title":"Brownfield development site: 258-260 London Road, Mitcham CR4 3HD","year":2023,"effective_date":"2023-01-27","date_precision":"day","category":"transport","lens":"traffic","confidence":"documented","source_ids":["lon-extra-planning-data-brownfield-land"],"explanation":"Planning/development evidence record: permissioned; brownfield land capacity marker."},"geometry":{"type":"Point","coordinates":[-0.164237,51.406377]}},{"type":"Feature","id":"lon_brownfield_1737517","properties":{"city_id":"london","event_id":"lon_brownfield_1737517","title":"Brownfield development site: 4 to 7 Upper Green West, Mitcham CR4 3AA (up to 3 homes)","year":2023,"effective_date":"2023-05-09","date_precision":"day","category":"environment","lens":"green_space","confidence":"documented","source_ids":["lon-extra-planning-data-brownfield-land"],"explanation":"Planning/development evidence record: permissioned; brownfield land capacity marker for 3 net dwellings."},"geometry":{"type":"Point","coordinates":[-0.164647,51.406194]}},{"type":"Feature","id":"lon_brownfield_1737521","properties":{"city_id":"london","event_id":"lon_brownfield_1737521","title":"Brownfield development site: Rufus Business Centre Ravensbury Terrace, Wimbledon Park SW18 4RL (up to 96 homes)","year":2023,"effective_date":"2023-01-16","date_precision":"day","category":"transport","lens":"traffic","confidence":"documented","source_ids":["lon-extra-planning-data-brownfield-land"],"explanation":"Planning/development evidence record: permissioned; brownfield land capacity marker for 96 net dwellings."},"geometry":{"type":"Point","coordinates":[-0.191506,51.439373]}},{"type":"Feature","id":"lon_brownfield_1737526","properties":{"city_id":"london","event_id":"lon_brownfield_1737526","title":"Brownfield development site: Tower Lodge 2 Trinity Road, Wimbledon SW19 8RL (up to 18 homes)","year":2023,"effective_date":"2023-04-05","date_precision":"day","category":"transport","lens":"traffic","confidence":"documented","source_ids":["lon-extra-planning-data-brownfield-land"],"explanation":"Planning/development evidence record: permissioned; brownfield land capacity marker for 18 net dwellings."},"geometry":{"type":"Point","coordinates":[-0.196839,51.419779]}},{"type":"Feature","id":"lon_brownfield_1737531","properties":{"city_id":"london","event_id":"lon_brownfield_1737531","title":"Brownfield development site: 242 Morden Road, South Wimbledon SW19 3DA (up to 9 homes)","year":2023,"effective_date":"2023-02-27","date_precision":"day","category":"transport","lens":"traffic","confidence":"documented","source_ids":["lon-extra-planning-data-brownfield-land"],"explanation":"Planning/development evidence record: permissioned; brownfield land capacity marker for 9 net dwellings."},"geometry":{"type":"Point","coordinates":[-0.192461,51.405682]}},{"type":"Feature","id":"lon_brownfield_1737533","properties":{"city_id":"london","event_id":"lon_brownfield_1737533","title":"Brownfield development site: Tooting Police Station 251 Mitcham Road, Tooting SW17 9JQ (up to 62 homes)","year":2023,"effective_date":"2023-03-30","date_precision":"day","category":"transport","lens":"traffic","confidence":"documented","source_ids":["lon-extra-planning-data-brownfield-land"],"explanation":"Planning/development evidence record: permissioned; brownfield land capacity marker for 62 net dwellings."},"geometry":{"type":"Point","coordinates":[-0.160075,51.421592]}},{"type":"Feature","id":"lon_brownfield_1737538","properties":{"city_id":"london","event_id":"lon_brownfield_1737538","title":"Brownfield development site: Land at the Former Lessa Sports Ground Meadowview Road, Raynes Park SW20 9EB (up to 107 homes)","year":2023,"effective_date":"2023-10-11","date_precision":"day","category":"transport","lens":"traffic","confidence":"documented","source_ids":["lon-extra-planning-data-brownfield-land"],"explanation":"Planning/development evidence record: permissioned; brownfield land capacity marker for 107 net dwellings."},"geometry":{"type":"Point","coordinates":[-0.231722,51.401362]}},{"type":"Feature","id":"lon_brownfield_1737540","properties":{"city_id":"london","event_id":"lon_brownfield_1737540","title":"Brownfield development site: 3 New Close, Colliers Wood SW19 2SX (up to 4 homes)","year":2023,"effective_date":"2023-02-02","date_precision":"day","category":"built_environment","lens":"built_environment","confidence":"documented","source_ids":["lon-extra-planning-data-brownfield-land"],"explanation":"Planning/development evidence record: permissioned; brownfield land capacity marker for 4 net dwellings."},"geometry":{"type":"Point","coordinates":[-0.183003,51.404511]}},{"type":"Feature","id":"lon_brownfield_1737541","properties":{"city_id":"london","event_id":"lon_brownfield_1737541","title":"Brownfield development site: 115 Kingston Road, Wimbledon SW19 1LT (up to 7 homes)","year":2023,"effective_date":"2023-03-17","date_precision":"day","category":"transport","lens":"traffic","confidence":"documented","source_ids":["lon-extra-planning-data-brownfield-land"],"explanation":"Planning/development evidence record: permissioned; brownfield land capacity marker for 7 net dwellings."},"geometry":{"type":"Point","coordinates":[-0.198502,51.415514]}},{"type":"Feature","id":"lon_brownfield_1737542","properties":{"city_id":"london","event_id":"lon_brownfield_1737542","title":"Brownfield development site: Malden Court West Barnes Lane, New Malden KT3 4PW (up to 4 homes)","year":2023,"effective_date":"2023-05-26","date_precision":"day","category":"built_environment","lens":"built_environment","confidence":"documented","source_ids":["lon-extra-planning-data-brownfield-land"],"explanation":"Planning/development evidence record: permissioned; brownfield land capacity marker for 4 net dwellings."},"geometry":{"type":"Point","coordinates":[-0.236844,51.404272]}},{"type":"Feature","id":"lon_brownfield_1737543","properties":{"city_id":"london","event_id":"lon_brownfield_1737543","title":"Brownfield development site: 141-145 Cannon Hill Lane, Raynes Park (up to 5 homes)","year":2023,"effective_date":"2023-06-06","date_precision":"day","category":"environment","lens":"green_space","confidence":"documented","source_ids":["lon-extra-planning-data-brownfield-land"],"explanation":"Planning/development evidence record: permissioned; brownfield land capacity marker for 5 net dwellings."},"geometry":{"type":"Point","coordinates":[-0.214231,51.403444]}},{"type":"Feature","id":"lon_brownfield_1737544","properties":{"city_id":"london","event_id":"lon_brownfield_1737544","title":"Brownfield development site: Eddie Katz 42 Station Road, Colliers Wood SW19 2LP (up to 98 homes)","year":2023,"effective_date":"2023-08-23","date_precision":"day","category":"transport","lens":"traffic","confidence":"documented","source_ids":["lon-extra-planning-data-brownfield-land"],"explanation":"Planning/development evidence record: permissioned; brownfield land capacity marker for 98 net dwellings."},"geometry":{"type":"Point","coordinates":[-0.183357,51.414462]}},{"type":"Feature","id":"lon_brownfield_1737545","properties":{"city_id":"london","event_id":"lon_brownfield_1737545","title":"Brownfield development site: Unit C Elm Grove Business Centre Elm Grove, Wimbledon SW19 4HE (up to 15 homes)","year":2023,"effective_date":"2023-04-14","date_precision":"day","category":"transport","lens":"traffic","confidence":"documented","source_ids":["lon-extra-planning-data-brownfield-land"],"explanation":"Planning/development evidence record: permissioned; brownfield land capacity marker for 15 net dwellings."},"geometry":{"type":"Point","coordinates":[-0.214966,51.415903]}},{"type":"Feature","id":"lon_brownfield_1737548","properties":{"city_id":"london","event_id":"lon_brownfield_1737548","title":"Brownfield development site: 192-202 Martin Way, Morden SM4 4AJ (up to 6 homes)","year":2023,"effective_date":"2023-08-14","date_precision":"day","category":"built_environment","lens":"built_environment","confidence":"documented","source_ids":["lon-extra-planning-data-brownfield-land"],"explanation":"Planning/development evidence record: permissioned; brownfield land capacity marker for 6 net dwellings."},"geometry":{"type":"Point","coordinates":[-0.209632,51.402664]}},{"type":"Feature","id":"lon_brownfield_1737550","properties":{"city_id":"london","event_id":"lon_brownfield_1737550","title":"Brownfield development site: The White Hart 144 Kingston Road, Wimbledon SW19 1LY","year":2023,"effective_date":"2023-12-01","date_precision":"day","category":"transport","lens":"traffic","confidence":"documented","source_ids":["lon-extra-planning-data-brownfield-land"],"explanation":"Planning/development evidence record: permissioned; brownfield land capacity marker."},"geometry":{"type":"Point","coordinates":[-0.20175,51.414458]}},{"type":"Feature","id":"lon_brownfield_1737553","properties":{"city_id":"london","event_id":"lon_brownfield_1737553","title":"Brownfield development site: 318 Worple Road, Raynes Park SW20 8QU (up to 9 homes)","year":2023,"effective_date":"2023-06-30","date_precision":"day","category":"transport","lens":"traffic","confidence":"documented","source_ids":["lon-extra-planning-data-brownfield-land"],"explanation":"Planning/development evidence record: permissioned; brownfield land capacity marker for 9 net dwellings."},"geometry":{"type":"Point","coordinates":[-0.229469,51.410213]}},{"type":"Feature","id":"lon_brownfield_1737558","properties":{"city_id":"london","event_id":"lon_brownfield_1737558","title":"Brownfield development site: Justin Plaza 341 London Road, Mitcham CR4 4BE (up to 7 homes)","year":2023,"effective_date":"2023-12-11","date_precision":"day","category":"transport","lens":"traffic","confidence":"documented","source_ids":["lon-extra-planning-data-brownfield-land"],"explanation":"Planning/development evidence record: permissioned; brownfield land capacity marker for 7 net dwellings."},"geometry":{"type":"Point","coordinates":[-0.169055,51.399878]}},{"type":"Feature","id":"lon_brownfield_1737625","properties":{"city_id":"london","event_id":"lon_brownfield_1737625","title":"Brownfield development site: 279 Rosendale Road London SE24 9EJ (up to 23 homes)","year":2023,"effective_date":"2023-12-19","date_precision":"day","category":"transport","lens":"traffic","confidence":"documented","source_ids":["lon-extra-planning-data-brownfield-land"],"explanation":"Planning/development evidence record: permissioned; brownfield land capacity marker for 23 net dwellings."},"geometry":{"type":"Point","coordinates":[-0.101743,51.447737]}},{"type":"Feature","id":"lon_brownfield_1737626","properties":{"city_id":"london","event_id":"lon_brownfield_1737626","title":"Brownfield development site: Royal Street Site, South Bank London SE1 7LW (up to 4 homes)","year":2023,"effective_date":"2023-12-20","date_precision":"day","category":"environment","lens":"green_space","confidence":"documented","source_ids":["lon-extra-planning-data-brownfield-land"],"explanation":"Planning/development evidence record: permissioned; brownfield land capacity marker for 4 net dwellings."},"geometry":{"type":"Point","coordinates":[-0.11607,51.498929]}},{"type":"Feature","id":"lon_brownfield_1737632","properties":{"city_id":"london","event_id":"lon_brownfield_1737632","title":"Brownfield development site: Land On The Corner Of Avenue Park Road Thurlow Park Road London (up to 76 homes)","year":2023,"effective_date":"2023-05-24","date_precision":"day","category":"transport","lens":"traffic","confidence":"documented","source_ids":["lon-extra-planning-data-brownfield-land"],"explanation":"Planning/development evidence record: permissioned; brownfield land capacity marker for 76 net dwellings."},"geometry":{"type":"Point","coordinates":[-0.104215,51.440169]}},{"type":"Feature","id":"lon_brownfield_1737748","properties":{"city_id":"london","event_id":"lon_brownfield_1737748","title":"Brownfield development site: ASDA and B&Q Belvedere (up to 460 homes)","year":2023,"effective_date":"2023-09-30","date_precision":"day","category":"built_environment","lens":"built_environment","confidence":"documented","source_ids":["lon-extra-planning-data-brownfield-land"],"explanation":"Planning/development evidence record: not-permissioned; brownfield land capacity marker for 460 net dwellings."},"geometry":{"type":"Point","coordinates":[0.155654,51.490784]}},{"type":"Feature","id":"lon_brownfield_1737749","properties":{"city_id":"london","event_id":"lon_brownfield_1737749","title":"Brownfield development site: Station Road East (up to 80 homes)","year":2023,"effective_date":"2023-09-30","date_precision":"day","category":"transport","lens":"traffic","confidence":"documented","source_ids":["lon-extra-planning-data-brownfield-land"],"explanation":"Planning/development evidence record: not-permissioned; brownfield land capacity marker for 80 net dwellings."},"geometry":{"type":"Point","coordinates":[0.153886,51.490923]}},{"type":"Feature","id":"lon_brownfield_1737750","properties":{"city_id":"london","event_id":"lon_brownfield_1737750","title":"Brownfield development site: Station Road West (up to 23 homes)","year":2023,"effective_date":"2023-09-30","date_precision":"day","category":"transport","lens":"traffic","confidence":"documented","source_ids":["lon-extra-planning-data-brownfield-land"],"explanation":"Planning/development evidence record: not-permissioned; brownfield land capacity marker for 23 net dwellings."},"geometry":{"type":"Point","coordinates":[0.152667,51.490911]}},{"type":"Feature","id":"lon_brownfield_1737751","properties":{"city_id":"london","event_id":"lon_brownfield_1737751","title":"Brownfield development site: Land adjacent to Woodside School (up to 140 homes)","year":2023,"effective_date":"2023-09-30","date_precision":"day","category":"civic_services","lens":"services","confidence":"documented","source_ids":["lon-extra-planning-data-brownfield-land"],"explanation":"Planning/development evidence record: not-permissioned; brownfield land capacity marker for 140 net dwellings."},"geometry":{"type":"Point","coordinates":[0.157124,51.489163]}},{"type":"Feature","id":"lon_brownfield_1737752","properties":{"city_id":"london","event_id":"lon_brownfield_1737752","title":"Brownfield development site: Belvedere Gas Holders (up to 465 homes)","year":2023,"effective_date":"2023-09-30","date_precision":"day","category":"built_environment","lens":"built_environment","confidence":"documented","source_ids":["lon-extra-planning-data-brownfield-land"],"explanation":"Planning/development evidence record: not-permissioned; brownfield land capacity marker for 465 net dwellings."},"geometry":{"type":"Point","coordinates":[0.14989,51.49267]}},{"type":"Feature","id":"lon_brownfield_1737753","properties":{"city_id":"london","event_id":"lon_brownfield_1737753","title":"Brownfield development site: Monarch Works (up to 90 homes)","year":2023,"effective_date":"2023-09-30","date_precision":"day","category":"built_environment","lens":"built_environment","confidence":"documented","source_ids":["lon-extra-planning-data-brownfield-land"],"explanation":"Planning/development evidence record: not-permissioned; brownfield land capacity marker for 90 net dwellings."},"geometry":{"type":"Point","coordinates":[0.158391,51.491977]}},{"type":"Feature","id":"lon_brownfield_1737754","properties":{"city_id":"london","event_id":"lon_brownfield_1737754","title":"Brownfield development site: Crabtree Manorway South (up to 740 homes)","year":2023,"effective_date":"2023-09-30","date_precision":"day","category":"environment","lens":"green_space","confidence":"documented","source_ids":["lon-extra-planning-data-brownfield-land"],"explanation":"Planning/development evidence record: not-permissioned; brownfield land capacity marker for 740 net dwellings."},"geometry":{"type":"Point","coordinates":[0.162347,51.491878]}},{"type":"Feature","id":"lon_brownfield_1737756","properties":{"city_id":"london","event_id":"lon_brownfield_1737756","title":"Brownfield development site: Pier Road West (up to 182 homes)","year":2023,"effective_date":"2023-09-30","date_precision":"day","category":"transport","lens":"traffic","confidence":"documented","source_ids":["lon-extra-planning-data-brownfield-land"],"explanation":"Planning/development evidence record: not-permissioned; brownfield land capacity marker for 182 net dwellings."},"geometry":{"type":"Point","coordinates":[0.180344,51.47949]}},{"type":"Feature","id":"lon_brownfield_1737757","properties":{"city_id":"london","event_id":"lon_brownfield_1737757","title":"Brownfield development site: Pier Road East (up to 110 homes)","year":2023,"effective_date":"2023-09-30","date_precision":"day","category":"transport","lens":"traffic","confidence":"documented","source_ids":["lon-extra-planning-data-brownfield-land"],"explanation":"Planning/development evidence record: not-permissioned; brownfield land capacity marker for 110 net dwellings."},"geometry":{"type":"Point","coordinates":[0.181402,51.479675]}},{"type":"Feature","id":"lon_brownfield_1737758","properties":{"city_id":"london","event_id":"lon_brownfield_1737758","title":"Brownfield development site: Erith Riverside (up to 270 homes)","year":2023,"effective_date":"2023-09-30","date_precision":"day","category":"built_environment","lens":"built_environment","confidence":"documented","source_ids":["lon-extra-planning-data-brownfield-land"],"explanation":"Planning/development evidence record: not-permissioned; brownfield land capacity marker for 270 net dwellings."},"geometry":{"type":"Point","coordinates":[0.188324,51.478985]}},{"type":"Feature","id":"lon_brownfield_1737759","properties":{"city_id":"london","event_id":"lon_brownfield_1737759","title":"Brownfield development site: Morrisons Erith (up to 400 homes)","year":2023,"effective_date":"2023-09-30","date_precision":"day","category":"built_environment","lens":"built_environment","confidence":"documented","source_ids":["lon-extra-planning-data-brownfield-land"],"explanation":"Planning/development evidence record: not-permissioned; brownfield land capacity marker for 400 net dwellings."},"geometry":{"type":"Point","coordinates":[0.185527,51.479524]}},{"type":"Feature","id":"lon_brownfield_1737760","properties":{"city_id":"london","event_id":"lon_brownfield_1737760","title":"Brownfield development site: Bexleyheath Town Centre East (up to 130 homes)","year":2023,"effective_date":"2023-09-30","date_precision":"day","category":"built_environment","lens":"built_environment","confidence":"documented","source_ids":["lon-extra-planning-data-brownfield-land"],"explanation":"Planning/development evidence record: not-permissioned; brownfield land capacity marker for 130 net dwellings."},"geometry":{"type":"Point","coordinates":[0.152125,51.455617]}},{"type":"Feature","id":"lon_brownfield_1737761","properties":{"city_id":"london","event_id":"lon_brownfield_1737761","title":"Brownfield development site: EDF Energy (up to 200 homes)","year":2023,"effective_date":"2023-09-30","date_precision":"day","category":"utilities","lens":"utilities","confidence":"documented","source_ids":["lon-extra-planning-data-brownfield-land"],"explanation":"Planning/development evidence record: not-permissioned; brownfield land capacity marker for 200 net dwellings."},"geometry":{"type":"Point","coordinates":[0.138535,51.456349]}},{"type":"Feature","id":"lon_brownfield_1737762","properties":{"city_id":"london","event_id":"lon_brownfield_1737762","title":"Brownfield development site: Buildbase Bexleyheath (up to 21 homes)","year":2023,"effective_date":"2023-09-30","date_precision":"day","category":"built_environment","lens":"built_environment","confidence":"documented","source_ids":["lon-extra-planning-data-brownfield-land"],"explanation":"Planning/development evidence record: not-permissioned; brownfield land capacity marker for 21 net dwellings."},"geometry":{"type":"Point","coordinates":[0.133592,51.464009]}},{"type":"Feature","id":"lon_brownfield_1737763","properties":{"city_id":"london","event_id":"lon_brownfield_1737763","title":"Brownfield development site: Peppers Builders Merchants (up to 30 homes)","year":2023,"effective_date":"2023-09-30","date_precision":"day","category":"built_environment","lens":"built_environment","confidence":"documented","source_ids":["lon-extra-planning-data-brownfield-land"],"explanation":"Planning/development evidence record: not-permissioned; brownfield land capacity marker for 30 net dwellings."},"geometry":{"type":"Point","coordinates":[0.137738,51.460064]}},{"type":"Feature","id":"lon_brownfield_1737764","properties":{"city_id":"london","event_id":"lon_brownfield_1737764","title":"Brownfield development site: Land behind Belvedere Road (up to 70 homes)","year":2023,"effective_date":"2023-09-30","date_precision":"day","category":"transport","lens":"traffic","confidence":"documented","source_ids":["lon-extra-planning-data-brownfield-land"],"explanation":"Planning/development evidence record: not-permissioned; brownfield land capacity marker for 70 net dwellings."},"geometry":{"type":"Point","coordinates":[0.140366,51.462439]}},{"type":"Feature","id":"lon_brownfield_1737765","properties":{"city_id":"london","event_id":"lon_brownfield_1737765","title":"Brownfield development site: Former Electrobase/Wheatsheaf Works (up to 559 homes)","year":2023,"effective_date":"2023-06-28","date_precision":"day","category":"built_environment","lens":"built_environment","confidence":"documented","source_ids":["lon-extra-planning-data-brownfield-land"],"explanation":"Planning/development evidence record: permissioned; brownfield land capacity marker for 559 net dwellings."},"geometry":{"type":"Point","coordinates":[0.177564,51.44961]}},{"type":"Feature","id":"lon_brownfield_1737766","properties":{"city_id":"london","event_id":"lon_brownfield_1737766","title":"Brownfield development site: Tower Retail Park (up to 360 homes)","year":2023,"effective_date":"2023-09-30","date_precision":"day","category":"environment","lens":"green_space","confidence":"documented","source_ids":["lon-extra-planning-data-brownfield-land"],"explanation":"Planning/development evidence record: not-permissioned; brownfield land capacity marker for 360 net dwellings."},"geometry":{"type":"Point","coordinates":[0.183433,51.450507]}},{"type":"Feature","id":"lon_brownfield_1737767","properties":{"city_id":"london","event_id":"lon_brownfield_1737767","title":"Brownfield development site: Sainsburys Crayford (up to 450 homes)","year":2023,"effective_date":"2023-09-30","date_precision":"day","category":"built_environment","lens":"built_environment","confidence":"documented","source_ids":["lon-extra-planning-data-brownfield-land"],"explanation":"Planning/development evidence record: not-permissioned; brownfield land capacity marker for 450 net dwellings."},"geometry":{"type":"Point","coordinates":[0.180024,51.448761]}},{"type":"Feature","id":"lon_brownfield_1737768","properties":{"city_id":"london","event_id":"lon_brownfield_1737768","title":"Brownfield development site: School House, Colyers Lane, Erith (up to 5 homes)","year":2023,"effective_date":"2023-10-18","date_precision":"day","category":"civic_services","lens":"services","confidence":"documented","source_ids":["lon-extra-planning-data-brownfield-land"],"explanation":"Planning/development evidence record: permissioned; brownfield land capacity marker for 5 net dwellings."},"geometry":{"type":"Point","coordinates":[0.171825,51.471334]}},{"type":"Feature","id":"lon_brownfield_1737769","properties":{"city_id":"london","event_id":"lon_brownfield_1737769","title":"Brownfield development site: 16A St Johns Road, Sidcup (up to 15 homes)","year":2023,"effective_date":"2023-12-21","date_precision":"day","category":"transport","lens":"traffic","confidence":"documented","source_ids":["lon-extra-planning-data-brownfield-land"],"explanation":"Planning/development evidence record: permissioned; brownfield land capacity marker for 15 net dwellings."},"geometry":{"type":"Point","coordinates":[0.107471,51.428164]}},{"type":"Feature","id":"lon_brownfield_1737854","properties":{"city_id":"london","event_id":"lon_brownfield_1737854","title":"Brownfield development site: 78-78a Blackheath Hill (up to 9 homes)","year":2023,"effective_date":"2023-08-07","date_precision":"day","category":"built_environment","lens":"built_environment","confidence":"documented","source_ids":["lon-extra-planning-data-brownfield-land"],"explanation":"Planning/development evidence record: permissioned; brownfield land capacity marker for 9 net dwellings."},"geometry":{"type":"Point","coordinates":[-0.01159,51.472213]}},{"type":"Feature","id":"lon_brownfield_1737855","properties":{"city_id":"london","event_id":"lon_brownfield_1737855","title":"Brownfield development site: 56-60 Farmstead Road (up to 24 homes)","year":2023,"effective_date":"2023-01-24","date_precision":"day","category":"transport","lens":"traffic","confidence":"documented","source_ids":["lon-extra-planning-data-brownfield-land"],"explanation":"Planning/development evidence record: permissioned; brownfield land capacity marker for 24 net dwellings."},"geometry":{"type":"Point","coordinates":[-0.018453,51.4275]}},{"type":"Feature","id":"lon_brownfield_1737858","properties":{"city_id":"london","event_id":"lon_brownfield_1737858","title":"Brownfield development site: 52 Deptford Broadway (up to 6 homes)","year":2023,"effective_date":"2023-10-02","date_precision":"day","category":"transport","lens":"traffic","confidence":"documented","source_ids":["lon-extra-planning-data-brownfield-land"],"explanation":"Planning/development evidence record: permissioned; brownfield land capacity marker for 6 net dwellings."},"geometry":{"type":"Point","coordinates":[-0.02563,51.47458]}},{"type":"Feature","id":"lon_brownfield_1737865","properties":{"city_id":"london","event_id":"lon_brownfield_1737865","title":"Brownfield development site: Greenbank Cottage, Taymount Rise (up to 16 homes)","year":2023,"effective_date":"2023-06-09","date_precision":"day","category":"environment","lens":"green_space","confidence":"documented","source_ids":["lon-extra-planning-data-brownfield-land"],"explanation":"Planning/development evidence record: permissioned; brownfield land capacity marker for 16 net dwellings."},"geometry":{"type":"Point","coordinates":[-0.05939,51.438039]}},{"type":"Feature","id":"lon_brownfield_1737866","properties":{"city_id":"london","event_id":"lon_brownfield_1737866","title":"Brownfield development site: Fairlawn Primary School Annexe (up to 12 homes)","year":2023,"effective_date":"2023-05-26","date_precision":"day","category":"environment","lens":"green_space","confidence":"documented","source_ids":["lon-extra-planning-data-brownfield-land"],"explanation":"Planning/development evidence record: permissioned; brownfield land capacity marker for 12 net dwellings."},"geometry":{"type":"Point","coordinates":[-0.056,51.43638]}},{"type":"Feature","id":"lon_brownfield_1737868","properties":{"city_id":"london","event_id":"lon_brownfield_1737868","title":"Brownfield development site: Nicholas Court, 166 Burnt Ash Hill (up to 5 homes)","year":2023,"effective_date":"2023-08-25","date_precision":"day","category":"built_environment","lens":"built_environment","confidence":"documented","source_ids":["lon-extra-planning-data-brownfield-land"],"explanation":"Planning/development evidence record: permissioned; brownfield land capacity marker for 5 net dwellings."},"geometry":{"type":"Point","coordinates":[0.019073,51.441491]}},{"type":"Feature","id":"lon_brownfield_1737869","properties":{"city_id":"london","event_id":"lon_brownfield_1737869","title":"Brownfield development site: 252 Baring Road (up to 5 homes)","year":2023,"effective_date":"2023-04-05","date_precision":"day","category":"transport","lens":"traffic","confidence":"documented","source_ids":["lon-extra-planning-data-brownfield-land"],"explanation":"Planning/development evidence record: permissioned; brownfield land capacity marker for 5 net dwellings."},"geometry":{"type":"Point","coordinates":[0.018077,51.436386]}},{"type":"Feature","id":"lon_brownfield_1737872","properties":{"city_id":"london","event_id":"lon_brownfield_1737872","title":"Brownfield development site: 2 Manor Park (up to 8 homes)","year":2023,"effective_date":"2023-05-11","date_precision":"day","category":"environment","lens":"green_space","confidence":"documented","source_ids":["lon-extra-planning-data-brownfield-land"],"explanation":"Planning/development evidence record: permissioned; brownfield land capacity marker for 8 net dwellings."},"geometry":{"type":"Point","coordinates":[-0.00233,51.458116]}},{"type":"Feature","id":"lon_brownfield_1737873","properties":{"city_id":"london","event_id":"lon_brownfield_1737873","title":"Brownfield development site: 430-432 Lee High Road and 2-6 Burnt Ash Hill (up to 6 homes)","year":2023,"effective_date":"2023-09-29","date_precision":"day","category":"transport","lens":"traffic","confidence":"documented","source_ids":["lon-extra-planning-data-brownfield-land"],"explanation":"Planning/development evidence record: permissioned; brownfield land capacity marker for 6 net dwellings."},"geometry":{"type":"Point","coordinates":[0.011277,51.456402]}},{"type":"Feature","id":"lon_brownfield_1737875","properties":{"city_id":"london","event_id":"lon_brownfield_1737875","title":"Brownfield development site: Garages to rear of Creeland Grove (up to 6 homes)","year":2023,"effective_date":"2023-10-20","date_precision":"day","category":"built_environment","lens":"built_environment","confidence":"documented","source_ids":["lon-extra-planning-data-brownfield-land"],"explanation":"Planning/development evidence record: permissioned; brownfield land capacity marker for 6 net dwellings."},"geometry":{"type":"Point","coordinates":[-0.030536,51.439362]}},{"type":"Feature","id":"lon_brownfield_1737876","properties":{"city_id":"london","event_id":"lon_brownfield_1737876","title":"Brownfield development site: 96-102 Rushey Green (up to 7 homes)","year":2023,"effective_date":"2023-12-22","date_precision":"day","category":"environment","lens":"green_space","confidence":"documented","source_ids":["lon-extra-planning-data-brownfield-land"],"explanation":"Planning/development evidence record: permissioned; brownfield land capacity marker for 7 net dwellings."},"geometry":{"type":"Point","coordinates":[-0.019293,51.447232]}},{"type":"Feature","id":"lon_brownfield_1737878","properties":{"city_id":"london","event_id":"lon_brownfield_1737878","title":"Brownfield development site: 150-152 Sydenham Road (up to 6 homes)","year":2023,"effective_date":"2023-11-23","date_precision":"day","category":"transport","lens":"traffic","confidence":"documented","source_ids":["lon-extra-planning-data-brownfield-land"],"explanation":"Planning/development evidence record: permissioned; brownfield land capacity marker for 6 net dwellings."},"geometry":{"type":"Point","coordinates":[-0.045089,51.425479]}},{"type":"Feature","id":"lon_brownfield_1737881","properties":{"city_id":"london","event_id":"lon_brownfield_1737881","title":"Brownfield development site: Montague Arms, 289 Queens Road (up to 6 homes)","year":2023,"effective_date":"2023-11-03","date_precision":"day","category":"transport","lens":"traffic","confidence":"documented","source_ids":["lon-extra-planning-data-brownfield-land"],"explanation":"Planning/development evidence record: permissioned; brownfield land capacity marker for 6 net dwellings."},"geometry":{"type":"Point","coordinates":[-0.051378,51.473516]}},{"type":"Feature","id":"lon_brownfield_1737883","properties":{"city_id":"london","event_id":"lon_brownfield_1737883","title":"Brownfield development site: 77-81 Amersham Road (up to 5 homes)","year":2023,"effective_date":"2023-02-10","date_precision":"day","category":"transport","lens":"traffic","confidence":"documented","source_ids":["lon-extra-planning-data-brownfield-land"],"explanation":"Planning/development evidence record: permissioned; brownfield land capacity marker for 5 net dwellings."},"geometry":{"type":"Point","coordinates":[-0.0317,51.4735]}},{"type":"Feature","id":"lon_brownfield_1737887","properties":{"city_id":"london","event_id":"lon_brownfield_1737887","title":"Brownfield development site: 173 Hazelbank Road (up to 6 homes)","year":2023,"effective_date":"2023-03-03","date_precision":"day","category":"transport","lens":"traffic","confidence":"documented","source_ids":["lon-extra-planning-data-brownfield-land"],"explanation":"Planning/development evidence record: permissioned; brownfield land capacity marker for 6 net dwellings."},"geometry":{"type":"Point","coordinates":[-0.00252,51.4361]}},{"type":"Feature","id":"lon_brownfield_1737890","properties":{"city_id":"london","event_id":"lon_brownfield_1737890","title":"Brownfield development site: Rutland House, Rutland Walk (up to 14 homes)","year":2023,"effective_date":"2023-03-07","date_precision":"day","category":"built_environment","lens":"built_environment","confidence":"documented","source_ids":["lon-extra-planning-data-brownfield-land"],"explanation":"Planning/development evidence record: permissioned; brownfield land capacity marker for 14 net dwellings."},"geometry":{"type":"Point","coordinates":[-0.02031,51.4366]}},{"type":"Feature","id":"lon_brownfield_1739332","properties":{"city_id":"london","event_id":"lon_brownfield_1739332","title":"Brownfield development site: Gardeners Arms, 266-268 Merton Road (up to 5 homes)","year":2023,"effective_date":"2023-05-26","date_precision":"day","category":"transport","lens":"traffic","confidence":"documented","source_ids":["lon-extra-planning-data-brownfield-land"],"explanation":"Planning/development evidence record: permissioned; brownfield land capacity marker for 5 net dwellings."},"geometry":{"type":"Point","coordinates":[-0.19942,51.447999]}},{"type":"Feature","id":"lon_brownfield_1739334","properties":{"city_id":"london","event_id":"lon_brownfield_1739334","title":"Brownfield development site: The Forester, 114 Allfarthing Lane (up to 8 homes)","year":2023,"effective_date":"2023-05-25","date_precision":"day","category":"built_environment","lens":"built_environment","confidence":"documented","source_ids":["lon-extra-planning-data-brownfield-land"],"explanation":"Planning/development evidence record: permissioned; brownfield land capacity marker for 8 net dwellings."},"geometry":{"type":"Point","coordinates":[-0.188713,51.45168]}},{"type":"Feature","id":"lon_brownfield_1739336","properties":{"city_id":"london","event_id":"lon_brownfield_1739336","title":"Brownfield development site: 1A-1E Longley Road (up to 8 homes)","year":2023,"effective_date":"2023-06-19","date_precision":"day","category":"transport","lens":"traffic","confidence":"documented","source_ids":["lon-extra-planning-data-brownfield-land"],"explanation":"Planning/development evidence record: permissioned; brownfield land capacity marker for 8 net dwellings."},"geometry":{"type":"Point","coordinates":[-0.171871,51.423543]}},{"type":"Feature","id":"lon_brownfield_1739337","properties":{"city_id":"london","event_id":"lon_brownfield_1739337","title":"Brownfield development site: 7-9 Burntwood Lane (up to 5 homes)","year":2023,"effective_date":"2023-06-21","date_precision":"day","category":"built_environment","lens":"built_environment","confidence":"documented","source_ids":["lon-extra-planning-data-brownfield-land"],"explanation":"Planning/development evidence record: permissioned; brownfield land capacity marker for 5 net dwellings."},"geometry":{"type":"Point","coordinates":[-0.185655,51.435939]}},{"type":"Feature","id":"lon_brownfield_1739338","properties":{"city_id":"london","event_id":"lon_brownfield_1739338","title":"Brownfield development site: Struan House, 44 Augustus Road (up to 9 homes)","year":2023,"effective_date":"2023-08-31","date_precision":"day","category":"transport","lens":"traffic","confidence":"documented","source_ids":["lon-extra-planning-data-brownfield-land"],"explanation":"Planning/development evidence record: permissioned; brownfield land capacity marker for 9 net dwellings."},"geometry":{"type":"Point","coordinates":[-0.211203,51.444116]}},{"type":"Feature","id":"lon_brownfield_1739339","properties":{"city_id":"london","event_id":"lon_brownfield_1739339","title":"Brownfield development site: 96 Granville Road (up to 6 homes)","year":2023,"effective_date":"2023-12-14","date_precision":"day","category":"transport","lens":"traffic","confidence":"documented","source_ids":["lon-extra-planning-data-brownfield-land"],"explanation":"Planning/development evidence record: permissioned; brownfield land capacity marker for 6 net dwellings."},"geometry":{"type":"Point","coordinates":[-0.207428,51.450134]}},{"type":"Feature","id":"lon_brownfield_1739340","properties":{"city_id":"london","event_id":"lon_brownfield_1739340","title":"Brownfield development site: 5 Beechcroft Road (up to 7 homes)","year":2023,"effective_date":"2023-12-15","date_precision":"day","category":"transport","lens":"traffic","confidence":"documented","source_ids":["lon-extra-planning-data-brownfield-land"],"explanation":"Planning/development evidence record: permissioned; brownfield land capacity marker for 7 net dwellings."},"geometry":{"type":"Point","coordinates":[-0.162895,51.434526]}},{"type":"Feature","id":"lon_brownfield_1739341","properties":{"city_id":"london","event_id":"lon_brownfield_1739341","title":"Brownfield development site: Garages and car parking spaces west of 27-33 and 34-40 Highcross Way, Bessborough Road (up to 8 homes)","year":2023,"effective_date":"2023-10-26","date_precision":"day","category":"transport","lens":"traffic","confidence":"documented","source_ids":["lon-extra-planning-data-brownfield-land"],"explanation":"Planning/development evidence record: permissioned; brownfield land capacity marker for 8 net dwellings."},"geometry":{"type":"Point","coordinates":[-0.239545,51.446628]}},{"type":"Feature","id":"lon_brownfield_1739843","properties":{"city_id":"london","event_id":"lon_brownfield_1739843","title":"Brownfield development site: Beam Park (up to 3119 homes)","year":2023,"effective_date":"2023-11-17","date_precision":"day","category":"environment","lens":"green_space","confidence":"documented","source_ids":["lon-extra-planning-data-brownfield-land"],"explanation":"Planning/development evidence record: permissioned; brownfield land capacity marker for 3119 net dwellings."},"geometry":{"type":"Point","coordinates":[0.157906,51.526303]}},{"type":"Feature","id":"lon_brownfield_1741817","properties":{"city_id":"london","event_id":"lon_brownfield_1741817","title":"Brownfield development site: West Hendon Estate West Hendon London NW9 (up to 732 homes)","year":2023,"effective_date":"2023-12-18","date_precision":"day","category":"built_environment","lens":"built_environment","confidence":"documented","source_ids":["lon-extra-planning-data-brownfield-land"],"explanation":"Planning/development evidence record: permissioned; brownfield land capacity marker for 732 net dwellings."},"geometry":{"type":"Point","coordinates":[-0.240909,51.575742]}},{"type":"Feature","id":"lon_brownfield_1741831","properties":{"city_id":"london","event_id":"lon_brownfield_1741831","title":"Brownfield development site: Intec House 49 Moxon Street Barnet EN5 5TS (up to 92 homes)","year":2023,"effective_date":"2023-11-28","date_precision":"day","category":"environment","lens":"green_space","confidence":"documented","source_ids":["lon-extra-planning-data-brownfield-land"],"explanation":"Planning/development evidence record: permissioned; brownfield land capacity marker for 92 net dwellings."},"geometry":{"type":"Point","coordinates":[-0.196412,51.654909]}},{"type":"Feature","id":"lon_brownfield_1741839","properties":{"city_id":"london","event_id":"lon_brownfield_1741839","title":"Brownfield development site: 45 - 47 Friern Barnet Road London N11 3EG (up to 32 homes)","year":2023,"effective_date":"2023-05-04","date_precision":"day","category":"transport","lens":"traffic","confidence":"documented","source_ids":["lon-extra-planning-data-brownfield-land"],"explanation":"Planning/development evidence record: permissioned; brownfield land capacity marker for 32 net dwellings."},"geometry":{"type":"Point","coordinates":[-0.14551,51.615557]}},{"type":"Feature","id":"lon_brownfield_1741860","properties":{"city_id":"london","event_id":"lon_brownfield_1741860","title":"Brownfield development site: 1 Thomas More Way London N2 0UL (up to 13 homes)","year":2023,"effective_date":"2023-03-21","date_precision":"day","category":"built_environment","lens":"built_environment","confidence":"documented","source_ids":["lon-extra-planning-data-brownfield-land"],"explanation":"Planning/development evidence record: permissioned; brownfield land capacity marker for 13 net dwellings."},"geometry":{"type":"Point","coordinates":[-0.181766,51.59314]}},{"type":"Feature","id":"lon_brownfield_1741861","properties":{"city_id":"london","event_id":"lon_brownfield_1741861","title":"Brownfield development site: 815 - 823 High Road London N12 8PR (up to 13 homes)","year":2023,"effective_date":"2023-08-04","date_precision":"day","category":"transport","lens":"traffic","confidence":"documented","source_ids":["lon-extra-planning-data-brownfield-land"],"explanation":"Planning/development evidence record: permissioned; brownfield land capacity marker for 13 net dwellings."},"geometry":{"type":"Point","coordinates":[-0.177228,51.616692]}},{"type":"Feature","id":"lon_brownfield_1741867","properties":{"city_id":"london","event_id":"lon_brownfield_1741867","title":"Brownfield development site: 1 Albert Road Barnet EN4 9SH (up to 10 homes)","year":2023,"effective_date":"2023-03-13","date_precision":"day","category":"transport","lens":"traffic","confidence":"documented","source_ids":["lon-extra-planning-data-brownfield-land"],"explanation":"Planning/development evidence record: permissioned; brownfield land capacity marker for 10 net dwellings."},"geometry":{"type":"Point","coordinates":[-0.173192,51.650647]}},{"type":"Feature","id":"lon_brownfield_1741872","properties":{"city_id":"london","event_id":"lon_brownfield_1741872","title":"Brownfield development site: Land At Central Avenue (Adjacent To Willow House) The Grange Estate High Road London N2 (up to 8 homes)","year":2023,"effective_date":"2023-01-03","date_precision":"day","category":"transport","lens":"traffic","confidence":"documented","source_ids":["lon-extra-planning-data-brownfield-land"],"explanation":"Planning/development evidence record: permissioned; brownfield land capacity marker for 8 net dwellings."},"geometry":{"type":"Point","coordinates":[-0.171803,51.596051]}},{"type":"Feature","id":"london-milestone-2023-ulez-expands-london-wide-30","properties":{"city_id":"london","event_id":"london-milestone-2023-ulez-expands-london-wide-30","title":"ULEZ expands London-wide","year":2023,"effective_date":"2023-08-29","date_precision":"day","category":"transport","lens":"traffic","confidence":"documented","source_ids":["gla-laei","defra-uk-air","dft-road-traffic-counts"],"explanation":"London-wide emissions-charging policy; benchmark for traffic/air-quality analysis."},"geometry":{"type":"Point","coordinates":[-0.1,51.51]}}]}
