{"type":"FeatureCollection","schema_version":"1.0.0","city_id":"london","year":2016,"features":[{"type":"Feature","id":"london-milestone-2016-night-tube-starts-and-london-plan-consolidated-alterations-published-24","properties":{"city_id":"london","event_id":"london-milestone-2016-night-tube-starts-and-london-plan-consolidated-alterations-published-24","title":"Night Tube starts and London Plan consolidated alterations published","year":2016,"effective_date":"2016","date_precision":"year","category":"transport","lens":"traffic","confidence":"documented","source_ids":["tfl-unified-api","gla-london-plan"],"explanation":"Night-time transport service change and planning-policy update."},"geometry":{"type":"Point","coordinates":[-0.442068,51.546992]}}]}
