{"type":"FeatureCollection","schema_version":"1.0.0","city_id":"london","year":1947,"features":[{"type":"Feature","id":"london-milestone-1947-town-and-country-planning-act-1947-system-begins-8","properties":{"city_id":"london","event_id":"london-milestone-1947-town-and-country-planning-act-1947-system-begins-8","title":"Town and Country Planning Act 1947 system begins","subtitle":"Lambeth / 1947 / Documented / UK legislation API for London transport, planning and local government instruments","details":"Modern planning permission framework for development control.","year":1947,"effective_date":"1947","date_precision":"year","short_description":"Modern planning permission framework for development control.","category":"built_environment","lens":"built_environment","confidence":"documented","source_ids":["legislation-uk-london-acts-orders"],"affected_area_label":"Lambeth","explanation":"Modern planning permission framework for development control."},"geometry":{"type":"Point","coordinates":[-0.113572,51.461036]}}],"map_feature_count":1,"withheld_geometry_event_count":0}
