{"type":"FeatureCollection","schema_version":"1.0.0","city_id":"london","year":1955,"features":[{"type":"Feature","id":"lon_planning_designation_tree-preservation-zone_19153301","properties":{"city_id":"london","event_id":"lon_planning_designation_tree-preservation-zone_19153301","title":"Tree preservation zone: STM2_A1","year":1955,"effective_date":"1955-08-13","date_precision":"day","category":"built_environment","lens":"built_environment","confidence":"documented","source_ids":["lon-extra-planning-data-tree-preservation-zones"],"explanation":"Planning/protection evidence record for STM2_A1; designation/effective date is taken from Planning Data fields where supplied."},"geometry":{"type":"Point","coordinates":[-0.160961,51.522847]}},{"type":"Feature","id":"lon_planning_designation_tree-preservation-zone_19153302","properties":{"city_id":"london","event_id":"lon_planning_designation_tree-preservation-zone_19153302","title":"Tree preservation zone: STM3_A1","year":1955,"effective_date":"1955-09-08","date_precision":"day","category":"built_environment","lens":"built_environment","confidence":"documented","source_ids":["lon-extra-planning-data-tree-preservation-zones"],"explanation":"Planning/protection evidence record for STM3_A1; designation/effective date is taken from Planning Data fields where supplied."},"geometry":{"type":"Point","coordinates":[-0.160891,51.517589]}},{"type":"Feature","id":"lon_planning_designation_tree-preservation-zone_19153303","properties":{"city_id":"london","event_id":"lon_planning_designation_tree-preservation-zone_19153303","title":"Tree preservation zone: STM3_A2","year":1955,"effective_date":"1955-09-08","date_precision":"day","category":"built_environment","lens":"built_environment","confidence":"documented","source_ids":["lon-extra-planning-data-tree-preservation-zones"],"explanation":"Planning/protection evidence record for STM3_A2; designation/effective date is taken from Planning Data fields where supplied."},"geometry":{"type":"Point","coordinates":[-0.159271,51.51786]}},{"type":"Feature","id":"lon_planning_designation_tree-preservation-zone_19153304","properties":{"city_id":"london","event_id":"lon_planning_designation_tree-preservation-zone_19153304","title":"Tree preservation zone: STM4_A1","year":1955,"effective_date":"1955-10-05","date_precision":"day","category":"built_environment","lens":"built_environment","confidence":"documented","source_ids":["lon-extra-planning-data-tree-preservation-zones"],"explanation":"Planning/protection evidence record for STM4_A1; designation/effective date is taken from Planning Data fields where supplied."},"geometry":{"type":"Point","coordinates":[-0.152683,51.516768]}}]}
