{"type":"FeatureCollection","schema_version":"1.0.0","city_id":"london","year":1965,"features":[{"type":"Feature","id":"london-milestone-1965-greater-london-council-and-32-london-boroughs-created-10","properties":{"city_id":"london","event_id":"london-milestone-1965-greater-london-council-and-32-london-boroughs-created-10","title":"Greater London Council and 32 London boroughs created","year":1965,"effective_date":"1965","date_precision":"year","category":"built_environment","lens":"built_environment","confidence":"documented","source_ids":["legislation-uk-london-acts-orders","gla-statistical-gis-boundaries"],"explanation":"Current Greater London governance geography begins."},"geometry":{"type":"Point","coordinates":[-0.058864,51.541088]}}]}
