{"type":"FeatureCollection","schema_version":"1.0.0","city_id":"london","year":1993,"features":[{"type":"Feature","id":"london-milestone-1993-dft-road-traffic-count-series-baseline-begins-14","properties":{"city_id":"london","event_id":"london-milestone-1993-dft-road-traffic-count-series-baseline-begins-14","title":"DfT road traffic count series baseline begins","year":1993,"effective_date":"1993","date_precision":"year","category":"transport","lens":"traffic","confidence":"documented","source_ids":["dft-road-traffic-counts"],"explanation":"Useful annual road-flow baseline before congestion charging and ULEZ."},"geometry":{"type":"Point","coordinates":[-0.365256,51.466532]}}]}
