{"type":"FeatureCollection","schema_version":"1.0.0","city_id":"london","year":1968,"features":[{"type":"Feature","id":"london-milestone-1968-greater-london-development-plan-process-begins-11","properties":{"city_id":"london","event_id":"london-milestone-1968-greater-london-development-plan-process-begins-11","title":"Greater London Development Plan process begins","year":1968,"effective_date":"1968","date_precision":"year","category":"built_environment","lens":"built_environment","confidence":"documented","source_ids":["national-archives-webarchive"],"explanation":"Strategic planning framework for post-war roads, centres and growth."},"geometry":{"type":"Point","coordinates":[-0.115482,51.586412]}}]}
