{"type":"FeatureCollection","schema_version":"1.0.0","city_id":"london","year":1991,"features":[{"type":"Feature","id":"lon_planning_designation_conservation-area_44000599","properties":{"city_id":"london","event_id":"lon_planning_designation_conservation-area_44000599","title":"Conservation area record: Mayfield","subtitle":"Redbridge / 1991-01-01 / Documented / Planning Data: Conservation Areas","details":"Planning/protection evidence record for Mayfield; designation/effective date is taken from Planning Data fields where supplied.","year":1991,"effective_date":"1991-01-01","date_precision":"day","short_description":"Planning Data conservation-area designation record 3645; quality some; LPA Redbridge.","category":"built_environment","lens":"built_environment","confidence":"documented","source_ids":["lon-extra-planning-data-conservation-areas"],"affected_area_label":"Redbridge","explanation":"Planning/protection evidence record for Mayfield; designation/effective date is taken from Planning Data fields where supplied."},"geometry":{"type":"Point","coordinates":[0.102138,51.556269]}},{"type":"Feature","id":"lon_planning_designation_conservation-area_44002336","properties":{"city_id":"london","event_id":"lon_planning_designation_conservation-area_44002336","title":"Conservation area record: Mount Park","subtitle":"Ealing / 1991-01-01 / Documented / Planning Data: Conservation Areas","details":"Planning/protection evidence record for Mount Park; designation/effective date is taken from Planning Data fields where supplied.","year":1991,"effective_date":"1991-01-01","date_precision":"day","short_description":"Planning Data conservation-area designation record 5309; quality some; LPA Ealing.","category":"built_environment","lens":"built_environment","confidence":"documented","source_ids":["lon-extra-planning-data-conservation-areas"],"affected_area_label":"Ealing","explanation":"Planning/protection evidence record for Mount Park; designation/effective date is taken from Planning Data fields where supplied."},"geometry":{"type":"Point","coordinates":[-0.304912,51.519019]}},{"type":"Feature","id":"lon_planning_designation_conservation-area_44002404","properties":{"city_id":"london","event_id":"lon_planning_designation_conservation-area_44002404","title":"Conservation area record: Surbiton Town Centre","subtitle":"Kingston upon Thames / 1991-06-19 / Documented / Planning Data: Conservation Areas","details":"Planning/protection evidence record for Surbiton Town Centre; designation/effective date is taken from Planning Data fields where supplied.","year":1991,"effective_date":"1991-06-19","date_precision":"day","short_description":"Planning Data conservation-area designation record 7013; quality some; LPA Kingston upon Thames.","category":"built_environment","lens":"built_environment","confidence":"documented","source_ids":["lon-extra-planning-data-conservation-areas"],"affected_area_label":"Kingston upon Thames","explanation":"Planning/protection evidence record for Surbiton Town Centre; designation/effective date is taken from Planning Data fields where supplied."},"geometry":{"type":"Point","coordinates":[-0.307318,51.392411]}},{"type":"Feature","id":"lon_planning_designation_conservation-area_44002472","properties":{"city_id":"london","event_id":"lon_planning_designation_conservation-area_44002472","title":"Conservation area record: Normansfield","subtitle":"Richmond upon Thames / 1991-01-29 / Documented / Planning Data: Conservation Areas","details":"Planning/protection evidence record for Normansfield; designation/effective date is taken from Planning Data fields where supplied.","year":1991,"effective_date":"1991-01-29","date_precision":"day","short_description":"Planning Data conservation-area designation record 7404; quality some; LPA Richmond upon Thames.","category":"built_environment","lens":"built_environment","confidence":"documented","source_ids":["lon-extra-planning-data-conservation-areas"],"affected_area_label":"Richmond upon Thames","explanation":"Planning/protection evidence record for Normansfield; designation/effective date is taken from Planning Data fields where supplied."},"geometry":{"type":"Point","coordinates":[-0.31397,51.419954]}},{"type":"Feature","id":"lon_planning_designation_conservation-area_44002476","properties":{"city_id":"london","event_id":"lon_planning_designation_conservation-area_44002476","title":"Conservation area record: Royal Botanic Gardens, Kew","subtitle":"Hounslow / 1991-01-29 / Documented / Planning Data: Conservation Areas","details":"Planning/protection evidence record for Royal Botanic Gardens, Kew; designation/effective date is taken from Planning Data fields where supplied.","year":1991,"effective_date":"1991-01-29","date_precision":"day","short_description":"Planning Data conservation-area designation record 7408; quality some; LPA Hounslow.","category":"built_environment","lens":"built_environment","confidence":"documented","source_ids":["lon-extra-planning-data-conservation-areas"],"affected_area_label":"Hounslow","explanation":"Planning/protection evidence record for Royal Botanic Gardens, Kew; designation/effective date is taken from Planning Data fields where supplied."},"geometry":{"type":"Point","coordinates":[-0.297513,51.477496]}},{"type":"Feature","id":"lon_planning_designation_conservation-area_44002490","properties":{"city_id":"london","event_id":"lon_planning_designation_conservation-area_44002490","title":"Conservation area record: Bushy Park","subtitle":"Richmond upon Thames / 1991-01-29 / Documented / Planning Data: Conservation Areas","details":"Planning/protection evidence record for Bushy Park; designation/effective date is taken from Planning Data fields where supplied.","year":1991,"effective_date":"1991-01-29","date_precision":"day","short_description":"Planning Data conservation-area designation record 7406; quality some; LPA Richmond upon Thames.","category":"built_environment","lens":"built_environment","confidence":"documented","source_ids":["lon-extra-planning-data-conservation-areas"],"affected_area_label":"Richmond upon Thames","explanation":"Planning/protection evidence record for Bushy Park; designation/effective date is taken from Planning Data fields where supplied."},"geometry":{"type":"Point","coordinates":[-0.339069,51.415449]}},{"type":"Feature","id":"lon_planning_designation_conservation-area_44005249","properties":{"city_id":"london","event_id":"lon_planning_designation_conservation-area_44005249","title":"Conservation area record: Richmond Park","subtitle":"Kingston upon Thames / 1991-01-29 / Documented / Planning Data: Conservation Areas","details":"Planning/protection evidence record for Richmond Park; designation/effective date is taken from Planning Data fields where supplied.","year":1991,"effective_date":"1991-01-29","date_precision":"day","short_description":"Planning Data conservation-area designation record 7407; quality some; LPA Kingston upon Thames.","category":"built_environment","lens":"built_environment","confidence":"documented","source_ids":["lon-extra-planning-data-conservation-areas"],"affected_area_label":"Kingston upon Thames","explanation":"Planning/protection evidence record for Richmond Park; designation/effective date is taken from Planning Data fields where supplied."},"geometry":{"type":"Point","coordinates":[-0.273993,51.44212]}},{"type":"Feature","id":"lon_planning_designation_conservation-area_44006881","properties":{"city_id":"london","event_id":"lon_planning_designation_conservation-area_44006881","title":"Conservation area record: South Shoreditch","subtitle":"Hackney / 1991-01-01 / Documented / Planning Data: Conservation Areas","details":"Planning/protection evidence record for South Shoreditch; designation/effective date is taken from Planning Data fields where supplied.","year":1991,"effective_date":"1991-01-01","date_precision":"day","short_description":"Planning Data conservation-area designation record 5976; quality some; LPA Hackney.","category":"built_environment","lens":"built_environment","confidence":"documented","source_ids":["lon-extra-planning-data-conservation-areas"],"affected_area_label":"Hackney","explanation":"Planning/protection evidence record for South Shoreditch; designation/effective date is taken from Planning Data fields where supplied."},"geometry":{"type":"Point","coordinates":[-0.080837,51.524959]}},{"type":"Feature","id":"lon_planning_designation_conservation-area_44009653","properties":{"city_id":"london","event_id":"lon_planning_designation_conservation-area_44009653","title":"Conservation area record: Denmark Street","subtitle":"Camden / 1991-06-01 / Documented / Planning Data: Conservation Areas","details":"Planning/protection evidence record for Denmark Street; designation/effective date is taken from Planning Data fields where supplied.","year":1991,"effective_date":"1991-06-01","date_precision":"day","short_description":"Planning Data conservation-area designation record CA10; quality authoritative; LPA Camden.","category":"built_environment","lens":"built_environment","confidence":"documented","source_ids":["lon-extra-planning-data-conservation-areas"],"affected_area_label":"Camden","explanation":"Planning/protection evidence record for Denmark Street; designation/effective date is taken from Planning Data fields where supplied."},"geometry":{"type":"Point","coordinates":[-0.129057,51.515406]}},{"type":"Feature","id":"lon_planning_designation_conservation-area_44009660","properties":{"city_id":"london","event_id":"lon_planning_designation_conservation-area_44009660","title":"Conservation area record: Kentish Town","subtitle":"Camden / 1991-11-01 / Documented / Planning Data: Conservation Areas","details":"Planning/protection evidence record for Kentish Town; designation/effective date is taken from Planning Data fields where supplied.","year":1991,"effective_date":"1991-11-01","date_precision":"day","short_description":"Planning Data conservation-area designation record CA24; quality authoritative; LPA Camden.","category":"built_environment","lens":"built_environment","confidence":"documented","source_ids":["lon-extra-planning-data-conservation-areas"],"affected_area_label":"Camden","explanation":"Planning/protection evidence record for Kentish Town; designation/effective date is taken from Planning Data fields where supplied."},"geometry":{"type":"Point","coordinates":[-0.138063,51.552311]}},{"type":"Feature","id":"lon_planning_designation_conservation-area_44010246","properties":{"city_id":"london","event_id":"lon_planning_designation_conservation-area_44010246","title":"Conservation area record: Thorburn Square","subtitle":"Southwark / 1991-01-30 / Documented / Planning Data: Conservation Areas","details":"Planning/protection evidence record for Thorburn Square; designation/effective date is taken from Planning Data fields where supplied.","year":1991,"effective_date":"1991-01-30","date_precision":"day","short_description":"Planning Data conservation-area designation record 33; quality authoritative; LPA Southwark.","category":"built_environment","lens":"built_environment","confidence":"documented","source_ids":["lon-extra-planning-data-conservation-areas"],"affected_area_label":"Southwark","explanation":"Planning/protection evidence record for Thorburn Square; designation/effective date is taken from Planning Data fields where supplied."},"geometry":{"type":"Point","coordinates":[-0.069709,51.491209]}},{"type":"Feature","id":"lon_planning_designation_conservation-area_44015582","properties":{"city_id":"london","event_id":"lon_planning_designation_conservation-area_44015582","title":"Conservation area record: Cranford Village","subtitle":"Hillingdon / 1991-06-25 / Documented / Planning Data: Conservation Areas","details":"Planning/protection evidence record for Cranford Village; designation/effective date is taken from Planning Data fields where supplied.","year":1991,"effective_date":"1991-06-25","date_precision":"day","short_description":"Planning Data conservation-area designation record HSLCA16; quality authoritative; LPA Hillingdon.","category":"built_environment","lens":"built_environment","confidence":"documented","source_ids":["lon-extra-planning-data-conservation-areas"],"affected_area_label":"Hillingdon","explanation":"Planning/protection evidence record for Cranford Village; designation/effective date is taken from Planning Data fields where supplied."},"geometry":{"type":"Point","coordinates":[-0.41119,51.483348]}},{"type":"Feature","id":"lon_planning_designation_listed-building-outline_42116036","properties":{"city_id":"london","event_id":"lon_planning_designation_listed-building-outline_42116036","title":"Listed building outline: (West side) No.6","subtitle":"Camden / 1991-01-22 / Documented / Planning Data: Listed Building Outlines","details":"Planning/protection evidence record for (West side) No.6; designation/effective date is taken from Planning Data fields where supplied.","year":1991,"effective_date":"1991-01-22","date_precision":"day","short_description":"Planning Data listed-building outline record LB513; quality authoritative; LPA Camden.","category":"built_environment","lens":"built_environment","confidence":"documented","source_ids":["lon-extra-planning-data-listed-building-outlines"],"affected_area_label":"Camden","explanation":"Planning/protection evidence record for (West side) No.6; designation/effective date is taken from Planning Data fields where supplied."},"geometry":{"type":"Point","coordinates":[-0.128894,51.515119]}},{"type":"Feature","id":"lon_planning_designation_listed-building-outline_42116117","properties":{"city_id":"london","event_id":"lon_planning_designation_listed-building-outline_42116117","title":"Listed building outline: (West side) No.55","subtitle":"Camden / 1991-02-12 / Documented / Planning Data: Listed Building Outlines","details":"Planning/protection evidence record for (West side) No.55; designation/effective date is taken from Planning Data fields where supplied.","year":1991,"effective_date":"1991-02-12","date_precision":"day","short_description":"Planning Data listed-building outline record LB622; quality authoritative; LPA Camden.","category":"built_environment","lens":"built_environment","confidence":"documented","source_ids":["lon-extra-planning-data-listed-building-outlines"],"affected_area_label":"Camden","explanation":"Planning/protection evidence record for (West side) No.55; designation/effective date is taken from Planning Data fields where supplied."},"geometry":{"type":"Point","coordinates":[-0.114006,51.522162]}},{"type":"Feature","id":"lon_planning_designation_listed-building-outline_42116121","properties":{"city_id":"london","event_id":"lon_planning_designation_listed-building-outline_42116121","title":"Listed building outline: (East side) Mecca Social Club Carlton Rooms","subtitle":"Camden / 1991-02-05 / Documented / Planning Data: Listed Building Outlines","details":"Planning/protection evidence record for (East side) Mecca Social Club Carlton Rooms; designation/effective date is taken from Planning Data fields where supplied.","year":1991,"effective_date":"1991-02-05","date_precision":"day","short_description":"Planning Data listed-building outline record LB955; quality authoritative; LPA Camden.","category":"built_environment","lens":"built_environment","confidence":"documented","source_ids":["lon-extra-planning-data-listed-building-outlines"],"affected_area_label":"Camden","explanation":"Planning/protection evidence record for (East side) Mecca Social Club Carlton Rooms; designation/effective date is taken from Planning Data fields where supplied."},"geometry":{"type":"Point","coordinates":[-0.188992,51.535448]}},{"type":"Feature","id":"lon_planning_designation_listed-building-outline_42117572","properties":{"city_id":"london","event_id":"lon_planning_designation_listed-building-outline_42117572","title":"Listed building outline: (East side) The National Club","subtitle":"Camden / 1991-02-05 / Documented / Planning Data: Listed Building Outlines","details":"Planning/protection evidence record for (East side) The National Club; designation/effective date is taken from Planning Data fields where supplied.","year":1991,"effective_date":"1991-02-05","date_precision":"day","short_description":"Planning Data listed-building outline record LB874; quality authoritative; LPA Camden.","category":"built_environment","lens":"built_environment","confidence":"documented","source_ids":["lon-extra-planning-data-listed-building-outlines"],"affected_area_label":"Camden","explanation":"Planning/protection evidence record for (East side) The National Club; designation/effective date is taken from Planning Data fields where supplied."},"geometry":{"type":"Point","coordinates":[-0.198307,51.5426]}},{"type":"Feature","id":"lon_planning_designation_listed-building-outline_42120525","properties":{"city_id":"london","event_id":"lon_planning_designation_listed-building-outline_42120525","title":"Listed building outline: ANTI AIRCRAFT SITE AT TQ 48738975","subtitle":"Barking and Dagenham / 1991-01-02 / Documented / Planning Data: Listed Building Outlines","details":"Planning/protection evidence record for ANTI AIRCRAFT SITE AT TQ 48738975; designation/effective date is taken from Planning Data fields where supplied.","year":1991,"effective_date":"1991-01-02","date_precision":"day","short_description":"Planning Data listed-building outline record LB021; quality authoritative; LPA Barking and Dagenham.","category":"built_environment","lens":"built_environment","confidence":"documented","source_ids":["lon-extra-planning-data-listed-building-outlines"],"affected_area_label":"Barking and Dagenham","explanation":"Planning/protection evidence record for ANTI AIRCRAFT SITE AT TQ 48738975; designation/effective date is taken from Planning Data fields where supplied."},"geometry":{"type":"Point","coordinates":[0.145644,51.587123]}},{"type":"Feature","id":"lon_planning_designation_listed-building-outline_42120542","properties":{"city_id":"london","event_id":"lon_planning_designation_listed-building-outline_42120542","title":"Listed building outline: CHURCH OF ST MARY","subtitle":"Barking and Dagenham / 1991-04-15 / Documented / Planning Data: Listed Building Outlines","details":"Planning/protection evidence record for CHURCH OF ST MARY; designation/effective date is taken from Planning Data fields where supplied.","year":1991,"effective_date":"1991-04-15","date_precision":"day","short_description":"Planning Data listed-building outline record LB038; quality authoritative; LPA Barking and Dagenham.","category":"built_environment","lens":"built_environment","confidence":"documented","source_ids":["lon-extra-planning-data-listed-building-outlines"],"affected_area_label":"Barking and Dagenham","explanation":"Planning/protection evidence record for CHURCH OF ST MARY; designation/effective date is taken from Planning Data fields where supplied."},"geometry":{"type":"Point","coordinates":[0.140153,51.556056]}},{"type":"Feature","id":"lon_planning_designation_listed-building-outline_42149021","properties":{"city_id":"london","event_id":"lon_planning_designation_listed-building-outline_42149021","title":"Listed building outline: ELDON LODGE — Kensington and Chelsea","subtitle":"Kensington and Chelsea / 1991-02-15 / Documented / Planning Data: Listed Building Outlines","details":"Planning/protection evidence record for ELDON LODGE; designation/effective date is taken from Planning Data fields where supplied.","year":1991,"effective_date":"1991-02-15","date_precision":"day","short_description":"Planning Data listed-building outline record 425703; quality authoritative; LPA Kensington and Chelsea.","category":"built_environment","lens":"built_environment","confidence":"documented","source_ids":["lon-extra-planning-data-listed-building-outlines"],"affected_area_label":"Kensington and Chelsea","explanation":"Planning/protection evidence record for ELDON LODGE; designation/effective date is taken from Planning Data fields where supplied."},"geometry":{"type":"Point","coordinates":[-0.186327,51.497931]}},{"type":"Feature","id":"lon_planning_designation_listed-building-outline_42149181","properties":{"city_id":"london","event_id":"lon_planning_designation_listed-building-outline_42149181","title":"Listed building outline: KENSINGTON FIRE STATION — Kensington and Chelsea","subtitle":"Kensington and Chelsea / 1991-03-27 / Documented / Planning Data: Listed Building Outlines","details":"Planning/protection evidence record for KENSINGTON FIRE STATION; designation/effective date is taken from Planning Data fields where supplied.","year":1991,"effective_date":"1991-03-27","date_precision":"day","short_description":"Planning Data listed-building outline record 425735; quality authoritative; LPA Kensington and Chelsea.","category":"built_environment","lens":"built_environment","confidence":"documented","source_ids":["lon-extra-planning-data-listed-building-outlines"],"affected_area_label":"Kensington and Chelsea","explanation":"Planning/protection evidence record for KENSINGTON FIRE STATION; designation/effective date is taken from Planning Data fields where supplied."},"geometry":{"type":"Point","coordinates":[-0.190086,51.5029]}},{"type":"Feature","id":"lon_planning_designation_listed-building-outline_42166213","properties":{"city_id":"london","event_id":"lon_planning_designation_listed-building-outline_42166213","title":"Listed building outline: 33 - 35 Thayer Street London W1U 2QT","subtitle":"Westminster / 1991-03-07 / Documented / Planning Data: Listed Building Outlines","details":"Planning/protection evidence record for 33 - 35 Thayer Street London W1U 2QT; designation/effective date is taken from Planning Data fields where supplied.","year":1991,"effective_date":"1991-03-07","date_precision":"day","short_description":"Planning Data listed-building outline record 1277891; quality authoritative; LPA Westminster.","category":"built_environment","lens":"built_environment","confidence":"documented","source_ids":["lon-extra-planning-data-listed-building-outlines"],"affected_area_label":"Westminster","explanation":"Planning/protection evidence record for 33 - 35 Thayer Street London W1U 2QT; designation/effective date is taken from Planning Data fields where supplied."},"geometry":{"type":"Point","coordinates":[-0.151281,51.517901]}},{"type":"Feature","id":"lon_planning_designation_listed-building-outline_42166214","properties":{"city_id":"london","event_id":"lon_planning_designation_listed-building-outline_42166214","title":"Listed building outline: Basement Floor To First Floor 18 Upper Brook Street London W1K 7PU","subtitle":"Westminster / 1991-02-15 / Documented / Planning Data: Listed Building Outlines","details":"Planning/protection evidence record for Basement Floor To First Floor 18 Upper Brook Street London W1K 7PU; designation/effective date is taken from Planning Data fields where supplied.","year":1991,"effective_date":"1991-02-15","date_precision":"day","short_description":"Planning Data listed-building outline record 1277905; quality authoritative; LPA Westminster.","category":"built_environment","lens":"built_environment","confidence":"documented","source_ids":["lon-extra-planning-data-listed-building-outlines"],"affected_area_label":"Westminster","explanation":"Planning/protection evidence record for Basement Floor To First Floor 18 Upper Brook Street London W1K 7PU; designation/effective date is taken from Planning Data fields where supplied."},"geometry":{"type":"Point","coordinates":[-0.155602,51.511546]}},{"type":"Feature","id":"lon_planning_designation_listed-building-outline_42166215","properties":{"city_id":"london","event_id":"lon_planning_designation_listed-building-outline_42166215","title":"Listed building outline: 22 Upper Brook Street London W1K 7PT","subtitle":"Westminster / 1991-02-15 / Documented / Planning Data: Listed Building Outlines","details":"Planning/protection evidence record for 22 Upper Brook Street London W1K 7PT; designation/effective date is taken from Planning Data fields where supplied.","year":1991,"effective_date":"1991-02-15","date_precision":"day","short_description":"Planning Data listed-building outline record 1277906; quality authoritative; LPA Westminster.","category":"built_environment","lens":"built_environment","confidence":"documented","source_ids":["lon-extra-planning-data-listed-building-outlines"],"affected_area_label":"Westminster","explanation":"Planning/protection evidence record for 22 Upper Brook Street London W1K 7PT; designation/effective date is taken from Planning Data fields where supplied."},"geometry":{"type":"Point","coordinates":[-0.156103,51.511441]}},{"type":"Feature","id":"lon_planning_designation_listed-building-outline_42166216","properties":{"city_id":"london","event_id":"lon_planning_designation_listed-building-outline_42166216","title":"Listed building outline: Basement Floor And Ground Floor 37 Upper Brook Street London W1K 7PR","subtitle":"Westminster / 1991-02-15 / Documented / Planning Data: Listed Building Outlines","details":"Planning/protection evidence record for Basement Floor And Ground Floor 37 Upper Brook Street London W1K 7PR; designation/effective date is taken from Planning Data fields where supplied.","year":1991,"effective_date":"1991-02-15","date_precision":"day","short_description":"Planning Data listed-building outline record 1277907; quality authoritative; LPA Westminster.","category":"built_environment","lens":"built_environment","confidence":"documented","source_ids":["lon-extra-planning-data-listed-building-outlines"],"affected_area_label":"Westminster","explanation":"Planning/protection evidence record for Basement Floor And Ground Floor 37 Upper Brook Street London W1K 7PR; designation/effective date is taken from Planning Data fields where supplied."},"geometry":{"type":"Point","coordinates":[-0.155863,51.511019]}},{"type":"Feature","id":"lon_planning_designation_listed-building-outline_42166217","properties":{"city_id":"london","event_id":"lon_planning_designation_listed-building-outline_42166217","title":"Listed building outline: Basement Floor To First Floor 50 Upper Brook Street London W1K 2BS","subtitle":"Westminster / 1991-02-15 / Documented / Planning Data: Listed Building Outlines","details":"Planning/protection evidence record for Basement Floor To First Floor 50 Upper Brook Street London W1K 2BS; designation/effective date is taken from Planning Data fields where supplied.","year":1991,"effective_date":"1991-02-15","date_precision":"day","short_description":"Planning Data listed-building outline record 1277908; quality authoritative; LPA Westminster.","category":"built_environment","lens":"built_environment","confidence":"documented","source_ids":["lon-extra-planning-data-listed-building-outlines"],"affected_area_label":"Westminster","explanation":"Planning/protection evidence record for Basement Floor To First Floor 50 Upper Brook Street London W1K 2BS; designation/effective date is taken from Planning Data fields where supplied."},"geometry":{"type":"Point","coordinates":[-0.154321,51.511335]}},{"type":"Feature","id":"lon_planning_designation_listed-building-outline_42166231","properties":{"city_id":"london","event_id":"lon_planning_designation_listed-building-outline_42166231","title":"Listed building outline: The School Of Economic Science 11-13 Mandeville Place London W1U 3AJ","subtitle":"Westminster / 1991-01-04 / Documented / Planning Data: Listed Building Outlines","details":"Planning/protection evidence record for The School Of Economic Science 11-13 Mandeville Place London W1U 3AJ; designation/effective date is taken from Planning Data fields where supplied.","year":1991,"effective_date":"1991-01-04","date_precision":"day","short_description":"Planning Data listed-building outline record 1248447; quality authoritative; LPA Westminster.","category":"built_environment","lens":"built_environment","confidence":"documented","source_ids":["lon-extra-planning-data-listed-building-outlines"],"affected_area_label":"Westminster","explanation":"Planning/protection evidence record for The School Of Economic Science 11-13 Mandeville Place London W1U 3AJ; designation/effective date is taken from Planning Data fields where supplied."},"geometry":{"type":"Point","coordinates":[-0.151475,51.51669]}},{"type":"Feature","id":"lon_planning_designation_listed-building-outline_42166232","properties":{"city_id":"london","event_id":"lon_planning_designation_listed-building-outline_42166232","title":"Listed building outline: 6 - 10 Wells Mews London W1T 3HF","subtitle":"Westminster / 1991-01-23 / Documented / Planning Data: Listed Building Outlines","details":"Planning/protection evidence record for 6 - 10 Wells Mews London W1T 3HF; designation/effective date is taken from Planning Data fields where supplied.","year":1991,"effective_date":"1991-01-23","date_precision":"day","short_description":"Planning Data listed-building outline record 1248457; quality authoritative; LPA Westminster.","category":"built_environment","lens":"built_environment","confidence":"documented","source_ids":["lon-extra-planning-data-listed-building-outlines"],"affected_area_label":"Westminster","explanation":"Planning/protection evidence record for 6 - 10 Wells Mews London W1T 3HF; designation/effective date is taken from Planning Data fields where supplied."},"geometry":{"type":"Point","coordinates":[-0.137362,51.517481]}},{"type":"Feature","id":"lon_planning_designation_listed-building-outline_42166266","properties":{"city_id":"london","event_id":"lon_planning_designation_listed-building-outline_42166266","title":"Listed building outline: 19 Upper Brook Street London W1K 7PX","subtitle":"Westminster / 1991-02-15 / Documented / Planning Data: Listed Building Outlines","details":"Planning/protection evidence record for 19 Upper Brook Street London W1K 7PX; designation/effective date is taken from Planning Data fields where supplied.","year":1991,"effective_date":"1991-02-15","date_precision":"day","short_description":"Planning Data listed-building outline record 1248458; quality authoritative; LPA Westminster.","category":"built_environment","lens":"built_environment","confidence":"documented","source_ids":["lon-extra-planning-data-listed-building-outlines"],"affected_area_label":"Westminster","explanation":"Planning/protection evidence record for 19 Upper Brook Street London W1K 7PX; designation/effective date is taken from Planning Data fields where supplied."},"geometry":{"type":"Point","coordinates":[-0.155719,51.5115]}},{"type":"Feature","id":"lon_planning_designation_listed-building-outline_42166267","properties":{"city_id":"london","event_id":"lon_planning_designation_listed-building-outline_42166267","title":"Listed building outline: 24 Upper Brook Street London W1K 7PT","subtitle":"Westminster / 1991-02-15 / Documented / Planning Data: Listed Building Outlines","details":"Planning/protection evidence record for 24 Upper Brook Street London W1K 7PT; designation/effective date is taken from Planning Data fields where supplied.","year":1991,"effective_date":"1991-02-15","date_precision":"day","short_description":"Planning Data listed-building outline record 1248459; quality authoritative; LPA Westminster.","category":"built_environment","lens":"built_environment","confidence":"documented","source_ids":["lon-extra-planning-data-listed-building-outlines"],"affected_area_label":"Westminster","explanation":"Planning/protection evidence record for 24 Upper Brook Street London W1K 7PT; designation/effective date is taken from Planning Data fields where supplied."},"geometry":{"type":"Point","coordinates":[-0.156318,51.511354]}},{"type":"Feature","id":"lon_planning_designation_listed-building-outline_42166268","properties":{"city_id":"london","event_id":"lon_planning_designation_listed-building-outline_42166268","title":"Listed building outline: 25 Upper Brook Street London W1K 7QD","subtitle":"Westminster / 1991-02-15 / Documented / Planning Data: Listed Building Outlines","details":"Planning/protection evidence record for 25 Upper Brook Street London W1K 7QD; designation/effective date is taken from Planning Data fields where supplied.","year":1991,"effective_date":"1991-02-15","date_precision":"day","short_description":"Planning Data listed-building outline record 1248486; quality authoritative; LPA Westminster.","category":"built_environment","lens":"built_environment","confidence":"documented","source_ids":["lon-extra-planning-data-listed-building-outlines"],"affected_area_label":"Westminster","explanation":"Planning/protection evidence record for 25 Upper Brook Street London W1K 7QD; designation/effective date is taken from Planning Data fields where supplied."},"geometry":{"type":"Point","coordinates":[-0.156485,51.511376]}},{"type":"Feature","id":"lon_planning_designation_listed-building-outline_42166269","properties":{"city_id":"london","event_id":"lon_planning_designation_listed-building-outline_42166269","title":"Listed building outline: 26 Upper Brook Street London W1K 6PA","subtitle":"Westminster / 1991-02-15 / Documented / Planning Data: Listed Building Outlines","details":"Planning/protection evidence record for 26 Upper Brook Street London W1K 6PA; designation/effective date is taken from Planning Data fields where supplied.","year":1991,"effective_date":"1991-02-15","date_precision":"day","short_description":"Planning Data listed-building outline record 1248488; quality authoritative; LPA Westminster.","category":"built_environment","lens":"built_environment","confidence":"documented","source_ids":["lon-extra-planning-data-listed-building-outlines"],"affected_area_label":"Westminster","explanation":"Planning/protection evidence record for 26 Upper Brook Street London W1K 6PA; designation/effective date is taken from Planning Data fields where supplied."},"geometry":{"type":"Point","coordinates":[-0.156592,51.511329]}},{"type":"Feature","id":"lon_planning_designation_listed-building-outline_42166270","properties":{"city_id":"london","event_id":"lon_planning_designation_listed-building-outline_42166270","title":"Listed building outline: 45 - 46 Albemarle Street London W1S 4JL","subtitle":"Westminster / 1991-04-23 / Documented / Planning Data: Listed Building Outlines","details":"Planning/protection evidence record for 45 - 46 Albemarle Street London W1S 4JL; designation/effective date is taken from Planning Data fields where supplied.","year":1991,"effective_date":"1991-04-23","date_precision":"day","short_description":"Planning Data listed-building outline record 1248510; quality authoritative; LPA Westminster.","category":"built_environment","lens":"built_environment","confidence":"documented","source_ids":["lon-extra-planning-data-listed-building-outlines"],"affected_area_label":"Westminster","explanation":"Planning/protection evidence record for 45 - 46 Albemarle Street London W1S 4JL; designation/effective date is taken from Planning Data fields where supplied."},"geometry":{"type":"Point","coordinates":[-0.14139,51.508243]}},{"type":"Feature","id":"lon_planning_designation_listed-building-outline_42166271","properties":{"city_id":"london","event_id":"lon_planning_designation_listed-building-outline_42166271","title":"Listed building outline: First Floor 7 Cavendish Square London W1G 0PE","subtitle":"Westminster / 1991-06-17 / Documented / Planning Data: Listed Building Outlines","details":"Planning/protection evidence record for First Floor 7 Cavendish Square London W1G 0PE; designation/effective date is taken from Planning Data fields where supplied.","year":1991,"effective_date":"1991-06-17","date_precision":"day","short_description":"Planning Data listed-building outline record 1248551; quality authoritative; LPA Westminster.","category":"built_environment","lens":"built_environment","confidence":"documented","source_ids":["lon-extra-planning-data-listed-building-outlines"],"affected_area_label":"Westminster","explanation":"Planning/protection evidence record for First Floor 7 Cavendish Square London W1G 0PE; designation/effective date is taken from Planning Data fields where supplied."},"geometry":{"type":"Point","coordinates":[-0.144041,51.51695]}},{"type":"Feature","id":"lon_planning_designation_listed-building-outline_42166272","properties":{"city_id":"london","event_id":"lon_planning_designation_listed-building-outline_42166272","title":"Listed building outline: 11 Duke Street St James's London SW1Y 6BN","subtitle":"Westminster / 1991-09-27 / Documented / Planning Data: Listed Building Outlines","details":"Planning/protection evidence record for 11 Duke Street St James's London SW1Y 6BN; designation/effective date is taken from Planning Data fields where supplied.","year":1991,"effective_date":"1991-09-27","date_precision":"day","short_description":"Planning Data listed-building outline record 1249906; quality authoritative; LPA Westminster.","category":"built_environment","lens":"built_environment","confidence":"documented","source_ids":["lon-extra-planning-data-listed-building-outlines"],"affected_area_label":"Westminster","explanation":"Planning/protection evidence record for 11 Duke Street St James's London SW1Y 6BN; designation/effective date is taken from Planning Data fields where supplied."},"geometry":{"type":"Point","coordinates":[-0.137551,51.507321]}},{"type":"Feature","id":"lon_planning_designation_listed-building-outline_42166370","properties":{"city_id":"london","event_id":"lon_planning_designation_listed-building-outline_42166370","title":"Listed building outline: Basement Floor To Fifth Floor 7 Portugal Street London WC2A 2HJ","subtitle":"Westminster / 1991-07-31 / Documented / Planning Data: Listed Building Outlines","details":"Planning/protection evidence record for Basement Floor To Fifth Floor 7 Portugal Street London WC2A 2HJ; designation/effective date is taken from Planning Data fields where supplied.","year":1991,"effective_date":"1991-07-31","date_precision":"day","short_description":"Planning Data listed-building outline record 1263524; quality authoritative; LPA Westminster.","category":"built_environment","lens":"built_environment","confidence":"documented","source_ids":["lon-extra-planning-data-listed-building-outlines"],"affected_area_label":"Westminster","explanation":"Planning/protection evidence record for Basement Floor To Fifth Floor 7 Portugal Street London WC2A 2HJ; designation/effective date is taken from Planning Data fields where supplied."},"geometry":{"type":"Point","coordinates":[-0.116517,51.514582]}},{"type":"Feature","id":"lon_planning_designation_listed-building-outline_42182677","properties":{"city_id":"london","event_id":"lon_planning_designation_listed-building-outline_42182677","title":"Listed building outline: ELDON LODGE — Kensington and Chelsea · 42182677","subtitle":"Kensington and Chelsea / 1991-02-15 / Documented / Planning Data: Listed Building Outlines","details":"Planning/protection evidence record for ELDON LODGE; designation/effective date is taken from Planning Data fields where supplied.","year":1991,"effective_date":"1991-02-15","date_precision":"day","short_description":"Planning Data listed-building outline record 1265205; quality authoritative; LPA Kensington and Chelsea.","category":"built_environment","lens":"built_environment","confidence":"documented","source_ids":["lon-extra-planning-data-listed-building-outlines"],"affected_area_label":"Kensington and Chelsea","explanation":"Planning/protection evidence record for ELDON LODGE; designation/effective date is taken from Planning Data fields where supplied."},"geometry":{"type":"Point","coordinates":[-0.186327,51.497931]}},{"type":"Feature","id":"lon_planning_designation_listed-building-outline_42182836","properties":{"city_id":"london","event_id":"lon_planning_designation_listed-building-outline_42182836","title":"Listed building outline: KENSINGTON FIRE STATION — Kensington and Chelsea · 42182836","subtitle":"Kensington and Chelsea / 1991-03-27 / Documented / Planning Data: Listed Building Outlines","details":"Planning/protection evidence record for KENSINGTON FIRE STATION; designation/effective date is taken from Planning Data fields where supplied.","year":1991,"effective_date":"1991-03-27","date_precision":"day","short_description":"Planning Data listed-building outline record 1265214; quality authoritative; LPA Kensington and Chelsea.","category":"built_environment","lens":"built_environment","confidence":"documented","source_ids":["lon-extra-planning-data-listed-building-outlines"],"affected_area_label":"Kensington and Chelsea","explanation":"Planning/protection evidence record for KENSINGTON FIRE STATION; designation/effective date is taken from Planning Data fields where supplied."},"geometry":{"type":"Point","coordinates":[-0.190086,51.5029]}},{"type":"Feature","id":"lon_planning_designation_listed-building-outline_42189242","properties":{"city_id":"london","event_id":"lon_planning_designation_listed-building-outline_42189242","title":"Listed building outline: 91 AND 91A BELMONT HILL SE13 LEWISHAM","subtitle":"Lewisham / 1991-02-20 / Documented / Planning Data: Listed Building Outlines","details":"Planning/protection evidence record for 91 AND 91A BELMONT HILL SE13 LEWISHAM; designation/effective date is taken from Planning Data fields where supplied.","year":1991,"effective_date":"1991-02-20","date_precision":"day","short_description":"Planning Data listed-building outline record 1080777; quality authoritative; LPA Lewisham.","category":"built_environment","lens":"built_environment","confidence":"documented","source_ids":["lon-extra-planning-data-listed-building-outlines"],"affected_area_label":"Lewisham","explanation":"Planning/protection evidence record for 91 AND 91A BELMONT HILL SE13 LEWISHAM; designation/effective date is taken from Planning Data fields where supplied."},"geometry":{"type":"Point","coordinates":[-0.004036,51.463049]}},{"type":"Feature","id":"lon_planning_designation_listed-building-outline_42189315","properties":{"city_id":"london","event_id":"lon_planning_designation_listed-building-outline_42189315","title":"Listed building outline: LAURIE GROVE BATHS LAURIE GROVE DEPTFORD","subtitle":"Lewisham / 1991-06-10 / Documented / Planning Data: Listed Building Outlines","details":"Planning/protection evidence record for LAURIE GROVE BATHS LAURIE GROVE DEPTFORD; designation/effective date is taken from Planning Data fields where supplied.","year":1991,"effective_date":"1991-06-10","date_precision":"day","short_description":"Planning Data listed-building outline record 1252985; quality authoritative; LPA Lewisham.","category":"built_environment","lens":"built_environment","confidence":"documented","source_ids":["lon-extra-planning-data-listed-building-outlines"],"affected_area_label":"Lewisham","explanation":"Planning/protection evidence record for LAURIE GROVE BATHS LAURIE GROVE DEPTFORD; designation/effective date is taken from Planning Data fields where supplied."},"geometry":{"type":"Point","coordinates":[-0.037542,51.475016]}},{"type":"Feature","id":"lon_planning_designation_listed-building-outline_42189317","properties":{"city_id":"london","event_id":"lon_planning_designation_listed-building-outline_42189317","title":"Listed building outline: CHURCH OF ST GEORGE VANCOUVER ROAD CATFORD","subtitle":"Lewisham / 1991-09-11 / Documented / Planning Data: Listed Building Outlines","details":"Planning/protection evidence record for CHURCH OF ST GEORGE VANCOUVER ROAD CATFORD; designation/effective date is taken from Planning Data fields where supplied.","year":1991,"effective_date":"1991-09-11","date_precision":"day","short_description":"Planning Data listed-building outline record 1253000; quality authoritative; LPA Lewisham.","category":"built_environment","lens":"built_environment","confidence":"documented","source_ids":["lon-extra-planning-data-listed-building-outlines"],"affected_area_label":"Lewisham","explanation":"Planning/protection evidence record for CHURCH OF ST GEORGE VANCOUVER ROAD CATFORD; designation/effective date is taken from Planning Data fields where supplied."},"geometry":{"type":"Point","coordinates":[-0.034292,51.439071]}},{"type":"Feature","id":"lon_planning_designation_listed-building-outline_42209346","properties":{"city_id":"london","event_id":"lon_planning_designation_listed-building-outline_42209346","title":"Listed building outline: Listed Building Grade II — Lambeth","subtitle":"Lambeth / 1991-10-28 / Documented / Planning Data: Listed Building Outlines","details":"Planning/protection evidence record for Listed Building Grade II; designation/effective date is taken from Planning Data fields where supplied.","year":1991,"effective_date":"1991-10-28","date_precision":"day","short_description":"Planning Data listed-building outline record LBL00049; quality authoritative; LPA Lambeth.","category":"built_environment","lens":"built_environment","confidence":"documented","source_ids":["lon-extra-planning-data-listed-building-outlines"],"affected_area_label":"Lambeth","explanation":"Planning/protection evidence record for Listed Building Grade II; designation/effective date is taken from Planning Data fields where supplied."},"geometry":{"type":"Point","coordinates":[-0.09793,51.457734]}},{"type":"Feature","id":"lon_planning_designation_listed-building-outline_42209347","properties":{"city_id":"london","event_id":"lon_planning_designation_listed-building-outline_42209347","title":"Listed building outline: Listed Building Grade II — Lambeth · 42209347","subtitle":"Lambeth / 1991-01-02 / Documented / Planning Data: Listed Building Outlines","details":"Planning/protection evidence record for Listed Building Grade II; designation/effective date is taken from Planning Data fields where supplied.","year":1991,"effective_date":"1991-01-02","date_precision":"day","short_description":"Planning Data listed-building outline record LBL00050; quality authoritative; LPA Lambeth.","category":"built_environment","lens":"built_environment","confidence":"documented","source_ids":["lon-extra-planning-data-listed-building-outlines"],"affected_area_label":"Lambeth","explanation":"Planning/protection evidence record for Listed Building Grade II; designation/effective date is taken from Planning Data fields where supplied."},"geometry":{"type":"Point","coordinates":[-0.123028,51.445872]}},{"type":"Feature","id":"lon_planning_designation_listed-building-outline_42209398","properties":{"city_id":"london","event_id":"lon_planning_designation_listed-building-outline_42209398","title":"Listed building outline: Listed Building Grade II — Lambeth · 42209398","subtitle":"Lambeth / 1991-10-28 / Documented / Planning Data: Listed Building Outlines","details":"Planning/protection evidence record for Listed Building Grade II; designation/effective date is taken from Planning Data fields where supplied.","year":1991,"effective_date":"1991-10-28","date_precision":"day","short_description":"Planning Data listed-building outline record LBL000101; quality authoritative; LPA Lambeth.","category":"built_environment","lens":"built_environment","confidence":"documented","source_ids":["lon-extra-planning-data-listed-building-outlines"],"affected_area_label":"Lambeth","explanation":"Planning/protection evidence record for Listed Building Grade II; designation/effective date is taken from Planning Data fields where supplied."},"geometry":{"type":"Point","coordinates":[-0.125375,51.476076]}},{"type":"Feature","id":"lon_planning_designation_listed-building-outline_42209399","properties":{"city_id":"london","event_id":"lon_planning_designation_listed-building-outline_42209399","title":"Listed building outline: Listed Building Grade II — Lambeth · 42209399","subtitle":"Lambeth / 1991-10-28 / Documented / Planning Data: Listed Building Outlines","details":"Planning/protection evidence record for Listed Building Grade II; designation/effective date is taken from Planning Data fields where supplied.","year":1991,"effective_date":"1991-10-28","date_precision":"day","short_description":"Planning Data listed-building outline record LBL000102; quality authoritative; LPA Lambeth.","category":"built_environment","lens":"built_environment","confidence":"documented","source_ids":["lon-extra-planning-data-listed-building-outlines"],"affected_area_label":"Lambeth","explanation":"Planning/protection evidence record for Listed Building Grade II; designation/effective date is taken from Planning Data fields where supplied."},"geometry":{"type":"Point","coordinates":[-0.125636,51.475312]}},{"type":"Feature","id":"lon_planning_designation_listed-building-outline_42209400","properties":{"city_id":"london","event_id":"lon_planning_designation_listed-building-outline_42209400","title":"Listed building outline: Listed Building Grade II — Lambeth · 42209400","subtitle":"Lambeth / 1991-01-02 / Documented / Planning Data: Listed Building Outlines","details":"Planning/protection evidence record for Listed Building Grade II; designation/effective date is taken from Planning Data fields where supplied.","year":1991,"effective_date":"1991-01-02","date_precision":"day","short_description":"Planning Data listed-building outline record LBL000103; quality authoritative; LPA Lambeth.","category":"built_environment","lens":"built_environment","confidence":"documented","source_ids":["lon-extra-planning-data-listed-building-outlines"],"affected_area_label":"Lambeth","explanation":"Planning/protection evidence record for Listed Building Grade II; designation/effective date is taken from Planning Data fields where supplied."},"geometry":{"type":"Point","coordinates":[-0.129101,51.415982]}},{"type":"Feature","id":"lon_planning_designation_listed-building-outline_42209462","properties":{"city_id":"london","event_id":"lon_planning_designation_listed-building-outline_42209462","title":"Listed building outline: Listed Building Grade II — Lambeth · 42209462","subtitle":"Lambeth / 1991-10-28 / Documented / Planning Data: Listed Building Outlines","details":"Planning/protection evidence record for Listed Building Grade II; designation/effective date is taken from Planning Data fields where supplied.","year":1991,"effective_date":"1991-10-28","date_precision":"day","short_description":"Planning Data listed-building outline record LBL000167; quality authoritative; LPA Lambeth.","category":"built_environment","lens":"built_environment","confidence":"documented","source_ids":["lon-extra-planning-data-listed-building-outlines"],"affected_area_label":"Lambeth","explanation":"Planning/protection evidence record for Listed Building Grade II; designation/effective date is taken from Planning Data fields where supplied."},"geometry":{"type":"Point","coordinates":[-0.119792,51.481592]}},{"type":"Feature","id":"lon_planning_designation_listed-building-outline_42209550","properties":{"city_id":"london","event_id":"lon_planning_designation_listed-building-outline_42209550","title":"Listed building outline: Listed Building Grade II — Lambeth · 42209550","subtitle":"Lambeth / 1991-10-16 / Documented / Planning Data: Listed Building Outlines","details":"Planning/protection evidence record for Listed Building Grade II; designation/effective date is taken from Planning Data fields where supplied.","year":1991,"effective_date":"1991-10-16","date_precision":"day","short_description":"Planning Data listed-building outline record LBL000255; quality authoritative; LPA Lambeth.","category":"built_environment","lens":"built_environment","confidence":"documented","source_ids":["lon-extra-planning-data-listed-building-outlines"],"affected_area_label":"Lambeth","explanation":"Planning/protection evidence record for Listed Building Grade II; designation/effective date is taken from Planning Data fields where supplied."},"geometry":{"type":"Point","coordinates":[-0.122039,51.472996]}},{"type":"Feature","id":"lon_planning_designation_listed-building-outline_42209645","properties":{"city_id":"london","event_id":"lon_planning_designation_listed-building-outline_42209645","title":"Listed building outline: Listed Building Grade II — Lambeth · 42209645","subtitle":"Lambeth / 1991-10-28 / Documented / Planning Data: Listed Building Outlines","details":"Planning/protection evidence record for Listed Building Grade II; designation/effective date is taken from Planning Data fields where supplied.","year":1991,"effective_date":"1991-10-28","date_precision":"day","short_description":"Planning Data listed-building outline record LBL000350; quality authoritative; LPA Lambeth.","category":"built_environment","lens":"built_environment","confidence":"documented","source_ids":["lon-extra-planning-data-listed-building-outlines"],"affected_area_label":"Lambeth","explanation":"Planning/protection evidence record for Listed Building Grade II; designation/effective date is taken from Planning Data fields where supplied."},"geometry":{"type":"Point","coordinates":[-0.120149,51.467791]}},{"type":"Feature","id":"lon_planning_designation_listed-building-outline_42209646","properties":{"city_id":"london","event_id":"lon_planning_designation_listed-building-outline_42209646","title":"Listed building outline: Listed Building Grade II — Lambeth · 42209646","subtitle":"Lambeth / 1991-01-02 / Documented / Planning Data: Listed Building Outlines","details":"Planning/protection evidence record for Listed Building Grade II; designation/effective date is taken from Planning Data fields where supplied.","year":1991,"effective_date":"1991-01-02","date_precision":"day","short_description":"Planning Data listed-building outline record LBL000351; quality authoritative; LPA Lambeth.","category":"built_environment","lens":"built_environment","confidence":"documented","source_ids":["lon-extra-planning-data-listed-building-outlines"],"affected_area_label":"Lambeth","explanation":"Planning/protection evidence record for Listed Building Grade II; designation/effective date is taken from Planning Data fields where supplied."},"geometry":{"type":"Point","coordinates":[-0.119546,51.467641]}},{"type":"Feature","id":"lon_planning_designation_listed-building-outline_42209941","properties":{"city_id":"london","event_id":"lon_planning_designation_listed-building-outline_42209941","title":"Listed building outline: Listed Building Grade II — Lambeth · 42209941","subtitle":"Lambeth / 1991-10-16 / Documented / Planning Data: Listed Building Outlines","details":"Planning/protection evidence record for Listed Building Grade II; designation/effective date is taken from Planning Data fields where supplied.","year":1991,"effective_date":"1991-10-16","date_precision":"day","short_description":"Planning Data listed-building outline record LBL000646; quality authoritative; LPA Lambeth.","category":"built_environment","lens":"built_environment","confidence":"documented","source_ids":["lon-extra-planning-data-listed-building-outlines"],"affected_area_label":"Lambeth","explanation":"Planning/protection evidence record for Listed Building Grade II; designation/effective date is taken from Planning Data fields where supplied."},"geometry":{"type":"Point","coordinates":[-0.132204,51.472505]}},{"type":"Feature","id":"lon_planning_designation_listed-building-outline_42209953","properties":{"city_id":"london","event_id":"lon_planning_designation_listed-building-outline_42209953","title":"Listed building outline: Listed Building Grade II — Lambeth · 42209953","subtitle":"Lambeth / 1991-10-28 / Documented / Planning Data: Listed Building Outlines","details":"Planning/protection evidence record for Listed Building Grade II; designation/effective date is taken from Planning Data fields where supplied.","year":1991,"effective_date":"1991-10-28","date_precision":"day","short_description":"Planning Data listed-building outline record LBL000658; quality authoritative; LPA Lambeth.","category":"built_environment","lens":"built_environment","confidence":"documented","source_ids":["lon-extra-planning-data-listed-building-outlines"],"affected_area_label":"Lambeth","explanation":"Planning/protection evidence record for Listed Building Grade II; designation/effective date is taken from Planning Data fields where supplied."},"geometry":{"type":"Point","coordinates":[-0.108256,51.493802]}},{"type":"Feature","id":"lon_planning_designation_listed-building-outline_42209954","properties":{"city_id":"london","event_id":"lon_planning_designation_listed-building-outline_42209954","title":"Listed building outline: Listed Building Grade II — Lambeth · 42209954","subtitle":"Lambeth / 1991-10-28 / Documented / Planning Data: Listed Building Outlines","details":"Planning/protection evidence record for Listed Building Grade II; designation/effective date is taken from Planning Data fields where supplied.","year":1991,"effective_date":"1991-10-28","date_precision":"day","short_description":"Planning Data listed-building outline record LBL000659; quality authoritative; LPA Lambeth.","category":"built_environment","lens":"built_environment","confidence":"documented","source_ids":["lon-extra-planning-data-listed-building-outlines"],"affected_area_label":"Lambeth","explanation":"Planning/protection evidence record for Listed Building Grade II; designation/effective date is taken from Planning Data fields where supplied."},"geometry":{"type":"Point","coordinates":[-0.109727,51.494453]}},{"type":"Feature","id":"lon_planning_designation_listed-building-outline_42210136","properties":{"city_id":"london","event_id":"lon_planning_designation_listed-building-outline_42210136","title":"Listed building outline: Listed Building Grade II — Lambeth · 42210136","subtitle":"Lambeth / 1991-10-28 / Documented / Planning Data: Listed Building Outlines","details":"Planning/protection evidence record for Listed Building Grade II; designation/effective date is taken from Planning Data fields where supplied.","year":1991,"effective_date":"1991-10-28","date_precision":"day","short_description":"Planning Data listed-building outline record LBL000842; quality authoritative; LPA Lambeth.","category":"built_environment","lens":"built_environment","confidence":"documented","source_ids":["lon-extra-planning-data-listed-building-outlines"],"affected_area_label":"Lambeth","explanation":"Planning/protection evidence record for Listed Building Grade II; designation/effective date is taken from Planning Data fields where supplied."},"geometry":{"type":"Point","coordinates":[-0.125531,51.475617]}},{"type":"Feature","id":"lon_planning_designation_listed-building-outline_42210137","properties":{"city_id":"london","event_id":"lon_planning_designation_listed-building-outline_42210137","title":"Listed building outline: Listed Building Grade II — Lambeth · 42210137","subtitle":"Lambeth / 1991-10-28 / Documented / Planning Data: Listed Building Outlines","details":"Planning/protection evidence record for Listed Building Grade II; designation/effective date is taken from Planning Data fields where supplied.","year":1991,"effective_date":"1991-10-28","date_precision":"day","short_description":"Planning Data listed-building outline record LBL000843; quality authoritative; LPA Lambeth.","category":"built_environment","lens":"built_environment","confidence":"documented","source_ids":["lon-extra-planning-data-listed-building-outlines"],"affected_area_label":"Lambeth","explanation":"Planning/protection evidence record for Listed Building Grade II; designation/effective date is taken from Planning Data fields where supplied."},"geometry":{"type":"Point","coordinates":[-0.125693,51.475149]}},{"type":"Feature","id":"lon_planning_designation_tree-preservation-zone_19120576","properties":{"city_id":"london","event_id":"lon_planning_designation_tree-preservation-zone_19120576","title":"Tree preservation zone: TPO 200 - Dennington","subtitle":"Kingston upon Thames / 1991-01-29 / Documented / Planning Data: Tree Preservation Zones","details":"Planning/protection evidence record for TPO 200 - Dennington; designation/effective date is taken from Planning Data fields where supplied.","year":1991,"effective_date":"1991-01-29","date_precision":"day","short_description":"Planning Data tree-preservation zone record 200/G2; quality authoritative; LPA Kingston upon Thames.","category":"built_environment","lens":"built_environment","confidence":"documented","source_ids":["lon-extra-planning-data-tree-preservation-zones"],"affected_area_label":"Kingston upon Thames","explanation":"Planning/protection evidence record for TPO 200 - Dennington; designation/effective date is taken from Planning Data fields where supplied."},"geometry":{"type":"Point","coordinates":[-0.258549,51.378952]}},{"type":"Feature","id":"lon_planning_designation_tree-preservation-zone_19140713","properties":{"city_id":"london","event_id":"lon_planning_designation_tree-preservation-zone_19140713","title":"Tree preservation zone: 20 Underhill Road","subtitle":"Southwark / 1991-12-20 / Documented / Planning Data: Tree Preservation Zones","details":"Planning/protection evidence record for 20 Underhill Road; designation/effective date is taken from Planning Data fields where supplied.","year":1991,"effective_date":"1991-12-20","date_precision":"day","short_description":"Planning Data tree-preservation zone record 741; quality authoritative; LPA Southwark.","category":"built_environment","lens":"built_environment","confidence":"documented","source_ids":["lon-extra-planning-data-tree-preservation-zones"],"affected_area_label":"Southwark","explanation":"Planning/protection evidence record for 20 Underhill Road; designation/effective date is taken from Planning Data fields where supplied."},"geometry":{"type":"Point","coordinates":[-0.06552,51.443861]}},{"type":"Feature","id":"lon_planning_designation_tree-preservation-zone_19140725","properties":{"city_id":"london","event_id":"lon_planning_designation_tree-preservation-zone_19140725","title":"Tree preservation zone: 32 Underhill Road","subtitle":"Southwark / 1991-12-20 / Documented / Planning Data: Tree Preservation Zones","details":"Planning/protection evidence record for 32 Underhill Road; designation/effective date is taken from Planning Data fields where supplied.","year":1991,"effective_date":"1991-12-20","date_precision":"day","short_description":"Planning Data tree-preservation zone record 753; quality authoritative; LPA Southwark.","category":"built_environment","lens":"built_environment","confidence":"documented","source_ids":["lon-extra-planning-data-tree-preservation-zones"],"affected_area_label":"Southwark","explanation":"Planning/protection evidence record for 32 Underhill Road; designation/effective date is taken from Planning Data fields where supplied."},"geometry":{"type":"Point","coordinates":[-0.065481,51.444558]}},{"type":"Feature","id":"lon_planning_designation_tree-preservation-zone_19140740","properties":{"city_id":"london","event_id":"lon_planning_designation_tree-preservation-zone_19140740","title":"Tree preservation zone: 71 Underhill Road","subtitle":"Southwark / 1991-12-20 / Documented / Planning Data: Tree Preservation Zones","details":"Planning/protection evidence record for 71 Underhill Road; designation/effective date is taken from Planning Data fields where supplied.","year":1991,"effective_date":"1991-12-20","date_precision":"day","short_description":"Planning Data tree-preservation zone record 768; quality authoritative; LPA Southwark.","category":"built_environment","lens":"built_environment","confidence":"documented","source_ids":["lon-extra-planning-data-tree-preservation-zones"],"affected_area_label":"Southwark","explanation":"Planning/protection evidence record for 71 Underhill Road; designation/effective date is taken from Planning Data fields where supplied."},"geometry":{"type":"Point","coordinates":[-0.065337,51.446601]}},{"type":"Feature","id":"lon_planning_designation_tree-preservation-zone_19140748","properties":{"city_id":"london","event_id":"lon_planning_designation_tree-preservation-zone_19140748","title":"Tree preservation zone: 23 Underhill Road","subtitle":"Southwark / 1991-12-20 / Documented / Planning Data: Tree Preservation Zones","details":"Planning/protection evidence record for 23 Underhill Road; designation/effective date is taken from Planning Data fields where supplied.","year":1991,"effective_date":"1991-12-20","date_precision":"day","short_description":"Planning Data tree-preservation zone record 776; quality authoritative; LPA Southwark.","category":"built_environment","lens":"built_environment","confidence":"documented","source_ids":["lon-extra-planning-data-tree-preservation-zones"],"affected_area_label":"Southwark","explanation":"Planning/protection evidence record for 23 Underhill Road; designation/effective date is taken from Planning Data fields where supplied."},"geometry":{"type":"Point","coordinates":[-0.066467,51.444036]}},{"type":"Feature","id":"lon_planning_designation_tree-preservation-zone_19140749","properties":{"city_id":"london","event_id":"lon_planning_designation_tree-preservation-zone_19140749","title":"Tree preservation zone: Donkey Alley","subtitle":"Southwark / 1991-08-18 / Documented / Planning Data: Tree Preservation Zones","details":"Planning/protection evidence record for Donkey Alley; designation/effective date is taken from Planning Data fields where supplied.","year":1991,"effective_date":"1991-08-18","date_precision":"day","short_description":"Planning Data tree-preservation zone record 777; quality authoritative; LPA Southwark.","category":"built_environment","lens":"built_environment","confidence":"documented","source_ids":["lon-extra-planning-data-tree-preservation-zones"],"affected_area_label":"Southwark","explanation":"Planning/protection evidence record for Donkey Alley; designation/effective date is taken from Planning Data fields where supplied."},"geometry":{"type":"Point","coordinates":[-0.066683,51.448927]}},{"type":"Feature","id":"lon_planning_designation_tree-preservation-zone_19140757","properties":{"city_id":"london","event_id":"lon_planning_designation_tree-preservation-zone_19140757","title":"Tree preservation zone: 140 Croxted Road","subtitle":"Southwark / 1991-07-05 / Documented / Planning Data: Tree Preservation Zones","details":"Planning/protection evidence record for 140 Croxted Road; designation/effective date is taken from Planning Data fields where supplied.","year":1991,"effective_date":"1991-07-05","date_precision":"day","short_description":"Planning Data tree-preservation zone record 785; quality authoritative; LPA Southwark.","category":"built_environment","lens":"built_environment","confidence":"documented","source_ids":["lon-extra-planning-data-tree-preservation-zones"],"affected_area_label":"Southwark","explanation":"Planning/protection evidence record for 140 Croxted Road; designation/effective date is taken from Planning Data fields where supplied."},"geometry":{"type":"Point","coordinates":[-0.095259,51.446131]}},{"type":"Feature","id":"lon_planning_designation_tree-preservation-zone_19140761","properties":{"city_id":"london","event_id":"lon_planning_designation_tree-preservation-zone_19140761","title":"Tree preservation zone: 80 Underhill Road","subtitle":"Southwark / 1991-12-20 / Documented / Planning Data: Tree Preservation Zones","details":"Planning/protection evidence record for 80 Underhill Road; designation/effective date is taken from Planning Data fields where supplied.","year":1991,"effective_date":"1991-12-20","date_precision":"day","short_description":"Planning Data tree-preservation zone record 789; quality authoritative; LPA Southwark.","category":"built_environment","lens":"built_environment","confidence":"documented","source_ids":["lon-extra-planning-data-tree-preservation-zones"],"affected_area_label":"Southwark","explanation":"Planning/protection evidence record for 80 Underhill Road; designation/effective date is taken from Planning Data fields where supplied."},"geometry":{"type":"Point","coordinates":[-0.064468,51.446324]}},{"type":"Feature","id":"lon_planning_designation_tree-preservation-zone_19140785","properties":{"city_id":"london","event_id":"lon_planning_designation_tree-preservation-zone_19140785","title":"Tree preservation zone: 62 Underhill Road","subtitle":"Southwark / 1991-12-20 / Documented / Planning Data: Tree Preservation Zones","details":"Planning/protection evidence record for 62 Underhill Road; designation/effective date is taken from Planning Data fields where supplied.","year":1991,"effective_date":"1991-12-20","date_precision":"day","short_description":"Planning Data tree-preservation zone record 813; quality authoritative; LPA Southwark.","category":"built_environment","lens":"built_environment","confidence":"documented","source_ids":["lon-extra-planning-data-tree-preservation-zones"],"affected_area_label":"Southwark","explanation":"Planning/protection evidence record for 62 Underhill Road; designation/effective date is taken from Planning Data fields where supplied."},"geometry":{"type":"Point","coordinates":[-0.064925,51.445579]}},{"type":"Feature","id":"lon_planning_designation_tree-preservation-zone_19140793","properties":{"city_id":"london","event_id":"lon_planning_designation_tree-preservation-zone_19140793","title":"Tree preservation zone: 93 Underhill Road","subtitle":"Southwark / 1991-12-20 / Documented / Planning Data: Tree Preservation Zones","details":"Planning/protection evidence record for 93 Underhill Road; designation/effective date is taken from Planning Data fields where supplied.","year":1991,"effective_date":"1991-12-20","date_precision":"day","short_description":"Planning Data tree-preservation zone record 821; quality authoritative; LPA Southwark.","category":"built_environment","lens":"built_environment","confidence":"documented","source_ids":["lon-extra-planning-data-tree-preservation-zones"],"affected_area_label":"Southwark","explanation":"Planning/protection evidence record for 93 Underhill Road; designation/effective date is taken from Planning Data fields where supplied."},"geometry":{"type":"Point","coordinates":[-0.064677,51.44725]}},{"type":"Feature","id":"lon_planning_designation_tree-preservation-zone_19140805","properties":{"city_id":"london","event_id":"lon_planning_designation_tree-preservation-zone_19140805","title":"Tree preservation zone: 1 Underhill Road (a-e)","subtitle":"Southwark / 1991-12-20 / Documented / Planning Data: Tree Preservation Zones","details":"Planning/protection evidence record for 1 Underhill Road (a-e); designation/effective date is taken from Planning Data fields where supplied.","year":1991,"effective_date":"1991-12-20","date_precision":"day","short_description":"Planning Data tree-preservation zone record 833; quality authoritative; LPA Southwark.","category":"built_environment","lens":"built_environment","confidence":"documented","source_ids":["lon-extra-planning-data-tree-preservation-zones"],"affected_area_label":"Southwark","explanation":"Planning/protection evidence record for 1 Underhill Road (a-e); designation/effective date is taken from Planning Data fields where supplied."},"geometry":{"type":"Point","coordinates":[-0.066362,51.443092]}},{"type":"Feature","id":"lon_planning_designation_tree-preservation-zone_19140812","properties":{"city_id":"london","event_id":"lon_planning_designation_tree-preservation-zone_19140812","title":"Tree preservation zone: 72 Underhill Road","subtitle":"Southwark / 1991-12-20 / Documented / Planning Data: Tree Preservation Zones","details":"Planning/protection evidence record for 72 Underhill Road; designation/effective date is taken from Planning Data fields where supplied.","year":1991,"effective_date":"1991-12-20","date_precision":"day","short_description":"Planning Data tree-preservation zone record 840; quality authoritative; LPA Southwark.","category":"built_environment","lens":"built_environment","confidence":"documented","source_ids":["lon-extra-planning-data-tree-preservation-zones"],"affected_area_label":"Southwark","explanation":"Planning/protection evidence record for 72 Underhill Road; designation/effective date is taken from Planning Data fields where supplied."},"geometry":{"type":"Point","coordinates":[-0.064697,51.446006]}},{"type":"Feature","id":"lon_planning_designation_tree-preservation-zone_19140818","properties":{"city_id":"london","event_id":"lon_planning_designation_tree-preservation-zone_19140818","title":"Tree preservation zone: 50 Underhill Road","subtitle":"Southwark / 1991-12-20 / Documented / Planning Data: Tree Preservation Zones","details":"Planning/protection evidence record for 50 Underhill Road; designation/effective date is taken from Planning Data fields where supplied.","year":1991,"effective_date":"1991-12-20","date_precision":"day","short_description":"Planning Data tree-preservation zone record 846; quality authoritative; LPA Southwark.","category":"built_environment","lens":"built_environment","confidence":"documented","source_ids":["lon-extra-planning-data-tree-preservation-zones"],"affected_area_label":"Southwark","explanation":"Planning/protection evidence record for 50 Underhill Road; designation/effective date is taken from Planning Data fields where supplied."},"geometry":{"type":"Point","coordinates":[-0.065085,51.44524]}},{"type":"Feature","id":"lon_planning_designation_tree-preservation-zone_19140823","properties":{"city_id":"london","event_id":"lon_planning_designation_tree-preservation-zone_19140823","title":"Tree preservation zone: 4 and 6 Underhill Road","subtitle":"Southwark / 1991-12-20 / Documented / Planning Data: Tree Preservation Zones","details":"Planning/protection evidence record for 4 and 6 Underhill Road; designation/effective date is taken from Planning Data fields where supplied.","year":1991,"effective_date":"1991-12-20","date_precision":"day","short_description":"Planning Data tree-preservation zone record 851; quality authoritative; LPA Southwark.","category":"built_environment","lens":"built_environment","confidence":"documented","source_ids":["lon-extra-planning-data-tree-preservation-zones"],"affected_area_label":"Southwark","explanation":"Planning/protection evidence record for 4 and 6 Underhill Road; designation/effective date is taken from Planning Data fields where supplied."},"geometry":{"type":"Point","coordinates":[-0.065494,51.442937]}},{"type":"Feature","id":"lon_planning_designation_tree-preservation-zone_19176160","properties":{"city_id":"london","event_id":"lon_planning_designation_tree-preservation-zone_19176160","title":"Tree preservation zone: Coles Green Special School — Brent","subtitle":"Brent / 1991-11-07 / Documented / Planning Data: Tree Preservation Zones","details":"Planning/protection evidence record for Coles Green Special School; designation/effective date is taken from Planning Data fields where supplied.","year":1991,"effective_date":"1991-11-07","date_precision":"day","short_description":"Planning Data tree-preservation zone record TPZ83; quality authoritative; LPA Brent.","category":"built_environment","lens":"built_environment","confidence":"documented","source_ids":["lon-extra-planning-data-tree-preservation-zones"],"affected_area_label":"Brent","explanation":"Planning/protection evidence record for Coles Green Special School; designation/effective date is taken from Planning Data fields where supplied."},"geometry":{"type":"Point","coordinates":[-0.233028,51.562066]}},{"type":"Feature","id":"lon_planning_designation_tree-preservation-zone_19176161","properties":{"city_id":"london","event_id":"lon_planning_designation_tree-preservation-zone_19176161","title":"Tree preservation zone: Coles Green Special School — Brent · 19176161","subtitle":"Brent / 1991-11-07 / Documented / Planning Data: Tree Preservation Zones","details":"Planning/protection evidence record for Coles Green Special School; designation/effective date is taken from Planning Data fields where supplied.","year":1991,"effective_date":"1991-11-07","date_precision":"day","short_description":"Planning Data tree-preservation zone record TPZ84; quality authoritative; LPA Brent.","category":"built_environment","lens":"built_environment","confidence":"documented","source_ids":["lon-extra-planning-data-tree-preservation-zones"],"affected_area_label":"Brent","explanation":"Planning/protection evidence record for Coles Green Special School; designation/effective date is taken from Planning Data fields where supplied."},"geometry":{"type":"Point","coordinates":[-0.233528,51.561711]}},{"type":"Feature","id":"lon_planning_designation_tree-preservation-zone_19176162","properties":{"city_id":"london","event_id":"lon_planning_designation_tree-preservation-zone_19176162","title":"Tree preservation zone: Coles Green School","subtitle":"Brent / 1991-11-07 / Documented / Planning Data: Tree Preservation Zones","details":"Planning/protection evidence record for Coles Green School; designation/effective date is taken from Planning Data fields where supplied.","year":1991,"effective_date":"1991-11-07","date_precision":"day","short_description":"Planning Data tree-preservation zone record TPZ85; quality authoritative; LPA Brent.","category":"built_environment","lens":"built_environment","confidence":"documented","source_ids":["lon-extra-planning-data-tree-preservation-zones"],"affected_area_label":"Brent","explanation":"Planning/protection evidence record for Coles Green School; designation/effective date is taken from Planning Data fields where supplied."},"geometry":{"type":"Point","coordinates":[-0.233854,51.561633]}},{"type":"Feature","id":"lon_planning_designation_tree-preservation-zone_19176163","properties":{"city_id":"london","event_id":"lon_planning_designation_tree-preservation-zone_19176163","title":"Tree preservation zone: Coles Green Special School — Brent · 19176163","subtitle":"Brent / 1991-11-07 / Documented / Planning Data: Tree Preservation Zones","details":"Planning/protection evidence record for Coles Green Special School; designation/effective date is taken from Planning Data fields where supplied.","year":1991,"effective_date":"1991-11-07","date_precision":"day","short_description":"Planning Data tree-preservation zone record TPZ86; quality authoritative; LPA Brent.","category":"built_environment","lens":"built_environment","confidence":"documented","source_ids":["lon-extra-planning-data-tree-preservation-zones"],"affected_area_label":"Brent","explanation":"Planning/protection evidence record for Coles Green Special School; designation/effective date is taken from Planning Data fields where supplied."},"geometry":{"type":"Point","coordinates":[-0.234208,51.561983]}},{"type":"Feature","id":"lon_planning_designation_tree-preservation-zone_19176164","properties":{"city_id":"london","event_id":"lon_planning_designation_tree-preservation-zone_19176164","title":"Tree preservation zone: Coles Green Special School — Brent · 19176164","subtitle":"Brent / 1991-11-07 / Documented / Planning Data: Tree Preservation Zones","details":"Planning/protection evidence record for Coles Green Special School; designation/effective date is taken from Planning Data fields where supplied.","year":1991,"effective_date":"1991-11-07","date_precision":"day","short_description":"Planning Data tree-preservation zone record TPZ87; quality authoritative; LPA Brent.","category":"built_environment","lens":"built_environment","confidence":"documented","source_ids":["lon-extra-planning-data-tree-preservation-zones"],"affected_area_label":"Brent","explanation":"Planning/protection evidence record for Coles Green Special School; designation/effective date is taken from Planning Data fields where supplied."},"geometry":{"type":"Point","coordinates":[-0.234582,51.561966]}},{"type":"Feature","id":"lon_planning_designation_tree-preservation-zone_19176165","properties":{"city_id":"london","event_id":"lon_planning_designation_tree-preservation-zone_19176165","title":"Tree preservation zone: Coles Green Special School — Brent · 19176165","subtitle":"Brent / 1991-11-07 / Documented / Planning Data: Tree Preservation Zones","details":"Planning/protection evidence record for Coles Green Special School; designation/effective date is taken from Planning Data fields where supplied.","year":1991,"effective_date":"1991-11-07","date_precision":"day","short_description":"Planning Data tree-preservation zone record TPZ88; quality authoritative; LPA Brent.","category":"built_environment","lens":"built_environment","confidence":"documented","source_ids":["lon-extra-planning-data-tree-preservation-zones"],"affected_area_label":"Brent","explanation":"Planning/protection evidence record for Coles Green Special School; designation/effective date is taken from Planning Data fields where supplied."},"geometry":{"type":"Point","coordinates":[-0.23507,51.562475]}},{"type":"Feature","id":"lon_planning_designation_tree-preservation-zone_19176239","properties":{"city_id":"london","event_id":"lon_planning_designation_tree-preservation-zone_19176239","title":"Tree preservation zone: Land at the rear of 23-41 Fryent Way, Kingsbury","subtitle":"Brent / 1991-12-04 / Documented / Planning Data: Tree Preservation Zones","details":"Planning/protection evidence record for Land at the rear of 23-41 Fryent Way, Kingsbury; designation/effective date is taken from Planning Data fields where supplied.","year":1991,"effective_date":"1991-12-04","date_precision":"day","short_description":"Planning Data tree-preservation zone record TPZ161; quality authoritative; LPA Brent.","category":"built_environment","lens":"built_environment","confidence":"documented","source_ids":["lon-extra-planning-data-tree-preservation-zones"],"affected_area_label":"Brent","explanation":"Planning/protection evidence record for Land at the rear of 23-41 Fryent Way, Kingsbury; designation/effective date is taken from Planning Data fields where supplied."},"geometry":{"type":"Point","coordinates":[-0.279465,51.583568]}}]}
