{"type":"FeatureCollection","schema_version":"1.0.0","city_id":"london","year":1997,"features":[{"type":"Feature","id":"lon_planning_designation_conservation-area_44000888","properties":{"city_id":"london","event_id":"lon_planning_designation_conservation-area_44000888","title":"Conservation area record: Rush Common & Brixton Hill","year":1997,"effective_date":"1997-08-27","date_precision":"day","category":"built_environment","lens":"built_environment","confidence":"documented","source_ids":["lon-extra-planning-data-conservation-areas"],"explanation":"Planning/protection evidence record for Rush Common & Brixton Hill; designation/effective date is taken from Planning Data fields where supplied."},"geometry":{"type":"Point","coordinates":[-0.120182,51.45078]}},{"type":"Feature","id":"lon_planning_designation_conservation-area_44000890","properties":{"city_id":"london","event_id":"lon_planning_designation_conservation-area_44000890","title":"Conservation area record: Clapham High Street","year":1997,"effective_date":"1997-10-23","date_precision":"day","category":"built_environment","lens":"built_environment","confidence":"documented","source_ids":["lon-extra-planning-data-conservation-areas"],"explanation":"Planning/protection evidence record for Clapham High Street; designation/effective date is taken from Planning Data fields where supplied."},"geometry":{"type":"Point","coordinates":[-0.134223,51.463282]}},{"type":"Feature","id":"lon_planning_designation_conservation-area_44002389","properties":{"city_id":"london","event_id":"lon_planning_designation_conservation-area_44002389","title":"Conservation area record: Coombe House","year":1997,"effective_date":"1997-05-15","date_precision":"day","category":"built_environment","lens":"built_environment","confidence":"documented","source_ids":["lon-extra-planning-data-conservation-areas"],"explanation":"Planning/protection evidence record for Coombe House; designation/effective date is taken from Planning Data fields where supplied."},"geometry":{"type":"Point","coordinates":[-0.262632,51.415297]}},{"type":"Feature","id":"lon_planning_designation_conservation-area_44002812","properties":{"city_id":"london","event_id":"lon_planning_designation_conservation-area_44002812","title":"Conservation area record: Crossness","year":1997,"effective_date":"1997-02-26","date_precision":"day","category":"built_environment","lens":"built_environment","confidence":"documented","source_ids":["lon-extra-planning-data-conservation-areas"],"explanation":"Planning/protection evidence record for Crossness; designation/effective date is taken from Planning Data fields where supplied."},"geometry":{"type":"Point","coordinates":[0.137872,51.50838]}},{"type":"Feature","id":"lon_planning_designation_conservation-area_44003448","properties":{"city_id":"london","event_id":"lon_planning_designation_conservation-area_44003448","title":"Conservation area record: Lansbury","year":1997,"effective_date":"1997-01-01","date_precision":"day","category":"built_environment","lens":"built_environment","confidence":"documented","source_ids":["lon-extra-planning-data-conservation-areas"],"explanation":"Planning/protection evidence record for Lansbury; designation/effective date is taken from Planning Data fields where supplied."},"geometry":{"type":"Point","coordinates":[-0.018796,51.512214]}},{"type":"Feature","id":"lon_planning_designation_conservation-area_44005402","properties":{"city_id":"london","event_id":"lon_planning_designation_conservation-area_44005402","title":"Conservation area record: Wimbledon Windmill","year":1997,"effective_date":"1997-03-01","date_precision":"day","category":"built_environment","lens":"built_environment","confidence":"documented","source_ids":["lon-extra-planning-data-conservation-areas"],"explanation":"Planning/protection evidence record for Wimbledon Windmill; designation/effective date is taken from Planning Data fields where supplied."},"geometry":{"type":"Point","coordinates":[-0.23178,51.437338]}},{"type":"Feature","id":"lon_planning_designation_conservation-area_44006233","properties":{"city_id":"london","event_id":"lon_planning_designation_conservation-area_44006233","title":"Conservation area record: Graham Road and Mapledene","year":1997,"effective_date":"1997-01-01","date_precision":"day","category":"built_environment","lens":"built_environment","confidence":"documented","source_ids":["lon-extra-planning-data-conservation-areas"],"explanation":"Planning/protection evidence record for Graham Road and Mapledene; designation/effective date is taken from Planning Data fields where supplied."},"geometry":{"type":"Point","coordinates":[-0.065458,51.543767]}},{"type":"Feature","id":"lon_planning_designation_conservation-area_44009028","properties":{"city_id":"london","event_id":"lon_planning_designation_conservation-area_44009028","title":"Conservation area record: Station Square, Petts Wood","year":1997,"effective_date":"1997-01-01","date_precision":"day","category":"built_environment","lens":"built_environment","confidence":"documented","source_ids":["lon-extra-planning-data-conservation-areas"],"explanation":"Planning/protection evidence record for Station Square, Petts Wood; designation/effective date is taken from Planning Data fields where supplied."},"geometry":{"type":"Point","coordinates":[0.075353,51.389671]}},{"type":"Feature","id":"lon_planning_designation_listed-building-outline_42115619","properties":{"city_id":"london","event_id":"lon_planning_designation_listed-building-outline_42115619","title":"Listed building outline: No given name","year":1997,"effective_date":"1997-03-12","date_precision":"day","category":"built_environment","lens":"built_environment","confidence":"documented","source_ids":["lon-extra-planning-data-listed-building-outlines"],"explanation":"Planning/protection evidence record for No given name; designation/effective date is taken from Planning Data fields where supplied."},"geometry":{"type":"Point","coordinates":[-0.066633,51.460731]}},{"type":"Feature","id":"lon_planning_designation_listed-building-outline_42116207","properties":{"city_id":"london","event_id":"lon_planning_designation_listed-building-outline_42116207","title":"Listed building outline: (North side) Nos.378 AND 380","year":1997,"effective_date":"1997-05-06","date_precision":"day","category":"built_environment","lens":"built_environment","confidence":"documented","source_ids":["lon-extra-planning-data-listed-building-outlines"],"explanation":"Planning/protection evidence record for (North side) Nos.378 AND 380; designation/effective date is taken from Planning Data fields where supplied."},"geometry":{"type":"Point","coordinates":[-0.121907,51.530718]}},{"type":"Feature","id":"lon_planning_designation_listed-building-outline_42116364","properties":{"city_id":"london","event_id":"lon_planning_designation_listed-building-outline_42116364","title":"Listed building outline: (South side) No.16 Drill Hall Arts Centre and attached railings","year":1997,"effective_date":"1997-10-10","date_precision":"day","category":"built_environment","lens":"built_environment","confidence":"documented","source_ids":["lon-extra-planning-data-listed-building-outlines"],"explanation":"Planning/protection evidence record for (South side) No.16 Drill Hall Arts Centre and attached railings; designation/effective date is taken from Planning Data fields where supplied."},"geometry":{"type":"Point","coordinates":[-0.132518,51.520635]}},{"type":"Feature","id":"lon_planning_designation_listed-building-outline_42116492","properties":{"city_id":"london","event_id":"lon_planning_designation_listed-building-outline_42116492","title":"Listed building outline: (North East side) National Hospital for Neurology","year":1997,"effective_date":"1997-12-09","date_precision":"day","category":"built_environment","lens":"built_environment","confidence":"documented","source_ids":["lon-extra-planning-data-listed-building-outlines"],"explanation":"Planning/protection evidence record for (North East side) National Hospital for Neurology; designation/effective date is taken from Planning Data fields where supplied."},"geometry":{"type":"Point","coordinates":[-0.122251,51.522256]}},{"type":"Feature","id":"lon_planning_designation_listed-building-outline_42116517","properties":{"city_id":"london","event_id":"lon_planning_designation_listed-building-outline_42116517","title":"Listed building outline: (North side) Nos.1-11 (Consecutive) and attached railings","year":1997,"effective_date":"1997-09-24","date_precision":"day","category":"built_environment","lens":"built_environment","confidence":"documented","source_ids":["lon-extra-planning-data-listed-building-outlines"],"explanation":"Planning/protection evidence record for (North side) Nos.1-11 (Consecutive) and attached railings; designation/effective date is taken from Planning Data fields where supplied."},"geometry":{"type":"Point","coordinates":[-0.158248,51.540523]}},{"type":"Feature","id":"lon_planning_designation_listed-building-outline_42116650","properties":{"city_id":"london","event_id":"lon_planning_designation_listed-building-outline_42116650","title":"Listed building outline: (East side) Swiss Cottage Library","year":1997,"effective_date":"1997-12-02","date_precision":"day","category":"built_environment","lens":"built_environment","confidence":"documented","source_ids":["lon-extra-planning-data-listed-building-outlines"],"explanation":"Planning/protection evidence record for (East side) Swiss Cottage Library; designation/effective date is taken from Planning Data fields where supplied."},"geometry":{"type":"Point","coordinates":[-0.173183,51.542342]}},{"type":"Feature","id":"lon_planning_designation_listed-building-outline_42116921","properties":{"city_id":"london","event_id":"lon_planning_designation_listed-building-outline_42116921","title":"Listed building outline: (East side) No.17 The Place and attached railings","year":1997,"effective_date":"1997-08-01","date_precision":"day","category":"built_environment","lens":"built_environment","confidence":"documented","source_ids":["lon-extra-planning-data-listed-building-outlines"],"explanation":"Planning/protection evidence record for (East side) No.17 The Place and attached railings; designation/effective date is taken from Planning Data fields where supplied."},"geometry":{"type":"Point","coordinates":[-0.128868,51.527326]}},{"type":"Feature","id":"lon_planning_designation_listed-building-outline_42117384","properties":{"city_id":"london","event_id":"lon_planning_designation_listed-building-outline_42117384","title":"Listed building outline: (North side) Upper Terrace House and attached walls","year":1997,"effective_date":"1997-03-04","date_precision":"day","category":"built_environment","lens":"built_environment","confidence":"documented","source_ids":["lon-extra-planning-data-listed-building-outlines"],"explanation":"Planning/protection evidence record for (North side) Upper Terrace House and attached walls; designation/effective date is taken from Planning Data fields where supplied."},"geometry":{"type":"Point","coordinates":[-0.181151,51.5601]}},{"type":"Feature","id":"lon_planning_designation_listed-building-outline_42121102","properties":{"city_id":"london","event_id":"lon_planning_designation_listed-building-outline_42121102","title":"Listed building outline: 6-12, TEMPLE FORTUNE HILL","year":1997,"effective_date":"1997-01-06","date_precision":"day","category":"built_environment","lens":"built_environment","confidence":"documented","source_ids":["lon-extra-planning-data-listed-building-outlines"],"explanation":"Planning/protection evidence record for 6-12, TEMPLE FORTUNE HILL; designation/effective date is taken from Planning Data fields where supplied."},"geometry":{"type":"Point","coordinates":[-0.195654,51.582261]}},{"type":"Feature","id":"lon_planning_designation_listed-building-outline_42121103","properties":{"city_id":"london","event_id":"lon_planning_designation_listed-building-outline_42121103","title":"Listed building outline: 5 AND 7, ROTHERWICK ROAD","year":1997,"effective_date":"1997-01-06","date_precision":"day","category":"built_environment","lens":"built_environment","confidence":"documented","source_ids":["lon-extra-planning-data-listed-building-outlines"],"explanation":"Planning/protection evidence record for 5 AND 7, ROTHERWICK ROAD; designation/effective date is taken from Planning Data fields where supplied."},"geometry":{"type":"Point","coordinates":[-0.19504,51.573601]}},{"type":"Feature","id":"lon_planning_designation_listed-building-outline_42121104","properties":{"city_id":"london","event_id":"lon_planning_designation_listed-building-outline_42121104","title":"Listed building outline: NUMBER 14 AND ATTACHED RAILINGS","year":1997,"effective_date":"1997-01-06","date_precision":"day","category":"built_environment","lens":"built_environment","confidence":"documented","source_ids":["lon-extra-planning-data-listed-building-outlines"],"explanation":"Planning/protection evidence record for NUMBER 14 AND ATTACHED RAILINGS; designation/effective date is taken from Planning Data fields where supplied."},"geometry":{"type":"Point","coordinates":[-0.175671,51.581055]}},{"type":"Feature","id":"lon_planning_designation_listed-building-outline_42121105","properties":{"city_id":"london","event_id":"lon_planning_designation_listed-building-outline_42121105","title":"Listed building outline: 40 AND 42, MEADWAY","year":1997,"effective_date":"1997-01-06","date_precision":"day","category":"built_environment","lens":"built_environment","confidence":"documented","source_ids":["lon-extra-planning-data-listed-building-outlines"],"explanation":"Planning/protection evidence record for 40 AND 42, MEADWAY; designation/effective date is taken from Planning Data fields where supplied."},"geometry":{"type":"Point","coordinates":[-0.184748,51.579751]}},{"type":"Feature","id":"lon_planning_designation_listed-building-outline_42121106","properties":{"city_id":"london","event_id":"lon_planning_designation_listed-building-outline_42121106","title":"Listed building outline: NUMBERS 1 TO 9 AND ATTACHED WOOD RAILINGS","year":1997,"effective_date":"1997-01-06","date_precision":"day","category":"built_environment","lens":"built_environment","confidence":"documented","source_ids":["lon-extra-planning-data-listed-building-outlines"],"explanation":"Planning/protection evidence record for NUMBERS 1 TO 9 AND ATTACHED WOOD RAILINGS; designation/effective date is taken from Planning Data fields where supplied."},"geometry":{"type":"Point","coordinates":[-0.188242,51.573685]}},{"type":"Feature","id":"lon_planning_designation_listed-building-outline_42121107","properties":{"city_id":"london","event_id":"lon_planning_designation_listed-building-outline_42121107","title":"Listed building outline: 126, 128 AND 130, HAMPSTEAD WAY (See details for further address information)","year":1997,"effective_date":"1997-01-06","date_precision":"day","category":"built_environment","lens":"built_environment","confidence":"documented","source_ids":["lon-extra-planning-data-listed-building-outlines"],"explanation":"Planning/protection evidence record for 126, 128 AND 130, HAMPSTEAD WAY (See details for further address information); designation/effective date is taken from Planning Data fields where supplied."},"geometry":{"type":"Point","coordinates":[-0.196273,51.582625]}},{"type":"Feature","id":"lon_planning_designation_listed-building-outline_42121108","properties":{"city_id":"london","event_id":"lon_planning_designation_listed-building-outline_42121108","title":"Listed building outline: NUMBERS 29 TO 45 AND ATTACHED GARDEN WALLS","year":1997,"effective_date":"1997-01-07","date_precision":"day","category":"built_environment","lens":"built_environment","confidence":"documented","source_ids":["lon-extra-planning-data-listed-building-outlines"],"explanation":"Planning/protection evidence record for NUMBERS 29 TO 45 AND ATTACHED GARDEN WALLS; designation/effective date is taken from Planning Data fields where supplied."},"geometry":{"type":"Point","coordinates":[-0.193913,51.581818]}},{"type":"Feature","id":"lon_planning_designation_listed-building-outline_42121109","properties":{"city_id":"london","event_id":"lon_planning_designation_listed-building-outline_42121109","title":"Listed building outline: 83-89, WILLIFIELD WAY","year":1997,"effective_date":"1997-01-07","date_precision":"day","category":"built_environment","lens":"built_environment","confidence":"documented","source_ids":["lon-extra-planning-data-listed-building-outlines"],"explanation":"Planning/protection evidence record for 83-89, WILLIFIELD WAY; designation/effective date is taken from Planning Data fields where supplied."},"geometry":{"type":"Point","coordinates":[-0.194859,51.583692]}},{"type":"Feature","id":"lon_planning_designation_listed-building-outline_42121110","properties":{"city_id":"london","event_id":"lon_planning_designation_listed-building-outline_42121110","title":"Listed building outline: WATERLOW COURT","year":1997,"effective_date":"1997-01-08","date_precision":"day","category":"built_environment","lens":"built_environment","confidence":"documented","source_ids":["lon-extra-planning-data-listed-building-outlines"],"explanation":"Planning/protection evidence record for WATERLOW COURT; designation/effective date is taken from Planning Data fields where supplied."},"geometry":{"type":"Point","coordinates":[-0.188911,51.57306]}},{"type":"Feature","id":"lon_planning_designation_listed-building-outline_42121111","properties":{"city_id":"london","event_id":"lon_planning_designation_listed-building-outline_42121111","title":"Listed building outline: 150 AND 152, WILLIFIELD WAY","year":1997,"effective_date":"1997-01-08","date_precision":"day","category":"built_environment","lens":"built_environment","confidence":"documented","source_ids":["lon-extra-planning-data-listed-building-outlines"],"explanation":"Planning/protection evidence record for 150 AND 152, WILLIFIELD WAY; designation/effective date is taken from Planning Data fields where supplied."},"geometry":{"type":"Point","coordinates":[-0.196864,51.585772]}},{"type":"Feature","id":"lon_planning_designation_listed-building-outline_42121112","properties":{"city_id":"london","event_id":"lon_planning_designation_listed-building-outline_42121112","title":"Listed building outline: FAR END","year":1997,"effective_date":"1997-01-08","date_precision":"day","category":"built_environment","lens":"built_environment","confidence":"documented","source_ids":["lon-extra-planning-data-listed-building-outlines"],"explanation":"Planning/protection evidence record for FAR END; designation/effective date is taken from Planning Data fields where supplied."},"geometry":{"type":"Point","coordinates":[-0.18163,51.569381]}},{"type":"Feature","id":"lon_planning_designation_listed-building-outline_42121113","properties":{"city_id":"london","event_id":"lon_planning_designation_listed-building-outline_42121113","title":"Listed building outline: 123, WILLIFIELD WAY","year":1997,"effective_date":"1997-01-08","date_precision":"day","category":"built_environment","lens":"built_environment","confidence":"documented","source_ids":["lon-extra-planning-data-listed-building-outlines"],"explanation":"Planning/protection evidence record for 123, WILLIFIELD WAY; designation/effective date is taken from Planning Data fields where supplied."},"geometry":{"type":"Point","coordinates":[-0.196863,51.584877]}},{"type":"Feature","id":"lon_planning_designation_listed-building-outline_42121114","properties":{"city_id":"london","event_id":"lon_planning_designation_listed-building-outline_42121114","title":"Listed building outline: 77, 79 AND 81, WILLIFIELD WAY","year":1997,"effective_date":"1997-01-08","date_precision":"day","category":"built_environment","lens":"built_environment","confidence":"documented","source_ids":["lon-extra-planning-data-listed-building-outlines"],"explanation":"Planning/protection evidence record for 77, 79 AND 81, WILLIFIELD WAY; designation/effective date is taken from Planning Data fields where supplied."},"geometry":{"type":"Point","coordinates":[-0.194632,51.583471]}},{"type":"Feature","id":"lon_planning_designation_listed-building-outline_42121115","properties":{"city_id":"london","event_id":"lon_planning_designation_listed-building-outline_42121115","title":"Listed building outline: 86-96, WILLIFIELD WAY","year":1997,"effective_date":"1997-01-08","date_precision":"day","category":"built_environment","lens":"built_environment","confidence":"documented","source_ids":["lon-extra-planning-data-listed-building-outlines"],"explanation":"Planning/protection evidence record for 86-96, WILLIFIELD WAY; designation/effective date is taken from Planning Data fields where supplied."},"geometry":{"type":"Point","coordinates":[-0.194035,51.583721]}},{"type":"Feature","id":"lon_planning_designation_listed-building-outline_42121116","properties":{"city_id":"london","event_id":"lon_planning_designation_listed-building-outline_42121116","title":"Listed building outline: WHITE HOUSE","year":1997,"effective_date":"1997-06-26","date_precision":"day","category":"built_environment","lens":"built_environment","confidence":"documented","source_ids":["lon-extra-planning-data-listed-building-outlines"],"explanation":"Planning/protection evidence record for WHITE HOUSE; designation/effective date is taken from Planning Data fields where supplied."},"geometry":{"type":"Point","coordinates":[-0.221276,51.596761]}},{"type":"Feature","id":"lon_planning_designation_listed-building-outline_42121117","properties":{"city_id":"london","event_id":"lon_planning_designation_listed-building-outline_42121117","title":"Listed building outline: POLICE BOX IN COTTENHAM DRIVE, PEEL CENTRE Hendon TQ 28 NW 7/70 Police Box in Cottenham Drive,Peel Centre II 2. Police B","year":1997,"effective_date":"1997-09-25","date_precision":"day","category":"built_environment","lens":"built_environment","confidence":"documented","source_ids":["lon-extra-planning-data-listed-building-outlines"],"explanation":"Planning/protection evidence record for POLICE BOX IN COTTENHAM DRIVE, PEEL CENTRE Hendon TQ 28 NW 7/70 Police Box in Cottenham Drive,Peel Centre II 2. Police B; designation/effective date is taken from Planning Data fields where supplied."},"geometry":{"type":"Point","coordinates":[-0.239825,51.593021]}},{"type":"Feature","id":"lon_planning_designation_listed-building-outline_42121118","properties":{"city_id":"london","event_id":"lon_planning_designation_listed-building-outline_42121118","title":"Listed building outline: GARDEN TEMPLE APPROXIMATELY 100 METRES NORTH WEST OF OAK HILL THEOLOGICAL COLLEGE","year":1997,"effective_date":"1997-11-12","date_precision":"day","category":"built_environment","lens":"built_environment","confidence":"documented","source_ids":["lon-extra-planning-data-listed-building-outlines"],"explanation":"Planning/protection evidence record for GARDEN TEMPLE APPROXIMATELY 100 METRES NORTH WEST OF OAK HILL THEOLOGICAL COLLEGE; designation/effective date is taken from Planning Data fields where supplied."},"geometry":{"type":"Point","coordinates":[-0.147785,51.641782]}},{"type":"Feature","id":"lon_planning_designation_listed-building-outline_42121119","properties":{"city_id":"london","event_id":"lon_planning_designation_listed-building-outline_42121119","title":"Listed building outline: PARDES HOUSE SCHOOL","year":1997,"effective_date":"1997-11-20","date_precision":"day","category":"built_environment","lens":"built_environment","confidence":"documented","source_ids":["lon-extra-planning-data-listed-building-outlines"],"explanation":"Planning/protection evidence record for PARDES HOUSE SCHOOL; designation/effective date is taken from Planning Data fields where supplied."},"geometry":{"type":"Point","coordinates":[-0.198101,51.598718]}},{"type":"Feature","id":"lon_planning_designation_listed-building-outline_42148420","properties":{"city_id":"london","event_id":"lon_planning_designation_listed-building-outline_42148420","title":"Listed building outline: WALLS, GATES, GATEPIERS AND RAILINGS TO CENTRAL GARDEN","year":1997,"effective_date":"1997-12-10","date_precision":"day","category":"built_environment","lens":"built_environment","confidence":"documented","source_ids":["lon-extra-planning-data-listed-building-outlines"],"explanation":"Planning/protection evidence record for WALLS, GATES, GATEPIERS AND RAILINGS TO CENTRAL GARDEN; designation/effective date is taken from Planning Data fields where supplied."},"geometry":{"type":"Point","coordinates":[-0.202049,51.507435]}},{"type":"Feature","id":"lon_planning_designation_listed-building-outline_42148578","properties":{"city_id":"london","event_id":"lon_planning_designation_listed-building-outline_42148578","title":"Listed building outline: ELFIN OAK","year":1997,"effective_date":"1997-12-19","date_precision":"day","category":"built_environment","lens":"built_environment","confidence":"documented","source_ids":["lon-extra-planning-data-listed-building-outlines"],"explanation":"Planning/protection evidence record for ELFIN OAK; designation/effective date is taken from Planning Data fields where supplied."},"geometry":{"type":"Point","coordinates":[-0.187928,51.508686]}},{"type":"Feature","id":"lon_planning_designation_listed-building-outline_42148886","properties":{"city_id":"london","event_id":"lon_planning_designation_listed-building-outline_42148886","title":"Listed building outline: 5 MULBERRY WALK","year":1997,"effective_date":"1997-10-21","date_precision":"day","category":"built_environment","lens":"built_environment","confidence":"documented","source_ids":["lon-extra-planning-data-listed-building-outlines"],"explanation":"Planning/protection evidence record for 5 MULBERRY WALK; designation/effective date is taken from Planning Data fields where supplied."},"geometry":{"type":"Point","coordinates":[-0.175201,51.48635]}},{"type":"Feature","id":"lon_planning_designation_listed-building-outline_42148887","properties":{"city_id":"london","event_id":"lon_planning_designation_listed-building-outline_42148887","title":"Listed building outline: 19 MULBERRY WALK","year":1997,"effective_date":"1997-10-21","date_precision":"day","category":"built_environment","lens":"built_environment","confidence":"documented","source_ids":["lon-extra-planning-data-listed-building-outlines"],"explanation":"Planning/protection evidence record for 19 MULBERRY WALK; designation/effective date is taken from Planning Data fields where supplied."},"geometry":{"type":"Point","coordinates":[-0.174391,51.486623]}},{"type":"Feature","id":"lon_planning_designation_listed-building-outline_42148970","properties":{"city_id":"london","event_id":"lon_planning_designation_listed-building-outline_42148970","title":"Listed building outline: PRINCE OF TECK PUBLIC HOUSE","year":1997,"effective_date":"1997-10-21","date_precision":"day","category":"built_environment","lens":"built_environment","confidence":"documented","source_ids":["lon-extra-planning-data-listed-building-outlines"],"explanation":"Planning/protection evidence record for PRINCE OF TECK PUBLIC HOUSE; designation/effective date is taken from Planning Data fields where supplied."},"geometry":{"type":"Point","coordinates":[-0.193731,51.492832]}},{"type":"Feature","id":"lon_planning_designation_listed-building-outline_42149271","properties":{"city_id":"london","event_id":"lon_planning_designation_listed-building-outline_42149271","title":"Listed building outline: 23 MULBERRY WALK","year":1997,"effective_date":"1997-10-21","date_precision":"day","category":"built_environment","lens":"built_environment","confidence":"documented","source_ids":["lon-extra-planning-data-listed-building-outlines"],"explanation":"Planning/protection evidence record for 23 MULBERRY WALK; designation/effective date is taken from Planning Data fields where supplied."},"geometry":{"type":"Point","coordinates":[-0.174142,51.486704]}},{"type":"Feature","id":"lon_planning_designation_listed-building-outline_42149501","properties":{"city_id":"london","event_id":"lon_planning_designation_listed-building-outline_42149501","title":"Listed building outline: 3-29 THE VALE","year":1997,"effective_date":"1997-10-21","date_precision":"day","category":"built_environment","lens":"built_environment","confidence":"documented","source_ids":["lon-extra-planning-data-listed-building-outlines"],"explanation":"Planning/protection evidence record for 3-29 THE VALE; designation/effective date is taken from Planning Data fields where supplied."},"geometry":{"type":"Point","coordinates":[-0.175844,51.485631]}},{"type":"Feature","id":"lon_planning_designation_listed-building-outline_42149507","properties":{"city_id":"london","event_id":"lon_planning_designation_listed-building-outline_42149507","title":"Listed building outline: 9-15 MALLORD STREET","year":1997,"effective_date":"1997-10-21","date_precision":"day","category":"built_environment","lens":"built_environment","confidence":"documented","source_ids":["lon-extra-planning-data-listed-building-outlines"],"explanation":"Planning/protection evidence record for 9-15 MALLORD STREET; designation/effective date is taken from Planning Data fields where supplied."},"geometry":{"type":"Point","coordinates":[-0.173989,51.485842]}},{"type":"Feature","id":"lon_planning_designation_listed-building-outline_42158668","properties":{"city_id":"london","event_id":"lon_planning_designation_listed-building-outline_42158668","title":"Listed building outline: FORMER EMPRESS CINEMA","year":1997,"effective_date":"1997-05-15","date_precision":"day","category":"built_environment","lens":"built_environment","confidence":"documented","source_ids":["lon-extra-planning-data-listed-building-outlines"],"explanation":"Planning/protection evidence record for FORMER EMPRESS CINEMA; designation/effective date is taken from Planning Data fields where supplied."},"geometry":{"type":"Point","coordinates":[-0.014544,51.575754]}},{"type":"Feature","id":"lon_planning_designation_listed-building-outline_42158671","properties":{"city_id":"london","event_id":"lon_planning_designation_listed-building-outline_42158671","title":"Listed building outline: CHURCH OF OUR LADY OF GRACE AND ST TERESA OF AVILA","year":1997,"effective_date":"1997-07-16","date_precision":"day","category":"built_environment","lens":"built_environment","confidence":"documented","source_ids":["lon-extra-planning-data-listed-building-outlines"],"explanation":"Planning/protection evidence record for CHURCH OF OUR LADY OF GRACE AND ST TERESA OF AVILA; designation/effective date is taken from Planning Data fields where supplied."},"geometry":{"type":"Point","coordinates":[0.001639,51.630229]}},{"type":"Feature","id":"lon_planning_designation_listed-building-outline_42166087","properties":{"city_id":"london","event_id":"lon_planning_designation_listed-building-outline_42166087","title":"Listed building outline: 27 Newman Street London W1T 1AR","year":1997,"effective_date":"1997-10-17","date_precision":"day","category":"built_environment","lens":"built_environment","confidence":"documented","source_ids":["lon-extra-planning-data-listed-building-outlines"],"explanation":"Planning/protection evidence record for 27 Newman Street London W1T 1AR; designation/effective date is taken from Planning Data fields where supplied."},"geometry":{"type":"Point","coordinates":[-0.135706,51.517997]}},{"type":"Feature","id":"lon_planning_designation_listed-building-outline_42166343","properties":{"city_id":"london","event_id":"lon_planning_designation_listed-building-outline_42166343","title":"Listed building outline: Basement And Ground Floor 38 Curzon Street London W1J 7TU","year":1997,"effective_date":"1997-07-16","date_precision":"day","category":"built_environment","lens":"built_environment","confidence":"documented","source_ids":["lon-extra-planning-data-listed-building-outlines"],"explanation":"Planning/protection evidence record for Basement And Ground Floor 38 Curzon Street London W1J 7TU; designation/effective date is taken from Planning Data fields where supplied."},"geometry":{"type":"Point","coordinates":[-0.148003,51.506477]}},{"type":"Feature","id":"lon_planning_designation_listed-building-outline_42168190","properties":{"city_id":"london","event_id":"lon_planning_designation_listed-building-outline_42168190","title":"Listed building outline: Bruce Grove - Public Toilet","year":1997,"effective_date":"1997-01-28","date_precision":"day","category":"built_environment","lens":"built_environment","confidence":"documented","source_ids":["lon-extra-planning-data-listed-building-outlines"],"explanation":"Planning/protection evidence record for Bruce Grove - Public Toilet; designation/effective date is taken from Planning Data fields where supplied."},"geometry":{"type":"Point","coordinates":[-0.070055,51.594517]}},{"type":"Feature","id":"lon_planning_designation_listed-building-outline_42168292","properties":{"city_id":"london","event_id":"lon_planning_designation_listed-building-outline_42168292","title":"Listed building outline: Archway Road - Church of St Augustine of Canterbury (formerly listed under Langdon Park Road)","year":1997,"effective_date":"1997-05-08","date_precision":"day","category":"built_environment","lens":"built_environment","confidence":"documented","source_ids":["lon-extra-planning-data-listed-building-outlines"],"explanation":"Planning/protection evidence record for Archway Road - Church of St Augustine of Canterbury (formerly listed under Langdon Park Road); designation/effective date is taken from Planning Data fields where supplied."},"geometry":{"type":"Point","coordinates":[-0.13931,51.57218]}},{"type":"Feature","id":"lon_planning_designation_listed-building-outline_42168374","properties":{"city_id":"london","event_id":"lon_planning_designation_listed-building-outline_42168374","title":"Listed building outline: Muswell Hill Road - Nos. 107 - 123 (odd)","year":1997,"effective_date":"1997-09-19","date_precision":"day","category":"built_environment","lens":"built_environment","confidence":"documented","source_ids":["lon-extra-planning-data-listed-building-outlines"],"explanation":"Planning/protection evidence record for Muswell Hill Road - Nos. 107 - 123 (odd); designation/effective date is taken from Planning Data fields where supplied."},"geometry":{"type":"Point","coordinates":[-0.145885,51.589401]}},{"type":"Feature","id":"lon_planning_designation_listed-building-outline_42172713","properties":{"city_id":"london","event_id":"lon_planning_designation_listed-building-outline_42172713","title":"Listed building outline: Curtilage of CHURCH OF OUR LADY OF GRACE AND ST TERESA OF AVILA","year":1997,"effective_date":"1997-07-16","date_precision":"day","category":"built_environment","lens":"built_environment","confidence":"documented","source_ids":["lon-extra-planning-data-listed-building-outlines"],"explanation":"Planning/protection evidence record for Curtilage of CHURCH OF OUR LADY OF GRACE AND ST TERESA OF AVILA; designation/effective date is taken from Planning Data fields where supplied."},"geometry":{"type":"Point","coordinates":[0.001541,51.630206]}},{"type":"Feature","id":"lon_planning_designation_listed-building-outline_42182101","properties":{"city_id":"london","event_id":"lon_planning_designation_listed-building-outline_42182101","title":"Listed building outline: WALLS, GATES, GATEPIERS AND RAILINGS TO CENTRAL GARDEN","year":1997,"effective_date":"1997-12-10","date_precision":"day","category":"built_environment","lens":"built_environment","confidence":"documented","source_ids":["lon-extra-planning-data-listed-building-outlines"],"explanation":"Planning/protection evidence record for WALLS, GATES, GATEPIERS AND RAILINGS TO CENTRAL GARDEN; designation/effective date is taken from Planning Data fields where supplied."},"geometry":{"type":"Point","coordinates":[-0.202049,51.507435]}},{"type":"Feature","id":"lon_planning_designation_listed-building-outline_42182255","properties":{"city_id":"london","event_id":"lon_planning_designation_listed-building-outline_42182255","title":"Listed building outline: ELFIN OAK","year":1997,"effective_date":"1997-12-19","date_precision":"day","category":"built_environment","lens":"built_environment","confidence":"documented","source_ids":["lon-extra-planning-data-listed-building-outlines"],"explanation":"Planning/protection evidence record for ELFIN OAK; designation/effective date is taken from Planning Data fields where supplied."},"geometry":{"type":"Point","coordinates":[-0.187928,51.508686]}},{"type":"Feature","id":"lon_planning_designation_listed-building-outline_42182546","properties":{"city_id":"london","event_id":"lon_planning_designation_listed-building-outline_42182546","title":"Listed building outline: 5 MULBERRY WALK","year":1997,"effective_date":"1997-10-21","date_precision":"day","category":"built_environment","lens":"built_environment","confidence":"documented","source_ids":["lon-extra-planning-data-listed-building-outlines"],"explanation":"Planning/protection evidence record for 5 MULBERRY WALK; designation/effective date is taken from Planning Data fields where supplied."},"geometry":{"type":"Point","coordinates":[-0.175201,51.48635]}},{"type":"Feature","id":"lon_planning_designation_listed-building-outline_42182547","properties":{"city_id":"london","event_id":"lon_planning_designation_listed-building-outline_42182547","title":"Listed building outline: 19 MULBERRY WALK","year":1997,"effective_date":"1997-10-21","date_precision":"day","category":"built_environment","lens":"built_environment","confidence":"documented","source_ids":["lon-extra-planning-data-listed-building-outlines"],"explanation":"Planning/protection evidence record for 19 MULBERRY WALK; designation/effective date is taken from Planning Data fields where supplied."},"geometry":{"type":"Point","coordinates":[-0.174391,51.486623]}},{"type":"Feature","id":"lon_planning_designation_listed-building-outline_42182626","properties":{"city_id":"london","event_id":"lon_planning_designation_listed-building-outline_42182626","title":"Listed building outline: PRINCE OF TECK PUBLIC HOUSE","year":1997,"effective_date":"1997-10-21","date_precision":"day","category":"built_environment","lens":"built_environment","confidence":"documented","source_ids":["lon-extra-planning-data-listed-building-outlines"],"explanation":"Planning/protection evidence record for PRINCE OF TECK PUBLIC HOUSE; designation/effective date is taken from Planning Data fields where supplied."},"geometry":{"type":"Point","coordinates":[-0.193731,51.492832]}},{"type":"Feature","id":"lon_planning_designation_listed-building-outline_42182923","properties":{"city_id":"london","event_id":"lon_planning_designation_listed-building-outline_42182923","title":"Listed building outline: 23 MULBERRY WALK","year":1997,"effective_date":"1997-10-21","date_precision":"day","category":"built_environment","lens":"built_environment","confidence":"documented","source_ids":["lon-extra-planning-data-listed-building-outlines"],"explanation":"Planning/protection evidence record for 23 MULBERRY WALK; designation/effective date is taken from Planning Data fields where supplied."},"geometry":{"type":"Point","coordinates":[-0.174142,51.486704]}},{"type":"Feature","id":"lon_planning_designation_listed-building-outline_42183151","properties":{"city_id":"london","event_id":"lon_planning_designation_listed-building-outline_42183151","title":"Listed building outline: 3-29 THE VALE","year":1997,"effective_date":"1997-10-21","date_precision":"day","category":"built_environment","lens":"built_environment","confidence":"documented","source_ids":["lon-extra-planning-data-listed-building-outlines"],"explanation":"Planning/protection evidence record for 3-29 THE VALE; designation/effective date is taken from Planning Data fields where supplied."},"geometry":{"type":"Point","coordinates":[-0.175844,51.485631]}},{"type":"Feature","id":"lon_planning_designation_listed-building-outline_42183157","properties":{"city_id":"london","event_id":"lon_planning_designation_listed-building-outline_42183157","title":"Listed building outline: 9-15 MALLORD STREET","year":1997,"effective_date":"1997-10-21","date_precision":"day","category":"built_environment","lens":"built_environment","confidence":"documented","source_ids":["lon-extra-planning-data-listed-building-outlines"],"explanation":"Planning/protection evidence record for 9-15 MALLORD STREET; designation/effective date is taken from Planning Data fields where supplied."},"geometry":{"type":"Point","coordinates":[-0.173989,51.485842]}},{"type":"Feature","id":"lon_planning_designation_tree-preservation-zone_19139834","properties":{"city_id":"london","event_id":"lon_planning_designation_tree-preservation-zone_19139834","title":"Tree preservation zone: Land at Kenley Close and Anson Close and Gauntlet Crescent Caterham","year":1997,"effective_date":"1997-02-16","date_precision":"day","category":"built_environment","lens":"built_environment","confidence":"documented","source_ids":["lon-extra-planning-data-tree-preservation-zones"],"explanation":"Planning/protection evidence record for Land at Kenley Close and Anson Close and Gauntlet Crescent Caterham; designation/effective date is taken from Planning Data fields where supplied."},"geometry":{"type":"Point","coordinates":[-0.094743,51.300092]}}]}
