{"type":"FeatureCollection","schema_version":"1.0.0","city_id":"london","year":1964,"features":[{"type":"Feature","id":"lon_planning_designation_listed-building-outline_42149359","properties":{"city_id":"london","event_id":"lon_planning_designation_listed-building-outline_42149359","title":"Listed building outline: THE ANGLICAN CHAPEL","year":1964,"effective_date":"1964-10-30","date_precision":"day","category":"built_environment","lens":"built_environment","confidence":"documented","source_ids":["lon-extra-planning-data-listed-building-outlines"],"explanation":"Planning/protection evidence record for THE ANGLICAN CHAPEL; designation/effective date is taken from Planning Data fields where supplied."},"geometry":{"type":"Point","coordinates":[-0.225718,51.528524]}},{"type":"Feature","id":"lon_planning_designation_listed-building-outline_42183010","properties":{"city_id":"london","event_id":"lon_planning_designation_listed-building-outline_42183010","title":"Listed building outline: THE ANGLICAN CHAPEL","year":1964,"effective_date":"1964-10-30","date_precision":"day","category":"built_environment","lens":"built_environment","confidence":"documented","source_ids":["lon-extra-planning-data-listed-building-outlines"],"explanation":"Planning/protection evidence record for THE ANGLICAN CHAPEL; designation/effective date is taken from Planning Data fields where supplied."},"geometry":{"type":"Point","coordinates":[-0.225718,51.528524]}},{"type":"Feature","id":"lon_planning_designation_tree-preservation-zone_19140060","properties":{"city_id":"london","event_id":"lon_planning_designation_tree-preservation-zone_19140060","title":"Tree preservation zone: Broom Shaw Old Farleigh Road Farleigh","year":1964,"effective_date":"1964-12-21","date_precision":"day","category":"built_environment","lens":"built_environment","confidence":"documented","source_ids":["lon-extra-planning-data-tree-preservation-zones"],"explanation":"Planning/protection evidence record for Broom Shaw Old Farleigh Road Farleigh; designation/effective date is taken from Planning Data fields where supplied."},"geometry":{"type":"Point","coordinates":[-0.044025,51.333468]}},{"type":"Feature","id":"lon_planning_designation_tree-preservation-zone_19153463","properties":{"city_id":"london","event_id":"lon_planning_designation_tree-preservation-zone_19153463","title":"Tree preservation zone: STM22_G4","year":1964,"effective_date":"1964-12-15","date_precision":"day","category":"built_environment","lens":"built_environment","confidence":"documented","source_ids":["lon-extra-planning-data-tree-preservation-zones"],"explanation":"Planning/protection evidence record for STM22_G4; designation/effective date is taken from Planning Data fields where supplied."},"geometry":{"type":"Point","coordinates":[-0.170064,51.53207]}},{"type":"Feature","id":"lon_planning_designation_tree-preservation-zone_19153464","properties":{"city_id":"london","event_id":"lon_planning_designation_tree-preservation-zone_19153464","title":"Tree preservation zone: STM22_G1","year":1964,"effective_date":"1964-12-15","date_precision":"day","category":"built_environment","lens":"built_environment","confidence":"documented","source_ids":["lon-extra-planning-data-tree-preservation-zones"],"explanation":"Planning/protection evidence record for STM22_G1; designation/effective date is taken from Planning Data fields where supplied."},"geometry":{"type":"Point","coordinates":[-0.17174,51.532464]}},{"type":"Feature","id":"lon_planning_designation_tree-preservation-zone_19153465","properties":{"city_id":"london","event_id":"lon_planning_designation_tree-preservation-zone_19153465","title":"Tree preservation zone: STM22_G2","year":1964,"effective_date":"1964-12-15","date_precision":"day","category":"built_environment","lens":"built_environment","confidence":"documented","source_ids":["lon-extra-planning-data-tree-preservation-zones"],"explanation":"Planning/protection evidence record for STM22_G2; designation/effective date is taken from Planning Data fields where supplied."},"geometry":{"type":"Point","coordinates":[-0.171927,51.532619]}},{"type":"Feature","id":"lon_planning_designation_tree-preservation-zone_19153466","properties":{"city_id":"london","event_id":"lon_planning_designation_tree-preservation-zone_19153466","title":"Tree preservation zone: STM22_G3","year":1964,"effective_date":"1964-12-15","date_precision":"day","category":"built_environment","lens":"built_environment","confidence":"documented","source_ids":["lon-extra-planning-data-tree-preservation-zones"],"explanation":"Planning/protection evidence record for STM22_G3; designation/effective date is taken from Planning Data fields where supplied."},"geometry":{"type":"Point","coordinates":[-0.171235,51.532819]}},{"type":"Feature","id":"lon_planning_designation_tree-preservation-zone_19153467","properties":{"city_id":"london","event_id":"lon_planning_designation_tree-preservation-zone_19153467","title":"Tree preservation zone: STM22_G5","year":1964,"effective_date":"1964-12-15","date_precision":"day","category":"built_environment","lens":"built_environment","confidence":"documented","source_ids":["lon-extra-planning-data-tree-preservation-zones"],"explanation":"Planning/protection evidence record for STM22_G5; designation/effective date is taken from Planning Data fields where supplied."},"geometry":{"type":"Point","coordinates":[-0.166876,51.531792]}},{"type":"Feature","id":"lon_planning_designation_tree-preservation-zone_19153468","properties":{"city_id":"london","event_id":"lon_planning_designation_tree-preservation-zone_19153468","title":"Tree preservation zone: STM22_G6","year":1964,"effective_date":"1964-12-15","date_precision":"day","category":"built_environment","lens":"built_environment","confidence":"documented","source_ids":["lon-extra-planning-data-tree-preservation-zones"],"explanation":"Planning/protection evidence record for STM22_G6; designation/effective date is taken from Planning Data fields where supplied."},"geometry":{"type":"Point","coordinates":[-0.166573,51.533428]}},{"type":"Feature","id":"lon_planning_designation_tree-preservation-zone_19153469","properties":{"city_id":"london","event_id":"lon_planning_designation_tree-preservation-zone_19153469","title":"Tree preservation zone: STM22_G7","year":1964,"effective_date":"1964-12-15","date_precision":"day","category":"built_environment","lens":"built_environment","confidence":"documented","source_ids":["lon-extra-planning-data-tree-preservation-zones"],"explanation":"Planning/protection evidence record for STM22_G7; designation/effective date is taken from Planning Data fields where supplied."},"geometry":{"type":"Point","coordinates":[-0.167487,51.532712]}}]}
