{"type":"FeatureCollection","schema_version":"1.0.0","city_id":"london","year":2018,"features":[{"type":"Feature","id":"london-milestone-2018-elizabeth-line-originally-scheduled-central-section-delayed-period-25","properties":{"city_id":"london","event_id":"london-milestone-2018-elizabeth-line-originally-scheduled-central-section-delayed-period-25","title":"Elizabeth line originally scheduled/central section delayed period","year":2018,"effective_date":"2018","date_precision":"year","category":"transport","lens":"traffic","confidence":"documented","source_ids":["tfl-unified-api","legislation-uk-london-acts-orders"],"explanation":"Important construction/disruption milestone before 2022 opening."},"geometry":{"type":"Point","coordinates":[-0.013,51.543]}}]}
