{"type":"FeatureCollection","schema_version":"1.0.0","city_id":"london","year":2002,"features":[{"type":"Feature","id":"lon_planning_designation_conservation-area_44000603","properties":{"city_id":"london","event_id":"lon_planning_designation_conservation-area_44000603","title":"Conservation area record: Aldersbrook","year":2002,"effective_date":"2002-01-01","date_precision":"day","category":"built_environment","lens":"built_environment","confidence":"documented","source_ids":["lon-extra-planning-data-conservation-areas"],"explanation":"Planning/protection evidence record for Aldersbrook; designation/effective date is taken from Planning Data fields where supplied."},"geometry":{"type":"Point","coordinates":[0.036954,51.563174]}},{"type":"Feature","id":"lon_planning_designation_conservation-area_44000862","properties":{"city_id":"london","event_id":"lon_planning_designation_conservation-area_44000862","title":"Conservation area record: Wandsworth Road","year":2002,"effective_date":"2002-10-14","date_precision":"day","category":"built_environment","lens":"built_environment","confidence":"documented","source_ids":["lon-extra-planning-data-conservation-areas"],"explanation":"Planning/protection evidence record for Wandsworth Road; designation/effective date is taken from Planning Data fields where supplied."},"geometry":{"type":"Point","coordinates":[-0.141295,51.469751]}},{"type":"Feature","id":"lon_planning_designation_conservation-area_44000886","properties":{"city_id":"london","event_id":"lon_planning_designation_conservation-area_44000886","title":"Conservation area record: Leigham Court Road (North)","year":2002,"effective_date":"2002-11-04","date_precision":"day","category":"built_environment","lens":"built_environment","confidence":"documented","source_ids":["lon-extra-planning-data-conservation-areas"],"explanation":"Planning/protection evidence record for Leigham Court Road (North); designation/effective date is taken from Planning Data fields where supplied."},"geometry":{"type":"Point","coordinates":[-0.12441,51.435766]}},{"type":"Feature","id":"lon_planning_designation_conservation-area_44002393","properties":{"city_id":"london","event_id":"lon_planning_designation_conservation-area_44002393","title":"Conservation area record: Kingston Vale","year":2002,"effective_date":"2002-01-17","date_precision":"day","category":"built_environment","lens":"built_environment","confidence":"documented","source_ids":["lon-extra-planning-data-conservation-areas"],"explanation":"Planning/protection evidence record for Kingston Vale; designation/effective date is taken from Planning Data fields where supplied."},"geometry":{"type":"Point","coordinates":[-0.25681,51.435384]}},{"type":"Feature","id":"lon_planning_designation_conservation-area_44002468","properties":{"city_id":"london","event_id":"lon_planning_designation_conservation-area_44002468","title":"Conservation area record: Hanworth Road","year":2002,"effective_date":"2002-11-12","date_precision":"day","category":"built_environment","lens":"built_environment","confidence":"documented","source_ids":["lon-extra-planning-data-conservation-areas"],"explanation":"Planning/protection evidence record for Hanworth Road; designation/effective date is taken from Planning Data fields where supplied."},"geometry":{"type":"Point","coordinates":[-0.379519,51.431343]}},{"type":"Feature","id":"lon_planning_designation_conservation-area_44002480","properties":{"city_id":"london","event_id":"lon_planning_designation_conservation-area_44002480","title":"Conservation area record: Sheen Lane (East Sheen)","year":2002,"effective_date":"2002-11-12","date_precision":"day","category":"built_environment","lens":"built_environment","confidence":"documented","source_ids":["lon-extra-planning-data-conservation-areas"],"explanation":"Planning/protection evidence record for Sheen Lane (East Sheen); designation/effective date is taken from Planning Data fields where supplied."},"geometry":{"type":"Point","coordinates":[-0.268311,51.460826]}},{"type":"Feature","id":"lon_planning_designation_conservation-area_44002489","properties":{"city_id":"london","event_id":"lon_planning_designation_conservation-area_44002489","title":"Conservation area record: Christ Church Road","year":2002,"effective_date":"2002-05-10","date_precision":"day","category":"built_environment","lens":"built_environment","confidence":"documented","source_ids":["lon-extra-planning-data-conservation-areas"],"explanation":"Planning/protection evidence record for Christ Church Road; designation/effective date is taken from Planning Data fields where supplied."},"geometry":{"type":"Point","coordinates":[-0.271713,51.458778]}},{"type":"Feature","id":"lon_planning_designation_conservation-area_44003433","properties":{"city_id":"london","event_id":"lon_planning_designation_conservation-area_44003433","title":"Conservation area record: Walthamstow St James","year":2002,"effective_date":"2002-01-01","date_precision":"day","category":"built_environment","lens":"built_environment","confidence":"documented","source_ids":["lon-extra-planning-data-conservation-areas"],"explanation":"Planning/protection evidence record for Walthamstow St James; designation/effective date is taken from Planning Data fields where supplied."},"geometry":{"type":"Point","coordinates":[-0.031497,51.582158]}},{"type":"Feature","id":"lon_planning_designation_conservation-area_44006714","properties":{"city_id":"london","event_id":"lon_planning_designation_conservation-area_44006714","title":"Conservation area record: Sheen Common Drive","year":2002,"effective_date":"2002-11-07","date_precision":"day","category":"built_environment","lens":"built_environment","confidence":"documented","source_ids":["lon-extra-planning-data-conservation-areas"],"explanation":"Planning/protection evidence record for Sheen Common Drive; designation/effective date is taken from Planning Data fields where supplied."},"geometry":{"type":"Point","coordinates":[-0.280007,51.461389]}},{"type":"Feature","id":"lon_planning_designation_conservation-area_44009065","properties":{"city_id":"london","event_id":"lon_planning_designation_conservation-area_44009065","title":"Conservation area record: Wellesley Road","year":2002,"effective_date":"2002-12-03","date_precision":"day","category":"built_environment","lens":"built_environment","confidence":"documented","source_ids":["lon-extra-planning-data-conservation-areas"],"explanation":"Planning/protection evidence record for Wellesley Road; designation/effective date is taken from Planning Data fields where supplied."},"geometry":{"type":"Point","coordinates":[-0.275705,51.489901]}},{"type":"Feature","id":"lon_planning_designation_conservation-area_44015586","properties":{"city_id":"london","event_id":"lon_planning_designation_conservation-area_44015586","title":"Conservation area record: Grove Park","year":2002,"effective_date":"2002-01-11","date_precision":"day","category":"built_environment","lens":"built_environment","confidence":"documented","source_ids":["lon-extra-planning-data-conservation-areas"],"explanation":"Planning/protection evidence record for Grove Park; designation/effective date is taken from Planning Data fields where supplied."},"geometry":{"type":"Point","coordinates":[-0.27071,51.478839]}},{"type":"Feature","id":"lon_planning_designation_conservation-area_44015595","properties":{"city_id":"london","event_id":"lon_planning_designation_conservation-area_44015595","title":"Conservation area record: Spring Grove","year":2002,"effective_date":"2002-04-18","date_precision":"day","category":"built_environment","lens":"built_environment","confidence":"documented","source_ids":["lon-extra-planning-data-conservation-areas"],"explanation":"Planning/protection evidence record for Spring Grove; designation/effective date is taken from Planning Data fields where supplied."},"geometry":{"type":"Point","coordinates":[-0.341968,51.478409]}},{"type":"Feature","id":"lon_planning_designation_conservation-area_44015603","properties":{"city_id":"london","event_id":"lon_planning_designation_conservation-area_44015603","title":"Conservation area record: Thorney Hedge","year":2002,"effective_date":"2002-12-03","date_precision":"day","category":"built_environment","lens":"built_environment","confidence":"documented","source_ids":["lon-extra-planning-data-conservation-areas"],"explanation":"Planning/protection evidence record for Thorney Hedge; designation/effective date is taken from Planning Data fields where supplied."},"geometry":{"type":"Point","coordinates":[-0.277366,51.49344]}},{"type":"Feature","id":"lon_planning_designation_listed-building-outline_42115063","properties":{"city_id":"london","event_id":"lon_planning_designation_listed-building-outline_42115063","title":"Listed building outline: War memorial","year":2002,"effective_date":"2002-07-08","date_precision":"day","category":"built_environment","lens":"built_environment","confidence":"documented","source_ids":["lon-extra-planning-data-listed-building-outlines"],"explanation":"Planning/protection evidence record for War memorial; designation/effective date is taken from Planning Data fields where supplied."},"geometry":{"type":"Point","coordinates":[-0.078351,51.502193]}},{"type":"Feature","id":"lon_planning_designation_listed-building-outline_42115858","properties":{"city_id":"london","event_id":"lon_planning_designation_listed-building-outline_42115858","title":"Listed building outline: Nos. 64-67, Nos. 2-8","year":2002,"effective_date":"2002-07-19","date_precision":"day","category":"built_environment","lens":"built_environment","confidence":"documented","source_ids":["lon-extra-planning-data-listed-building-outlines"],"explanation":"Planning/protection evidence record for Nos. 64-67, Nos. 2-8; designation/effective date is taken from Planning Data fields where supplied."},"geometry":{"type":"Point","coordinates":[-0.134257,51.520167]}},{"type":"Feature","id":"lon_planning_designation_listed-building-outline_42115859","properties":{"city_id":"london","event_id":"lon_planning_designation_listed-building-outline_42115859","title":"Listed building outline: NORTH CRESCENT War Memorial","year":2002,"effective_date":"2002-07-19","date_precision":"day","category":"built_environment","lens":"built_environment","confidence":"documented","source_ids":["lon-extra-planning-data-listed-building-outlines"],"explanation":"Planning/protection evidence record for NORTH CRESCENT War Memorial; designation/effective date is taken from Planning Data fields where supplied."},"geometry":{"type":"Point","coordinates":[-0.133435,51.520699]}},{"type":"Feature","id":"lon_planning_designation_listed-building-outline_42115860","properties":{"city_id":"london","event_id":"lon_planning_designation_listed-building-outline_42115860","title":"Listed building outline: (South side) Nos.42-54","year":2002,"effective_date":"2002-07-25","date_precision":"day","category":"built_environment","lens":"built_environment","confidence":"documented","source_ids":["lon-extra-planning-data-listed-building-outlines"],"explanation":"Planning/protection evidence record for (South side) Nos.42-54; designation/effective date is taken from Planning Data fields where supplied."},"geometry":{"type":"Point","coordinates":[-0.125752,51.513737]}},{"type":"Feature","id":"lon_planning_designation_listed-building-outline_42115928","properties":{"city_id":"london","event_id":"lon_planning_designation_listed-building-outline_42115928","title":"Listed building outline: The Wharrie Cabman's Shelter","year":2002,"effective_date":"2002-10-24","date_precision":"day","category":"built_environment","lens":"built_environment","confidence":"documented","source_ids":["lon-extra-planning-data-listed-building-outlines"],"explanation":"Planning/protection evidence record for The Wharrie Cabman's Shelter; designation/effective date is taken from Planning Data fields where supplied."},"geometry":{"type":"Point","coordinates":[-0.168251,51.55288]}},{"type":"Feature","id":"lon_planning_designation_listed-building-outline_42116687","properties":{"city_id":"london","event_id":"lon_planning_designation_listed-building-outline_42116687","title":"Listed building outline: Fitzjohns' Primary School, 86A FITZJOHN'S AVENUE","year":2002,"effective_date":"2002-10-16","date_precision":"day","category":"built_environment","lens":"built_environment","confidence":"documented","source_ids":["lon-extra-planning-data-listed-building-outlines"],"explanation":"Planning/protection evidence record for Fitzjohns' Primary School, 86A FITZJOHN'S AVENUE; designation/effective date is taken from Planning Data fields where supplied."},"geometry":{"type":"Point","coordinates":[-0.175403,51.553942]}},{"type":"Feature","id":"lon_planning_designation_listed-building-outline_42121157","properties":{"city_id":"london","event_id":"lon_planning_designation_listed-building-outline_42121157","title":"Listed building outline: TURQUOISE","year":2002,"effective_date":"2002-03-19","date_precision":"day","category":"built_environment","lens":"built_environment","confidence":"documented","source_ids":["lon-extra-planning-data-listed-building-outlines"],"explanation":"Planning/protection evidence record for TURQUOISE; designation/effective date is taken from Planning Data fields where supplied."},"geometry":{"type":"Point","coordinates":[-0.169376,51.581058]}},{"type":"Feature","id":"lon_planning_designation_listed-building-outline_42121158","properties":{"city_id":"london","event_id":"lon_planning_designation_listed-building-outline_42121158","title":"Listed building outline: HENDON TOWN HALL","year":2002,"effective_date":"2002-04-03","date_precision":"day","category":"built_environment","lens":"built_environment","confidence":"documented","source_ids":["lon-extra-planning-data-listed-building-outlines"],"explanation":"Planning/protection evidence record for HENDON TOWN HALL; designation/effective date is taken from Planning Data fields where supplied."},"geometry":{"type":"Point","coordinates":[-0.22956,51.588348]}},{"type":"Feature","id":"lon_planning_designation_listed-building-outline_42121159","properties":{"city_id":"london","event_id":"lon_planning_designation_listed-building-outline_42121159","title":"Listed building outline: HENDON FIRE STATION","year":2002,"effective_date":"2002-04-03","date_precision":"day","category":"built_environment","lens":"built_environment","confidence":"documented","source_ids":["lon-extra-planning-data-listed-building-outlines"],"explanation":"Planning/protection evidence record for HENDON FIRE STATION; designation/effective date is taken from Planning Data fields where supplied."},"geometry":{"type":"Point","coordinates":[-0.228662,51.588886]}},{"type":"Feature","id":"lon_planning_designation_listed-building-outline_42121160","properties":{"city_id":"london","event_id":"lon_planning_designation_listed-building-outline_42121160","title":"Listed building outline: HENDON LIBRARY","year":2002,"effective_date":"2002-05-07","date_precision":"day","category":"built_environment","lens":"built_environment","confidence":"documented","source_ids":["lon-extra-planning-data-listed-building-outlines"],"explanation":"Planning/protection evidence record for HENDON LIBRARY; designation/effective date is taken from Planning Data fields where supplied."},"geometry":{"type":"Point","coordinates":[-0.228964,51.588602]}},{"type":"Feature","id":"lon_planning_designation_listed-building-outline_42121161","properties":{"city_id":"london","event_id":"lon_planning_designation_listed-building-outline_42121161","title":"Listed building outline: FORMER FRIERN BARNET TOWN HALL","year":2002,"effective_date":"2002-07-02","date_precision":"day","category":"built_environment","lens":"built_environment","confidence":"documented","source_ids":["lon-extra-planning-data-listed-building-outlines"],"explanation":"Planning/protection evidence record for FORMER FRIERN BARNET TOWN HALL; designation/effective date is taken from Planning Data fields where supplied."},"geometry":{"type":"Point","coordinates":[-0.158082,51.613485]}},{"type":"Feature","id":"lon_planning_designation_listed-building-outline_42121162","properties":{"city_id":"london","event_id":"lon_planning_designation_listed-building-outline_42121162","title":"Listed building outline: CHEAPSIDE","year":2002,"effective_date":"2002-07-09","date_precision":"day","category":"built_environment","lens":"built_environment","confidence":"documented","source_ids":["lon-extra-planning-data-listed-building-outlines"],"explanation":"Planning/protection evidence record for CHEAPSIDE; designation/effective date is taken from Planning Data fields where supplied."},"geometry":{"type":"Point","coordinates":[-0.197966,51.572652]}},{"type":"Feature","id":"lon_planning_designation_listed-building-outline_42121163","properties":{"city_id":"london","event_id":"lon_planning_designation_listed-building-outline_42121163","title":"Listed building outline: THE PROMENADE","year":2002,"effective_date":"2002-07-09","date_precision":"day","category":"built_environment","lens":"built_environment","confidence":"documented","source_ids":["lon-extra-planning-data-listed-building-outlines"],"explanation":"Planning/protection evidence record for THE PROMENADE; designation/effective date is taken from Planning Data fields where supplied."},"geometry":{"type":"Point","coordinates":[-0.198396,51.572344]}},{"type":"Feature","id":"lon_planning_designation_listed-building-outline_42121164","properties":{"city_id":"london","event_id":"lon_planning_designation_listed-building-outline_42121164","title":"Listed building outline: 4-8 GOLDERS GREEN ROAD","year":2002,"effective_date":"2002-09-07","date_precision":"day","category":"built_environment","lens":"built_environment","confidence":"documented","source_ids":["lon-extra-planning-data-listed-building-outlines"],"explanation":"Planning/protection evidence record for 4-8 GOLDERS GREEN ROAD; designation/effective date is taken from Planning Data fields where supplied."},"geometry":{"type":"Point","coordinates":[-0.196107,51.572096]}},{"type":"Feature","id":"lon_planning_designation_listed-building-outline_42121165","properties":{"city_id":"london","event_id":"lon_planning_designation_listed-building-outline_42121165","title":"Listed building outline: CONSOLATA MISSIONARY HOUSE","year":2002,"effective_date":"2002-09-24","date_precision":"day","category":"built_environment","lens":"built_environment","confidence":"documented","source_ids":["lon-extra-planning-data-listed-building-outlines"],"explanation":"Planning/protection evidence record for CONSOLATA MISSIONARY HOUSE; designation/effective date is taken from Planning Data fields where supplied."},"geometry":{"type":"Point","coordinates":[-0.195108,51.625751]}},{"type":"Feature","id":"lon_planning_designation_listed-building-outline_42121166","properties":{"city_id":"london","event_id":"lon_planning_designation_listed-building-outline_42121166","title":"Listed building outline: WAR ROOM BUNKER","year":2002,"effective_date":"2002-12-02","date_precision":"day","category":"built_environment","lens":"built_environment","confidence":"documented","source_ids":["lon-extra-planning-data-listed-building-outlines"],"explanation":"Planning/protection evidence record for WAR ROOM BUNKER; designation/effective date is taken from Planning Data fields where supplied."},"geometry":{"type":"Point","coordinates":[-0.207573,51.615896]}},{"type":"Feature","id":"lon_planning_designation_listed-building-outline_42131685","properties":{"city_id":"london","event_id":"lon_planning_designation_listed-building-outline_42131685","title":"Listed building outline: ALBERT COTTAGES","year":2002,"effective_date":"2002-03-12","date_precision":"day","category":"built_environment","lens":"built_environment","confidence":"documented","source_ids":["lon-extra-planning-data-listed-building-outlines"],"explanation":"Planning/protection evidence record for ALBERT COTTAGES; designation/effective date is taken from Planning Data fields where supplied."},"geometry":{"type":"Point","coordinates":[-0.067849,51.520598]}},{"type":"Feature","id":"lon_planning_designation_listed-building-outline_42131688","properties":{"city_id":"london","event_id":"lon_planning_designation_listed-building-outline_42131688","title":"Listed building outline: BRAITHWAITE VIADUCT","year":2002,"effective_date":"2002-08-03","date_precision":"day","category":"built_environment","lens":"built_environment","confidence":"documented","source_ids":["lon-extra-planning-data-listed-building-outlines"],"explanation":"Planning/protection evidence record for BRAITHWAITE VIADUCT; designation/effective date is taken from Planning Data fields where supplied."},"geometry":{"type":"Point","coordinates":[-0.073904,51.523055]}},{"type":"Feature","id":"lon_planning_designation_listed-building-outline_42131689","properties":{"city_id":"london","event_id":"lon_planning_designation_listed-building-outline_42131689","title":"Listed building outline: 11, PRINCELET STREET","year":2002,"effective_date":"2002-04-15","date_precision":"day","category":"built_environment","lens":"built_environment","confidence":"documented","source_ids":["lon-extra-planning-data-listed-building-outlines"],"explanation":"Planning/protection evidence record for 11, PRINCELET STREET; designation/effective date is taken from Planning Data fields where supplied."},"geometry":{"type":"Point","coordinates":[-0.072855,51.519861]}},{"type":"Feature","id":"lon_planning_designation_listed-building-outline_42131692","properties":{"city_id":"london","event_id":"lon_planning_designation_listed-building-outline_42131692","title":"Listed building outline: SHOREDITCH TABERNACLE CHURCH HALL","year":2002,"effective_date":"2002-10-06","date_precision":"day","category":"built_environment","lens":"built_environment","confidence":"documented","source_ids":["lon-extra-planning-data-listed-building-outlines"],"explanation":"Planning/protection evidence record for SHOREDITCH TABERNACLE CHURCH HALL; designation/effective date is taken from Planning Data fields where supplied."},"geometry":{"type":"Point","coordinates":[-0.075825,51.527369]}},{"type":"Feature","id":"lon_planning_designation_listed-building-outline_42131693","properties":{"city_id":"london","event_id":"lon_planning_designation_listed-building-outline_42131693","title":"Listed building outline: THE GUARDIAN ANGELS ROMAN CATHOLIC CHURCH","year":2002,"effective_date":"2002-08-08","date_precision":"day","category":"built_environment","lens":"built_environment","confidence":"documented","source_ids":["lon-extra-planning-data-listed-building-outlines"],"explanation":"Planning/protection evidence record for THE GUARDIAN ANGELS ROMAN CATHOLIC CHURCH; designation/effective date is taken from Planning Data fields where supplied."},"geometry":{"type":"Point","coordinates":[-0.036204,51.524837]}},{"type":"Feature","id":"lon_planning_designation_listed-building-outline_42131695","properties":{"city_id":"london","event_id":"lon_planning_designation_listed-building-outline_42131695","title":"Listed building outline: STOP LOCK BRIDGE AT THE JUNCTION OF REGENTS CANAL AND HERTFORD UNION CANAL","year":2002,"effective_date":"2002-03-12","date_precision":"day","category":"built_environment","lens":"built_environment","confidence":"documented","source_ids":["lon-extra-planning-data-listed-building-outlines"],"explanation":"Planning/protection evidence record for STOP LOCK BRIDGE AT THE JUNCTION OF REGENTS CANAL AND HERTFORD UNION CANAL; designation/effective date is taken from Planning Data fields where supplied."},"geometry":{"type":"Point","coordinates":[-0.043564,51.531574]}},{"type":"Feature","id":"lon_planning_designation_listed-building-outline_42131696","properties":{"city_id":"london","event_id":"lon_planning_designation_listed-building-outline_42131696","title":"Listed building outline: 131-145 VICTORIA COTTAGES","year":2002,"effective_date":"2002-03-12","date_precision":"day","category":"built_environment","lens":"built_environment","confidence":"documented","source_ids":["lon-extra-planning-data-listed-building-outlines"],"explanation":"Planning/protection evidence record for 131-145 VICTORIA COTTAGES; designation/effective date is taken from Planning Data fields where supplied."},"geometry":{"type":"Point","coordinates":[-0.066722,51.520463]}},{"type":"Feature","id":"lon_planning_designation_listed-building-outline_42131697","properties":{"city_id":"london","event_id":"lon_planning_designation_listed-building-outline_42131697","title":"Listed building outline: 12-22, Deal Street","year":2002,"effective_date":"2002-03-12","date_precision":"day","category":"built_environment","lens":"built_environment","confidence":"documented","source_ids":["lon-extra-planning-data-listed-building-outlines"],"explanation":"Planning/protection evidence record for 12-22, Deal Street; designation/effective date is taken from Planning Data fields where supplied."},"geometry":{"type":"Point","coordinates":[-0.067148,51.52067]}},{"type":"Feature","id":"lon_planning_designation_listed-building-outline_42149073","properties":{"city_id":"london","event_id":"lon_planning_designation_listed-building-outline_42149073","title":"Listed building outline: 195-197 KINGS ROAD","year":2002,"effective_date":"2002-09-20","date_precision":"day","category":"built_environment","lens":"built_environment","confidence":"documented","source_ids":["lon-extra-planning-data-listed-building-outlines"],"explanation":"Planning/protection evidence record for 195-197 KINGS ROAD; designation/effective date is taken from Planning Data fields where supplied."},"geometry":{"type":"Point","coordinates":[-0.169341,51.487002]}},{"type":"Feature","id":"lon_planning_designation_listed-building-outline_42149074","properties":{"city_id":"london","event_id":"lon_planning_designation_listed-building-outline_42149074","title":"Listed building outline: 205-209 KINGS ROAD","year":2002,"effective_date":"2002-04-02","date_precision":"day","category":"built_environment","lens":"built_environment","confidence":"documented","source_ids":["lon-extra-planning-data-listed-building-outlines"],"explanation":"Planning/protection evidence record for 205-209 KINGS ROAD; designation/effective date is taken from Planning Data fields where supplied."},"geometry":{"type":"Point","coordinates":[-0.169762,51.486875]}},{"type":"Feature","id":"lon_planning_designation_listed-building-outline_42149351","properties":{"city_id":"london","event_id":"lon_planning_designation_listed-building-outline_42149351","title":"Listed building outline: THE SLOANE SCHOOL AT THE HORTENSIA ROAD CENTRE","year":2002,"effective_date":"2002-05-07","date_precision":"day","category":"built_environment","lens":"built_environment","confidence":"documented","source_ids":["lon-extra-planning-data-listed-building-outlines"],"explanation":"Planning/protection evidence record for THE SLOANE SCHOOL AT THE HORTENSIA ROAD CENTRE; designation/effective date is taken from Planning Data fields where supplied."},"geometry":{"type":"Point","coordinates":[-0.185965,51.482019]}},{"type":"Feature","id":"lon_planning_designation_listed-building-outline_42149357","properties":{"city_id":"london","event_id":"lon_planning_designation_listed-building-outline_42149357","title":"Listed building outline: CARLYLE BUILDING AT THE HORTENSIA ROAD CENTRE","year":2002,"effective_date":"2002-05-07","date_precision":"day","category":"built_environment","lens":"built_environment","confidence":"documented","source_ids":["lon-extra-planning-data-listed-building-outlines"],"explanation":"Planning/protection evidence record for CARLYLE BUILDING AT THE HORTENSIA ROAD CENTRE; designation/effective date is taken from Planning Data fields where supplied."},"geometry":{"type":"Point","coordinates":[-0.185195,51.481379]}},{"type":"Feature","id":"lon_planning_designation_listed-building-outline_42164637","properties":{"city_id":"london","event_id":"lon_planning_designation_listed-building-outline_42164637","title":"Listed building outline: The Clachan 34 Kingly Street London W1B 5QH","year":2002,"effective_date":"2002-07-08","date_precision":"day","category":"built_environment","lens":"built_environment","confidence":"documented","source_ids":["lon-extra-planning-data-listed-building-outlines"],"explanation":"Planning/protection evidence record for The Clachan 34 Kingly Street London W1B 5QH; designation/effective date is taken from Planning Data fields where supplied."},"geometry":{"type":"Point","coordinates":[-0.140229,51.513528]}},{"type":"Feature","id":"lon_planning_designation_listed-building-outline_42164638","properties":{"city_id":"london","event_id":"lon_planning_designation_listed-building-outline_42164638","title":"Listed building outline: 10-38 BOURDON STREET London W1K 3PF","year":2002,"effective_date":"2002-07-23","date_precision":"day","category":"built_environment","lens":"built_environment","confidence":"documented","source_ids":["lon-extra-planning-data-listed-building-outlines"],"explanation":"Planning/protection evidence record for 10-38 BOURDON STREET London W1K 3PF; designation/effective date is taken from Planning Data fields where supplied."},"geometry":{"type":"Point","coordinates":[-0.145231,51.51117]}},{"type":"Feature","id":"lon_planning_designation_listed-building-outline_42164639","properties":{"city_id":"london","event_id":"lon_planning_designation_listed-building-outline_42164639","title":"Listed building outline: 2 Lexington Street London W1F 0LA","year":2002,"effective_date":"2002-03-22","date_precision":"day","category":"built_environment","lens":"built_environment","confidence":"documented","source_ids":["lon-extra-planning-data-listed-building-outlines"],"explanation":"Planning/protection evidence record for 2 Lexington Street London W1F 0LA; designation/effective date is taken from Planning Data fields where supplied."},"geometry":{"type":"Point","coordinates":[-0.135162,51.512378]}},{"type":"Feature","id":"lon_planning_designation_listed-building-outline_42167790","properties":{"city_id":"london","event_id":"lon_planning_designation_listed-building-outline_42167790","title":"Listed building outline: Flat 4 Queen Anne Street London W1G 9LQ","year":2002,"effective_date":"2002-03-13","date_precision":"day","category":"built_environment","lens":"built_environment","confidence":"documented","source_ids":["lon-extra-planning-data-listed-building-outlines"],"explanation":"Planning/protection evidence record for Flat 4 Queen Anne Street London W1G 9LQ; designation/effective date is taken from Planning Data fields where supplied."},"geometry":{"type":"Point","coordinates":[-0.145476,51.51868]}},{"type":"Feature","id":"lon_planning_designation_listed-building-outline_42167791","properties":{"city_id":"london","event_id":"lon_planning_designation_listed-building-outline_42167791","title":"Listed building outline: 12 Langford Place London NW8 0LL","year":2002,"effective_date":"2002-06-18","date_precision":"day","category":"built_environment","lens":"built_environment","confidence":"documented","source_ids":["lon-extra-planning-data-listed-building-outlines"],"explanation":"Planning/protection evidence record for 12 Langford Place London NW8 0LL; designation/effective date is taken from Planning Data fields where supplied."},"geometry":{"type":"Point","coordinates":[-0.178676,51.534516]}},{"type":"Feature","id":"lon_planning_designation_listed-building-outline_42167792","properties":{"city_id":"london","event_id":"lon_planning_designation_listed-building-outline_42167792","title":"Listed building outline: Development Site At 14-18 Baker's Mews And 7-11 Robert Adam Street London W1U 3HN","year":2002,"effective_date":"2002-07-08","date_precision":"day","category":"built_environment","lens":"built_environment","confidence":"documented","source_ids":["lon-extra-planning-data-listed-building-outlines"],"explanation":"Planning/protection evidence record for Development Site At 14-18 Baker's Mews And 7-11 Robert Adam Street London W1U 3HN; designation/effective date is taken from Planning Data fields where supplied."},"geometry":{"type":"Point","coordinates":[-0.154173,51.517046]}},{"type":"Feature","id":"lon_planning_designation_listed-building-outline_42168251","properties":{"city_id":"london","event_id":"lon_planning_designation_listed-building-outline_42168251","title":"Listed building outline: High Road - Tottenham Green War Memorial","year":2002,"effective_date":"2002-07-24","date_precision":"day","category":"built_environment","lens":"built_environment","confidence":"documented","source_ids":["lon-extra-planning-data-listed-building-outlines"],"explanation":"Planning/protection evidence record for High Road - Tottenham Green War Memorial; designation/effective date is taken from Planning Data fields where supplied."},"geometry":{"type":"Point","coordinates":[-0.071487,51.58681]}},{"type":"Feature","id":"lon_planning_designation_listed-building-outline_42168280","properties":{"city_id":"london","event_id":"lon_planning_designation_listed-building-outline_42168280","title":"Listed building outline: High Road - War memorial","year":2002,"effective_date":"2002-02-18","date_precision":"day","category":"built_environment","lens":"built_environment","confidence":"documented","source_ids":["lon-extra-planning-data-listed-building-outlines"],"explanation":"Planning/protection evidence record for High Road - War memorial; designation/effective date is taken from Planning Data fields where supplied."},"geometry":{"type":"Point","coordinates":[-0.11094,51.599451]}},{"type":"Feature","id":"lon_planning_designation_listed-building-outline_42168283","properties":{"city_id":"london","event_id":"lon_planning_designation_listed-building-outline_42168283","title":"Listed building outline: Bounds Green Road - Obelisk memorial drinking fountain","year":2002,"effective_date":"2002-02-18","date_precision":"day","category":"built_environment","lens":"built_environment","confidence":"documented","source_ids":["lon-extra-planning-data-listed-building-outlines"],"explanation":"Planning/protection evidence record for Bounds Green Road - Obelisk memorial drinking fountain; designation/effective date is taken from Planning Data fields where supplied."},"geometry":{"type":"Point","coordinates":[-0.116228,51.60091]}},{"type":"Feature","id":"lon_planning_designation_listed-building-outline_42182729","properties":{"city_id":"london","event_id":"lon_planning_designation_listed-building-outline_42182729","title":"Listed building outline: 195-197 KINGS ROAD","year":2002,"effective_date":"2002-09-20","date_precision":"day","category":"built_environment","lens":"built_environment","confidence":"documented","source_ids":["lon-extra-planning-data-listed-building-outlines"],"explanation":"Planning/protection evidence record for 195-197 KINGS ROAD; designation/effective date is taken from Planning Data fields where supplied."},"geometry":{"type":"Point","coordinates":[-0.169341,51.487002]}},{"type":"Feature","id":"lon_planning_designation_listed-building-outline_42182730","properties":{"city_id":"london","event_id":"lon_planning_designation_listed-building-outline_42182730","title":"Listed building outline: 205-209 KINGS ROAD","year":2002,"effective_date":"2002-04-02","date_precision":"day","category":"built_environment","lens":"built_environment","confidence":"documented","source_ids":["lon-extra-planning-data-listed-building-outlines"],"explanation":"Planning/protection evidence record for 205-209 KINGS ROAD; designation/effective date is taken from Planning Data fields where supplied."},"geometry":{"type":"Point","coordinates":[-0.169762,51.486875]}},{"type":"Feature","id":"lon_planning_designation_listed-building-outline_42183003","properties":{"city_id":"london","event_id":"lon_planning_designation_listed-building-outline_42183003","title":"Listed building outline: THE SLOANE SCHOOL AT THE HORTENSIA ROAD CENTRE","year":2002,"effective_date":"2002-05-07","date_precision":"day","category":"built_environment","lens":"built_environment","confidence":"documented","source_ids":["lon-extra-planning-data-listed-building-outlines"],"explanation":"Planning/protection evidence record for THE SLOANE SCHOOL AT THE HORTENSIA ROAD CENTRE; designation/effective date is taken from Planning Data fields where supplied."},"geometry":{"type":"Point","coordinates":[-0.185965,51.482019]}},{"type":"Feature","id":"lon_planning_designation_listed-building-outline_42183008","properties":{"city_id":"london","event_id":"lon_planning_designation_listed-building-outline_42183008","title":"Listed building outline: CARLYLE BUILDING AT THE HORTENSIA ROAD CENTRE","year":2002,"effective_date":"2002-05-07","date_precision":"day","category":"built_environment","lens":"built_environment","confidence":"documented","source_ids":["lon-extra-planning-data-listed-building-outlines"],"explanation":"Planning/protection evidence record for CARLYLE BUILDING AT THE HORTENSIA ROAD CENTRE; designation/effective date is taken from Planning Data fields where supplied."},"geometry":{"type":"Point","coordinates":[-0.185195,51.481379]}},{"type":"Feature","id":"lon_planning_designation_listed-building-outline_42189116","properties":{"city_id":"london","event_id":"lon_planning_designation_listed-building-outline_42189116","title":"Listed building outline: JUBILEE MEMORIAL DRINKING FOUNTAIN TRANQUIL VALE LEWISHAM","year":2002,"effective_date":"2002-08-21","date_precision":"day","category":"built_environment","lens":"built_environment","confidence":"documented","source_ids":["lon-extra-planning-data-listed-building-outlines"],"explanation":"Planning/protection evidence record for JUBILEE MEMORIAL DRINKING FOUNTAIN TRANQUIL VALE LEWISHAM; designation/effective date is taken from Planning Data fields where supplied."},"geometry":{"type":"Point","coordinates":[0.006604,51.467166]}},{"type":"Feature","id":"lon_planning_designation_listed-building-outline_42189117","properties":{"city_id":"london","event_id":"lon_planning_designation_listed-building-outline_42189117","title":"Listed building outline: THE GEORGE BAXTER MEMORIAL SOUTH ROAD FOREST HILL LEWISHAM","year":2002,"effective_date":"2002-07-24","date_precision":"day","category":"built_environment","lens":"built_environment","confidence":"documented","source_ids":["lon-extra-planning-data-listed-building-outlines"],"explanation":"Planning/protection evidence record for THE GEORGE BAXTER MEMORIAL SOUTH ROAD FOREST HILL LEWISHAM; designation/effective date is taken from Planning Data fields where supplied."},"geometry":{"type":"Point","coordinates":[-0.048483,51.438005]}},{"type":"Feature","id":"lon_planning_designation_listed-building-outline_42189426","properties":{"city_id":"london","event_id":"lon_planning_designation_listed-building-outline_42189426","title":"Listed building outline: 340 LEWISHAM HIGH STREET LEWISHAM","year":2002,"effective_date":"2002-05-07","date_precision":"day","category":"built_environment","lens":"built_environment","confidence":"documented","source_ids":["lon-extra-planning-data-listed-building-outlines"],"explanation":"Planning/protection evidence record for 340 LEWISHAM HIGH STREET LEWISHAM; designation/effective date is taken from Planning Data fields where supplied."},"geometry":{"type":"Point","coordinates":[-0.015055,51.456224]}},{"type":"Feature","id":"lon_planning_designation_listed-building-outline_42209632","properties":{"city_id":"london","event_id":"lon_planning_designation_listed-building-outline_42209632","title":"Listed building outline: Listed Building Grade II","year":2002,"effective_date":"2002-03-15","date_precision":"day","category":"built_environment","lens":"built_environment","confidence":"documented","source_ids":["lon-extra-planning-data-listed-building-outlines"],"explanation":"Planning/protection evidence record for Listed Building Grade II; designation/effective date is taken from Planning Data fields where supplied."},"geometry":{"type":"Point","coordinates":[-0.124635,51.445747]}},{"type":"Feature","id":"lon_planning_designation_listed-building-outline_42209633","properties":{"city_id":"london","event_id":"lon_planning_designation_listed-building-outline_42209633","title":"Listed building outline: Listed Building Grade II","year":2002,"effective_date":"2002-03-07","date_precision":"day","category":"built_environment","lens":"built_environment","confidence":"documented","source_ids":["lon-extra-planning-data-listed-building-outlines"],"explanation":"Planning/protection evidence record for Listed Building Grade II; designation/effective date is taken from Planning Data fields where supplied."},"geometry":{"type":"Point","coordinates":[-0.116114,51.440308]}},{"type":"Feature","id":"lon_planning_designation_listed-building-outline_42209746","properties":{"city_id":"london","event_id":"lon_planning_designation_listed-building-outline_42209746","title":"Listed building outline: Listed Building Grade II","year":2002,"effective_date":"2002-03-07","date_precision":"day","category":"built_environment","lens":"built_environment","confidence":"documented","source_ids":["lon-extra-planning-data-listed-building-outlines"],"explanation":"Planning/protection evidence record for Listed Building Grade II; designation/effective date is taken from Planning Data fields where supplied."},"geometry":{"type":"Point","coordinates":[-0.097551,51.43149]}},{"type":"Feature","id":"lon_planning_designation_listed-building-outline_42209949","properties":{"city_id":"london","event_id":"lon_planning_designation_listed-building-outline_42209949","title":"Listed building outline: Listed Building Grade II","year":2002,"effective_date":"2002-03-15","date_precision":"day","category":"built_environment","lens":"built_environment","confidence":"documented","source_ids":["lon-extra-planning-data-listed-building-outlines"],"explanation":"Planning/protection evidence record for Listed Building Grade II; designation/effective date is taken from Planning Data fields where supplied."},"geometry":{"type":"Point","coordinates":[-0.115356,51.423688]}},{"type":"Feature","id":"lon_planning_designation_listed-building-outline_42209995","properties":{"city_id":"london","event_id":"lon_planning_designation_listed-building-outline_42209995","title":"Listed building outline: Listed Building Grade II","year":2002,"effective_date":"2002-03-07","date_precision":"day","category":"built_environment","lens":"built_environment","confidence":"documented","source_ids":["lon-extra-planning-data-listed-building-outlines"],"explanation":"Planning/protection evidence record for Listed Building Grade II; designation/effective date is taken from Planning Data fields where supplied."},"geometry":{"type":"Point","coordinates":[-0.112522,51.504643]}},{"type":"Feature","id":"lon_planning_designation_tree-preservation-zone_19176094","properties":{"city_id":"london","event_id":"lon_planning_designation_tree-preservation-zone_19176094","title":"Tree preservation zone: 1-9 Neeld Court, Neeld Crescent, Wembley HA9","year":2002,"effective_date":"2002-07-09","date_precision":"day","category":"built_environment","lens":"built_environment","confidence":"documented","source_ids":["lon-extra-planning-data-tree-preservation-zones"],"explanation":"Planning/protection evidence record for 1-9 Neeld Court, Neeld Crescent, Wembley HA9; designation/effective date is taken from Planning Data fields where supplied."},"geometry":{"type":"Point","coordinates":[-0.283697,51.551858]}},{"type":"Feature","id":"lon_planning_designation_tree-preservation-zone_19176229","properties":{"city_id":"london","event_id":"lon_planning_designation_tree-preservation-zone_19176229","title":"Tree preservation zone: Jews Free School","year":2002,"effective_date":"2002-07-25","date_precision":"day","category":"built_environment","lens":"built_environment","confidence":"documented","source_ids":["lon-extra-planning-data-tree-preservation-zones"],"explanation":"Planning/protection evidence record for Jews Free School; designation/effective date is taken from Planning Data fields where supplied."},"geometry":{"type":"Point","coordinates":[-0.284496,51.581419]}}]}
