{"type":"FeatureCollection","schema_version":"1.0.0","city_id":"london","year":1827,"features":[{"type":"Feature","id":"lon_planning_designation_conservation-area_44015525","properties":{"city_id":"london","event_id":"lon_planning_designation_conservation-area_44015525","title":"Conservation area record: Ruislip Village","short_description":"Planning Data conservation-area designation record CA-3; quality authoritative; LPA Hillingdon.","year":1827,"effective_date":"1827-08-19","date_precision":"day","category":"built_environment","lens":"built_environment","confidence":"documented","source_ids":["lon-extra-planning-data-conservation-areas"],"explanation":"Planning/protection evidence record for Ruislip Village; designation/effective date is taken from Planning Data fields where supplied."},"geometry":{"type":"Point","coordinates":[-0.428336,51.575213]}},{"type":"Feature","id":"lon_planning_designation_conservation-area_44015535","properties":{"city_id":"london","event_id":"lon_planning_designation_conservation-area_44015535","title":"Conservation area record: West Drayton Green","short_description":"Planning Data conservation-area designation record CA-9; quality authoritative; LPA Hillingdon.","year":1827,"effective_date":"1827-08-19","date_precision":"day","category":"built_environment","lens":"built_environment","confidence":"documented","source_ids":["lon-extra-planning-data-conservation-areas"],"explanation":"Planning/protection evidence record for West Drayton Green; designation/effective date is taken from Planning Data fields where supplied."},"geometry":{"type":"Point","coordinates":[-0.474194,51.502139]}}]}
