{"type":"FeatureCollection","schema_version":"1.0.0","city_id":"london","year":2004,"features":[{"type":"Feature","id":"lon_brownfield_1713538","properties":{"city_id":"london","event_id":"lon_brownfield_1713538","title":"Brownfield development site: 122-136 London Road CR4 3LB","year":2004,"effective_date":"2004-06-10","date_precision":"day","category":"transport","lens":"traffic","confidence":"documented","source_ids":["lon-extra-planning-data-brownfield-land"],"explanation":"Planning/development evidence record: permissioned; brownfield land capacity marker."},"geometry":{"type":"Point","coordinates":[-0.162682,51.41281]}},{"type":"Feature","id":"lon_brownfield_1716832","properties":{"city_id":"london","event_id":"lon_brownfield_1716832","title":"Brownfield development site: 59 Cambridge Road, West Wimbledon, London, SW20 0SB","year":2004,"effective_date":"2004-11-29","date_precision":"day","category":"transport","lens":"traffic","confidence":"documented","source_ids":["lon-extra-planning-data-brownfield-land"],"explanation":"Planning/development evidence record: permissioned; brownfield land capacity marker."},"geometry":{"type":"Point","coordinates":[-0.236038,51.412622]}},{"type":"Feature","id":"lon_brownfield_1717168","properties":{"city_id":"london","event_id":"lon_brownfield_1717168","title":"Brownfield development site: Land R/O 37-41, High Street, London, NW10 (up to 12 homes)","year":2004,"effective_date":"2004-11-11","date_precision":"day","category":"environment","lens":"green_space","confidence":"documented","source_ids":["lon-extra-planning-data-brownfield-land"],"explanation":"Planning/development evidence record: not-permissioned; brownfield land capacity marker for 12 net dwellings."},"geometry":{"type":"Point","coordinates":[-0.247183,51.536409]}},{"type":"Feature","id":"london-milestone-2004-first-statutory-london-plan-adopted-17","properties":{"city_id":"london","event_id":"london-milestone-2004-first-statutory-london-plan-adopted-17","title":"First statutory London Plan adopted","year":2004,"effective_date":"2004","date_precision":"year","category":"built_environment","lens":"built_environment","confidence":"documented","source_ids":["gla-london-plan","gla-opportunity-areas"],"explanation":"Start of mayoral statutory spatial plan era and Opportunity Area framework."},"geometry":{"type":"Point","coordinates":[-0.283428,51.562076]}}]}
