{"type":"FeatureCollection","name":"london_lens_detail_1956","metadata":{"schema_version":"1.0.0","city_id":"london","year":1956,"generated_at":"2026-06-02T07:41:36.978Z","source_paths":["web/data/city-atlas/cities/london/events_1956.json","web/data/city-atlas/cities/london/events.json","web/data/city-atlas/cities/london/transport_roads_base.geojson"],"method":"Derived OpenCityLog lens geometry built from source-backed event points plus existing OSM road/detail geometry. Grid cells aggregate events by effective year. Trace lines reuse nearest mapped road geometry for context.","caveats":["Derived cells are evidence grids, not surveyed parcels, catchments, zones, or administrative boundaries.","Trace lines are nearest mapped street or work-location context, not surveyed utility networks, measured traffic speed, spend, vacancy, or service quality. No capacity data is inferred.","When a lens/year has no same-category source-backed records, no coverage geometry is generated; sparse data remains sparse.","Borough, citywide, statistical, corridor, and multi-site records are excluded from site-like lens geometry; they remain available in the event list and evidence records.","OSM mapped-visibility dates and administrative decision dates can differ from real-world physical change dates."],"feature_layers":{"planning_cell":18},"excluded_non_site_record_count":0,"excluded_non_site_reasons":{}},"features":[{"type":"Feature","properties":{"id":"lens-detail-london-1956-planning_cell-6","layer":"planning_cell","category":"built_environment","year":1956,"visible_year":1956,"title":"2 source-backed planning and built records","confidence":"documented","confidence_mix":"documented:2","event_count":2,"source_count":1,"source_ids":"lon-extra-planning-data-tree-preservation-zones","event_ids":"lon_planning_designation_tree-preservation-zone_19153310,lon_planning_designation_tree-preservation-zone_19153315","event_ids_all":"lon_planning_designation_tree-preservation-zone_19153310,lon_planning_designation_tree-preservation-zone_19153315","source_urls":"https://www.planning.data.gov.uk/entity/19153310,https://www.planning.data.gov.uk/entity/19153315","geometry_precision_mix":"Row-level point from the adapter; source geocoding precision varies and may be approximate.:2","representation":"planning and built evidence grid cell","timing_note":"Filtered by event effective year. OSM mapped-visibility dates and administrative dates can differ from real-world physical change dates.","caveat":"Planning cells are derived from source-backed event locations; they are not parcel boundaries unless source geometry is separately present.","generated_from":"web/data/city-atlas/cities/london/events_1956.json","lifecycle_status":"uncertain","status":"source_record","cell_size_m":95,"intensity":0.458,"label":"Tree preservation zone: P2_G2"},"geometry":{"type":"Polygon","coordinates":[[[-0.1850986,51.522555],[-0.1837275,51.522555],[-0.1837275,51.5234142],[-0.1850986,51.5234142],[-0.1850986,51.522555]]]}},{"type":"Feature","properties":{"id":"lens-detail-london-1956-planning_cell-0","layer":"planning_cell","category":"built_environment","year":1956,"visible_year":1956,"title":"1 source-backed planning and built record","confidence":"documented","confidence_mix":"documented:1","event_count":1,"source_count":1,"source_ids":"lon-extra-planning-data-tree-preservation-zones","event_ids":"lon_planning_designation_tree-preservation-zone_19118033","event_ids_all":"lon_planning_designation_tree-preservation-zone_19118033","source_urls":"https://www.planning.data.gov.uk/entity/19118033","geometry_precision_mix":"Row-level point from the adapter; source geocoding precision varies and may be approximate.:1","representation":"planning and built evidence grid cell","timing_note":"Filtered by event effective year. OSM mapped-visibility dates and administrative dates can differ from real-world physical change dates.","caveat":"Planning cells are derived from source-backed event locations; they are not parcel boundaries unless source geometry is separately present.","generated_from":"web/data/city-atlas/cities/london/events_1956.json","lifecycle_status":"uncertain","status":"source_record","cell_size_m":95,"intensity":0.289,"label":"Tree preservation zone: Tree Preservation Order made under The Town and Country Planning Act, 1947."},"geometry":{"type":"Polygon","coordinates":[[[-0.190583,51.5637944],[-0.1892119,51.5637944],[-0.1892119,51.5646535],[-0.190583,51.5646535],[-0.190583,51.5637944]]]}},{"type":"Feature","properties":{"id":"lens-detail-london-1956-planning_cell-1","layer":"planning_cell","category":"built_environment","year":1956,"visible_year":1956,"title":"1 source-backed planning and built record","confidence":"documented","confidence_mix":"documented:1","event_count":1,"source_count":1,"source_ids":"lon-extra-planning-data-tree-preservation-zones","event_ids":"lon_planning_designation_tree-preservation-zone_19153305","event_ids_all":"lon_planning_designation_tree-preservation-zone_19153305","source_urls":"https://www.planning.data.gov.uk/entity/19153305","geometry_precision_mix":"Row-level point from the adapter; source geocoding precision varies and may be approximate.:1","representation":"planning and built evidence grid cell","timing_note":"Filtered by event effective year. OSM mapped-visibility dates and administrative dates can differ from real-world physical change dates.","caveat":"Planning cells are derived from source-backed event locations; they are not parcel boundaries unless source geometry is separately present.","generated_from":"web/data/city-atlas/cities/london/events_1956.json","lifecycle_status":"uncertain","status":"source_record","cell_size_m":95,"intensity":0.289,"label":"Tree preservation zone: P1_G1"},"geometry":{"type":"Polygon","coordinates":[[[-0.1823564,51.5268508],[-0.1809853,51.5268508],[-0.1809853,51.5277099],[-0.1823564,51.5277099],[-0.1823564,51.5268508]]]}},{"type":"Feature","properties":{"id":"lens-detail-london-1956-planning_cell-10","layer":"planning_cell","category":"built_environment","year":1956,"visible_year":1956,"title":"1 source-backed planning and built record","confidence":"documented","confidence_mix":"documented:1","event_count":1,"source_count":1,"source_ids":"lon-extra-planning-data-tree-preservation-zones","event_ids":"lon_planning_designation_tree-preservation-zone_19153314","event_ids_all":"lon_planning_designation_tree-preservation-zone_19153314","source_urls":"https://www.planning.data.gov.uk/entity/19153314","geometry_precision_mix":"Row-level point from the adapter; source geocoding precision varies and may be approximate.:1","representation":"planning and built evidence grid cell","timing_note":"Filtered by event effective year. OSM mapped-visibility dates and administrative dates can differ from real-world physical change dates.","caveat":"Planning cells are derived from source-backed event locations; they are not parcel boundaries unless source geometry is separately present.","generated_from":"web/data/city-atlas/cities/london/events_1956.json","lifecycle_status":"uncertain","status":"source_record","cell_size_m":95,"intensity":0.289,"label":"Tree preservation zone: P2_A1"},"geometry":{"type":"Polygon","coordinates":[[[-0.1878408,51.5251325],[-0.1864697,51.5251325],[-0.1864697,51.5259916],[-0.1878408,51.5259916],[-0.1878408,51.5251325]]]}},{"type":"Feature","properties":{"id":"lens-detail-london-1956-planning_cell-11","layer":"planning_cell","category":"built_environment","year":1956,"visible_year":1956,"title":"1 source-backed planning and built record","confidence":"documented","confidence_mix":"documented:1","event_count":1,"source_count":1,"source_ids":"lon-extra-planning-data-tree-preservation-zones","event_ids":"lon_planning_designation_tree-preservation-zone_19153316","event_ids_all":"lon_planning_designation_tree-preservation-zone_19153316","source_urls":"https://www.planning.data.gov.uk/entity/19153316","geometry_precision_mix":"Row-level point from the adapter; source geocoding precision varies and may be approximate.:1","representation":"planning and built evidence grid cell","timing_note":"Filtered by event effective year. OSM mapped-visibility dates and administrative dates can differ from real-world physical change dates.","caveat":"Planning cells are derived from source-backed event locations; they are not parcel boundaries unless source geometry is separately present.","generated_from":"web/data/city-atlas/cities/london/events_1956.json","lifecycle_status":"uncertain","status":"source_record","cell_size_m":95,"intensity":0.289,"label":"Tree preservation zone: P4_A1"},"geometry":{"type":"Polygon","coordinates":[[[-0.1892119,51.5251325],[-0.1878408,51.5251325],[-0.1878408,51.5259916],[-0.1892119,51.5259916],[-0.1892119,51.5251325]]]}},{"type":"Feature","properties":{"id":"lens-detail-london-1956-planning_cell-12","layer":"planning_cell","category":"built_environment","year":1956,"visible_year":1956,"title":"1 source-backed planning and built record","confidence":"documented","confidence_mix":"documented:1","event_count":1,"source_count":1,"source_ids":"lon-extra-planning-data-tree-preservation-zones","event_ids":"lon_planning_designation_tree-preservation-zone_19153317","event_ids_all":"lon_planning_designation_tree-preservation-zone_19153317","source_urls":"https://www.planning.data.gov.uk/entity/19153317","geometry_precision_mix":"Row-level point from the adapter; source geocoding precision varies and may be approximate.:1","representation":"planning and built evidence grid cell","timing_note":"Filtered by event effective year. OSM mapped-visibility dates and administrative dates can differ from real-world physical change dates.","caveat":"Planning cells are derived from source-backed event locations; they are not parcel boundaries unless source geometry is separately present.","generated_from":"web/data/city-atlas/cities/london/events_1956.json","lifecycle_status":"uncertain","status":"source_record","cell_size_m":95,"intensity":0.289,"label":"Tree preservation zone: P4_A2"},"geometry":{"type":"Polygon","coordinates":[[[-0.1864697,51.5259916],[-0.1850986,51.5259916],[-0.1850986,51.5268508],[-0.1864697,51.5268508],[-0.1864697,51.5259916]]]}},{"type":"Feature","properties":{"id":"lens-detail-london-1956-planning_cell-13","layer":"planning_cell","category":"built_environment","year":1956,"visible_year":1956,"title":"1 source-backed planning and built record","confidence":"documented","confidence_mix":"documented:1","event_count":1,"source_count":1,"source_ids":"lon-extra-planning-data-tree-preservation-zones","event_ids":"lon_planning_designation_tree-preservation-zone_19153318","event_ids_all":"lon_planning_designation_tree-preservation-zone_19153318","source_urls":"https://www.planning.data.gov.uk/entity/19153318","geometry_precision_mix":"Row-level point from the adapter; source geocoding precision varies and may be approximate.:1","representation":"planning and built evidence grid cell","timing_note":"Filtered by event effective year. OSM mapped-visibility dates and administrative dates can differ from real-world physical change dates.","caveat":"Planning cells are derived from source-backed event locations; they are not parcel boundaries unless source geometry is separately present.","generated_from":"web/data/city-atlas/cities/london/events_1956.json","lifecycle_status":"uncertain","status":"source_record","cell_size_m":95,"intensity":0.289,"label":"Tree preservation zone: P7_A1"},"geometry":{"type":"Polygon","coordinates":[[[-0.190583,51.516541],[-0.1892119,51.516541],[-0.1892119,51.5174001],[-0.190583,51.5174001],[-0.190583,51.516541]]]}},{"type":"Feature","properties":{"id":"lens-detail-london-1956-planning_cell-14","layer":"planning_cell","category":"built_environment","year":1956,"visible_year":1956,"title":"1 source-backed planning and built record","confidence":"documented","confidence_mix":"documented:1","event_count":1,"source_count":1,"source_ids":"lon-extra-planning-data-tree-preservation-zones","event_ids":"lon_planning_designation_tree-preservation-zone_19153319","event_ids_all":"lon_planning_designation_tree-preservation-zone_19153319","source_urls":"https://www.planning.data.gov.uk/entity/19153319","geometry_precision_mix":"Row-level point from the adapter; source geocoding precision varies and may be approximate.:1","representation":"planning and built evidence grid cell","timing_note":"Filtered by event effective year. OSM mapped-visibility dates and administrative dates can differ from real-world physical change dates.","caveat":"Planning cells are derived from source-backed event locations; they are not parcel boundaries unless source geometry is separately present.","generated_from":"web/data/city-atlas/cities/london/events_1956.json","lifecycle_status":"uncertain","status":"source_record","cell_size_m":95,"intensity":0.289,"label":"Tree preservation zone: P7_A2"},"geometry":{"type":"Polygon","coordinates":[[[-0.1933252,51.5156818],[-0.1919541,51.5156818],[-0.1919541,51.516541],[-0.1933252,51.516541],[-0.1933252,51.5156818]]]}},{"type":"Feature","properties":{"id":"lens-detail-london-1956-planning_cell-15","layer":"planning_cell","category":"built_environment","year":1956,"visible_year":1956,"title":"1 source-backed planning and built record","confidence":"documented","confidence_mix":"documented:1","event_count":1,"source_count":1,"source_ids":"lon-extra-planning-data-tree-preservation-zones","event_ids":"lon_planning_designation_tree-preservation-zone_19153320","event_ids_all":"lon_planning_designation_tree-preservation-zone_19153320","source_urls":"https://www.planning.data.gov.uk/entity/19153320","geometry_precision_mix":"Row-level point from the adapter; source geocoding precision varies and may be approximate.:1","representation":"planning and built evidence grid cell","timing_note":"Filtered by event effective year. OSM mapped-visibility dates and administrative dates can differ from real-world physical change dates.","caveat":"Planning cells are derived from source-backed event locations; they are not parcel boundaries unless source geometry is separately present.","generated_from":"web/data/city-atlas/cities/london/events_1956.json","lifecycle_status":"uncertain","status":"source_record","cell_size_m":95,"intensity":0.289,"label":"Tree preservation zone: P7_G1"},"geometry":{"type":"Polygon","coordinates":[[[-0.1933252,51.5182593],[-0.1919541,51.5182593],[-0.1919541,51.5191184],[-0.1933252,51.5191184],[-0.1933252,51.5182593]]]}},{"type":"Feature","properties":{"id":"lens-detail-london-1956-planning_cell-16","layer":"planning_cell","category":"built_environment","year":1956,"visible_year":1956,"title":"1 source-backed planning and built record","confidence":"documented","confidence_mix":"documented:1","event_count":1,"source_count":1,"source_ids":"lon-extra-planning-data-tree-preservation-zones","event_ids":"lon_planning_designation_tree-preservation-zone_19153321","event_ids_all":"lon_planning_designation_tree-preservation-zone_19153321","source_urls":"https://www.planning.data.gov.uk/entity/19153321","geometry_precision_mix":"Row-level point from the adapter; source geocoding precision varies and may be approximate.:1","representation":"planning and built evidence grid cell","timing_note":"Filtered by event effective year. OSM mapped-visibility dates and administrative dates can differ from real-world physical change dates.","caveat":"Planning cells are derived from source-backed event locations; they are not parcel boundaries unless source geometry is separately present.","generated_from":"web/data/city-atlas/cities/london/events_1956.json","lifecycle_status":"uncertain","status":"source_record","cell_size_m":95,"intensity":0.289,"label":"Tree preservation zone: P3_G1"},"geometry":{"type":"Polygon","coordinates":[[[-0.1933252,51.5234142],[-0.1919541,51.5234142],[-0.1919541,51.5242733],[-0.1933252,51.5242733],[-0.1933252,51.5234142]]]}},{"type":"Feature","properties":{"id":"lens-detail-london-1956-planning_cell-17","layer":"planning_cell","category":"built_environment","year":1956,"visible_year":1956,"title":"1 source-backed planning and built record","confidence":"documented","confidence_mix":"documented:1","event_count":1,"source_count":1,"source_ids":"lon-extra-planning-data-tree-preservation-zones","event_ids":"lon_planning_designation_tree-preservation-zone_19153322","event_ids_all":"lon_planning_designation_tree-preservation-zone_19153322","source_urls":"https://www.planning.data.gov.uk/entity/19153322","geometry_precision_mix":"Row-level point from the adapter; source geocoding precision varies and may be approximate.:1","representation":"planning and built evidence grid cell","timing_note":"Filtered by event effective year. OSM mapped-visibility dates and administrative dates can differ from real-world physical change dates.","caveat":"Planning cells are derived from source-backed event locations; they are not parcel boundaries unless source geometry is separately present.","generated_from":"web/data/city-atlas/cities/london/events_1956.json","lifecycle_status":"uncertain","status":"source_record","cell_size_m":95,"intensity":0.289,"label":"Tree preservation zone: P3_G2"},"geometry":{"type":"Polygon","coordinates":[[[-0.190583,51.5242733],[-0.1892119,51.5242733],[-0.1892119,51.5251325],[-0.190583,51.5251325],[-0.190583,51.5242733]]]}},{"type":"Feature","properties":{"id":"lens-detail-london-1956-planning_cell-2","layer":"planning_cell","category":"built_environment","year":1956,"visible_year":1956,"title":"1 source-backed planning and built record","confidence":"documented","confidence_mix":"documented:1","event_count":1,"source_count":1,"source_ids":"lon-extra-planning-data-tree-preservation-zones","event_ids":"lon_planning_designation_tree-preservation-zone_19153306","event_ids_all":"lon_planning_designation_tree-preservation-zone_19153306","source_urls":"https://www.planning.data.gov.uk/entity/19153306","geometry_precision_mix":"Row-level point from the adapter; source geocoding precision varies and may be approximate.:1","representation":"planning and built evidence grid cell","timing_note":"Filtered by event effective year. OSM mapped-visibility dates and administrative dates can differ from real-world physical change dates.","caveat":"Planning cells are derived from source-backed event locations; they are not parcel boundaries unless source geometry is separately present.","generated_from":"web/data/city-atlas/cities/london/events_1956.json","lifecycle_status":"uncertain","status":"source_record","cell_size_m":95,"intensity":0.289,"label":"Tree preservation zone: P1_G2"},"geometry":{"type":"Polygon","coordinates":[[[-0.1782431,51.5251325],[-0.176872,51.5251325],[-0.176872,51.5259916],[-0.1782431,51.5259916],[-0.1782431,51.5251325]]]}},{"type":"Feature","properties":{"id":"lens-detail-london-1956-planning_cell-3","layer":"planning_cell","category":"built_environment","year":1956,"visible_year":1956,"title":"1 source-backed planning and built record","confidence":"documented","confidence_mix":"documented:1","event_count":1,"source_count":1,"source_ids":"lon-extra-planning-data-tree-preservation-zones","event_ids":"lon_planning_designation_tree-preservation-zone_19153307","event_ids_all":"lon_planning_designation_tree-preservation-zone_19153307","source_urls":"https://www.planning.data.gov.uk/entity/19153307","geometry_precision_mix":"Row-level point from the adapter; source geocoding precision varies and may be approximate.:1","representation":"planning and built evidence grid cell","timing_note":"Filtered by event effective year. OSM mapped-visibility dates and administrative dates can differ from real-world physical change dates.","caveat":"Planning cells are derived from source-backed event locations; they are not parcel boundaries unless source geometry is separately present.","generated_from":"web/data/city-atlas/cities/london/events_1956.json","lifecycle_status":"uncertain","status":"source_record","cell_size_m":95,"intensity":0.289,"label":"Tree preservation zone: P1_G3"},"geometry":{"type":"Polygon","coordinates":[[[-0.1782431,51.5242733],[-0.176872,51.5242733],[-0.176872,51.5251325],[-0.1782431,51.5251325],[-0.1782431,51.5242733]]]}},{"type":"Feature","properties":{"id":"lens-detail-london-1956-planning_cell-4","layer":"planning_cell","category":"built_environment","year":1956,"visible_year":1956,"title":"1 source-backed planning and built record","confidence":"documented","confidence_mix":"documented:1","event_count":1,"source_count":1,"source_ids":"lon-extra-planning-data-tree-preservation-zones","event_ids":"lon_planning_designation_tree-preservation-zone_19153308","event_ids_all":"lon_planning_designation_tree-preservation-zone_19153308","source_urls":"https://www.planning.data.gov.uk/entity/19153308","geometry_precision_mix":"Row-level point from the adapter; source geocoding precision varies and may be approximate.:1","representation":"planning and built evidence grid cell","timing_note":"Filtered by event effective year. OSM mapped-visibility dates and administrative dates can differ from real-world physical change dates.","caveat":"Planning cells are derived from source-backed event locations; they are not parcel boundaries unless source geometry is separately present.","generated_from":"web/data/city-atlas/cities/london/events_1956.json","lifecycle_status":"uncertain","status":"source_record","cell_size_m":95,"intensity":0.289,"label":"Tree preservation zone: P1_G4"},"geometry":{"type":"Polygon","coordinates":[[[-0.1837275,51.5268508],[-0.1823564,51.5268508],[-0.1823564,51.5277099],[-0.1837275,51.5277099],[-0.1837275,51.5268508]]]}},{"type":"Feature","properties":{"id":"lens-detail-london-1956-planning_cell-5","layer":"planning_cell","category":"built_environment","year":1956,"visible_year":1956,"title":"1 source-backed planning and built record","confidence":"documented","confidence_mix":"documented:1","event_count":1,"source_count":1,"source_ids":"lon-extra-planning-data-tree-preservation-zones","event_ids":"lon_planning_designation_tree-preservation-zone_19153309","event_ids_all":"lon_planning_designation_tree-preservation-zone_19153309","source_urls":"https://www.planning.data.gov.uk/entity/19153309","geometry_precision_mix":"Row-level point from the adapter; source geocoding precision varies and may be approximate.:1","representation":"planning and built evidence grid cell","timing_note":"Filtered by event effective year. OSM mapped-visibility dates and administrative dates can differ from real-world physical change dates.","caveat":"Planning cells are derived from source-backed event locations; they are not parcel boundaries unless source geometry is separately present.","generated_from":"web/data/city-atlas/cities/london/events_1956.json","lifecycle_status":"uncertain","status":"source_record","cell_size_m":95,"intensity":0.289,"label":"Tree preservation zone: P1_G5"},"geometry":{"type":"Polygon","coordinates":[[[-0.1796142,51.5234142],[-0.1782431,51.5234142],[-0.1782431,51.5242733],[-0.1796142,51.5242733],[-0.1796142,51.5234142]]]}},{"type":"Feature","properties":{"id":"lens-detail-london-1956-planning_cell-7","layer":"planning_cell","category":"built_environment","year":1956,"visible_year":1956,"title":"1 source-backed planning and built record","confidence":"documented","confidence_mix":"documented:1","event_count":1,"source_count":1,"source_ids":"lon-extra-planning-data-tree-preservation-zones","event_ids":"lon_planning_designation_tree-preservation-zone_19153311","event_ids_all":"lon_planning_designation_tree-preservation-zone_19153311","source_urls":"https://www.planning.data.gov.uk/entity/19153311","geometry_precision_mix":"Row-level point from the adapter; source geocoding precision varies and may be approximate.:1","representation":"planning and built evidence grid cell","timing_note":"Filtered by event effective year. OSM mapped-visibility dates and administrative dates can differ from real-world physical change dates.","caveat":"Planning cells are derived from source-backed event locations; they are not parcel boundaries unless source geometry is separately present.","generated_from":"web/data/city-atlas/cities/london/events_1956.json","lifecycle_status":"uncertain","status":"source_record","cell_size_m":95,"intensity":0.289,"label":"Tree preservation zone: P2_G3"},"geometry":{"type":"Polygon","coordinates":[[[-0.1864697,51.5216959],[-0.1850986,51.5216959],[-0.1850986,51.522555],[-0.1864697,51.522555],[-0.1864697,51.5216959]]]}},{"type":"Feature","properties":{"id":"lens-detail-london-1956-planning_cell-8","layer":"planning_cell","category":"built_environment","year":1956,"visible_year":1956,"title":"1 source-backed planning and built record","confidence":"documented","confidence_mix":"documented:1","event_count":1,"source_count":1,"source_ids":"lon-extra-planning-data-tree-preservation-zones","event_ids":"lon_planning_designation_tree-preservation-zone_19153312","event_ids_all":"lon_planning_designation_tree-preservation-zone_19153312","source_urls":"https://www.planning.data.gov.uk/entity/19153312","geometry_precision_mix":"Row-level point from the adapter; source geocoding precision varies and may be approximate.:1","representation":"planning and built evidence grid cell","timing_note":"Filtered by event effective year. OSM mapped-visibility dates and administrative dates can differ from real-world physical change dates.","caveat":"Planning cells are derived from source-backed event locations; they are not parcel boundaries unless source geometry is separately present.","generated_from":"web/data/city-atlas/cities/london/events_1956.json","lifecycle_status":"uncertain","status":"source_record","cell_size_m":95,"intensity":0.289,"label":"Tree preservation zone: P2_G4"},"geometry":{"type":"Polygon","coordinates":[[[-0.1850986,51.5216959],[-0.1837275,51.5216959],[-0.1837275,51.522555],[-0.1850986,51.522555],[-0.1850986,51.5216959]]]}},{"type":"Feature","properties":{"id":"lens-detail-london-1956-planning_cell-9","layer":"planning_cell","category":"built_environment","year":1956,"visible_year":1956,"title":"1 source-backed planning and built record","confidence":"documented","confidence_mix":"documented:1","event_count":1,"source_count":1,"source_ids":"lon-extra-planning-data-tree-preservation-zones","event_ids":"lon_planning_designation_tree-preservation-zone_19153313","event_ids_all":"lon_planning_designation_tree-preservation-zone_19153313","source_urls":"https://www.planning.data.gov.uk/entity/19153313","geometry_precision_mix":"Row-level point from the adapter; source geocoding precision varies and may be approximate.:1","representation":"planning and built evidence grid cell","timing_note":"Filtered by event effective year. OSM mapped-visibility dates and administrative dates can differ from real-world physical change dates.","caveat":"Planning cells are derived from source-backed event locations; they are not parcel boundaries unless source geometry is separately present.","generated_from":"web/data/city-atlas/cities/london/events_1956.json","lifecycle_status":"uncertain","status":"source_record","cell_size_m":95,"intensity":0.289,"label":"Tree preservation zone: P2_G6"},"geometry":{"type":"Polygon","coordinates":[[[-0.1823564,51.5216959],[-0.1809853,51.5216959],[-0.1809853,51.522555],[-0.1823564,51.522555],[-0.1823564,51.5216959]]]}}]}
