{"type":"FeatureCollection","name":"london_lens_detail_1827","metadata":{"schema_version":"1.0.0","city_id":"london","year":1827,"generated_at":"2026-06-01T17:55:39.466Z","source_paths":["web/data/city-atlas/cities/london/events_1827.json","web/data/city-atlas/cities/london/events.json","web/data/city-atlas/cities/london/transport_roads_base.geojson"],"method":"Derived OpenCityLog lens geometry built from source-backed event points plus existing OSM road/detail geometry. Grid cells aggregate events by effective year. Trace lines reuse nearest mapped road geometry for context.","caveats":["Derived cells are evidence grids, not surveyed parcels, catchments, zones, or administrative boundaries.","Trace lines are nearest mapped street or work-location context, not surveyed utility networks, measured traffic speed, spend, vacancy, or service quality. No capacity data is inferred.","When a lens/year has no same-category source-backed records, no coverage geometry is generated; sparse data remains sparse.","Borough, citywide, statistical, corridor, and multi-site records are excluded from site-like lens geometry; they remain available in the event list and evidence records.","OSM mapped-visibility dates and administrative decision dates can differ from real-world physical change dates."],"feature_layers":{"planning_cell":2},"excluded_non_site_record_count":0,"excluded_non_site_reasons":{}},"features":[{"type":"Feature","properties":{"id":"lens-detail-london-1827-planning_cell-0","layer":"planning_cell","category":"built_environment","year":1827,"visible_year":1827,"title":"1 source-backed planning and built record","confidence":"documented","confidence_mix":"documented:1","event_count":1,"source_count":1,"source_ids":"lon-extra-planning-data-conservation-areas","event_ids":"lon_planning_designation_conservation-area_44015525","event_ids_all":"lon_planning_designation_conservation-area_44015525","source_urls":"https://www.hillingdon.gov.uk/media/3879/Ruislip-Village-appraisal/pdf/olRuislip_CA_Appraisal-_July_2010.pdf?m=1603208969717","geometry_precision_mix":"Row-level point from the adapter; source geocoding precision varies and may be approximate.:1","representation":"planning and built evidence grid cell","timing_note":"Filtered by event effective year. OSM mapped-visibility dates and administrative dates can differ from real-world physical change dates.","caveat":"Planning cells are derived from source-backed event locations; they are not parcel boundaries unless source geometry is separately present.","generated_from":"web/data/city-atlas/cities/london/events_1827.json","lifecycle_status":"uncertain","status":"source_record","cell_size_m":95,"intensity":0.289,"label":"Conservation area record: Ruislip Village"},"geometry":{"type":"Polygon","coordinates":[[[-0.4291546,51.5749634],[-0.4277835,51.5749634],[-0.4277835,51.5758225],[-0.4291546,51.5758225],[-0.4291546,51.5749634]]]}},{"type":"Feature","properties":{"id":"lens-detail-london-1827-planning_cell-1","layer":"planning_cell","category":"built_environment","year":1827,"visible_year":1827,"title":"1 source-backed planning and built record","confidence":"documented","confidence_mix":"documented:1","event_count":1,"source_count":1,"source_ids":"lon-extra-planning-data-conservation-areas","event_ids":"lon_planning_designation_conservation-area_44015535","event_ids_all":"lon_planning_designation_conservation-area_44015535","source_urls":"https://www.hillingdon.gov.uk/media/3883/West-Drayton-Green-map/pdf/ppWest_Drayton_Green_CA.pdf?m=1603209117577","geometry_precision_mix":"Row-level point from the adapter; source geocoding precision varies and may be approximate.:1","representation":"planning and built evidence grid cell","timing_note":"Filtered by event effective year. OSM mapped-visibility dates and administrative dates can differ from real-world physical change dates.","caveat":"Planning cells are derived from source-backed event locations; they are not parcel boundaries unless source geometry is separately present.","generated_from":"web/data/city-atlas/cities/london/events_1827.json","lifecycle_status":"uncertain","status":"source_record","cell_size_m":95,"intensity":0.289,"label":"Conservation area record: West Drayton Green"},"geometry":{"type":"Polygon","coordinates":[[[-0.474401,51.5019354],[-0.4730299,51.5019354],[-0.4730299,51.5027945],[-0.474401,51.5027945],[-0.474401,51.5019354]]]}}]}
