{"type":"FeatureCollection","name":"london_lens_detail_1993","metadata":{"schema_version":"1.0.0","city_id":"london","year":1993,"generated_at":"2026-05-20T16:13:07.811Z","source_paths":["web/data/city-atlas/cities/london/events_1993.json","web/data/city-atlas/cities/london/events.json","web/data/city-atlas/cities/london/transport_roads_base.geojson"],"method":"Derived OpenCityLog lens geometry built from source-backed event points plus existing OSM road/detail geometry. Grid cells aggregate events by effective year. Trace lines reuse nearest mapped road geometry for context.","caveats":["Derived cells are evidence grids, not surveyed parcels, catchments, zones, or administrative boundaries.","Trace lines are nearest mapped street or work-location context, not surveyed utility networks, measured traffic speed, spend, vacancy, or service quality. No capacity data is inferred.","Borough, citywide, statistical, corridor, and multi-site records are excluded from site-like lens geometry; they remain available in the event list and evidence records.","OSM mapped-visibility dates and administrative decision dates can differ from real-world physical change dates."],"feature_layers":{"planning_cell":60},"excluded_non_site_record_count":0,"excluded_non_site_reasons":{}},"features":[{"type":"Feature","properties":{"id":"lens-detail-london-1993-planning_cell-14","layer":"planning_cell","category":"built_environment","year":1993,"visible_year":1993,"title":"7 source-backed planning and built records","confidence":"documented","confidence_mix":"documented:7","event_count":7,"source_count":1,"source_ids":"lon-extra-planning-data-listed-building-outlines","event_ids":"lon_planning_designation_listed-building-outline_42115142,lon_planning_designation_listed-building-outline_42115143,lon_planning_designation_listed-building-outline_42115144,lon_planning_designation_listed-building-outline_42115146,lon_planning_designation_listed-building-outline_42115147,lon_planning_designation_listed-building-outline_42115148,lon_planning_designation_listed-building-outline_42115149","event_ids_all":"lon_planning_designation_listed-building-outline_42115142,lon_planning_designation_listed-building-outline_42115143,lon_planning_designation_listed-building-outline_42115144,lon_planning_designation_listed-building-outline_42115146,lon_planning_designation_listed-building-outline_42115147,lon_planning_designation_listed-building-outline_42115148,lon_planning_designation_listed-building-outline_42115149","source_urls":"https://www.planning.data.gov.uk/entity/42115142,https://www.planning.data.gov.uk/entity/42115143,https://www.planning.data.gov.uk/entity/42115144,https://www.planning.data.gov.uk/entity/42115146","geometry_precision_mix":"Row-level point from the adapter; source geocoding precision varies and may be approximate.:7","representation":"planning and built evidence grid cell","timing_note":"Filtered by event effective year. OSM mapped-visibility dates and administrative dates can differ from real-world physical change dates.","caveat":"Planning cells are derived from source-backed event locations; they are not parcel boundaries unless source geometry is separately present.","generated_from":"web/data/city-atlas/cities/london/events_1993.json","lifecycle_status":"uncertain","status":"source_record","cell_size_m":95,"intensity":0.866,"label":"Listed building outline: Bonded warehouse, sarsons vinegar factory"},"geometry":{"type":"Polygon","coordinates":[[[-0.0795315,51.500217],[-0.0781603,51.500217],[-0.0781603,51.5010762],[-0.0795315,51.5010762],[-0.0795315,51.500217]]]}},{"type":"Feature","properties":{"id":"lens-detail-london-1993-planning_cell-31","layer":"planning_cell","category":"built_environment","year":1993,"visible_year":1993,"title":"2 source-backed planning and built records","confidence":"documented","confidence_mix":"documented:2","event_count":2,"source_count":1,"source_ids":"lon-extra-planning-data-listed-building-outlines","event_ids":"lon_planning_designation_listed-building-outline_42120948,lon_planning_designation_listed-building-outline_42120950","event_ids_all":"lon_planning_designation_listed-building-outline_42120948,lon_planning_designation_listed-building-outline_42120950","source_urls":"https://www.planning.data.gov.uk/entity/42120948,https://www.planning.data.gov.uk/entity/42120950","geometry_precision_mix":"Row-level point from the adapter; source geocoding precision varies and may be approximate.:2","representation":"planning and built evidence grid cell","timing_note":"Filtered by event effective year. OSM mapped-visibility dates and administrative dates can differ from real-world physical change dates.","caveat":"Planning cells are derived from source-backed event locations; they are not parcel boundaries unless source geometry is separately present.","generated_from":"web/data/city-atlas/cities/london/events_1993.json","lifecycle_status":"uncertain","status":"source_record","cell_size_m":95,"intensity":0.458,"label":"Listed building outline: MONUMENT TO SIR ROBERT HARMSWORTH, WEST AVENUE, PLOT G8"},"geometry":{"type":"Polygon","coordinates":[[[-0.1837453,51.5904281],[-0.182374,51.5904281],[-0.182374,51.5912873],[-0.1837453,51.5912873],[-0.1837453,51.5904281]]]}},{"type":"Feature","properties":{"id":"lens-detail-london-1993-planning_cell-34","layer":"planning_cell","category":"built_environment","year":1993,"visible_year":1993,"title":"2 source-backed planning and built records","confidence":"documented","confidence_mix":"documented:2","event_count":2,"source_count":1,"source_ids":"lon-extra-planning-data-listed-building-outlines","event_ids":"lon_planning_designation_listed-building-outline_42149256,lon_planning_designation_listed-building-outline_42182910","event_ids_all":"lon_planning_designation_listed-building-outline_42149256,lon_planning_designation_listed-building-outline_42182910","source_urls":"https://www.planning.data.gov.uk/entity/42149256,https://www.planning.data.gov.uk/entity/42182910","geometry_precision_mix":"Row-level point from the adapter; source geocoding precision varies and may be approximate.:2","representation":"planning and built evidence grid cell","timing_note":"Filtered by event effective year. OSM mapped-visibility dates and administrative dates can differ from real-world physical change dates.","caveat":"Planning cells are derived from source-backed event locations; they are not parcel boundaries unless source geometry is separately present.","generated_from":"web/data/city-atlas/cities/london/events_1993.json","lifecycle_status":"uncertain","status":"source_record","cell_size_m":95,"intensity":0.458,"label":"Listed building outline: THE GATEWAYS"},"geometry":{"type":"Polygon","coordinates":[[[-0.1659192,51.4907664],[-0.164548,51.4907664],[-0.164548,51.4916255],[-0.1659192,51.4916255],[-0.1659192,51.4907664]]]}},{"type":"Feature","properties":{"id":"lens-detail-london-1993-planning_cell-35","layer":"planning_cell","category":"built_environment","year":1993,"visible_year":1993,"title":"2 source-backed planning and built records","confidence":"documented","confidence_mix":"documented:2","event_count":2,"source_count":1,"source_ids":"lon-extra-planning-data-listed-building-outlines","event_ids":"lon_planning_designation_listed-building-outline_42149264,lon_planning_designation_listed-building-outline_42182917","event_ids_all":"lon_planning_designation_listed-building-outline_42149264,lon_planning_designation_listed-building-outline_42182917","source_urls":"https://www.planning.data.gov.uk/entity/42149264,https://www.planning.data.gov.uk/entity/42182917","geometry_precision_mix":"Row-level point from the adapter; source geocoding precision varies and may be approximate.:2","representation":"planning and built evidence grid cell","timing_note":"Filtered by event effective year. OSM mapped-visibility dates and administrative dates can differ from real-world physical change dates.","caveat":"Planning cells are derived from source-backed event locations; they are not parcel boundaries unless source geometry is separately present.","generated_from":"web/data/city-atlas/cities/london/events_1993.json","lifecycle_status":"uncertain","status":"source_record","cell_size_m":95,"intensity":0.458,"label":"Listed building outline: 28 MALLORD STREET"},"geometry":{"type":"Polygon","coordinates":[[[-0.1755179,51.4856114],[-0.1741466,51.4856114],[-0.1741466,51.4864706],[-0.1755179,51.4864706],[-0.1755179,51.4856114]]]}},{"type":"Feature","properties":{"id":"lens-detail-london-1993-planning_cell-36","layer":"planning_cell","category":"built_environment","year":1993,"visible_year":1993,"title":"2 source-backed planning and built records","confidence":"documented","confidence_mix":"documented:2","event_count":2,"source_count":1,"source_ids":"lon-extra-planning-data-listed-building-outlines","event_ids":"lon_planning_designation_listed-building-outline_42149346,lon_planning_designation_listed-building-outline_42182998","event_ids_all":"lon_planning_designation_listed-building-outline_42149346,lon_planning_designation_listed-building-outline_42182998","source_urls":"https://www.planning.data.gov.uk/entity/42149346,https://www.planning.data.gov.uk/entity/42182998","geometry_precision_mix":"Row-level point from the adapter; source geocoding precision varies and may be approximate.:2","representation":"planning and built evidence grid cell","timing_note":"Filtered by event effective year. OSM mapped-visibility dates and administrative dates can differ from real-world physical change dates.","caveat":"Planning cells are derived from source-backed event locations; they are not parcel boundaries unless source geometry is separately present.","generated_from":"web/data/city-atlas/cities/london/events_1993.json","lifecycle_status":"uncertain","status":"source_record","cell_size_m":95,"intensity":0.458,"label":"Listed building outline: BOUSFIELD SCHOOL, INCLUDING WATER TOWER"},"geometry":{"type":"Polygon","coordinates":[[[-0.1864877,51.4899072],[-0.1851165,51.4899072],[-0.1851165,51.4907664],[-0.1864877,51.4907664],[-0.1864877,51.4899072]]]}},{"type":"Feature","properties":{"id":"lens-detail-london-1993-planning_cell-37","layer":"planning_cell","category":"built_environment","year":1993,"visible_year":1993,"title":"2 source-backed planning and built records","confidence":"documented","confidence_mix":"documented:2","event_count":2,"source_count":1,"source_ids":"lon-extra-planning-data-listed-building-outlines","event_ids":"lon_planning_designation_listed-building-outline_42149504,lon_planning_designation_listed-building-outline_42183154","event_ids_all":"lon_planning_designation_listed-building-outline_42149504,lon_planning_designation_listed-building-outline_42183154","source_urls":"https://www.planning.data.gov.uk/entity/42149504,https://www.planning.data.gov.uk/entity/42183154","geometry_precision_mix":"Row-level point from the adapter; source geocoding precision varies and may be approximate.:2","representation":"planning and built evidence grid cell","timing_note":"Filtered by event effective year. OSM mapped-visibility dates and administrative dates can differ from real-world physical change dates.","caveat":"Planning cells are derived from source-backed event locations; they are not parcel boundaries unless source geometry is separately present.","generated_from":"web/data/city-atlas/cities/london/events_1993.json","lifecycle_status":"uncertain","status":"source_record","cell_size_m":95,"intensity":0.458,"label":"Listed building outline: 107, 109 AND 111 OLD CHURCH STREET"},"geometry":{"type":"Polygon","coordinates":[[[-0.1741466,51.4856114],[-0.1727754,51.4856114],[-0.1727754,51.4864706],[-0.1741466,51.4864706],[-0.1741466,51.4856114]]]}},{"type":"Feature","properties":{"id":"lens-detail-london-1993-planning_cell-40","layer":"planning_cell","category":"built_environment","year":1993,"visible_year":1993,"title":"2 source-backed planning and built records","confidence":"documented","confidence_mix":"documented:2","event_count":2,"source_count":1,"source_ids":"lon-extra-planning-data-listed-building-outlines","event_ids":"lon_planning_designation_listed-building-outline_42158670,lon_planning_designation_listed-building-outline_42172712","event_ids_all":"lon_planning_designation_listed-building-outline_42158670,lon_planning_designation_listed-building-outline_42172712","source_urls":"https://www.planning.data.gov.uk/entity/42158670,https://www.planning.data.gov.uk/entity/42172712","geometry_precision_mix":"Row-level point from the adapter; source geocoding precision varies and may be approximate.:2","representation":"planning and built evidence grid cell","timing_note":"Filtered by event effective year. OSM mapped-visibility dates and administrative dates can differ from real-world physical change dates.","caveat":"Planning cells are derived from source-backed event locations; they are not parcel boundaries unless source geometry is separately present.","generated_from":"web/data/city-atlas/cities/london/events_1993.json","lifecycle_status":"uncertain","status":"source_record","cell_size_m":95,"intensity":0.458,"label":"Listed building outline: CHINGFORD MILL PUMPING STATION"},"geometry":{"type":"Polygon","coordinates":[[[-0.0342808,51.6136253],[-0.0329096,51.6136253],[-0.0329096,51.6144844],[-0.0342808,51.6144844],[-0.0342808,51.6136253]]]}},{"type":"Feature","properties":{"id":"lens-detail-london-1993-planning_cell-46","layer":"planning_cell","category":"built_environment","year":1993,"visible_year":1993,"title":"2 source-backed planning and built records","confidence":"documented","confidence_mix":"documented:2","event_count":2,"source_count":1,"source_ids":"lon-extra-planning-data-listed-building-outlines","event_ids":"lon_planning_designation_listed-building-outline_42189289,lon_planning_designation_listed-building-outline_42189359","event_ids_all":"lon_planning_designation_listed-building-outline_42189289,lon_planning_designation_listed-building-outline_42189359","source_urls":"https://www.planning.data.gov.uk/entity/42189289,https://www.planning.data.gov.uk/entity/42189359","geometry_precision_mix":"Row-level point from the adapter; source geocoding precision varies and may be approximate.:2","representation":"planning and built evidence grid cell","timing_note":"Filtered by event effective year. OSM mapped-visibility dates and administrative dates can differ from real-world physical change dates.","caveat":"Planning cells are derived from source-backed event locations; they are not parcel boundaries unless source geometry is separately present.","generated_from":"web/data/city-atlas/cities/london/events_1993.json","lifecycle_status":"uncertain","status":"source_record","cell_size_m":95,"intensity":0.458,"label":"Listed building outline: FORMER MASTER SHIPWRIGHT'S HOUSE AT ROYAL DOCKYARD DEPTFORD WATERGATE STREET DEPTFORD"},"geometry":{"type":"Polygon","coordinates":[[[-0.0260534,51.4847523],[-0.0246822,51.4847523],[-0.0246822,51.4856114],[-0.0260534,51.4856114],[-0.0260534,51.4847523]]]}},{"type":"Feature","properties":{"id":"lens-detail-london-1993-planning_cell-47","layer":"planning_cell","category":"built_environment","year":1993,"visible_year":1993,"title":"2 source-backed planning and built records","confidence":"documented","confidence_mix":"documented:2","event_count":2,"source_count":1,"source_ids":"lon-extra-planning-data-listed-building-outlines","event_ids":"lon_planning_designation_listed-building-outline_42189319,lon_planning_designation_listed-building-outline_42189332","event_ids_all":"lon_planning_designation_listed-building-outline_42189319,lon_planning_designation_listed-building-outline_42189332","source_urls":"https://www.planning.data.gov.uk/entity/42189319,https://www.planning.data.gov.uk/entity/42189332","geometry_precision_mix":"Row-level point from the adapter; source geocoding precision varies and may be approximate.:2","representation":"planning and built evidence grid cell","timing_note":"Filtered by event effective year. OSM mapped-visibility dates and administrative dates can differ from real-world physical change dates.","caveat":"Planning cells are derived from source-backed event locations; they are not parcel boundaries unless source geometry is separately present.","generated_from":"web/data/city-atlas/cities/london/events_1993.json","lifecycle_status":"uncertain","status":"source_record","cell_size_m":95,"intensity":0.458,"label":"Listed building outline: THE HOLLIES 3 LEE TERRACE BLACKHEATH LEWISHAM"},"geometry":{"type":"Polygon","coordinates":[[[0.0013712,51.4632735],[0.0027425,51.4632735],[0.0027425,51.4641326],[0.0013712,51.4641326],[0.0013712,51.4632735]]]}},{"type":"Feature","properties":{"id":"lens-detail-london-1993-planning_cell-0","layer":"planning_cell","category":"built_environment","year":1993,"visible_year":1993,"title":"1 source-backed planning and built record","confidence":"documented","confidence_mix":"documented:1","event_count":1,"source_count":1,"source_ids":"lon-extra-planning-data-conservation-areas","event_ids":"lon_planning_designation_conservation-area_44001060","event_ids_all":"lon_planning_designation_conservation-area_44001060","source_urls":"https://www.wandsworth.gov.uk/planning-and-building-control/building-conservation-and-design/conservation-areas/conservation-area-appraisals/","geometry_precision_mix":"Row-level point from the adapter; source geocoding precision varies and may be approximate.:1","representation":"planning and built evidence grid cell","timing_note":"Filtered by event effective year. OSM mapped-visibility dates and administrative dates can differ from real-world physical change dates.","caveat":"Planning cells are derived from source-backed event locations; they are not parcel boundaries unless source geometry is separately present.","generated_from":"web/data/city-atlas/cities/london/events_1993.json","lifecycle_status":"uncertain","status":"source_record","cell_size_m":95,"intensity":0.289,"label":"Conservation area record: Wimbledon North"},"geometry":{"type":"Polygon","coordinates":[[[-0.2097987,51.4392172],[-0.2084275,51.4392172],[-0.2084275,51.4400763],[-0.2097987,51.4400763],[-0.2097987,51.4392172]]]}},{"type":"Feature","properties":{"id":"lens-detail-london-1993-planning_cell-1","layer":"planning_cell","category":"built_environment","year":1993,"visible_year":1993,"title":"1 source-backed planning and built record","confidence":"documented","confidence_mix":"documented:1","event_count":1,"source_count":1,"source_ids":"lon-extra-planning-data-conservation-areas","event_ids":"lon_planning_designation_conservation-area_44002327","event_ids_all":"lon_planning_designation_conservation-area_44002327","source_urls":"https://www.ealing.gov.uk/info/201158/conservation_areas/1025/ealing_conservation_areas/3","geometry_precision_mix":"Row-level point from the adapter; source geocoding precision varies and may be approximate.:1","representation":"planning and built evidence grid cell","timing_note":"Filtered by event effective year. OSM mapped-visibility dates and administrative dates can differ from real-world physical change dates.","caveat":"Planning cells are derived from source-backed event locations; they are not parcel boundaries unless source geometry is separately present.","generated_from":"web/data/city-atlas/cities/london/events_1993.json","lifecycle_status":"uncertain","status":"source_record","cell_size_m":95,"intensity":0.289,"label":"Conservation area record: Creffield"},"geometry":{"type":"Polygon","coordinates":[[[-0.2852165,51.511386],[-0.2838453,51.511386],[-0.2838453,51.5122452],[-0.2852165,51.5122452],[-0.2852165,51.511386]]]}},{"type":"Feature","properties":{"id":"lens-detail-london-1993-planning_cell-10","layer":"planning_cell","category":"built_environment","year":1993,"visible_year":1993,"title":"1 source-backed planning and built record","confidence":"documented","confidence_mix":"documented:1","event_count":1,"source_count":1,"source_ids":"lon-extra-planning-data-conservation-areas","event_ids":"lon_planning_designation_conservation-area_44014806","event_ids_all":"lon_planning_designation_conservation-area_44014806","source_urls":"https://www.brent.gov.uk/media/16402714/homestead-park-conservation-area-appraisal.pdf","geometry_precision_mix":"Row-level point from the adapter; source geocoding precision varies and may be approximate.:1","representation":"planning and built evidence grid cell","timing_note":"Filtered by event effective year. OSM mapped-visibility dates and administrative dates can differ from real-world physical change dates.","caveat":"Planning cells are derived from source-backed event locations; they are not parcel boundaries unless source geometry is separately present.","generated_from":"web/data/city-atlas/cities/london/events_1993.json","lifecycle_status":"uncertain","status":"source_record","cell_size_m":95,"intensity":0.289,"label":"Conservation area record: Homestead Park"},"geometry":{"type":"Polygon","coordinates":[[[-0.2427083,51.5603578],[-0.2413371,51.5603578],[-0.2413371,51.5612169],[-0.2427083,51.5612169],[-0.2427083,51.5603578]]]}},{"type":"Feature","properties":{"id":"lens-detail-london-1993-planning_cell-11","layer":"planning_cell","category":"built_environment","year":1993,"visible_year":1993,"title":"1 source-backed planning and built record","confidence":"documented","confidence_mix":"documented:1","event_count":1,"source_count":1,"source_ids":"lon-extra-planning-data-conservation-areas","event_ids":"lon_planning_designation_conservation-area_44014807","event_ids_all":"lon_planning_designation_conservation-area_44014807","source_urls":"https://www.brent.gov.uk/media/16402719/mount-stewart-conservation-area-appraisal.pdf","geometry_precision_mix":"Row-level point from the adapter; source geocoding precision varies and may be approximate.:1","representation":"planning and built evidence grid cell","timing_note":"Filtered by event effective year. OSM mapped-visibility dates and administrative dates can differ from real-world physical change dates.","caveat":"Planning cells are derived from source-backed event locations; they are not parcel boundaries unless source geometry is separately present.","generated_from":"web/data/city-atlas/cities/london/events_1993.json","lifecycle_status":"uncertain","status":"source_record","cell_size_m":95,"intensity":0.289,"label":"Conservation area record: Mount Stewart"},"geometry":{"type":"Polygon","coordinates":[[[-0.3003001,51.5775408],[-0.2989289,51.5775408],[-0.2989289,51.5784],[-0.3003001,51.5784],[-0.3003001,51.5775408]]]}},{"type":"Feature","properties":{"id":"lens-detail-london-1993-planning_cell-12","layer":"planning_cell","category":"built_environment","year":1993,"visible_year":1993,"title":"1 source-backed planning and built record","confidence":"documented","confidence_mix":"documented:1","event_count":1,"source_count":1,"source_ids":"lon-extra-planning-data-conservation-areas","event_ids":"lon_planning_designation_conservation-area_44014817","event_ids_all":"lon_planning_designation_conservation-area_44014817","source_urls":"https://legacy.brent.gov.uk/media/16402716/kilburn-conservation-area-appraisal.pdf?_ga=2.205343000.920431038.1753180952-2077217529.1691745118","geometry_precision_mix":"Row-level point from the adapter; source geocoding precision varies and may be approximate.:1","representation":"planning and built evidence grid cell","timing_note":"Filtered by event effective year. OSM mapped-visibility dates and administrative dates can differ from real-world physical change dates.","caveat":"Planning cells are derived from source-backed event locations; they are not parcel boundaries unless source geometry is separately present.","generated_from":"web/data/city-atlas/cities/london/events_1993.json","lifecycle_status":"uncertain","status":"source_record","cell_size_m":95,"intensity":0.289,"label":"Conservation area record: Kilburn"},"geometry":{"type":"Polygon","coordinates":[[[-0.1988288,51.5363015],[-0.1974576,51.5363015],[-0.1974576,51.5371606],[-0.1988288,51.5371606],[-0.1988288,51.5363015]]]}},{"type":"Feature","properties":{"id":"lens-detail-london-1993-planning_cell-13","layer":"planning_cell","category":"built_environment","year":1993,"visible_year":1993,"title":"1 source-backed planning and built record","confidence":"documented","confidence_mix":"documented:1","event_count":1,"source_count":1,"source_ids":"lon-extra-planning-data-conservation-areas","event_ids":"lon_planning_designation_conservation-area_44014818","event_ids_all":"lon_planning_designation_conservation-area_44014818","source_urls":"https://www.brent.gov.uk/media/16402731/willesden-green-conservation-area-appraisal.pdf","geometry_precision_mix":"Row-level point from the adapter; source geocoding precision varies and may be approximate.:1","representation":"planning and built evidence grid cell","timing_note":"Filtered by event effective year. OSM mapped-visibility dates and administrative dates can differ from real-world physical change dates.","caveat":"Planning cells are derived from source-backed event locations; they are not parcel boundaries unless source geometry is separately present.","generated_from":"web/data/city-atlas/cities/london/events_1993.json","lifecycle_status":"uncertain","status":"source_record","cell_size_m":95,"intensity":0.289,"label":"Conservation area record: Willesden Green"},"geometry":{"type":"Polygon","coordinates":[[[-0.2262535,51.5466113],[-0.2248823,51.5466113],[-0.2248823,51.5474705],[-0.2262535,51.5474705],[-0.2262535,51.5466113]]]}},{"type":"Feature","properties":{"id":"lens-detail-london-1993-planning_cell-15","layer":"planning_cell","category":"built_environment","year":1993,"visible_year":1993,"title":"1 source-backed planning and built record","confidence":"documented","confidence_mix":"documented:1","event_count":1,"source_count":1,"source_ids":"lon-extra-planning-data-listed-building-outlines","event_ids":"lon_planning_designation_listed-building-outline_42115145","event_ids_all":"lon_planning_designation_listed-building-outline_42115145","source_urls":"https://www.planning.data.gov.uk/entity/42115145","geometry_precision_mix":"Row-level point from the adapter; source geocoding precision varies and may be approximate.:1","representation":"planning and built evidence grid cell","timing_note":"Filtered by event effective year. OSM mapped-visibility dates and administrative dates can differ from real-world physical change dates.","caveat":"Planning cells are derived from source-backed event locations; they are not parcel boundaries unless source geometry is separately present.","generated_from":"web/data/city-atlas/cities/london/events_1993.json","lifecycle_status":"uncertain","status":"source_record","cell_size_m":95,"intensity":0.289,"label":"Listed building outline: Fermentation vats, sarsons vinegar factory"},"geometry":{"type":"Polygon","coordinates":[[[-0.0795315,51.5010762],[-0.0781603,51.5010762],[-0.0781603,51.5019354],[-0.0795315,51.5019354],[-0.0795315,51.5010762]]]}},{"type":"Feature","properties":{"id":"lens-detail-london-1993-planning_cell-16","layer":"planning_cell","category":"built_environment","year":1993,"visible_year":1993,"title":"1 source-backed planning and built record","confidence":"documented","confidence_mix":"documented:1","event_count":1,"source_count":1,"source_ids":"lon-extra-planning-data-listed-building-outlines","event_ids":"lon_planning_designation_listed-building-outline_42115335","event_ids_all":"lon_planning_designation_listed-building-outline_42115335","source_urls":"https://www.planning.data.gov.uk/entity/42115335","geometry_precision_mix":"Row-level point from the adapter; source geocoding precision varies and may be approximate.:1","representation":"planning and built evidence grid cell","timing_note":"Filtered by event effective year. OSM mapped-visibility dates and administrative dates can differ from real-world physical change dates.","caveat":"Planning cells are derived from source-backed event locations; they are not parcel boundaries unless source geometry is separately present.","generated_from":"web/data/city-atlas/cities/london/events_1993.json","lifecycle_status":"uncertain","status":"source_record","cell_size_m":95,"intensity":0.289,"label":"Listed building outline: Camberwell public baths"},"geometry":{"type":"Polygon","coordinates":[[[-0.0918726,51.4744425],[-0.0905014,51.4744425],[-0.0905014,51.4753016],[-0.0918726,51.4753016],[-0.0918726,51.4744425]]]}},{"type":"Feature","properties":{"id":"lens-detail-london-1993-planning_cell-17","layer":"planning_cell","category":"built_environment","year":1993,"visible_year":1993,"title":"1 source-backed planning and built record","confidence":"documented","confidence_mix":"documented:1","event_count":1,"source_count":1,"source_ids":"lon-extra-planning-data-listed-building-outlines","event_ids":"lon_planning_designation_listed-building-outline_42115482","event_ids_all":"lon_planning_designation_listed-building-outline_42115482","source_urls":"https://www.planning.data.gov.uk/entity/42115482","geometry_precision_mix":"Row-level point from the adapter; source geocoding precision varies and may be approximate.:1","representation":"planning and built evidence grid cell","timing_note":"Filtered by event effective year. OSM mapped-visibility dates and administrative dates can differ from real-world physical change dates.","caveat":"Planning cells are derived from source-backed event locations; they are not parcel boundaries unless source geometry is separately present.","generated_from":"web/data/city-atlas/cities/london/events_1993.json","lifecycle_status":"uncertain","status":"source_record","cell_size_m":95,"intensity":0.289,"label":"Listed building outline: Dulwich Leisure Centre"},"geometry":{"type":"Polygon","coordinates":[[[-0.0726754,51.460696],[-0.0713041,51.460696],[-0.0713041,51.4615552],[-0.0726754,51.4615552],[-0.0726754,51.460696]]]}},{"type":"Feature","properties":{"id":"lens-detail-london-1993-planning_cell-18","layer":"planning_cell","category":"built_environment","year":1993,"visible_year":1993,"title":"1 source-backed planning and built record","confidence":"documented","confidence_mix":"documented:1","event_count":1,"source_count":1,"source_ids":"lon-extra-planning-data-listed-building-outlines","event_ids":"lon_planning_designation_listed-building-outline_42115774","event_ids_all":"lon_planning_designation_listed-building-outline_42115774","source_urls":"https://www.planning.data.gov.uk/entity/42115774","geometry_precision_mix":"Row-level point from the adapter; source geocoding precision varies and may be approximate.:1","representation":"planning and built evidence grid cell","timing_note":"Filtered by event effective year. OSM mapped-visibility dates and administrative dates can differ from real-world physical change dates.","caveat":"Planning cells are derived from source-backed event locations; they are not parcel boundaries unless source geometry is separately present.","generated_from":"web/data/city-atlas/cities/london/events_1993.json","lifecycle_status":"uncertain","status":"source_record","cell_size_m":95,"intensity":0.289,"label":"Listed building outline: Beltwood House"},"geometry":{"type":"Polygon","coordinates":[[[-0.0713041,51.432344],[-0.0699329,51.432344],[-0.0699329,51.4332031],[-0.0713041,51.4332031],[-0.0713041,51.432344]]]}},{"type":"Feature","properties":{"id":"lens-detail-london-1993-planning_cell-19","layer":"planning_cell","category":"built_environment","year":1993,"visible_year":1993,"title":"1 source-backed planning and built record","confidence":"documented","confidence_mix":"documented:1","event_count":1,"source_count":1,"source_ids":"lon-extra-planning-data-listed-building-outlines","event_ids":"lon_planning_designation_listed-building-outline_42115817","event_ids_all":"lon_planning_designation_listed-building-outline_42115817","source_urls":"https://www.planning.data.gov.uk/entity/42115817","geometry_precision_mix":"Row-level point from the adapter; source geocoding precision varies and may be approximate.:1","representation":"planning and built evidence grid cell","timing_note":"Filtered by event effective year. OSM mapped-visibility dates and administrative dates can differ from real-world physical change dates.","caveat":"Planning cells are derived from source-backed event locations; they are not parcel boundaries unless source geometry is separately present.","generated_from":"web/data/city-atlas/cities/london/events_1993.json","lifecycle_status":"uncertain","status":"source_record","cell_size_m":95,"intensity":0.289,"label":"Listed building outline: St Gile’s hospital, administrative block with attached ward block"},"geometry":{"type":"Polygon","coordinates":[[[-0.0850165,51.4744425],[-0.0836452,51.4744425],[-0.0836452,51.4753016],[-0.0850165,51.4753016],[-0.0850165,51.4744425]]]}},{"type":"Feature","properties":{"id":"lens-detail-london-1993-planning_cell-2","layer":"planning_cell","category":"built_environment","year":1993,"visible_year":1993,"title":"1 source-backed planning and built record","confidence":"documented","confidence_mix":"documented:1","event_count":1,"source_count":1,"source_ids":"lon-extra-planning-data-conservation-areas","event_ids":"lon_planning_designation_conservation-area_44002826","event_ids_all":"lon_planning_designation_conservation-area_44002826","source_urls":"https://www.bromley.gov.uk/conservation/conservation-areas-2","geometry_precision_mix":"Row-level point from the adapter; source geocoding precision varies and may be approximate.:1","representation":"planning and built evidence grid cell","timing_note":"Filtered by event effective year. OSM mapped-visibility dates and administrative dates can differ from real-world physical change dates.","caveat":"Planning cells are derived from source-backed event locations; they are not parcel boundaries unless source geometry is separately present.","generated_from":"web/data/city-atlas/cities/london/events_1993.json","lifecycle_status":"uncertain","status":"source_record","cell_size_m":95,"intensity":0.289,"label":"Conservation area record: Biggin Hill RAF Station"},"geometry":{"type":"Polygon","coordinates":[[[0.023311,51.3275273],[0.0246822,51.3275273],[0.0246822,51.3283864],[0.023311,51.3283864],[0.023311,51.3275273]]]}},{"type":"Feature","properties":{"id":"lens-detail-london-1993-planning_cell-20","layer":"planning_cell","category":"built_environment","year":1993,"visible_year":1993,"title":"1 source-backed planning and built record","confidence":"documented","confidence_mix":"documented:1","event_count":1,"source_count":1,"source_ids":"lon-extra-planning-data-listed-building-outlines","event_ids":"lon_planning_designation_listed-building-outline_42115818","event_ids_all":"lon_planning_designation_listed-building-outline_42115818","source_urls":"https://www.planning.data.gov.uk/entity/42115818","geometry_precision_mix":"Row-level point from the adapter; source geocoding precision varies and may be approximate.:1","representation":"planning and built evidence grid cell","timing_note":"Filtered by event effective year. OSM mapped-visibility dates and administrative dates can differ from real-world physical change dates.","caveat":"Planning cells are derived from source-backed event locations; they are not parcel boundaries unless source geometry is separately present.","generated_from":"web/data/city-atlas/cities/london/events_1993.json","lifecycle_status":"uncertain","status":"source_record","cell_size_m":95,"intensity":0.289,"label":"Listed building outline: Wall and gates fronting St Gile’s hospital administrative and ward blocks"},"geometry":{"type":"Polygon","coordinates":[[[-0.0850165,51.4753016],[-0.0836452,51.4753016],[-0.0836452,51.4761608],[-0.0850165,51.4761608],[-0.0850165,51.4753016]]]}},{"type":"Feature","properties":{"id":"lens-detail-london-1993-planning_cell-21","layer":"planning_cell","category":"built_environment","year":1993,"visible_year":1993,"title":"1 source-backed planning and built record","confidence":"documented","confidence_mix":"documented:1","event_count":1,"source_count":1,"source_ids":"lon-extra-planning-data-listed-building-outlines","event_ids":"lon_planning_designation_listed-building-outline_42115820","event_ids_all":"lon_planning_designation_listed-building-outline_42115820","source_urls":"https://www.planning.data.gov.uk/entity/42115820","geometry_precision_mix":"Row-level point from the adapter; source geocoding precision varies and may be approximate.:1","representation":"planning and built evidence grid cell","timing_note":"Filtered by event effective year. OSM mapped-visibility dates and administrative dates can differ from real-world physical change dates.","caveat":"Planning cells are derived from source-backed event locations; they are not parcel boundaries unless source geometry is separately present.","generated_from":"web/data/city-atlas/cities/london/events_1993.json","lifecycle_status":"uncertain","status":"source_record","cell_size_m":95,"intensity":0.289,"label":"Listed building outline: Geoffrey Chaucer school"},"geometry":{"type":"Polygon","coordinates":[[[-0.0918726,51.4950621],[-0.0905014,51.4950621],[-0.0905014,51.4959213],[-0.0918726,51.4959213],[-0.0918726,51.4950621]]]}},{"type":"Feature","properties":{"id":"lens-detail-london-1993-planning_cell-22","layer":"planning_cell","category":"built_environment","year":1993,"visible_year":1993,"title":"1 source-backed planning and built record","confidence":"documented","confidence_mix":"documented:1","event_count":1,"source_count":1,"source_ids":"lon-extra-planning-data-listed-building-outlines","event_ids":"lon_planning_designation_listed-building-outline_42115999","event_ids_all":"lon_planning_designation_listed-building-outline_42115999","source_urls":"https://www.planning.data.gov.uk/entity/42115999","geometry_precision_mix":"Row-level point from the adapter; source geocoding precision varies and may be approximate.:1","representation":"planning and built evidence grid cell","timing_note":"Filtered by event effective year. OSM mapped-visibility dates and administrative dates can differ from real-world physical change dates.","caveat":"Planning cells are derived from source-backed event locations; they are not parcel boundaries unless source geometry is separately present.","generated_from":"web/data/city-atlas/cities/london/events_1993.json","lifecycle_status":"uncertain","status":"source_record","cell_size_m":95,"intensity":0.289,"label":"Listed building outline: (West side) Kent House"},"geometry":{"type":"Polygon","coordinates":[[[-0.1494644,51.5431747],[-0.1480932,51.5431747],[-0.1480932,51.5440339],[-0.1494644,51.5440339],[-0.1494644,51.5431747]]]}},{"type":"Feature","properties":{"id":"lens-detail-london-1993-planning_cell-23","layer":"planning_cell","category":"built_environment","year":1993,"visible_year":1993,"title":"1 source-backed planning and built record","confidence":"documented","confidence_mix":"documented:1","event_count":1,"source_count":1,"source_ids":"lon-extra-planning-data-listed-building-outlines","event_ids":"lon_planning_designation_listed-building-outline_42116962","event_ids_all":"lon_planning_designation_listed-building-outline_42116962","source_urls":"https://www.planning.data.gov.uk/entity/42116962","geometry_precision_mix":"Row-level point from the adapter; source geocoding precision varies and may be approximate.:1","representation":"planning and built evidence grid cell","timing_note":"Filtered by event effective year. OSM mapped-visibility dates and administrative dates can differ from real-world physical change dates.","caveat":"Planning cells are derived from source-backed event locations; they are not parcel boundaries unless source geometry is separately present.","generated_from":"web/data/city-atlas/cities/london/events_1993.json","lifecycle_status":"uncertain","status":"source_record","cell_size_m":95,"intensity":0.289,"label":"Listed building outline: (West side) Palmer Memorial Drinking Fountain"},"geometry":{"type":"Polygon","coordinates":[[[-0.1768891,51.544893],[-0.1755179,51.544893],[-0.1755179,51.5457522],[-0.1768891,51.5457522],[-0.1768891,51.544893]]]}},{"type":"Feature","properties":{"id":"lens-detail-london-1993-planning_cell-24","layer":"planning_cell","category":"built_environment","year":1993,"visible_year":1993,"title":"1 source-backed planning and built record","confidence":"documented","confidence_mix":"documented:1","event_count":1,"source_count":1,"source_ids":"lon-extra-planning-data-listed-building-outlines","event_ids":"lon_planning_designation_listed-building-outline_42117030","event_ids_all":"lon_planning_designation_listed-building-outline_42117030","source_urls":"https://www.planning.data.gov.uk/entity/42117030","geometry_precision_mix":"Row-level point from the adapter; source geocoding precision varies and may be approximate.:1","representation":"planning and built evidence grid cell","timing_note":"Filtered by event effective year. OSM mapped-visibility dates and administrative dates can differ from real-world physical change dates.","caveat":"Planning cells are derived from source-backed event locations; they are not parcel boundaries unless source geometry is separately present.","generated_from":"web/data/city-atlas/cities/london/events_1993.json","lifecycle_status":"uncertain","status":"source_record","cell_size_m":95,"intensity":0.289,"label":"Listed building outline: Public Lavatories"},"geometry":{"type":"Polygon","coordinates":[[[-0.1659192,51.5543437],[-0.164548,51.5543437],[-0.164548,51.5552029],[-0.1659192,51.5552029],[-0.1659192,51.5543437]]]}},{"type":"Feature","properties":{"id":"lens-detail-london-1993-planning_cell-25","layer":"planning_cell","category":"built_environment","year":1993,"visible_year":1993,"title":"1 source-backed planning and built record","confidence":"documented","confidence_mix":"documented:1","event_count":1,"source_count":1,"source_ids":"lon-extra-planning-data-listed-building-outlines","event_ids":"lon_planning_designation_listed-building-outline_42120940","event_ids_all":"lon_planning_designation_listed-building-outline_42120940","source_urls":"https://www.planning.data.gov.uk/entity/42120940","geometry_precision_mix":"Row-level point from the adapter; source geocoding precision varies and may be approximate.:1","representation":"planning and built evidence grid cell","timing_note":"Filtered by event effective year. OSM mapped-visibility dates and administrative dates can differ from real-world physical change dates.","caveat":"Planning cells are derived from source-backed event locations; they are not parcel boundaries unless source geometry is separately present.","generated_from":"web/data/city-atlas/cities/london/events_1993.json","lifecycle_status":"uncertain","status":"source_record","cell_size_m":95,"intensity":0.289,"label":"Listed building outline: DANEGROVE SCHOOL"},"geometry":{"type":"Polygon","coordinates":[[[-0.1563206,51.6411182],[-0.1549494,51.6411182],[-0.1549494,51.6419773],[-0.1563206,51.6419773],[-0.1563206,51.6411182]]]}},{"type":"Feature","properties":{"id":"lens-detail-london-1993-planning_cell-26","layer":"planning_cell","category":"built_environment","year":1993,"visible_year":1993,"title":"1 source-backed planning and built record","confidence":"documented","confidence_mix":"documented:1","event_count":1,"source_count":1,"source_ids":"lon-extra-planning-data-listed-building-outlines","event_ids":"lon_planning_designation_listed-building-outline_42120941","event_ids_all":"lon_planning_designation_listed-building-outline_42120941","source_urls":"https://www.planning.data.gov.uk/entity/42120941","geometry_precision_mix":"Row-level point from the adapter; source geocoding precision varies and may be approximate.:1","representation":"planning and built evidence grid cell","timing_note":"Filtered by event effective year. OSM mapped-visibility dates and administrative dates can differ from real-world physical change dates.","caveat":"Planning cells are derived from source-backed event locations; they are not parcel boundaries unless source geometry is separately present.","generated_from":"web/data/city-atlas/cities/london/events_1993.json","lifecycle_status":"uncertain","status":"source_record","cell_size_m":95,"intensity":0.289,"label":"Listed building outline: GOLDERS GREEN HIPPODROME"},"geometry":{"type":"Polygon","coordinates":[[[-0.1947151,51.5715268],[-0.1933439,51.5715268],[-0.1933439,51.5723859],[-0.1947151,51.5723859],[-0.1947151,51.5715268]]]}},{"type":"Feature","properties":{"id":"lens-detail-london-1993-planning_cell-27","layer":"planning_cell","category":"built_environment","year":1993,"visible_year":1993,"title":"1 source-backed planning and built record","confidence":"documented","confidence_mix":"documented:1","event_count":1,"source_count":1,"source_ids":"lon-extra-planning-data-listed-building-outlines","event_ids":"lon_planning_designation_listed-building-outline_42120942","event_ids_all":"lon_planning_designation_listed-building-outline_42120942","source_urls":"https://www.planning.data.gov.uk/entity/42120942","geometry_precision_mix":"Row-level point from the adapter; source geocoding precision varies and may be approximate.:1","representation":"planning and built evidence grid cell","timing_note":"Filtered by event effective year. OSM mapped-visibility dates and administrative dates can differ from real-world physical change dates.","caveat":"Planning cells are derived from source-backed event locations; they are not parcel boundaries unless source geometry is separately present.","generated_from":"web/data/city-atlas/cities/london/events_1993.json","lifecycle_status":"uncertain","status":"source_record","cell_size_m":95,"intensity":0.289,"label":"Listed building outline: THE VICARAGE"},"geometry":{"type":"Polygon","coordinates":[[[-0.2002001,51.6325266],[-0.1988288,51.6325266],[-0.1988288,51.6333858],[-0.2002001,51.6333858],[-0.2002001,51.6325266]]]}},{"type":"Feature","properties":{"id":"lens-detail-london-1993-planning_cell-28","layer":"planning_cell","category":"built_environment","year":1993,"visible_year":1993,"title":"1 source-backed planning and built record","confidence":"documented","confidence_mix":"documented:1","event_count":1,"source_count":1,"source_ids":"lon-extra-planning-data-listed-building-outlines","event_ids":"lon_planning_designation_listed-building-outline_42120943","event_ids_all":"lon_planning_designation_listed-building-outline_42120943","source_urls":"https://www.planning.data.gov.uk/entity/42120943","geometry_precision_mix":"Row-level point from the adapter; source geocoding precision varies and may be approximate.:1","representation":"planning and built evidence grid cell","timing_note":"Filtered by event effective year. OSM mapped-visibility dates and administrative dates can differ from real-world physical change dates.","caveat":"Planning cells are derived from source-backed event locations; they are not parcel boundaries unless source geometry is separately present.","generated_from":"web/data/city-atlas/cities/london/events_1993.json","lifecycle_status":"uncertain","status":"source_record","cell_size_m":95,"intensity":0.289,"label":"Listed building outline: ANGLICAN CHAPEL, EAST FINCHLEY CEMETERY"},"geometry":{"type":"Polygon","coordinates":[[[-0.182374,51.5921464],[-0.1810028,51.5921464],[-0.1810028,51.5930056],[-0.182374,51.5930056],[-0.182374,51.5921464]]]}},{"type":"Feature","properties":{"id":"lens-detail-london-1993-planning_cell-29","layer":"planning_cell","category":"built_environment","year":1993,"visible_year":1993,"title":"1 source-backed planning and built record","confidence":"documented","confidence_mix":"documented:1","event_count":1,"source_count":1,"source_ids":"lon-extra-planning-data-listed-building-outlines","event_ids":"lon_planning_designation_listed-building-outline_42120945","event_ids_all":"lon_planning_designation_listed-building-outline_42120945","source_urls":"https://www.planning.data.gov.uk/entity/42120945","geometry_precision_mix":"Row-level point from the adapter; source geocoding precision varies and may be approximate.:1","representation":"planning and built evidence grid cell","timing_note":"Filtered by event effective year. OSM mapped-visibility dates and administrative dates can differ from real-world physical change dates.","caveat":"Planning cells are derived from source-backed event locations; they are not parcel boundaries unless source geometry is separately present.","generated_from":"web/data/city-atlas/cities/london/events_1993.json","lifecycle_status":"uncertain","status":"source_record","cell_size_m":95,"intensity":0.289,"label":"Listed building outline: NON CONFORMIST CHAPEL, EAST FINCHLEY CEMETERY"},"geometry":{"type":"Polygon","coordinates":[[[-0.1851165,51.5904281],[-0.1837453,51.5904281],[-0.1837453,51.5912873],[-0.1851165,51.5912873],[-0.1851165,51.5904281]]]}},{"type":"Feature","properties":{"id":"lens-detail-london-1993-planning_cell-3","layer":"planning_cell","category":"built_environment","year":1993,"visible_year":1993,"title":"1 source-backed planning and built record","confidence":"documented","confidence_mix":"documented:1","event_count":1,"source_count":1,"source_ids":"lon-extra-planning-data-conservation-areas","event_ids":"lon_planning_designation_conservation-area_44003446","event_ids_all":"lon_planning_designation_conservation-area_44003446","source_urls":"https://www.planning.data.gov.uk/entity/44003446","geometry_precision_mix":"Row-level point from the adapter; source geocoding precision varies and may be approximate.:1","representation":"planning and built evidence grid cell","timing_note":"Filtered by event effective year. OSM mapped-visibility dates and administrative dates can differ from real-world physical change dates.","caveat":"Planning cells are derived from source-backed event locations; they are not parcel boundaries unless source geometry is separately present.","generated_from":"web/data/city-atlas/cities/london/events_1993.json","lifecycle_status":"uncertain","status":"source_record","cell_size_m":95,"intensity":0.289,"label":"Conservation area record: St Frideswide's"},"geometry":{"type":"Polygon","coordinates":[[[-0.0109699,51.511386],[-0.0095986,51.511386],[-0.0095986,51.5122452],[-0.0109699,51.5122452],[-0.0109699,51.511386]]]}},{"type":"Feature","properties":{"id":"lens-detail-london-1993-planning_cell-30","layer":"planning_cell","category":"built_environment","year":1993,"visible_year":1993,"title":"1 source-backed planning and built record","confidence":"documented","confidence_mix":"documented:1","event_count":1,"source_count":1,"source_ids":"lon-extra-planning-data-listed-building-outlines","event_ids":"lon_planning_designation_listed-building-outline_42120947","event_ids_all":"lon_planning_designation_listed-building-outline_42120947","source_urls":"https://www.planning.data.gov.uk/entity/42120947","geometry_precision_mix":"Row-level point from the adapter; source geocoding precision varies and may be approximate.:1","representation":"planning and built evidence grid cell","timing_note":"Filtered by event effective year. OSM mapped-visibility dates and administrative dates can differ from real-world physical change dates.","caveat":"Planning cells are derived from source-backed event locations; they are not parcel boundaries unless source geometry is separately present.","generated_from":"web/data/city-atlas/cities/london/events_1993.json","lifecycle_status":"uncertain","status":"source_record","cell_size_m":95,"intensity":0.289,"label":"Listed building outline: MARTIN SMITH MAUSSOLEUM, GOLDERS GREEN CREMATORIUM"},"geometry":{"type":"Polygon","coordinates":[[[-0.1933439,51.5766817],[-0.1919727,51.5766817],[-0.1919727,51.5775408],[-0.1933439,51.5775408],[-0.1933439,51.5766817]]]}},{"type":"Feature","properties":{"id":"lens-detail-london-1993-planning_cell-32","layer":"planning_cell","category":"built_environment","year":1993,"visible_year":1993,"title":"1 source-backed planning and built record","confidence":"documented","confidence_mix":"documented:1","event_count":1,"source_count":1,"source_ids":"lon-extra-planning-data-listed-building-outlines","event_ids":"lon_planning_designation_listed-building-outline_42120949","event_ids_all":"lon_planning_designation_listed-building-outline_42120949","source_urls":"https://www.planning.data.gov.uk/entity/42120949","geometry_precision_mix":"Row-level point from the adapter; source geocoding precision varies and may be approximate.:1","representation":"planning and built evidence grid cell","timing_note":"Filtered by event effective year. OSM mapped-visibility dates and administrative dates can differ from real-world physical change dates.","caveat":"Planning cells are derived from source-backed event locations; they are not parcel boundaries unless source geometry is separately present.","generated_from":"web/data/city-atlas/cities/london/events_1993.json","lifecycle_status":"uncertain","status":"source_record","cell_size_m":95,"intensity":0.289,"label":"Listed building outline: MONUMENT TO THOMAS SKARATT HALL, WEST AVENUE, PLOT H7"},"geometry":{"type":"Polygon","coordinates":[[[-0.1851165,51.5912873],[-0.1837453,51.5912873],[-0.1837453,51.5921464],[-0.1851165,51.5921464],[-0.1851165,51.5912873]]]}},{"type":"Feature","properties":{"id":"lens-detail-london-1993-planning_cell-33","layer":"planning_cell","category":"built_environment","year":1993,"visible_year":1993,"title":"1 source-backed planning and built record","confidence":"documented","confidence_mix":"documented:1","event_count":1,"source_count":1,"source_ids":"lon-extra-planning-data-listed-building-outlines","event_ids":"lon_planning_designation_listed-building-outline_42129944","event_ids_all":"lon_planning_designation_listed-building-outline_42129944","source_urls":"https://www.planning.data.gov.uk/entity/42129944","geometry_precision_mix":"Row-level point from the adapter; source geocoding precision varies and may be approximate.:1","representation":"planning and built evidence grid cell","timing_note":"Filtered by event effective year. OSM mapped-visibility dates and administrative dates can differ from real-world physical change dates.","caveat":"Planning cells are derived from source-backed event locations; they are not parcel boundaries unless source geometry is separately present.","generated_from":"web/data/city-atlas/cities/london/events_1993.json","lifecycle_status":"uncertain","status":"source_record","cell_size_m":95,"intensity":0.289,"label":"Listed building outline: Old Gate House"},"geometry":{"type":"Polygon","coordinates":[[[-0.0726754,51.432344],[-0.0713041,51.432344],[-0.0713041,51.4332031],[-0.0726754,51.4332031],[-0.0726754,51.432344]]]}},{"type":"Feature","properties":{"id":"lens-detail-london-1993-planning_cell-38","layer":"planning_cell","category":"built_environment","year":1993,"visible_year":1993,"title":"1 source-backed planning and built record","confidence":"documented","confidence_mix":"documented:1","event_count":1,"source_count":1,"source_ids":"lon-extra-planning-data-listed-building-outlines","event_ids":"lon_planning_designation_listed-building-outline_42158621","event_ids_all":"lon_planning_designation_listed-building-outline_42158621","source_urls":"https://www.planning.data.gov.uk/entity/42158621","geometry_precision_mix":"Row-level point from the adapter; source geocoding precision varies and may be approximate.:1","representation":"planning and built evidence grid cell","timing_note":"Filtered by event effective year. OSM mapped-visibility dates and administrative dates can differ from real-world physical change dates.","caveat":"Planning cells are derived from source-backed event locations; they are not parcel boundaries unless source geometry is separately present.","generated_from":"web/data/city-atlas/cities/london/events_1993.json","lifecycle_status":"uncertain","status":"source_record","cell_size_m":95,"intensity":0.289,"label":"Listed building outline: WALTHAMSTOW TRAMWAY AND OFFICES AND DEPOT"},"geometry":{"type":"Polygon","coordinates":[[[-0.0191973,51.5938647],[-0.017826,51.5938647],[-0.017826,51.5947239],[-0.0191973,51.5947239],[-0.0191973,51.5938647]]]}},{"type":"Feature","properties":{"id":"lens-detail-london-1993-planning_cell-39","layer":"planning_cell","category":"built_environment","year":1993,"visible_year":1993,"title":"1 source-backed planning and built record","confidence":"documented","confidence_mix":"documented:1","event_count":1,"source_count":1,"source_ids":"lon-extra-planning-data-listed-building-outlines","event_ids":"lon_planning_designation_listed-building-outline_42158622","event_ids_all":"lon_planning_designation_listed-building-outline_42158622","source_urls":"https://www.planning.data.gov.uk/entity/42158622","geometry_precision_mix":"Row-level point from the adapter; source geocoding precision varies and may be approximate.:1","representation":"planning and built evidence grid cell","timing_note":"Filtered by event effective year. OSM mapped-visibility dates and administrative dates can differ from real-world physical change dates.","caveat":"Planning cells are derived from source-backed event locations; they are not parcel boundaries unless source geometry is separately present.","generated_from":"web/data/city-atlas/cities/london/events_1993.json","lifecycle_status":"uncertain","status":"source_record","cell_size_m":95,"intensity":0.289,"label":"Listed building outline: WATER TURBINE HOUSE, CHINGFORD MILL PUMPING STATION"},"geometry":{"type":"Polygon","coordinates":[[[-0.0342808,51.6144844],[-0.0329096,51.6144844],[-0.0329096,51.6153436],[-0.0342808,51.6153436],[-0.0342808,51.6144844]]]}},{"type":"Feature","properties":{"id":"lens-detail-london-1993-planning_cell-4","layer":"planning_cell","category":"built_environment","year":1993,"visible_year":1993,"title":"1 source-backed planning and built record","confidence":"documented","confidence_mix":"documented:1","event_count":1,"source_count":1,"source_ids":"lon-extra-planning-data-conservation-areas","event_ids":"lon_planning_designation_conservation-area_44004065","event_ids_all":"lon_planning_designation_conservation-area_44004065","source_urls":"https://www.ealing.gov.uk/info/201158/conservation_areas/1022/acton_conservation_areas","geometry_precision_mix":"Row-level point from the adapter; source geocoding precision varies and may be approximate.:1","representation":"planning and built evidence grid cell","timing_note":"Filtered by event effective year. OSM mapped-visibility dates and administrative dates can differ from real-world physical change dates.","caveat":"Planning cells are derived from source-backed event locations; they are not parcel boundaries unless source geometry is separately present.","generated_from":"web/data/city-atlas/cities/london/events_1993.json","lifecycle_status":"uncertain","status":"source_record","cell_size_m":95,"intensity":0.289,"label":"Conservation area record: Mill Hill Park"},"geometry":{"type":"Polygon","coordinates":[[[-0.2769891,51.5045128],[-0.2756179,51.5045128],[-0.2756179,51.505372],[-0.2769891,51.505372],[-0.2769891,51.5045128]]]}},{"type":"Feature","properties":{"id":"lens-detail-london-1993-planning_cell-41","layer":"planning_cell","category":"built_environment","year":1993,"visible_year":1993,"title":"1 source-backed planning and built record","confidence":"documented","confidence_mix":"documented:1","event_count":1,"source_count":1,"source_ids":"lon-extra-planning-data-listed-building-outlines","event_ids":"lon_planning_designation_listed-building-outline_42166277","event_ids_all":"lon_planning_designation_listed-building-outline_42166277","source_urls":"https://www.planning.data.gov.uk/entity/42166277","geometry_precision_mix":"Row-level point from the adapter; source geocoding precision varies and may be approximate.:1","representation":"planning and built evidence grid cell","timing_note":"Filtered by event effective year. OSM mapped-visibility dates and administrative dates can differ from real-world physical change dates.","caveat":"Planning cells are derived from source-backed event locations; they are not parcel boundaries unless source geometry is separately present.","generated_from":"web/data/city-atlas/cities/london/events_1993.json","lifecycle_status":"uncertain","status":"source_record","cell_size_m":95,"intensity":0.289,"label":"Listed building outline: Penthouse Flat 5 Southside Hall 33-45 Princes Gardens London SW7 1LU"},"geometry":{"type":"Polygon","coordinates":[[[-0.1727754,51.4984987],[-0.1714042,51.4984987],[-0.1714042,51.4993579],[-0.1727754,51.4993579],[-0.1727754,51.4984987]]]}},{"type":"Feature","properties":{"id":"lens-detail-london-1993-planning_cell-42","layer":"planning_cell","category":"built_environment","year":1993,"visible_year":1993,"title":"1 source-backed planning and built record","confidence":"documented","confidence_mix":"documented:1","event_count":1,"source_count":1,"source_ids":"lon-extra-planning-data-listed-building-outlines","event_ids":"lon_planning_designation_listed-building-outline_42166278","event_ids_all":"lon_planning_designation_listed-building-outline_42166278","source_urls":"https://www.planning.data.gov.uk/entity/42166278","geometry_precision_mix":"Row-level point from the adapter; source geocoding precision varies and may be approximate.:1","representation":"planning and built evidence grid cell","timing_note":"Filtered by event effective year. OSM mapped-visibility dates and administrative dates can differ from real-world physical change dates.","caveat":"Planning cells are derived from source-backed event locations; they are not parcel boundaries unless source geometry is separately present.","generated_from":"web/data/city-atlas/cities/london/events_1993.json","lifecycle_status":"uncertain","status":"source_record","cell_size_m":95,"intensity":0.289,"label":"Listed building outline: 17 Old Barrack Yard London SW1X 7NP"},"geometry":{"type":"Polygon","coordinates":[[[-0.1549494,51.5010762],[-0.1535781,51.5010762],[-0.1535781,51.5019354],[-0.1549494,51.5019354],[-0.1549494,51.5010762]]]}},{"type":"Feature","properties":{"id":"lens-detail-london-1993-planning_cell-43","layer":"planning_cell","category":"built_environment","year":1993,"visible_year":1993,"title":"1 source-backed planning and built record","confidence":"documented","confidence_mix":"documented:1","event_count":1,"source_count":1,"source_ids":"lon-extra-planning-data-listed-building-outlines","event_ids":"lon_planning_designation_listed-building-outline_42166279","event_ids_all":"lon_planning_designation_listed-building-outline_42166279","source_urls":"https://www.planning.data.gov.uk/entity/42166279","geometry_precision_mix":"Row-level point from the adapter; source geocoding precision varies and may be approximate.:1","representation":"planning and built evidence grid cell","timing_note":"Filtered by event effective year. OSM mapped-visibility dates and administrative dates can differ from real-world physical change dates.","caveat":"Planning cells are derived from source-backed event locations; they are not parcel boundaries unless source geometry is separately present.","generated_from":"web/data/city-atlas/cities/london/events_1993.json","lifecycle_status":"uncertain","status":"source_record","cell_size_m":95,"intensity":0.289,"label":"Listed building outline: 30 Old Barrack Yard London SW1X 7NP"},"geometry":{"type":"Polygon","coordinates":[[[-0.1563206,51.5010762],[-0.1549494,51.5010762],[-0.1549494,51.5019354],[-0.1563206,51.5019354],[-0.1563206,51.5010762]]]}},{"type":"Feature","properties":{"id":"lens-detail-london-1993-planning_cell-44","layer":"planning_cell","category":"built_environment","year":1993,"visible_year":1993,"title":"1 source-backed planning and built record","confidence":"documented","confidence_mix":"documented:1","event_count":1,"source_count":1,"source_ids":"lon-extra-planning-data-listed-building-outlines","event_ids":"lon_planning_designation_listed-building-outline_42166365","event_ids_all":"lon_planning_designation_listed-building-outline_42166365","source_urls":"https://www.planning.data.gov.uk/entity/42166365","geometry_precision_mix":"Row-level point from the adapter; source geocoding precision varies and may be approximate.:1","representation":"planning and built evidence grid cell","timing_note":"Filtered by event effective year. OSM mapped-visibility dates and administrative dates can differ from real-world physical change dates.","caveat":"Planning cells are derived from source-backed event locations; they are not parcel boundaries unless source geometry is separately present.","generated_from":"web/data/city-atlas/cities/london/events_1993.json","lifecycle_status":"uncertain","status":"source_record","cell_size_m":95,"intensity":0.289,"label":"Listed building outline: Basement And Ground Floor Front 10 Shepherd Market London W1J 7QF"},"geometry":{"type":"Polygon","coordinates":[[[-0.146722,51.5062311],[-0.1453507,51.5062311],[-0.1453507,51.5070903],[-0.146722,51.5070903],[-0.146722,51.5062311]]]}},{"type":"Feature","properties":{"id":"lens-detail-london-1993-planning_cell-45","layer":"planning_cell","category":"built_environment","year":1993,"visible_year":1993,"title":"1 source-backed planning and built record","confidence":"documented","confidence_mix":"documented:1","event_count":1,"source_count":1,"source_ids":"lon-extra-planning-data-listed-building-outlines","event_ids":"lon_planning_designation_listed-building-outline_42166368","event_ids_all":"lon_planning_designation_listed-building-outline_42166368","source_urls":"https://www.planning.data.gov.uk/entity/42166368","geometry_precision_mix":"Row-level point from the adapter; source geocoding precision varies and may be approximate.:1","representation":"planning and built evidence grid cell","timing_note":"Filtered by event effective year. OSM mapped-visibility dates and administrative dates can differ from real-world physical change dates.","caveat":"Planning cells are derived from source-backed event locations; they are not parcel boundaries unless source geometry is separately present.","generated_from":"web/data/city-atlas/cities/london/events_1993.json","lifecycle_status":"uncertain","status":"source_record","cell_size_m":95,"intensity":0.289,"label":"Listed building outline: Weeks Hall Of Residence Imperial College 16-18 Princes Gardens London SW7 1NE"},"geometry":{"type":"Polygon","coordinates":[[[-0.1727754,51.4993579],[-0.1714042,51.4993579],[-0.1714042,51.500217],[-0.1727754,51.500217],[-0.1727754,51.4993579]]]}},{"type":"Feature","properties":{"id":"lens-detail-london-1993-planning_cell-48","layer":"planning_cell","category":"built_environment","year":1993,"visible_year":1993,"title":"1 source-backed planning and built record","confidence":"documented","confidence_mix":"documented:1","event_count":1,"source_count":1,"source_ids":"lon-extra-planning-data-listed-building-outlines","event_ids":"lon_planning_designation_listed-building-outline_42189321","event_ids_all":"lon_planning_designation_listed-building-outline_42189321","source_urls":"https://www.planning.data.gov.uk/entity/42189321","geometry_precision_mix":"Row-level point from the adapter; source geocoding precision varies and may be approximate.:1","representation":"planning and built evidence grid cell","timing_note":"Filtered by event effective year. OSM mapped-visibility dates and administrative dates can differ from real-world physical change dates.","caveat":"Planning cells are derived from source-backed event locations; they are not parcel boundaries unless source geometry is separately present.","generated_from":"web/data/city-atlas/cities/london/events_1993.json","lifecycle_status":"uncertain","status":"source_record","cell_size_m":95,"intensity":0.289,"label":"Listed building outline: LEWISHAM THEATRE AND DEPARTMENT OF ENVIRONMENTAL SERVICE RUSHEY GREEN CATFORD"},"geometry":{"type":"Polygon","coordinates":[[[-0.0205685,51.4452312],[-0.0191973,51.4452312],[-0.0191973,51.4460904],[-0.0205685,51.4460904],[-0.0205685,51.4452312]]]}},{"type":"Feature","properties":{"id":"lens-detail-london-1993-planning_cell-49","layer":"planning_cell","category":"built_environment","year":1993,"visible_year":1993,"title":"1 source-backed planning and built record","confidence":"documented","confidence_mix":"documented:1","event_count":1,"source_count":1,"source_ids":"lon-extra-planning-data-listed-building-outlines","event_ids":"lon_planning_designation_listed-building-outline_42209425","event_ids_all":"lon_planning_designation_listed-building-outline_42209425","source_urls":"https://www.planning.data.gov.uk/entity/42209425","geometry_precision_mix":"Row-level point from the adapter; source geocoding precision varies and may be approximate.:1","representation":"planning and built evidence grid cell","timing_note":"Filtered by event effective year. OSM mapped-visibility dates and administrative dates can differ from real-world physical change dates.","caveat":"Planning cells are derived from source-backed event locations; they are not parcel boundaries unless source geometry is separately present.","generated_from":"web/data/city-atlas/cities/london/events_1993.json","lifecycle_status":"uncertain","status":"source_record","cell_size_m":95,"intensity":0.289,"label":"Listed building outline: Listed Building Grade II"},"geometry":{"type":"Polygon","coordinates":[[[-0.1028425,51.4332031],[-0.1014713,51.4332031],[-0.1014713,51.4340623],[-0.1028425,51.4340623],[-0.1028425,51.4332031]]]}},{"type":"Feature","properties":{"id":"lens-detail-london-1993-planning_cell-5","layer":"planning_cell","category":"built_environment","year":1993,"visible_year":1993,"title":"1 source-backed planning and built record","confidence":"documented","confidence_mix":"documented:1","event_count":1,"source_count":1,"source_ids":"lon-extra-planning-data-conservation-areas","event_ids":"lon_planning_designation_conservation-area_44009101","event_ids_all":"lon_planning_designation_conservation-area_44009101","source_urls":"https://www.bromley.gov.uk/conservation/conservation-areas-2","geometry_precision_mix":"Row-level point from the adapter; source geocoding precision varies and may be approximate.:1","representation":"planning and built evidence grid cell","timing_note":"Filtered by event effective year. OSM mapped-visibility dates and administrative dates can differ from real-world physical change dates.","caveat":"Planning cells are derived from source-backed event locations; they are not parcel boundaries unless source geometry is separately present.","generated_from":"web/data/city-atlas/cities/london/events_1993.json","lifecycle_status":"uncertain","status":"source_record","cell_size_m":95,"intensity":0.289,"label":"Conservation area record: Beckenham Place Park"},"geometry":{"type":"Polygon","coordinates":[[[-0.0191973,51.4151609],[-0.017826,51.4151609],[-0.017826,51.41602],[-0.0191973,51.41602],[-0.0191973,51.4151609]]]}},{"type":"Feature","properties":{"id":"lens-detail-london-1993-planning_cell-50","layer":"planning_cell","category":"built_environment","year":1993,"visible_year":1993,"title":"1 source-backed planning and built record","confidence":"documented","confidence_mix":"documented:1","event_count":1,"source_count":1,"source_ids":"lon-extra-planning-data-listed-building-outlines","event_ids":"lon_planning_designation_listed-building-outline_42209426","event_ids_all":"lon_planning_designation_listed-building-outline_42209426","source_urls":"https://www.planning.data.gov.uk/entity/42209426","geometry_precision_mix":"Row-level point from the adapter; source geocoding precision varies and may be approximate.:1","representation":"planning and built evidence grid cell","timing_note":"Filtered by event effective year. OSM mapped-visibility dates and administrative dates can differ from real-world physical change dates.","caveat":"Planning cells are derived from source-backed event locations; they are not parcel boundaries unless source geometry is separately present.","generated_from":"web/data/city-atlas/cities/london/events_1993.json","lifecycle_status":"uncertain","status":"source_record","cell_size_m":95,"intensity":0.289,"label":"Listed building outline: Listed Building Grade II"},"geometry":{"type":"Polygon","coordinates":[[[-0.0987288,51.4314848],[-0.0973576,51.4314848],[-0.0973576,51.432344],[-0.0987288,51.432344],[-0.0987288,51.4314848]]]}},{"type":"Feature","properties":{"id":"lens-detail-london-1993-planning_cell-51","layer":"planning_cell","category":"built_environment","year":1993,"visible_year":1993,"title":"1 source-backed planning and built record","confidence":"documented","confidence_mix":"documented:1","event_count":1,"source_count":1,"source_ids":"lon-extra-planning-data-listed-building-outlines","event_ids":"lon_planning_designation_listed-building-outline_42209428","event_ids_all":"lon_planning_designation_listed-building-outline_42209428","source_urls":"https://www.planning.data.gov.uk/entity/42209428","geometry_precision_mix":"Row-level point from the adapter; source geocoding precision varies and may be approximate.:1","representation":"planning and built evidence grid cell","timing_note":"Filtered by event effective year. OSM mapped-visibility dates and administrative dates can differ from real-world physical change dates.","caveat":"Planning cells are derived from source-backed event locations; they are not parcel boundaries unless source geometry is separately present.","generated_from":"web/data/city-atlas/cities/london/events_1993.json","lifecycle_status":"uncertain","status":"source_record","cell_size_m":95,"intensity":0.289,"label":"Listed building outline: Listed Building Grade II"},"geometry":{"type":"Polygon","coordinates":[[[-0.0973576,51.4314848],[-0.0959863,51.4314848],[-0.0959863,51.432344],[-0.0973576,51.432344],[-0.0973576,51.4314848]]]}},{"type":"Feature","properties":{"id":"lens-detail-london-1993-planning_cell-52","layer":"planning_cell","category":"built_environment","year":1993,"visible_year":1993,"title":"1 source-backed planning and built record","confidence":"documented","confidence_mix":"documented:1","event_count":1,"source_count":1,"source_ids":"lon-extra-planning-data-listed-building-outlines","event_ids":"lon_planning_designation_listed-building-outline_42209448","event_ids_all":"lon_planning_designation_listed-building-outline_42209448","source_urls":"https://www.planning.data.gov.uk/entity/42209448","geometry_precision_mix":"Row-level point from the adapter; source geocoding precision varies and may be approximate.:1","representation":"planning and built evidence grid cell","timing_note":"Filtered by event effective year. OSM mapped-visibility dates and administrative dates can differ from real-world physical change dates.","caveat":"Planning cells are derived from source-backed event locations; they are not parcel boundaries unless source geometry is separately present.","generated_from":"web/data/city-atlas/cities/london/events_1993.json","lifecycle_status":"uncertain","status":"source_record","cell_size_m":95,"intensity":0.289,"label":"Listed building outline: Listed Building Grade II"},"geometry":{"type":"Polygon","coordinates":[[[-0.1001,51.432344],[-0.0987288,51.432344],[-0.0987288,51.4332031],[-0.1001,51.4332031],[-0.1001,51.432344]]]}},{"type":"Feature","properties":{"id":"lens-detail-london-1993-planning_cell-53","layer":"planning_cell","category":"built_environment","year":1993,"visible_year":1993,"title":"1 source-backed planning and built record","confidence":"documented","confidence_mix":"documented:1","event_count":1,"source_count":1,"source_ids":"lon-extra-planning-data-listed-building-outlines","event_ids":"lon_planning_designation_listed-building-outline_42209548","event_ids_all":"lon_planning_designation_listed-building-outline_42209548","source_urls":"https://www.planning.data.gov.uk/entity/42209548","geometry_precision_mix":"Row-level point from the adapter; source geocoding precision varies and may be approximate.:1","representation":"planning and built evidence grid cell","timing_note":"Filtered by event effective year. OSM mapped-visibility dates and administrative dates can differ from real-world physical change dates.","caveat":"Planning cells are derived from source-backed event locations; they are not parcel boundaries unless source geometry is separately present.","generated_from":"web/data/city-atlas/cities/london/events_1993.json","lifecycle_status":"uncertain","status":"source_record","cell_size_m":95,"intensity":0.289,"label":"Listed building outline: Listed Building Grade II"},"geometry":{"type":"Polygon","coordinates":[[[-0.1042137,51.4314848],[-0.1028425,51.4314848],[-0.1028425,51.432344],[-0.1042137,51.432344],[-0.1042137,51.4314848]]]}},{"type":"Feature","properties":{"id":"lens-detail-london-1993-planning_cell-54","layer":"planning_cell","category":"built_environment","year":1993,"visible_year":1993,"title":"1 source-backed planning and built record","confidence":"documented","confidence_mix":"documented:1","event_count":1,"source_count":1,"source_ids":"lon-extra-planning-data-listed-building-outlines","event_ids":"lon_planning_designation_listed-building-outline_42209694","event_ids_all":"lon_planning_designation_listed-building-outline_42209694","source_urls":"https://www.planning.data.gov.uk/entity/42209694","geometry_precision_mix":"Row-level point from the adapter; source geocoding precision varies and may be approximate.:1","representation":"planning and built evidence grid cell","timing_note":"Filtered by event effective year. OSM mapped-visibility dates and administrative dates can differ from real-world physical change dates.","caveat":"Planning cells are derived from source-backed event locations; they are not parcel boundaries unless source geometry is separately present.","generated_from":"web/data/city-atlas/cities/london/events_1993.json","lifecycle_status":"uncertain","status":"source_record","cell_size_m":95,"intensity":0.289,"label":"Listed building outline: Listed Building Grade II"},"geometry":{"type":"Polygon","coordinates":[[[-0.0973576,51.4332031],[-0.0959863,51.4332031],[-0.0959863,51.4340623],[-0.0973576,51.4340623],[-0.0973576,51.4332031]]]}},{"type":"Feature","properties":{"id":"lens-detail-london-1993-planning_cell-55","layer":"planning_cell","category":"built_environment","year":1993,"visible_year":1993,"title":"1 source-backed planning and built record","confidence":"documented","confidence_mix":"documented:1","event_count":1,"source_count":1,"source_ids":"lon-extra-planning-data-listed-building-outlines","event_ids":"lon_planning_designation_listed-building-outline_42209939","event_ids_all":"lon_planning_designation_listed-building-outline_42209939","source_urls":"https://www.planning.data.gov.uk/entity/42209939","geometry_precision_mix":"Row-level point from the adapter; source geocoding precision varies and may be approximate.:1","representation":"planning and built evidence grid cell","timing_note":"Filtered by event effective year. OSM mapped-visibility dates and administrative dates can differ from real-world physical change dates.","caveat":"Planning cells are derived from source-backed event locations; they are not parcel boundaries unless source geometry is separately present.","generated_from":"web/data/city-atlas/cities/london/events_1993.json","lifecycle_status":"uncertain","status":"source_record","cell_size_m":95,"intensity":0.289,"label":"Listed building outline: Listed Building Grade II"},"geometry":{"type":"Polygon","coordinates":[[[-0.1110699,51.4435129],[-0.1096987,51.4435129],[-0.1096987,51.4443721],[-0.1110699,51.4443721],[-0.1110699,51.4435129]]]}},{"type":"Feature","properties":{"id":"lens-detail-london-1993-planning_cell-56","layer":"planning_cell","category":"built_environment","year":1993,"visible_year":1993,"title":"1 source-backed planning and built record","confidence":"documented","confidence_mix":"documented:1","event_count":1,"source_count":1,"source_ids":"lon-extra-planning-data-listed-building-outlines","event_ids":"lon_planning_designation_listed-building-outline_42209955","event_ids_all":"lon_planning_designation_listed-building-outline_42209955","source_urls":"https://www.planning.data.gov.uk/entity/42209955","geometry_precision_mix":"Row-level point from the adapter; source geocoding precision varies and may be approximate.:1","representation":"planning and built evidence grid cell","timing_note":"Filtered by event effective year. OSM mapped-visibility dates and administrative dates can differ from real-world physical change dates.","caveat":"Planning cells are derived from source-backed event locations; they are not parcel boundaries unless source geometry is separately present.","generated_from":"web/data/city-atlas/cities/london/events_1993.json","lifecycle_status":"uncertain","status":"source_record","cell_size_m":95,"intensity":0.289,"label":"Listed building outline: Listed Building Grade II"},"geometry":{"type":"Polygon","coordinates":[[[-0.1110699,51.494203],[-0.1096987,51.494203],[-0.1096987,51.4950621],[-0.1110699,51.4950621],[-0.1110699,51.494203]]]}},{"type":"Feature","properties":{"id":"lens-detail-london-1993-planning_cell-57","layer":"planning_cell","category":"built_environment","year":1993,"visible_year":1993,"title":"1 source-backed planning and built record","confidence":"documented","confidence_mix":"documented:1","event_count":1,"source_count":1,"source_ids":"lon-extra-planning-data-listed-building-outlines","event_ids":"lon_planning_designation_listed-building-outline_42210138","event_ids_all":"lon_planning_designation_listed-building-outline_42210138","source_urls":"https://www.planning.data.gov.uk/entity/42210138","geometry_precision_mix":"Row-level point from the adapter; source geocoding precision varies and may be approximate.:1","representation":"planning and built evidence grid cell","timing_note":"Filtered by event effective year. OSM mapped-visibility dates and administrative dates can differ from real-world physical change dates.","caveat":"Planning cells are derived from source-backed event locations; they are not parcel boundaries unless source geometry is separately present.","generated_from":"web/data/city-atlas/cities/london/events_1993.json","lifecycle_status":"uncertain","status":"source_record","cell_size_m":95,"intensity":0.289,"label":"Listed building outline: Listed Building Grade II"},"geometry":{"type":"Polygon","coordinates":[[[-0.1042137,51.432344],[-0.1028425,51.432344],[-0.1028425,51.4332031],[-0.1042137,51.4332031],[-0.1042137,51.432344]]]}},{"type":"Feature","properties":{"id":"lens-detail-london-1993-planning_cell-58","layer":"planning_cell","category":"built_environment","year":1993,"visible_year":1993,"title":"1 source-backed planning and built record","confidence":"documented","confidence_mix":"documented:1","event_count":1,"source_count":1,"source_ids":"lon-extra-planning-data-tree-preservation-zones","event_ids":"lon_planning_designation_tree-preservation-zone_19120802","event_ids_all":"lon_planning_designation_tree-preservation-zone_19120802","source_urls":"https://www.planning.data.gov.uk/entity/19120802","geometry_precision_mix":"Row-level point from the adapter; source geocoding precision varies and may be approximate.:1","representation":"planning and built evidence grid cell","timing_note":"Filtered by event effective year. OSM mapped-visibility dates and administrative dates can differ from real-world physical change dates.","caveat":"Planning cells are derived from source-backed event locations; they are not parcel boundaries unless source geometry is separately present.","generated_from":"web/data/city-atlas/cities/london/events_1993.json","lifecycle_status":"uncertain","status":"source_record","cell_size_m":95,"intensity":0.289,"label":"Tree preservation zone: 255/W3 - Linear Wood Land Strip Of Ash And Sycamore"},"geometry":{"type":"Polygon","coordinates":[[[-0.2221398,51.3533019],[-0.2207686,51.3533019],[-0.2207686,51.354161],[-0.2221398,51.354161],[-0.2221398,51.3533019]]]}},{"type":"Feature","properties":{"id":"lens-detail-london-1993-planning_cell-59","layer":"planning_cell","category":"built_environment","year":1993,"visible_year":1993,"title":"1 source-backed planning and built record","confidence":"documented","confidence_mix":"documented:1","event_count":1,"source_count":1,"source_ids":"lon-extra-planning-data-tree-preservation-zones","event_ids":"lon_planning_designation_tree-preservation-zone_19176238","event_ids_all":"lon_planning_designation_tree-preservation-zone_19176238","source_urls":"https://www.planning.data.gov.uk/entity/19176238","geometry_precision_mix":"Row-level point from the adapter; source geocoding precision varies and may be approximate.:1","representation":"planning and built evidence grid cell","timing_note":"Filtered by event effective year. OSM mapped-visibility dates and administrative dates can differ from real-world physical change dates.","caveat":"Planning cells are derived from source-backed event locations; they are not parcel boundaries unless source geometry is separately present.","generated_from":"web/data/city-atlas/cities/london/events_1993.json","lifecycle_status":"uncertain","status":"source_record","cell_size_m":95,"intensity":0.289,"label":"Tree preservation zone: Kings Court, Kings Drive, Wembley"},"geometry":{"type":"Polygon","coordinates":[[[-0.2756179,51.5663718],[-0.2742467,51.5663718],[-0.2742467,51.567231],[-0.2756179,51.567231],[-0.2756179,51.5663718]]]}},{"type":"Feature","properties":{"id":"lens-detail-london-1993-planning_cell-6","layer":"planning_cell","category":"built_environment","year":1993,"visible_year":1993,"title":"1 source-backed planning and built record","confidence":"documented","confidence_mix":"documented:1","event_count":1,"source_count":1,"source_ids":"lon-extra-planning-data-conservation-areas","event_ids":"lon_planning_designation_conservation-area_44009641","event_ids_all":"lon_planning_designation_conservation-area_44009641","source_urls":"https://www.camden.gov.uk/west-end-green-conservation-area-appraisal-and-management-strategy","geometry_precision_mix":"Row-level point from the adapter; source geocoding precision varies and may be approximate.:1","representation":"planning and built evidence grid cell","timing_note":"Filtered by event effective year. OSM mapped-visibility dates and administrative dates can differ from real-world physical change dates.","caveat":"Planning cells are derived from source-backed event locations; they are not parcel boundaries unless source geometry is separately present.","generated_from":"web/data/city-atlas/cities/london/events_1993.json","lifecycle_status":"uncertain","status":"source_record","cell_size_m":95,"intensity":0.289,"label":"Conservation area record: West End Green"},"geometry":{"type":"Polygon","coordinates":[[[-0.1892302,51.5483296],[-0.187859,51.5483296],[-0.187859,51.5491888],[-0.1892302,51.5491888],[-0.1892302,51.5483296]]]}},{"type":"Feature","properties":{"id":"lens-detail-london-1993-planning_cell-7","layer":"planning_cell","category":"built_environment","year":1993,"visible_year":1993,"title":"1 source-backed planning and built record","confidence":"documented","confidence_mix":"documented:1","event_count":1,"source_count":1,"source_ids":"lon-extra-planning-data-conservation-areas","event_ids":"lon_planning_designation_conservation-area_44012793","event_ids_all":"lon_planning_designation_conservation-area_44012793","source_urls":"https://www.rbkc.gov.uk/planning-and-building-control/heritage-and-conservation/conservation-areas-0/conservation-area-appraisals-and-proposal-statements","geometry_precision_mix":"Row-level point from the adapter; source geocoding precision varies and may be approximate.:1","representation":"planning and built evidence grid cell","timing_note":"Filtered by event effective year. OSM mapped-visibility dates and administrative dates can differ from real-world physical change dates.","caveat":"Planning cells are derived from source-backed event locations; they are not parcel boundaries unless source geometry is separately present.","generated_from":"web/data/city-atlas/cities/london/events_1993.json","lifecycle_status":"uncertain","status":"source_record","cell_size_m":95,"intensity":0.289,"label":"Conservation area record: Philbeach"},"geometry":{"type":"Polygon","coordinates":[[[-0.1960864,51.4881889],[-0.1947151,51.4881889],[-0.1947151,51.4890481],[-0.1960864,51.4890481],[-0.1960864,51.4881889]]]}},{"type":"Feature","properties":{"id":"lens-detail-london-1993-planning_cell-8","layer":"planning_cell","category":"built_environment","year":1993,"visible_year":1993,"title":"1 source-backed planning and built record","confidence":"documented","confidence_mix":"documented:1","event_count":1,"source_count":1,"source_ids":"lon-extra-planning-data-conservation-areas","event_ids":"lon_planning_designation_conservation-area_44012794","event_ids_all":"lon_planning_designation_conservation-area_44012794","source_urls":"https://www.rbkc.gov.uk/planning-and-building-control/heritage-and-conservation/conservation-areas-0/conservation-area-appraisals-and-proposal-statements","geometry_precision_mix":"Row-level point from the adapter; source geocoding precision varies and may be approximate.:1","representation":"planning and built evidence grid cell","timing_note":"Filtered by event effective year. OSM mapped-visibility dates and administrative dates can differ from real-world physical change dates.","caveat":"Planning cells are derived from source-backed event locations; they are not parcel boundaries unless source geometry is separately present.","generated_from":"web/data/city-atlas/cities/london/events_1993.json","lifecycle_status":"uncertain","status":"source_record","cell_size_m":95,"intensity":0.289,"label":"Conservation area record: Philbeach"},"geometry":{"type":"Polygon","coordinates":[[[-0.2002001,51.4907664],[-0.1988288,51.4907664],[-0.1988288,51.4916255],[-0.2002001,51.4916255],[-0.2002001,51.4907664]]]}},{"type":"Feature","properties":{"id":"lens-detail-london-1993-planning_cell-9","layer":"planning_cell","category":"built_environment","year":1993,"visible_year":1993,"title":"1 source-backed planning and built record","confidence":"documented","confidence_mix":"documented:1","event_count":1,"source_count":1,"source_ids":"lon-extra-planning-data-conservation-areas","event_ids":"lon_planning_designation_conservation-area_44014800","event_ids_all":"lon_planning_designation_conservation-area_44014800","source_urls":"https://www.brent.gov.uk/media/16402723/paddington-cemetery-conservation-area-appraisal.pdf","geometry_precision_mix":"Row-level point from the adapter; source geocoding precision varies and may be approximate.:1","representation":"planning and built evidence grid cell","timing_note":"Filtered by event effective year. OSM mapped-visibility dates and administrative dates can differ from real-world physical change dates.","caveat":"Planning cells are derived from source-backed event locations; they are not parcel boundaries unless source geometry is separately present.","generated_from":"web/data/city-atlas/cities/london/events_1993.json","lifecycle_status":"uncertain","status":"source_record","cell_size_m":95,"intensity":0.289,"label":"Conservation area record: Paddington Cemetery"},"geometry":{"type":"Polygon","coordinates":[[[-0.205685,51.5388789],[-0.2043138,51.5388789],[-0.2043138,51.5397381],[-0.205685,51.5397381],[-0.205685,51.5388789]]]}}]}
