{"type":"FeatureCollection","name":"london_lens_detail_1975","metadata":{"schema_version":"1.0.0","city_id":"london","year":1975,"generated_at":"2026-06-03T17:32:55.209Z","source_paths":["web/data/city-atlas/cities/london/events_1975.json","web/data/city-atlas/cities/london/events.json","web/data/city-atlas/cities/london/transport_roads_base.geojson"],"method":"Derived OpenCityLog lens geometry built from source-backed event points plus existing OSM road/detail geometry. Grid cells aggregate events by effective year. Trace lines reuse nearest mapped road geometry for context.","caveats":["Derived cells are evidence grids, not surveyed parcels, catchments, zones, or administrative boundaries.","Trace lines are nearest mapped street or work-location context, not surveyed utility networks, measured traffic speed, spend, vacancy, or service quality. No capacity data is inferred.","When a lens/year has no same-category source-backed records, no coverage geometry is generated; sparse data remains sparse.","Borough, citywide, statistical, corridor, and multi-site records are excluded from site-like lens geometry; they remain available in the event list and evidence records.","OSM mapped-visibility dates and administrative decision dates can differ from real-world physical change dates."],"feature_layers":{"planning_cell":5},"excluded_non_site_record_count":0,"excluded_non_site_reasons":{}},"features":[{"type":"Feature","properties":{"id":"lens-detail-london-1975-planning_cell-0","layer":"planning_cell","category":"built_environment","year":1975,"visible_year":1975,"title":"1 source-backed planning and built record","confidence":"documented","confidence_mix":"documented:1","event_count":1,"source_count":1,"source_ids":"lon-extra-planning-data-tree-preservation-zones","event_ids":"lon_planning_designation_tree-preservation-zone_19120810","event_ids_all":"lon_planning_designation_tree-preservation-zone_19120810","source_urls":"https://www.planning.data.gov.uk/entity/19120810","geometry_precision_mix":"Row-level point from the adapter; source geocoding precision varies and may be approximate.:1","representation":"planning and built evidence grid cell","timing_note":"Filtered by event effective year. OSM mapped-visibility dates and administrative dates can differ from real-world physical change dates.","caveat":"Planning cells are derived from source-backed event locations; they are not parcel boundaries unless source geometry is separately present.","generated_from":"web/data/city-atlas/cities/london/events_1975.json","lifecycle_status":"uncertain","status":"source_record","cell_size_m":95,"intensity":0.289,"label":"Tree preservation zone: 83/A1 - Consisting Of Elm Beech Acers Hawthorn Oak And Horse Chestnut"},"geometry":{"type":"Polygon","coordinates":[[[-0.2221184,51.3515836],[-0.2207473,51.3515836],[-0.2207473,51.3524427],[-0.2221184,51.3524427],[-0.2221184,51.3515836]]]}},{"type":"Feature","properties":{"id":"lens-detail-london-1975-planning_cell-1","layer":"planning_cell","category":"built_environment","year":1975,"visible_year":1975,"title":"1 source-backed planning and built record","confidence":"documented","confidence_mix":"documented:1","event_count":1,"source_count":1,"source_ids":"lon-extra-planning-data-tree-preservation-zones","event_ids":"lon_planning_designation_tree-preservation-zone_19140012","event_ids_all":"lon_planning_designation_tree-preservation-zone_19140012","source_urls":"https://www.planning.data.gov.uk/entity/19140012","geometry_precision_mix":"Row-level point from the adapter; source geocoding precision varies and may be approximate.:1","representation":"planning and built evidence grid cell","timing_note":"Filtered by event effective year. OSM mapped-visibility dates and administrative dates can differ from real-world physical change dates.","caveat":"Planning cells are derived from source-backed event locations; they are not parcel boundaries unless source geometry is separately present.","generated_from":"web/data/city-atlas/cities/london/events_1975.json","lifecycle_status":"uncertain","status":"source_record","cell_size_m":95,"intensity":0.289,"label":"Tree preservation zone: Land at Kenley Aerodrome"},"geometry":{"type":"Polygon","coordinates":[[[-0.0891216,51.303471],[-0.0877505,51.303471],[-0.0877505,51.3043301],[-0.0891216,51.3043301],[-0.0891216,51.303471]]]}},{"type":"Feature","properties":{"id":"lens-detail-london-1975-planning_cell-2","layer":"planning_cell","category":"built_environment","year":1975,"visible_year":1975,"title":"1 source-backed planning and built record","confidence":"documented","confidence_mix":"documented:1","event_count":1,"source_count":1,"source_ids":"lon-extra-planning-data-tree-preservation-zones","event_ids":"lon_planning_designation_tree-preservation-zone_19176086","event_ids_all":"lon_planning_designation_tree-preservation-zone_19176086","source_urls":"https://www.planning.data.gov.uk/entity/19176086","geometry_precision_mix":"Row-level point from the adapter; source geocoding precision varies and may be approximate.:1","representation":"planning and built evidence grid cell","timing_note":"Filtered by event effective year. OSM mapped-visibility dates and administrative dates can differ from real-world physical change dates.","caveat":"Planning cells are derived from source-backed event locations; they are not parcel boundaries unless source geometry is separately present.","generated_from":"web/data/city-atlas/cities/london/events_1975.json","lifecycle_status":"uncertain","status":"source_record","cell_size_m":95,"intensity":0.289,"label":"Tree preservation zone: 1 Riffel Road, NW2"},"geometry":{"type":"Polygon","coordinates":[[[-0.2248606,51.5491888],[-0.2234895,51.5491888],[-0.2234895,51.5500479],[-0.2248606,51.5500479],[-0.2248606,51.5491888]]]}},{"type":"Feature","properties":{"id":"lens-detail-london-1975-planning_cell-3","layer":"planning_cell","category":"built_environment","year":1975,"visible_year":1975,"title":"1 source-backed planning and built record","confidence":"documented","confidence_mix":"documented:1","event_count":1,"source_count":1,"source_ids":"lon-extra-planning-data-tree-preservation-zones","event_ids":"lon_planning_designation_tree-preservation-zone_19176133","event_ids_all":"lon_planning_designation_tree-preservation-zone_19176133","source_urls":"https://www.planning.data.gov.uk/entity/19176133","geometry_precision_mix":"Row-level point from the adapter; source geocoding precision varies and may be approximate.:1","representation":"planning and built evidence grid cell","timing_note":"Filtered by event effective year. OSM mapped-visibility dates and administrative dates can differ from real-world physical change dates.","caveat":"Planning cells are derived from source-backed event locations; they are not parcel boundaries unless source geometry is separately present.","generated_from":"web/data/city-atlas/cities/london/events_1975.json","lifecycle_status":"uncertain","status":"source_record","cell_size_m":95,"intensity":0.289,"label":"Tree preservation zone: St Gabriels Road, Willesden"},"geometry":{"type":"Polygon","coordinates":[[[-0.2180051,51.5517662],[-0.216634,51.5517662],[-0.216634,51.5526254],[-0.2180051,51.5526254],[-0.2180051,51.5517662]]]}},{"type":"Feature","properties":{"id":"lens-detail-london-1975-planning_cell-4","layer":"planning_cell","category":"built_environment","year":1975,"visible_year":1975,"title":"1 source-backed planning and built record","confidence":"documented","confidence_mix":"documented:1","event_count":1,"source_count":1,"source_ids":"lon-extra-planning-data-tree-preservation-zones","event_ids":"lon_planning_designation_tree-preservation-zone_19176166","event_ids_all":"lon_planning_designation_tree-preservation-zone_19176166","source_urls":"https://www.planning.data.gov.uk/entity/19176166","geometry_precision_mix":"Row-level point from the adapter; source geocoding precision varies and may be approximate.:1","representation":"planning and built evidence grid cell","timing_note":"Filtered by event effective year. OSM mapped-visibility dates and administrative dates can differ from real-world physical change dates.","caveat":"Planning cells are derived from source-backed event locations; they are not parcel boundaries unless source geometry is separately present.","generated_from":"web/data/city-atlas/cities/london/events_1975.json","lifecycle_status":"uncertain","status":"source_record","cell_size_m":95,"intensity":0.289,"label":"Tree preservation zone: Connaught Road/Greenhill Park, NW10"},"geometry":{"type":"Polygon","coordinates":[[[-0.2536537,51.5371606],[-0.2522826,51.5371606],[-0.2522826,51.5380198],[-0.2536537,51.5380198],[-0.2536537,51.5371606]]]}}]}
