{"type":"FeatureCollection","name":"london_lens_detail_1976","metadata":{"schema_version":"1.0.0","city_id":"london","year":1976,"generated_at":"2026-06-02T07:41:37.195Z","source_paths":["web/data/city-atlas/cities/london/events_1976.json","web/data/city-atlas/cities/london/events.json","web/data/city-atlas/cities/london/transport_roads_base.geojson"],"method":"Derived OpenCityLog lens geometry built from source-backed event points plus existing OSM road/detail geometry. Grid cells aggregate events by effective year. Trace lines reuse nearest mapped road geometry for context.","caveats":["Derived cells are evidence grids, not surveyed parcels, catchments, zones, or administrative boundaries.","Trace lines are nearest mapped street or work-location context, not surveyed utility networks, measured traffic speed, spend, vacancy, or service quality. No capacity data is inferred.","When a lens/year has no same-category source-backed records, no coverage geometry is generated; sparse data remains sparse.","Borough, citywide, statistical, corridor, and multi-site records are excluded from site-like lens geometry; they remain available in the event list and evidence records.","OSM mapped-visibility dates and administrative decision dates can differ from real-world physical change dates."],"feature_layers":{"planning_cell":46},"excluded_non_site_record_count":0,"excluded_non_site_reasons":{}},"features":[{"type":"Feature","properties":{"id":"lens-detail-london-1976-planning_cell-12","layer":"planning_cell","category":"built_environment","year":1976,"visible_year":1976,"title":"12 source-backed planning and built records","confidence":"documented","confidence_mix":"documented:12","event_count":12,"source_count":1,"source_ids":"lon-extra-planning-data-listed-building-outlines","event_ids":"lon_planning_designation_listed-building-outline_42148535,lon_planning_designation_listed-building-outline_42148538,lon_planning_designation_listed-building-outline_42148539,lon_planning_designation_listed-building-outline_42148663,lon_planning_designation_listed-building-outline_42148664,lon_planning_designation_listed-building-outline_42149620,lon_planning_designation_listed-building-outline_42182212,lon_planning_designation_listed-building-outline_42182215,lon_planning_designation_listed-building-outline_42182216,lon_planning_designation_listed-building-outline_42182338","event_ids_all":"lon_planning_designation_listed-building-outline_42148535,lon_planning_designation_listed-building-outline_42148538,lon_planning_designation_listed-building-outline_42148539,lon_planning_designation_listed-building-outline_42148663,lon_planning_designation_listed-building-outline_42148664,lon_planning_designation_listed-building-outline_42149620,lon_planning_designation_listed-building-outline_42182212,lon_planning_designation_listed-building-outline_42182215,lon_planning_designation_listed-building-outline_42182216,lon_planning_designation_listed-building-outline_42182338,lon_planning_designation_listed-building-outline_42182339,lon_planning_designation_listed-building-outline_42183268","source_urls":"https://www.planning.data.gov.uk/entity/42148535,https://www.planning.data.gov.uk/entity/42148538,https://www.planning.data.gov.uk/entity/42148539,https://www.planning.data.gov.uk/entity/42148663","geometry_precision_mix":"Row-level point from the adapter; source geocoding precision varies and may be approximate.:12","representation":"planning and built evidence grid cell","timing_note":"Filtered by event effective year. OSM mapped-visibility dates and administrative dates can differ from real-world physical change dates.","caveat":"Planning cells are derived from source-backed event locations; they are not parcel boundaries unless source geometry is separately present.","generated_from":"web/data/city-atlas/cities/london/events_1976.json","lifecycle_status":"uncertain","status":"source_record","cell_size_m":95,"intensity":1,"label":"Listed building outline: 14-26 NEVILLE STREET — Kensington and Chelsea"},"geometry":{"type":"Polygon","coordinates":[[[-0.176872,51.4899072],[-0.1755009,51.4899072],[-0.1755009,51.4907664],[-0.176872,51.4907664],[-0.176872,51.4899072]]]}},{"type":"Feature","properties":{"id":"lens-detail-london-1976-planning_cell-19","layer":"planning_cell","category":"built_environment","year":1976,"visible_year":1976,"title":"12 source-backed planning and built records","confidence":"documented","confidence_mix":"documented:12","event_count":12,"source_count":1,"source_ids":"lon-extra-planning-data-listed-building-outlines","event_ids":"lon_planning_designation_listed-building-outline_42165130,lon_planning_designation_listed-building-outline_42165131,lon_planning_designation_listed-building-outline_42165644,lon_planning_designation_listed-building-outline_42165645,lon_planning_designation_listed-building-outline_42165647,lon_planning_designation_listed-building-outline_42165820,lon_planning_designation_listed-building-outline_42165821,lon_planning_designation_listed-building-outline_42165825,lon_planning_designation_listed-building-outline_42165826,lon_planning_designation_listed-building-outline_42166032","event_ids_all":"lon_planning_designation_listed-building-outline_42165130,lon_planning_designation_listed-building-outline_42165131,lon_planning_designation_listed-building-outline_42165644,lon_planning_designation_listed-building-outline_42165645,lon_planning_designation_listed-building-outline_42165647,lon_planning_designation_listed-building-outline_42165820,lon_planning_designation_listed-building-outline_42165821,lon_planning_designation_listed-building-outline_42165825,lon_planning_designation_listed-building-outline_42165826,lon_planning_designation_listed-building-outline_42166032,lon_planning_designation_listed-building-outline_42167664,lon_planning_designation_listed-building-outline_42167812","source_urls":"https://www.planning.data.gov.uk/entity/42165130,https://www.planning.data.gov.uk/entity/42165131,https://www.planning.data.gov.uk/entity/42165644,https://www.planning.data.gov.uk/entity/42165645","geometry_precision_mix":"Row-level point from the adapter; source geocoding precision varies and may be approximate.:12","representation":"planning and built evidence grid cell","timing_note":"Filtered by event effective year. OSM mapped-visibility dates and administrative dates can differ from real-world physical change dates.","caveat":"Planning cells are derived from source-backed event locations; they are not parcel boundaries unless source geometry is separately present.","generated_from":"web/data/city-atlas/cities/london/events_1976.json","lifecycle_status":"uncertain","status":"source_record","cell_size_m":95,"intensity":1,"label":"Listed building outline: Flat A 5 Avery Row London W1K 4AL"},"geometry":{"type":"Polygon","coordinates":[[[-0.1467078,51.5122452],[-0.1453367,51.5122452],[-0.1453367,51.5131043],[-0.1467078,51.5131043],[-0.1467078,51.5122452]]]}},{"type":"Feature","properties":{"id":"lens-detail-london-1976-planning_cell-11","layer":"planning_cell","category":"built_environment","year":1976,"visible_year":1976,"title":"8 source-backed planning and built records","confidence":"documented","confidence_mix":"documented:8","event_count":8,"source_count":1,"source_ids":"lon-extra-planning-data-listed-building-outlines","event_ids":"lon_planning_designation_listed-building-outline_42148529,lon_planning_designation_listed-building-outline_42148531,lon_planning_designation_listed-building-outline_42149240,lon_planning_designation_listed-building-outline_42149243,lon_planning_designation_listed-building-outline_42182206,lon_planning_designation_listed-building-outline_42182208,lon_planning_designation_listed-building-outline_42182894,lon_planning_designation_listed-building-outline_42182897","event_ids_all":"lon_planning_designation_listed-building-outline_42148529,lon_planning_designation_listed-building-outline_42148531,lon_planning_designation_listed-building-outline_42149240,lon_planning_designation_listed-building-outline_42149243,lon_planning_designation_listed-building-outline_42182206,lon_planning_designation_listed-building-outline_42182208,lon_planning_designation_listed-building-outline_42182894,lon_planning_designation_listed-building-outline_42182897","source_urls":"https://www.planning.data.gov.uk/entity/42148529,https://www.planning.data.gov.uk/entity/42148531,https://www.planning.data.gov.uk/entity/42149240,https://www.planning.data.gov.uk/entity/42149243","geometry_precision_mix":"Row-level point from the adapter; source geocoding precision varies and may be approximate.:8","representation":"planning and built evidence grid cell","timing_note":"Filtered by event effective year. OSM mapped-visibility dates and administrative dates can differ from real-world physical change dates.","caveat":"Planning cells are derived from source-backed event locations; they are not parcel boundaries unless source geometry is separately present.","generated_from":"web/data/city-atlas/cities/london/events_1976.json","lifecycle_status":"uncertain","status":"source_record","cell_size_m":95,"intensity":0.916,"label":"Listed building outline: 19 AND 20 SELWOOD TERRACE — Kensington and Chelsea"},"geometry":{"type":"Polygon","coordinates":[[[-0.1782431,51.4899072],[-0.176872,51.4899072],[-0.176872,51.4907664],[-0.1782431,51.4907664],[-0.1782431,51.4899072]]]}},{"type":"Feature","properties":{"id":"lens-detail-london-1976-planning_cell-20","layer":"planning_cell","category":"built_environment","year":1976,"visible_year":1976,"title":"4 source-backed planning and built records","confidence":"documented","confidence_mix":"documented:4","event_count":4,"source_count":1,"source_ids":"lon-extra-planning-data-listed-building-outlines","event_ids":"lon_planning_designation_listed-building-outline_42166070,lon_planning_designation_listed-building-outline_42166071,lon_planning_designation_listed-building-outline_42166792,lon_planning_designation_listed-building-outline_42166793","event_ids_all":"lon_planning_designation_listed-building-outline_42166070,lon_planning_designation_listed-building-outline_42166071,lon_planning_designation_listed-building-outline_42166792,lon_planning_designation_listed-building-outline_42166793","source_urls":"https://www.planning.data.gov.uk/entity/42166070,https://www.planning.data.gov.uk/entity/42166071,https://www.planning.data.gov.uk/entity/42166792,https://www.planning.data.gov.uk/entity/42166793","geometry_precision_mix":"Row-level point from the adapter; source geocoding precision varies and may be approximate.:4","representation":"planning and built evidence grid cell","timing_note":"Filtered by event effective year. OSM mapped-visibility dates and administrative dates can differ from real-world physical change dates.","caveat":"Planning cells are derived from source-backed event locations; they are not parcel boundaries unless source geometry is separately present.","generated_from":"web/data/city-atlas/cities/london/events_1976.json","lifecycle_status":"uncertain","status":"source_record","cell_size_m":95,"intensity":0.671,"label":"Listed building outline: Basement And Ground Floor 119 New Bond Street London W1S 1EP"},"geometry":{"type":"Polygon","coordinates":[[[-0.1453367,51.5122452],[-0.1439656,51.5122452],[-0.1439656,51.5131043],[-0.1453367,51.5131043],[-0.1453367,51.5122452]]]}},{"type":"Feature","properties":{"id":"lens-detail-london-1976-planning_cell-0","layer":"planning_cell","category":"built_environment","year":1976,"visible_year":1976,"title":"3 source-backed planning and built records","confidence":"documented","confidence_mix":"documented:3","event_count":3,"source_count":2,"source_ids":"lon-extra-planning-data-conservation-areas,lon-extra-planning-data-listed-building-outlines","event_ids":"lon_planning_designation_conservation-area_44000871,lon_planning_designation_listed-building-outline_42209915,lon_planning_designation_listed-building-outline_42210018","event_ids_all":"lon_planning_designation_conservation-area_44000871,lon_planning_designation_listed-building-outline_42209915,lon_planning_designation_listed-building-outline_42210018","source_urls":"https://www.planning.data.gov.uk/entity/44000871,https://www.planning.data.gov.uk/entity/42209915,https://www.planning.data.gov.uk/entity/42210018","geometry_precision_mix":"Row-level point from the adapter; source geocoding precision varies and may be approximate.:3","representation":"planning and built evidence grid cell","timing_note":"Filtered by event effective year. OSM mapped-visibility dates and administrative dates can differ from real-world physical change dates.","caveat":"Planning cells are derived from source-backed event locations; they are not parcel boundaries unless source geometry is separately present.","generated_from":"web/data/city-atlas/cities/london/events_1976.json","lifecycle_status":"uncertain","status":"source_record","cell_size_m":95,"intensity":0.578,"label":"Conservation area record: Roupell Street"},"geometry":{"type":"Polygon","coordinates":[[[-0.1096881,51.5045128],[-0.108317,51.5045128],[-0.108317,51.505372],[-0.1096881,51.505372],[-0.1096881,51.5045128]]]}},{"type":"Feature","properties":{"id":"lens-detail-london-1976-planning_cell-40","layer":"planning_cell","category":"built_environment","year":1976,"visible_year":1976,"title":"3 source-backed planning and built records","confidence":"documented","confidence_mix":"documented:3","event_count":3,"source_count":1,"source_ids":"lon-extra-planning-data-tree-preservation-zones","event_ids":"lon_planning_designation_tree-preservation-zone_19140710,lon_planning_designation_tree-preservation-zone_19140738,lon_planning_designation_tree-preservation-zone_19140772","event_ids_all":"lon_planning_designation_tree-preservation-zone_19140710,lon_planning_designation_tree-preservation-zone_19140738,lon_planning_designation_tree-preservation-zone_19140772","source_urls":"https://www.planning.data.gov.uk/entity/19140710,https://www.planning.data.gov.uk/entity/19140738,https://www.planning.data.gov.uk/entity/19140772","geometry_precision_mix":"Row-level point from the adapter; source geocoding precision varies and may be approximate.:3","representation":"planning and built evidence grid cell","timing_note":"Filtered by event effective year. OSM mapped-visibility dates and administrative dates can differ from real-world physical change dates.","caveat":"Planning cells are derived from source-backed event locations; they are not parcel boundaries unless source geometry is separately present.","generated_from":"web/data/city-atlas/cities/london/events_1976.json","lifecycle_status":"uncertain","status":"source_record","cell_size_m":95,"intensity":0.578,"label":"Tree preservation zone: 109 Wood Vale"},"geometry":{"type":"Polygon","coordinates":[[[-0.0630706,51.4469496],[-0.0616995,51.4469496],[-0.0616995,51.4478087],[-0.0630706,51.4478087],[-0.0630706,51.4469496]]]}},{"type":"Feature","properties":{"id":"lens-detail-london-1976-planning_cell-13","layer":"planning_cell","category":"built_environment","year":1976,"visible_year":1976,"title":"2 source-backed planning and built records","confidence":"documented","confidence_mix":"documented:2","event_count":2,"source_count":1,"source_ids":"lon-extra-planning-data-listed-building-outlines","event_ids":"lon_planning_designation_listed-building-outline_42148655,lon_planning_designation_listed-building-outline_42182330","event_ids_all":"lon_planning_designation_listed-building-outline_42148655,lon_planning_designation_listed-building-outline_42182330","source_urls":"https://www.planning.data.gov.uk/entity/42148655,https://www.planning.data.gov.uk/entity/42182330","geometry_precision_mix":"Row-level point from the adapter; source geocoding precision varies and may be approximate.:2","representation":"planning and built evidence grid cell","timing_note":"Filtered by event effective year. OSM mapped-visibility dates and administrative dates can differ from real-world physical change dates.","caveat":"Planning cells are derived from source-backed event locations; they are not parcel boundaries unless source geometry is separately present.","generated_from":"web/data/city-atlas/cities/london/events_1976.json","lifecycle_status":"uncertain","status":"source_record","cell_size_m":95,"intensity":0.458,"label":"Listed building outline: 1-9 SELWOOD TERRACE — Kensington and Chelsea"},"geometry":{"type":"Polygon","coordinates":[[[-0.176872,51.4890481],[-0.1755009,51.4890481],[-0.1755009,51.4899072],[-0.176872,51.4899072],[-0.176872,51.4890481]]]}},{"type":"Feature","properties":{"id":"lens-detail-london-1976-planning_cell-14","layer":"planning_cell","category":"built_environment","year":1976,"visible_year":1976,"title":"2 source-backed planning and built records","confidence":"documented","confidence_mix":"documented:2","event_count":2,"source_count":1,"source_ids":"lon-extra-planning-data-listed-building-outlines","event_ids":"lon_planning_designation_listed-building-outline_42149228,lon_planning_designation_listed-building-outline_42182882","event_ids_all":"lon_planning_designation_listed-building-outline_42149228,lon_planning_designation_listed-building-outline_42182882","source_urls":"https://www.planning.data.gov.uk/entity/42149228,https://www.planning.data.gov.uk/entity/42182882","geometry_precision_mix":"Row-level point from the adapter; source geocoding precision varies and may be approximate.:2","representation":"planning and built evidence grid cell","timing_note":"Filtered by event effective year. OSM mapped-visibility dates and administrative dates can differ from real-world physical change dates.","caveat":"Planning cells are derived from source-backed event locations; they are not parcel boundaries unless source geometry is separately present.","generated_from":"web/data/city-atlas/cities/london/events_1976.json","lifecycle_status":"uncertain","status":"source_record","cell_size_m":95,"intensity":0.458,"label":"Listed building outline: THE ELGIN PUBLIC HOUSE — Kensington and Chelsea"},"geometry":{"type":"Polygon","coordinates":[[[-0.2097785,51.5156818],[-0.2084074,51.5156818],[-0.2084074,51.516541],[-0.2097785,51.516541],[-0.2097785,51.5156818]]]}},{"type":"Feature","properties":{"id":"lens-detail-london-1976-planning_cell-15","layer":"planning_cell","category":"built_environment","year":1976,"visible_year":1976,"title":"2 source-backed planning and built records","confidence":"documented","confidence_mix":"documented:2","event_count":2,"source_count":1,"source_ids":"lon-extra-planning-data-listed-building-outlines","event_ids":"lon_planning_designation_listed-building-outline_42149354,lon_planning_designation_listed-building-outline_42183005","event_ids_all":"lon_planning_designation_listed-building-outline_42149354,lon_planning_designation_listed-building-outline_42183005","source_urls":"https://www.planning.data.gov.uk/entity/42149354,https://www.planning.data.gov.uk/entity/42183005","geometry_precision_mix":"Row-level point from the adapter; source geocoding precision varies and may be approximate.:2","representation":"planning and built evidence grid cell","timing_note":"Filtered by event effective year. OSM mapped-visibility dates and administrative dates can differ from real-world physical change dates.","caveat":"Planning cells are derived from source-backed event locations; they are not parcel boundaries unless source geometry is separately present.","generated_from":"web/data/city-atlas/cities/london/events_1976.json","lifecycle_status":"uncertain","status":"source_record","cell_size_m":95,"intensity":0.458,"label":"Listed building outline: FORMERLY THE CLARENDON HOTEL — Kensington and Chelsea"},"geometry":{"type":"Polygon","coordinates":[[[-0.2111496,51.5105269],[-0.2097785,51.5105269],[-0.2097785,51.511386],[-0.2111496,51.511386],[-0.2111496,51.5105269]]]}},{"type":"Feature","properties":{"id":"lens-detail-london-1976-planning_cell-16","layer":"planning_cell","category":"built_environment","year":1976,"visible_year":1976,"title":"2 source-backed planning and built records","confidence":"documented","confidence_mix":"documented:2","event_count":2,"source_count":1,"source_ids":"lon-extra-planning-data-listed-building-outlines","event_ids":"lon_planning_designation_listed-building-outline_42149369,lon_planning_designation_listed-building-outline_42183020","event_ids_all":"lon_planning_designation_listed-building-outline_42149369,lon_planning_designation_listed-building-outline_42183020","source_urls":"https://www.planning.data.gov.uk/entity/42149369,https://www.planning.data.gov.uk/entity/42183020","geometry_precision_mix":"Row-level point from the adapter; source geocoding precision varies and may be approximate.:2","representation":"planning and built evidence grid cell","timing_note":"Filtered by event effective year. OSM mapped-visibility dates and administrative dates can differ from real-world physical change dates.","caveat":"Planning cells are derived from source-backed event locations; they are not parcel boundaries unless source geometry is separately present.","generated_from":"web/data/city-atlas/cities/london/events_1976.json","lifecycle_status":"uncertain","status":"source_record","cell_size_m":95,"intensity":0.458,"label":"Listed building outline: 30-52 EARLS COURT SQUARE — Kensington and Chelsea"},"geometry":{"type":"Polygon","coordinates":[[[-0.1933252,51.4890481],[-0.1919541,51.4890481],[-0.1919541,51.4899072],[-0.1933252,51.4899072],[-0.1933252,51.4890481]]]}},{"type":"Feature","properties":{"id":"lens-detail-london-1976-planning_cell-17","layer":"planning_cell","category":"built_environment","year":1976,"visible_year":1976,"title":"2 source-backed planning and built records","confidence":"documented","confidence_mix":"documented:2","event_count":2,"source_count":1,"source_ids":"lon-extra-planning-data-listed-building-outlines","event_ids":"lon_planning_designation_listed-building-outline_42149570,lon_planning_designation_listed-building-outline_42183219","event_ids_all":"lon_planning_designation_listed-building-outline_42149570,lon_planning_designation_listed-building-outline_42183219","source_urls":"https://www.planning.data.gov.uk/entity/42149570,https://www.planning.data.gov.uk/entity/42183219","geometry_precision_mix":"Row-level point from the adapter; source geocoding precision varies and may be approximate.:2","representation":"planning and built evidence grid cell","timing_note":"Filtered by event effective year. OSM mapped-visibility dates and administrative dates can differ from real-world physical change dates.","caveat":"Planning cells are derived from source-backed event locations; they are not parcel boundaries unless source geometry is separately present.","generated_from":"web/data/city-atlas/cities/london/events_1976.json","lifecycle_status":"uncertain","status":"source_record","cell_size_m":95,"intensity":0.458,"label":"Listed building outline: 69-73 PONT STREET — Kensington and Chelsea"},"geometry":{"type":"Polygon","coordinates":[[[-0.1645321,51.4967804],[-0.163161,51.4967804],[-0.163161,51.4976396],[-0.1645321,51.4976396],[-0.1645321,51.4967804]]]}},{"type":"Feature","properties":{"id":"lens-detail-london-1976-planning_cell-27","layer":"planning_cell","category":"built_environment","year":1976,"visible_year":1976,"title":"2 source-backed planning and built records","confidence":"documented","confidence_mix":"documented:2","event_count":2,"source_count":1,"source_ids":"lon-extra-planning-data-listed-building-outlines","event_ids":"lon_planning_designation_listed-building-outline_42209510,lon_planning_designation_listed-building-outline_42209689","event_ids_all":"lon_planning_designation_listed-building-outline_42209510,lon_planning_designation_listed-building-outline_42209689","source_urls":"https://www.planning.data.gov.uk/entity/42209510,https://www.planning.data.gov.uk/entity/42209689","geometry_precision_mix":"Row-level point from the adapter; source geocoding precision varies and may be approximate.:2","representation":"planning and built evidence grid cell","timing_note":"Filtered by event effective year. OSM mapped-visibility dates and administrative dates can differ from real-world physical change dates.","caveat":"Planning cells are derived from source-backed event locations; they are not parcel boundaries unless source geometry is separately present.","generated_from":"web/data/city-atlas/cities/london/events_1976.json","lifecycle_status":"uncertain","status":"source_record","cell_size_m":95,"intensity":0.458,"label":"Listed building outline: Listed Building Grade II — Lambeth · 42209510"},"geometry":{"type":"Polygon","coordinates":[[[-0.1302546,51.4744425],[-0.1288835,51.4744425],[-0.1288835,51.4753016],[-0.1302546,51.4753016],[-0.1302546,51.4744425]]]}},{"type":"Feature","properties":{"id":"lens-detail-london-1976-planning_cell-32","layer":"planning_cell","category":"built_environment","year":1976,"visible_year":1976,"title":"2 source-backed planning and built records","confidence":"documented","confidence_mix":"documented:2","event_count":2,"source_count":1,"source_ids":"lon-extra-planning-data-listed-building-outlines","event_ids":"lon_planning_designation_listed-building-outline_42209755,lon_planning_designation_listed-building-outline_42209757","event_ids_all":"lon_planning_designation_listed-building-outline_42209755,lon_planning_designation_listed-building-outline_42209757","source_urls":"https://www.planning.data.gov.uk/entity/42209755,https://www.planning.data.gov.uk/entity/42209757","geometry_precision_mix":"Row-level point from the adapter; source geocoding precision varies and may be approximate.:2","representation":"planning and built evidence grid cell","timing_note":"Filtered by event effective year. OSM mapped-visibility dates and administrative dates can differ from real-world physical change dates.","caveat":"Planning cells are derived from source-backed event locations; they are not parcel boundaries unless source geometry is separately present.","generated_from":"web/data/city-atlas/cities/london/events_1976.json","lifecycle_status":"uncertain","status":"source_record","cell_size_m":95,"intensity":0.458,"label":"Listed building outline: Listed Building Grade II — Lambeth · 42209755"},"geometry":{"type":"Polygon","coordinates":[[[-0.1398523,51.4632735],[-0.1384812,51.4632735],[-0.1384812,51.4641326],[-0.1398523,51.4641326],[-0.1398523,51.4632735]]]}},{"type":"Feature","properties":{"id":"lens-detail-london-1976-planning_cell-36","layer":"planning_cell","category":"built_environment","year":1976,"visible_year":1976,"title":"2 source-backed planning and built records","confidence":"documented","confidence_mix":"documented:2","event_count":2,"source_count":1,"source_ids":"lon-extra-planning-data-listed-building-outlines","event_ids":"lon_planning_designation_listed-building-outline_42209983,lon_planning_designation_listed-building-outline_42209984","event_ids_all":"lon_planning_designation_listed-building-outline_42209983,lon_planning_designation_listed-building-outline_42209984","source_urls":"https://www.planning.data.gov.uk/entity/42209983,https://www.planning.data.gov.uk/entity/42209984","geometry_precision_mix":"Row-level point from the adapter; source geocoding precision varies and may be approximate.:2","representation":"planning and built evidence grid cell","timing_note":"Filtered by event effective year. OSM mapped-visibility dates and administrative dates can differ from real-world physical change dates.","caveat":"Planning cells are derived from source-backed event locations; they are not parcel boundaries unless source geometry is separately present.","generated_from":"web/data/city-atlas/cities/london/events_1976.json","lifecycle_status":"uncertain","status":"source_record","cell_size_m":95,"intensity":0.458,"label":"Listed building outline: Listed Building Grade II — Lambeth · 42209983"},"geometry":{"type":"Polygon","coordinates":[[[-0.1398523,51.4641326],[-0.1384812,51.4641326],[-0.1384812,51.4649918],[-0.1398523,51.4649918],[-0.1398523,51.4641326]]]}},{"type":"Feature","properties":{"id":"lens-detail-london-1976-planning_cell-39","layer":"planning_cell","category":"built_environment","year":1976,"visible_year":1976,"title":"2 source-backed planning and built records","confidence":"documented","confidence_mix":"documented:2","event_count":2,"source_count":1,"source_ids":"lon-extra-planning-data-tree-preservation-zones","event_ids":"lon_planning_designation_tree-preservation-zone_19140692,lon_planning_designation_tree-preservation-zone_19140732","event_ids_all":"lon_planning_designation_tree-preservation-zone_19140692,lon_planning_designation_tree-preservation-zone_19140732","source_urls":"https://www.planning.data.gov.uk/entity/19140692,https://www.planning.data.gov.uk/entity/19140732","geometry_precision_mix":"Row-level point from the adapter; source geocoding precision varies and may be approximate.:2","representation":"planning and built evidence grid cell","timing_note":"Filtered by event effective year. OSM mapped-visibility dates and administrative dates can differ from real-world physical change dates.","caveat":"Planning cells are derived from source-backed event locations; they are not parcel boundaries unless source geometry is separately present.","generated_from":"web/data/city-atlas/cities/london/events_1976.json","lifecycle_status":"uncertain","status":"source_record","cell_size_m":95,"intensity":0.458,"label":"Tree preservation zone: 75 Wood Vale"},"geometry":{"type":"Polygon","coordinates":[[[-0.0644417,51.4452312],[-0.0630706,51.4452312],[-0.0630706,51.4460904],[-0.0644417,51.4460904],[-0.0644417,51.4452312]]]}},{"type":"Feature","properties":{"id":"lens-detail-london-1976-planning_cell-41","layer":"planning_cell","category":"built_environment","year":1976,"visible_year":1976,"title":"2 source-backed planning and built records","confidence":"documented","confidence_mix":"documented:2","event_count":2,"source_count":1,"source_ids":"lon-extra-planning-data-tree-preservation-zones","event_ids":"lon_planning_designation_tree-preservation-zone_19140714,lon_planning_designation_tree-preservation-zone_19140741","event_ids_all":"lon_planning_designation_tree-preservation-zone_19140714,lon_planning_designation_tree-preservation-zone_19140741","source_urls":"https://www.planning.data.gov.uk/entity/19140714,https://www.planning.data.gov.uk/entity/19140741","geometry_precision_mix":"Row-level point from the adapter; source geocoding precision varies and may be approximate.:2","representation":"planning and built evidence grid cell","timing_note":"Filtered by event effective year. OSM mapped-visibility dates and administrative dates can differ from real-world physical change dates.","caveat":"Planning cells are derived from source-backed event locations; they are not parcel boundaries unless source geometry is separately present.","generated_from":"web/data/city-atlas/cities/london/events_1976.json","lifecycle_status":"uncertain","status":"source_record","cell_size_m":95,"intensity":0.458,"label":"Tree preservation zone: 27 Wood Vale"},"geometry":{"type":"Polygon","coordinates":[[[-0.0644417,51.4426538],[-0.0630706,51.4426538],[-0.0630706,51.4435129],[-0.0644417,51.4435129],[-0.0644417,51.4426538]]]}},{"type":"Feature","properties":{"id":"lens-detail-london-1976-planning_cell-43","layer":"planning_cell","category":"built_environment","year":1976,"visible_year":1976,"title":"2 source-backed planning and built records","confidence":"documented","confidence_mix":"documented:2","event_count":2,"source_count":1,"source_ids":"lon-extra-planning-data-tree-preservation-zones","event_ids":"lon_planning_designation_tree-preservation-zone_19140783,lon_planning_designation_tree-preservation-zone_19140787","event_ids_all":"lon_planning_designation_tree-preservation-zone_19140783,lon_planning_designation_tree-preservation-zone_19140787","source_urls":"https://www.planning.data.gov.uk/entity/19140783,https://www.planning.data.gov.uk/entity/19140787","geometry_precision_mix":"Row-level point from the adapter; source geocoding precision varies and may be approximate.:2","representation":"planning and built evidence grid cell","timing_note":"Filtered by event effective year. OSM mapped-visibility dates and administrative dates can differ from real-world physical change dates.","caveat":"Planning cells are derived from source-backed event locations; they are not parcel boundaries unless source geometry is separately present.","generated_from":"web/data/city-atlas/cities/london/events_1976.json","lifecycle_status":"uncertain","status":"source_record","cell_size_m":95,"intensity":0.458,"label":"Tree preservation zone: 565 Lordship"},"geometry":{"type":"Polygon","coordinates":[[[-0.0658128,51.4409355],[-0.0644417,51.4409355],[-0.0644417,51.4417946],[-0.0658128,51.4417946],[-0.0658128,51.4409355]]]}},{"type":"Feature","properties":{"id":"lens-detail-london-1976-planning_cell-1","layer":"planning_cell","category":"built_environment","year":1976,"visible_year":1976,"title":"1 source-backed planning and built record","confidence":"documented","confidence_mix":"documented:1","event_count":1,"source_count":1,"source_ids":"lon-extra-planning-data-conservation-areas","event_ids":"lon_planning_designation_conservation-area_44000894","event_ids_all":"lon_planning_designation_conservation-area_44000894","source_urls":"https://www.planning.data.gov.uk/entity/44000894","geometry_precision_mix":"Row-level point from the adapter; source geocoding precision varies and may be approximate.:1","representation":"planning and built evidence grid cell","timing_note":"Filtered by event effective year. OSM mapped-visibility dates and administrative dates can differ from real-world physical change dates.","caveat":"Planning cells are derived from source-backed event locations; they are not parcel boundaries unless source geometry is separately present.","generated_from":"web/data/city-atlas/cities/london/events_1976.json","lifecycle_status":"uncertain","status":"source_record","cell_size_m":95,"intensity":0.289,"label":"Conservation area record: Elderwood"},"geometry":{"type":"Polygon","coordinates":[[[-0.0987193,51.4246116],[-0.0973482,51.4246116],[-0.0973482,51.4254707],[-0.0987193,51.4254707],[-0.0987193,51.4246116]]]}},{"type":"Feature","properties":{"id":"lens-detail-london-1976-planning_cell-10","layer":"planning_cell","category":"built_environment","year":1976,"visible_year":1976,"title":"1 source-backed planning and built record","confidence":"documented","confidence_mix":"documented:1","event_count":1,"source_count":1,"source_ids":"lon-extra-planning-data-listed-building-outlines","event_ids":"lon_planning_designation_listed-building-outline_42120744","event_ids_all":"lon_planning_designation_listed-building-outline_42120744","source_urls":"https://www.planning.data.gov.uk/entity/42120744","geometry_precision_mix":"Row-level point from the adapter; source geocoding precision varies and may be approximate.:1","representation":"planning and built evidence grid cell","timing_note":"Filtered by event effective year. OSM mapped-visibility dates and administrative dates can differ from real-world physical change dates.","caveat":"Planning cells are derived from source-backed event locations; they are not parcel boundaries unless source geometry is separately present.","generated_from":"web/data/city-atlas/cities/london/events_1976.json","lifecycle_status":"uncertain","status":"source_record","cell_size_m":95,"intensity":0.289,"label":"Listed building outline: GREEN LODGE"},"geometry":{"type":"Polygon","coordinates":[[[-0.1974385,51.6282309],[-0.1960674,51.6282309],[-0.1960674,51.62909],[-0.1974385,51.62909],[-0.1974385,51.6282309]]]}},{"type":"Feature","properties":{"id":"lens-detail-london-1976-planning_cell-18","layer":"planning_cell","category":"built_environment","year":1976,"visible_year":1976,"title":"1 source-backed planning and built record","confidence":"documented","confidence_mix":"documented:1","event_count":1,"source_count":1,"source_ids":"lon-extra-planning-data-listed-building-outlines","event_ids":"lon_planning_designation_listed-building-outline_42165120","event_ids_all":"lon_planning_designation_listed-building-outline_42165120","source_urls":"https://www.planning.data.gov.uk/entity/42165120","geometry_precision_mix":"Row-level point from the adapter; source geocoding precision varies and may be approximate.:1","representation":"planning and built evidence grid cell","timing_note":"Filtered by event effective year. OSM mapped-visibility dates and administrative dates can differ from real-world physical change dates.","caveat":"Planning cells are derived from source-backed event locations; they are not parcel boundaries unless source geometry is separately present.","generated_from":"web/data/city-atlas/cities/london/events_1976.json","lifecycle_status":"uncertain","status":"source_record","cell_size_m":95,"intensity":0.289,"label":"Listed building outline: Central Bush House 30 Aldwych London WC2B 4PJ"},"geometry":{"type":"Polygon","coordinates":[[[-0.1179147,51.5122452],[-0.1165436,51.5122452],[-0.1165436,51.5131043],[-0.1179147,51.5131043],[-0.1179147,51.5122452]]]}},{"type":"Feature","properties":{"id":"lens-detail-london-1976-planning_cell-2","layer":"planning_cell","category":"built_environment","year":1976,"visible_year":1976,"title":"1 source-backed planning and built record","confidence":"documented","confidence_mix":"documented:1","event_count":1,"source_count":1,"source_ids":"lon-extra-planning-data-conservation-areas","event_ids":"lon_planning_designation_conservation-area_44001067","event_ids_all":"lon_planning_designation_conservation-area_44001067","source_urls":"https://www.wandsworth.gov.uk/planning-and-building-control/building-conservation-and-design/conservation-areas/conservation-area-appraisals/","geometry_precision_mix":"Row-level point from the adapter; source geocoding precision varies and may be approximate.:1","representation":"planning and built evidence grid cell","timing_note":"Filtered by event effective year. OSM mapped-visibility dates and administrative dates can differ from real-world physical change dates.","caveat":"Planning cells are derived from source-backed event locations; they are not parcel boundaries unless source geometry is separately present.","generated_from":"web/data/city-atlas/cities/london/events_1976.json","lifecycle_status":"uncertain","status":"source_record","cell_size_m":95,"intensity":0.289,"label":"Conservation area record: Shaftesbury Park Estate"},"geometry":{"type":"Polygon","coordinates":[[[-0.1590477,51.4675692],[-0.1576766,51.4675692],[-0.1576766,51.4684284],[-0.1590477,51.4684284],[-0.1590477,51.4675692]]]}},{"type":"Feature","properties":{"id":"lens-detail-london-1976-planning_cell-21","layer":"planning_cell","category":"built_environment","year":1976,"visible_year":1976,"title":"1 source-backed planning and built record","confidence":"documented","confidence_mix":"documented:1","event_count":1,"source_count":1,"source_ids":"lon-extra-planning-data-listed-building-outlines","event_ids":"lon_planning_designation_listed-building-outline_42166153","event_ids_all":"lon_planning_designation_listed-building-outline_42166153","source_urls":"https://www.planning.data.gov.uk/entity/42166153","geometry_precision_mix":"Row-level point from the adapter; source geocoding precision varies and may be approximate.:1","representation":"planning and built evidence grid cell","timing_note":"Filtered by event effective year. OSM mapped-visibility dates and administrative dates can differ from real-world physical change dates.","caveat":"Planning cells are derived from source-backed event locations; they are not parcel boundaries unless source geometry is separately present.","generated_from":"web/data/city-atlas/cities/london/events_1976.json","lifecycle_status":"uncertain","status":"source_record","cell_size_m":95,"intensity":0.289,"label":"Listed building outline: 12 Mount Row London W1K 3RN"},"geometry":{"type":"Polygon","coordinates":[[[-0.14945,51.5105269],[-0.1480789,51.5105269],[-0.1480789,51.511386],[-0.14945,51.511386],[-0.14945,51.5105269]]]}},{"type":"Feature","properties":{"id":"lens-detail-london-1976-planning_cell-22","layer":"planning_cell","category":"built_environment","year":1976,"visible_year":1976,"title":"1 source-backed planning and built record","confidence":"documented","confidence_mix":"documented:1","event_count":1,"source_count":1,"source_ids":"lon-extra-planning-data-listed-building-outlines","event_ids":"lon_planning_designation_listed-building-outline_42192532","event_ids_all":"lon_planning_designation_listed-building-outline_42192532","source_urls":"https://www.planning.data.gov.uk/entity/42192532","geometry_precision_mix":"Row-level point from the adapter; source geocoding precision varies and may be approximate.:1","representation":"planning and built evidence grid cell","timing_note":"Filtered by event effective year. OSM mapped-visibility dates and administrative dates can differ from real-world physical change dates.","caveat":"Planning cells are derived from source-backed event locations; they are not parcel boundaries unless source geometry is separately present.","generated_from":"web/data/city-atlas/cities/london/events_1976.json","lifecycle_status":"uncertain","status":"source_record","cell_size_m":95,"intensity":0.289,"label":"Listed building outline: SSE Arena, Engineers Way, Wembley, HA9 0AA"},"geometry":{"type":"Polygon","coordinates":[[[-0.2838179,51.5577803],[-0.2824468,51.5577803],[-0.2824468,51.5586395],[-0.2838179,51.5586395],[-0.2838179,51.5577803]]]}},{"type":"Feature","properties":{"id":"lens-detail-london-1976-planning_cell-23","layer":"planning_cell","category":"built_environment","year":1976,"visible_year":1976,"title":"1 source-backed planning and built record","confidence":"documented","confidence_mix":"documented:1","event_count":1,"source_count":1,"source_ids":"lon-extra-planning-data-listed-building-outlines","event_ids":"lon_planning_designation_listed-building-outline_42209393","event_ids_all":"lon_planning_designation_listed-building-outline_42209393","source_urls":"https://www.planning.data.gov.uk/entity/42209393","geometry_precision_mix":"Row-level point from the adapter; source geocoding precision varies and may be approximate.:1","representation":"planning and built evidence grid cell","timing_note":"Filtered by event effective year. OSM mapped-visibility dates and administrative dates can differ from real-world physical change dates.","caveat":"Planning cells are derived from source-backed event locations; they are not parcel boundaries unless source geometry is separately present.","generated_from":"web/data/city-atlas/cities/london/events_1976.json","lifecycle_status":"uncertain","status":"source_record","cell_size_m":95,"intensity":0.289,"label":"Listed building outline: Listed Building Grade II — Lambeth"},"geometry":{"type":"Polygon","coordinates":[[[-0.1096881,51.494203],[-0.108317,51.494203],[-0.108317,51.4950621],[-0.1096881,51.4950621],[-0.1096881,51.494203]]]}},{"type":"Feature","properties":{"id":"lens-detail-london-1976-planning_cell-24","layer":"planning_cell","category":"built_environment","year":1976,"visible_year":1976,"title":"1 source-backed planning and built record","confidence":"documented","confidence_mix":"documented:1","event_count":1,"source_count":1,"source_ids":"lon-extra-planning-data-listed-building-outlines","event_ids":"lon_planning_designation_listed-building-outline_42209485","event_ids_all":"lon_planning_designation_listed-building-outline_42209485","source_urls":"https://www.planning.data.gov.uk/entity/42209485","geometry_precision_mix":"Row-level point from the adapter; source geocoding precision varies and may be approximate.:1","representation":"planning and built evidence grid cell","timing_note":"Filtered by event effective year. OSM mapped-visibility dates and administrative dates can differ from real-world physical change dates.","caveat":"Planning cells are derived from source-backed event locations; they are not parcel boundaries unless source geometry is separately present.","generated_from":"web/data/city-atlas/cities/london/events_1976.json","lifecycle_status":"uncertain","status":"source_record","cell_size_m":95,"intensity":0.289,"label":"Listed building outline: Listed Building Grade II — Lambeth · 42209485"},"geometry":{"type":"Polygon","coordinates":[[[-0.108317,51.5045128],[-0.1069459,51.5045128],[-0.1069459,51.505372],[-0.108317,51.505372],[-0.108317,51.5045128]]]}},{"type":"Feature","properties":{"id":"lens-detail-london-1976-planning_cell-25","layer":"planning_cell","category":"built_environment","year":1976,"visible_year":1976,"title":"1 source-backed planning and built record","confidence":"documented","confidence_mix":"documented:1","event_count":1,"source_count":1,"source_ids":"lon-extra-planning-data-listed-building-outlines","event_ids":"lon_planning_designation_listed-building-outline_42209487","event_ids_all":"lon_planning_designation_listed-building-outline_42209487","source_urls":"https://www.planning.data.gov.uk/entity/42209487","geometry_precision_mix":"Row-level point from the adapter; source geocoding precision varies and may be approximate.:1","representation":"planning and built evidence grid cell","timing_note":"Filtered by event effective year. OSM mapped-visibility dates and administrative dates can differ from real-world physical change dates.","caveat":"Planning cells are derived from source-backed event locations; they are not parcel boundaries unless source geometry is separately present.","generated_from":"web/data/city-atlas/cities/london/events_1976.json","lifecycle_status":"uncertain","status":"source_record","cell_size_m":95,"intensity":0.289,"label":"Listed building outline: Listed Building Grade II — Lambeth · 42209487"},"geometry":{"type":"Polygon","coordinates":[[[-0.1316257,51.4564002],[-0.1302546,51.4564002],[-0.1302546,51.4572594],[-0.1316257,51.4572594],[-0.1316257,51.4564002]]]}},{"type":"Feature","properties":{"id":"lens-detail-london-1976-planning_cell-26","layer":"planning_cell","category":"built_environment","year":1976,"visible_year":1976,"title":"1 source-backed planning and built record","confidence":"documented","confidence_mix":"documented:1","event_count":1,"source_count":1,"source_ids":"lon-extra-planning-data-listed-building-outlines","event_ids":"lon_planning_designation_listed-building-outline_42209489","event_ids_all":"lon_planning_designation_listed-building-outline_42209489","source_urls":"https://www.planning.data.gov.uk/entity/42209489","geometry_precision_mix":"Row-level point from the adapter; source geocoding precision varies and may be approximate.:1","representation":"planning and built evidence grid cell","timing_note":"Filtered by event effective year. OSM mapped-visibility dates and administrative dates can differ from real-world physical change dates.","caveat":"Planning cells are derived from source-backed event locations; they are not parcel boundaries unless source geometry is separately present.","generated_from":"web/data/city-atlas/cities/london/events_1976.json","lifecycle_status":"uncertain","status":"source_record","cell_size_m":95,"intensity":0.289,"label":"Listed building outline: Listed Building Grade II — Lambeth · 42209489"},"geometry":{"type":"Polygon","coordinates":[[[-0.1233991,51.4795974],[-0.122028,51.4795974],[-0.122028,51.4804565],[-0.1233991,51.4804565],[-0.1233991,51.4795974]]]}},{"type":"Feature","properties":{"id":"lens-detail-london-1976-planning_cell-28","layer":"planning_cell","category":"built_environment","year":1976,"visible_year":1976,"title":"1 source-backed planning and built record","confidence":"documented","confidence_mix":"documented:1","event_count":1,"source_count":1,"source_ids":"lon-extra-planning-data-listed-building-outlines","event_ids":"lon_planning_designation_listed-building-outline_42209553","event_ids_all":"lon_planning_designation_listed-building-outline_42209553","source_urls":"https://www.planning.data.gov.uk/entity/42209553","geometry_precision_mix":"Row-level point from the adapter; source geocoding precision varies and may be approximate.:1","representation":"planning and built evidence grid cell","timing_note":"Filtered by event effective year. OSM mapped-visibility dates and administrative dates can differ from real-world physical change dates.","caveat":"Planning cells are derived from source-backed event locations; they are not parcel boundaries unless source geometry is separately present.","generated_from":"web/data/city-atlas/cities/london/events_1976.json","lifecycle_status":"uncertain","status":"source_record","cell_size_m":95,"intensity":0.289,"label":"Listed building outline: Listed Building Grade II — Lambeth · 42209553"},"geometry":{"type":"Polygon","coordinates":[[[-0.0973482,51.4357806],[-0.0959771,51.4357806],[-0.0959771,51.4366397],[-0.0973482,51.4366397],[-0.0973482,51.4357806]]]}},{"type":"Feature","properties":{"id":"lens-detail-london-1976-planning_cell-29","layer":"planning_cell","category":"built_environment","year":1976,"visible_year":1976,"title":"1 source-backed planning and built record","confidence":"documented","confidence_mix":"documented:1","event_count":1,"source_count":1,"source_ids":"lon-extra-planning-data-listed-building-outlines","event_ids":"lon_planning_designation_listed-building-outline_42209688","event_ids_all":"lon_planning_designation_listed-building-outline_42209688","source_urls":"https://www.planning.data.gov.uk/entity/42209688","geometry_precision_mix":"Row-level point from the adapter; source geocoding precision varies and may be approximate.:1","representation":"planning and built evidence grid cell","timing_note":"Filtered by event effective year. OSM mapped-visibility dates and administrative dates can differ from real-world physical change dates.","caveat":"Planning cells are derived from source-backed event locations; they are not parcel boundaries unless source geometry is separately present.","generated_from":"web/data/city-atlas/cities/london/events_1976.json","lifecycle_status":"uncertain","status":"source_record","cell_size_m":95,"intensity":0.289,"label":"Listed building outline: Listed Building Grade II — Lambeth · 42209688"},"geometry":{"type":"Polygon","coordinates":[[[-0.1275124,51.4744425],[-0.1261413,51.4744425],[-0.1261413,51.4753016],[-0.1275124,51.4753016],[-0.1275124,51.4744425]]]}},{"type":"Feature","properties":{"id":"lens-detail-london-1976-planning_cell-3","layer":"planning_cell","category":"built_environment","year":1976,"visible_year":1976,"title":"1 source-backed planning and built record","confidence":"documented","confidence_mix":"documented:1","event_count":1,"source_count":1,"source_ids":"lon-extra-planning-data-conservation-areas","event_ids":"lon_planning_designation_conservation-area_44003415","event_ids_all":"lon_planning_designation_conservation-area_44003415","source_urls":"https://www.newham.gov.uk/planning-development-conservation/conservation-areas-listed-buildings-newham/6?documentId=57&categoryId=20147","geometry_precision_mix":"Row-level point from the adapter; source geocoding precision varies and may be approximate.:1","representation":"planning and built evidence grid cell","timing_note":"Filtered by event effective year. OSM mapped-visibility dates and administrative dates can differ from real-world physical change dates.","caveat":"Planning cells are derived from source-backed event locations; they are not parcel boundaries unless source geometry is separately present.","generated_from":"web/data/city-atlas/cities/london/events_1976.json","lifecycle_status":"uncertain","status":"source_record","cell_size_m":95,"intensity":0.289,"label":"Conservation area record: Woodgrange Estate, Forest Gate"},"geometry":{"type":"Polygon","coordinates":[[[0.0329064,51.5483296],[0.0342775,51.5483296],[0.0342775,51.5491888],[0.0329064,51.5491888],[0.0329064,51.5483296]]]}},{"type":"Feature","properties":{"id":"lens-detail-london-1976-planning_cell-30","layer":"planning_cell","category":"built_environment","year":1976,"visible_year":1976,"title":"1 source-backed planning and built record","confidence":"documented","confidence_mix":"documented:1","event_count":1,"source_count":1,"source_ids":"lon-extra-planning-data-listed-building-outlines","event_ids":"lon_planning_designation_listed-building-outline_42209691","event_ids_all":"lon_planning_designation_listed-building-outline_42209691","source_urls":"https://www.planning.data.gov.uk/entity/42209691","geometry_precision_mix":"Row-level point from the adapter; source geocoding precision varies and may be approximate.:1","representation":"planning and built evidence grid cell","timing_note":"Filtered by event effective year. OSM mapped-visibility dates and administrative dates can differ from real-world physical change dates.","caveat":"Planning cells are derived from source-backed event locations; they are not parcel boundaries unless source geometry is separately present.","generated_from":"web/data/city-atlas/cities/london/events_1976.json","lifecycle_status":"uncertain","status":"source_record","cell_size_m":95,"intensity":0.289,"label":"Listed building outline: Listed Building Grade II — Lambeth · 42209691"},"geometry":{"type":"Polygon","coordinates":[[[-0.1398523,51.4675692],[-0.1384812,51.4675692],[-0.1384812,51.4684284],[-0.1398523,51.4684284],[-0.1398523,51.4675692]]]}},{"type":"Feature","properties":{"id":"lens-detail-london-1976-planning_cell-31","layer":"planning_cell","category":"built_environment","year":1976,"visible_year":1976,"title":"1 source-backed planning and built record","confidence":"documented","confidence_mix":"documented:1","event_count":1,"source_count":1,"source_ids":"lon-extra-planning-data-listed-building-outlines","event_ids":"lon_planning_designation_listed-building-outline_42209692","event_ids_all":"lon_planning_designation_listed-building-outline_42209692","source_urls":"https://www.planning.data.gov.uk/entity/42209692","geometry_precision_mix":"Row-level point from the adapter; source geocoding precision varies and may be approximate.:1","representation":"planning and built evidence grid cell","timing_note":"Filtered by event effective year. OSM mapped-visibility dates and administrative dates can differ from real-world physical change dates.","caveat":"Planning cells are derived from source-backed event locations; they are not parcel boundaries unless source geometry is separately present.","generated_from":"web/data/city-atlas/cities/london/events_1976.json","lifecycle_status":"uncertain","status":"source_record","cell_size_m":95,"intensity":0.289,"label":"Listed building outline: Listed Building Grade II — Lambeth · 42209692"},"geometry":{"type":"Polygon","coordinates":[[[-0.1439656,51.4658509],[-0.1425945,51.4658509],[-0.1425945,51.4667101],[-0.1439656,51.4667101],[-0.1439656,51.4658509]]]}},{"type":"Feature","properties":{"id":"lens-detail-london-1976-planning_cell-33","layer":"planning_cell","category":"built_environment","year":1976,"visible_year":1976,"title":"1 source-backed planning and built record","confidence":"documented","confidence_mix":"documented:1","event_count":1,"source_count":1,"source_ids":"lon-extra-planning-data-listed-building-outlines","event_ids":"lon_planning_designation_listed-building-outline_42209781","event_ids_all":"lon_planning_designation_listed-building-outline_42209781","source_urls":"https://www.planning.data.gov.uk/entity/42209781","geometry_precision_mix":"Row-level point from the adapter; source geocoding precision varies and may be approximate.:1","representation":"planning and built evidence grid cell","timing_note":"Filtered by event effective year. OSM mapped-visibility dates and administrative dates can differ from real-world physical change dates.","caveat":"Planning cells are derived from source-backed event locations; they are not parcel boundaries unless source geometry is separately present.","generated_from":"web/data/city-atlas/cities/london/events_1976.json","lifecycle_status":"uncertain","status":"source_record","cell_size_m":95,"intensity":0.289,"label":"Listed building outline: Listed Building Grade II — Lambeth · 42209781"},"geometry":{"type":"Polygon","coordinates":[[[-0.1138014,51.4555411],[-0.1124303,51.4555411],[-0.1124303,51.4564002],[-0.1138014,51.4564002],[-0.1138014,51.4555411]]]}},{"type":"Feature","properties":{"id":"lens-detail-london-1976-planning_cell-34","layer":"planning_cell","category":"built_environment","year":1976,"visible_year":1976,"title":"1 source-backed planning and built record","confidence":"documented","confidence_mix":"documented:1","event_count":1,"source_count":1,"source_ids":"lon-extra-planning-data-listed-building-outlines","event_ids":"lon_planning_designation_listed-building-outline_42209789","event_ids_all":"lon_planning_designation_listed-building-outline_42209789","source_urls":"https://www.planning.data.gov.uk/entity/42209789","geometry_precision_mix":"Row-level point from the adapter; source geocoding precision varies and may be approximate.:1","representation":"planning and built evidence grid cell","timing_note":"Filtered by event effective year. OSM mapped-visibility dates and administrative dates can differ from real-world physical change dates.","caveat":"Planning cells are derived from source-backed event locations; they are not parcel boundaries unless source geometry is separately present.","generated_from":"web/data/city-atlas/cities/london/events_1976.json","lifecycle_status":"uncertain","status":"source_record","cell_size_m":95,"intensity":0.289,"label":"Listed building outline: Listed Building Grade II — Lambeth · 42209789"},"geometry":{"type":"Polygon","coordinates":[[[-0.1206569,51.4744425],[-0.1192858,51.4744425],[-0.1192858,51.4753016],[-0.1206569,51.4753016],[-0.1206569,51.4744425]]]}},{"type":"Feature","properties":{"id":"lens-detail-london-1976-planning_cell-35","layer":"planning_cell","category":"built_environment","year":1976,"visible_year":1976,"title":"1 source-backed planning and built record","confidence":"documented","confidence_mix":"documented:1","event_count":1,"source_count":1,"source_ids":"lon-extra-planning-data-listed-building-outlines","event_ids":"lon_planning_designation_listed-building-outline_42209946","event_ids_all":"lon_planning_designation_listed-building-outline_42209946","source_urls":"https://www.planning.data.gov.uk/entity/42209946","geometry_precision_mix":"Row-level point from the adapter; source geocoding precision varies and may be approximate.:1","representation":"planning and built evidence grid cell","timing_note":"Filtered by event effective year. OSM mapped-visibility dates and administrative dates can differ from real-world physical change dates.","caveat":"Planning cells are derived from source-backed event locations; they are not parcel boundaries unless source geometry is separately present.","generated_from":"web/data/city-atlas/cities/london/events_1976.json","lifecycle_status":"uncertain","status":"source_record","cell_size_m":95,"intensity":0.289,"label":"Listed building outline: Listed Building Grade II — Lambeth · 42209946"},"geometry":{"type":"Polygon","coordinates":[[[-0.1069459,51.4770199],[-0.1055748,51.4770199],[-0.1055748,51.4778791],[-0.1069459,51.4778791],[-0.1069459,51.4770199]]]}},{"type":"Feature","properties":{"id":"lens-detail-london-1976-planning_cell-37","layer":"planning_cell","category":"built_environment","year":1976,"visible_year":1976,"title":"1 source-backed planning and built record","confidence":"documented","confidence_mix":"documented:1","event_count":1,"source_count":1,"source_ids":"lon-extra-planning-data-listed-building-outlines","event_ids":"lon_planning_designation_listed-building-outline_42210187","event_ids_all":"lon_planning_designation_listed-building-outline_42210187","source_urls":"https://www.planning.data.gov.uk/entity/42210187","geometry_precision_mix":"Row-level point from the adapter; source geocoding precision varies and may be approximate.:1","representation":"planning and built evidence grid cell","timing_note":"Filtered by event effective year. OSM mapped-visibility dates and administrative dates can differ from real-world physical change dates.","caveat":"Planning cells are derived from source-backed event locations; they are not parcel boundaries unless source geometry is separately present.","generated_from":"web/data/city-atlas/cities/london/events_1976.json","lifecycle_status":"uncertain","status":"source_record","cell_size_m":95,"intensity":0.289,"label":"Listed building outline: Listed Building Grade II — Lambeth · 42210187"},"geometry":{"type":"Polygon","coordinates":[[[-0.1110592,51.5036537],[-0.1096881,51.5036537],[-0.1096881,51.5045128],[-0.1110592,51.5045128],[-0.1110592,51.5036537]]]}},{"type":"Feature","properties":{"id":"lens-detail-london-1976-planning_cell-38","layer":"planning_cell","category":"built_environment","year":1976,"visible_year":1976,"title":"1 source-backed planning and built record","confidence":"documented","confidence_mix":"documented:1","event_count":1,"source_count":1,"source_ids":"lon-extra-planning-data-tree-preservation-zones","event_ids":"lon_planning_designation_tree-preservation-zone_19140640","event_ids_all":"lon_planning_designation_tree-preservation-zone_19140640","source_urls":"https://www.planning.data.gov.uk/entity/19140640","geometry_precision_mix":"Row-level point from the adapter; source geocoding precision varies and may be approximate.:1","representation":"planning and built evidence grid cell","timing_note":"Filtered by event effective year. OSM mapped-visibility dates and administrative dates can differ from real-world physical change dates.","caveat":"Planning cells are derived from source-backed event locations; they are not parcel boundaries unless source geometry is separately present.","generated_from":"web/data/city-atlas/cities/london/events_1976.json","lifecycle_status":"uncertain","status":"source_record","cell_size_m":95,"intensity":0.289,"label":"Tree preservation zone: land at Kenley Aerodrome"},"geometry":{"type":"Polygon","coordinates":[[[-0.0904927,51.3017527],[-0.0891216,51.3017527],[-0.0891216,51.3026118],[-0.0904927,51.3026118],[-0.0904927,51.3017527]]]}},{"type":"Feature","properties":{"id":"lens-detail-london-1976-planning_cell-4","layer":"planning_cell","category":"built_environment","year":1976,"visible_year":1976,"title":"1 source-backed planning and built record","confidence":"documented","confidence_mix":"documented:1","event_count":1,"source_count":1,"source_ids":"lon-extra-planning-data-listed-building-outlines","event_ids":"lon_planning_designation_listed-building-outline_42115961","event_ids_all":"lon_planning_designation_listed-building-outline_42115961","source_urls":"https://www.planning.data.gov.uk/entity/42115961","geometry_precision_mix":"Row-level point from the adapter; source geocoding precision varies and may be approximate.:1","representation":"planning and built evidence grid cell","timing_note":"Filtered by event effective year. OSM mapped-visibility dates and administrative dates can differ from real-world physical change dates.","caveat":"Planning cells are derived from source-backed event locations; they are not parcel boundaries unless source geometry is separately present.","generated_from":"web/data/city-atlas/cities/london/events_1976.json","lifecycle_status":"uncertain","status":"source_record","cell_size_m":95,"intensity":0.289,"label":"Listed building outline: (North West side) Washington Public House"},"geometry":{"type":"Polygon","coordinates":[[[-0.163161,51.544893],[-0.1617899,51.544893],[-0.1617899,51.5457522],[-0.163161,51.5457522],[-0.163161,51.544893]]]}},{"type":"Feature","properties":{"id":"lens-detail-london-1976-planning_cell-42","layer":"planning_cell","category":"built_environment","year":1976,"visible_year":1976,"title":"1 source-backed planning and built record","confidence":"documented","confidence_mix":"documented:1","event_count":1,"source_count":1,"source_ids":"lon-extra-planning-data-tree-preservation-zones","event_ids":"lon_planning_designation_tree-preservation-zone_19140723","event_ids_all":"lon_planning_designation_tree-preservation-zone_19140723","source_urls":"https://www.planning.data.gov.uk/entity/19140723","geometry_precision_mix":"Row-level point from the adapter; source geocoding precision varies and may be approximate.:1","representation":"planning and built evidence grid cell","timing_note":"Filtered by event effective year. OSM mapped-visibility dates and administrative dates can differ from real-world physical change dates.","caveat":"Planning cells are derived from source-backed event locations; they are not parcel boundaries unless source geometry is separately present.","generated_from":"web/data/city-atlas/cities/london/events_1976.json","lifecycle_status":"uncertain","status":"source_record","cell_size_m":95,"intensity":0.289,"label":"Tree preservation zone: 37 Wood Vale"},"geometry":{"type":"Polygon","coordinates":[[[-0.0644417,51.4435129],[-0.0630706,51.4435129],[-0.0630706,51.4443721],[-0.0644417,51.4443721],[-0.0644417,51.4435129]]]}},{"type":"Feature","properties":{"id":"lens-detail-london-1976-planning_cell-44","layer":"planning_cell","category":"built_environment","year":1976,"visible_year":1976,"title":"1 source-backed planning and built record","confidence":"documented","confidence_mix":"documented:1","event_count":1,"source_count":1,"source_ids":"lon-extra-planning-data-tree-preservation-zones","event_ids":"lon_planning_designation_tree-preservation-zone_19140803","event_ids_all":"lon_planning_designation_tree-preservation-zone_19140803","source_urls":"https://www.planning.data.gov.uk/entity/19140803","geometry_precision_mix":"Row-level point from the adapter; source geocoding precision varies and may be approximate.:1","representation":"planning and built evidence grid cell","timing_note":"Filtered by event effective year. OSM mapped-visibility dates and administrative dates can differ from real-world physical change dates.","caveat":"Planning cells are derived from source-backed event locations; they are not parcel boundaries unless source geometry is separately present.","generated_from":"web/data/city-atlas/cities/london/events_1976.json","lifecycle_status":"uncertain","status":"source_record","cell_size_m":95,"intensity":0.289,"label":"Tree preservation zone: 99 Wood Vale"},"geometry":{"type":"Polygon","coordinates":[[[-0.0644417,51.4460904],[-0.0630706,51.4460904],[-0.0630706,51.4469496],[-0.0644417,51.4469496],[-0.0644417,51.4460904]]]}},{"type":"Feature","properties":{"id":"lens-detail-london-1976-planning_cell-45","layer":"planning_cell","category":"built_environment","year":1976,"visible_year":1976,"title":"1 source-backed planning and built record","confidence":"documented","confidence_mix":"documented:1","event_count":1,"source_count":1,"source_ids":"lon-extra-planning-data-tree-preservation-zones","event_ids":"lon_planning_designation_tree-preservation-zone_19140815","event_ids_all":"lon_planning_designation_tree-preservation-zone_19140815","source_urls":"https://www.planning.data.gov.uk/entity/19140815","geometry_precision_mix":"Row-level point from the adapter; source geocoding precision varies and may be approximate.:1","representation":"planning and built evidence grid cell","timing_note":"Filtered by event effective year. OSM mapped-visibility dates and administrative dates can differ from real-world physical change dates.","caveat":"Planning cells are derived from source-backed event locations; they are not parcel boundaries unless source geometry is separately present.","generated_from":"web/data/city-atlas/cities/london/events_1976.json","lifecycle_status":"uncertain","status":"source_record","cell_size_m":95,"intensity":0.289,"label":"Tree preservation zone: Mornington Mews"},"geometry":{"type":"Polygon","coordinates":[[[-0.1000904,51.4753016],[-0.0987193,51.4753016],[-0.0987193,51.4761608],[-0.1000904,51.4761608],[-0.1000904,51.4753016]]]}},{"type":"Feature","properties":{"id":"lens-detail-london-1976-planning_cell-5","layer":"planning_cell","category":"built_environment","year":1976,"visible_year":1976,"title":"1 source-backed planning and built record","confidence":"documented","confidence_mix":"documented:1","event_count":1,"source_count":1,"source_ids":"lon-extra-planning-data-listed-building-outlines","event_ids":"lon_planning_designation_listed-building-outline_42116259","event_ids_all":"lon_planning_designation_listed-building-outline_42116259","source_urls":"https://www.planning.data.gov.uk/entity/42116259","geometry_precision_mix":"Row-level point from the adapter; source geocoding precision varies and may be approximate.:1","representation":"planning and built evidence grid cell","timing_note":"Filtered by event effective year. OSM mapped-visibility dates and administrative dates can differ from real-world physical change dates.","caveat":"Planning cells are derived from source-backed event locations; they are not parcel boundaries unless source geometry is separately present.","generated_from":"web/data/city-atlas/cities/london/events_1976.json","lifecycle_status":"uncertain","status":"source_record","cell_size_m":95,"intensity":0.289,"label":"Listed building outline: (East side) No.26"},"geometry":{"type":"Polygon","coordinates":[[[-0.1261413,51.5320057],[-0.1247702,51.5320057],[-0.1247702,51.5328649],[-0.1261413,51.5328649],[-0.1261413,51.5320057]]]}},{"type":"Feature","properties":{"id":"lens-detail-london-1976-planning_cell-6","layer":"planning_cell","category":"built_environment","year":1976,"visible_year":1976,"title":"1 source-backed planning and built record","confidence":"documented","confidence_mix":"documented:1","event_count":1,"source_count":1,"source_ids":"lon-extra-planning-data-listed-building-outlines","event_ids":"lon_planning_designation_listed-building-outline_42116434","event_ids_all":"lon_planning_designation_listed-building-outline_42116434","source_urls":"https://www.planning.data.gov.uk/entity/42116434","geometry_precision_mix":"Row-level point from the adapter; source geocoding precision varies and may be approximate.:1","representation":"planning and built evidence grid cell","timing_note":"Filtered by event effective year. OSM mapped-visibility dates and administrative dates can differ from real-world physical change dates.","caveat":"Planning cells are derived from source-backed event locations; they are not parcel boundaries unless source geometry is separately present.","generated_from":"web/data/city-atlas/cities/london/events_1976.json","lifecycle_status":"uncertain","status":"source_record","cell_size_m":95,"intensity":0.289,"label":"Listed building outline: (South side) Nos.2 AND 3"},"geometry":{"type":"Polygon","coordinates":[[[-0.1233991,51.5174001],[-0.122028,51.5174001],[-0.122028,51.5182593],[-0.1233991,51.5182593],[-0.1233991,51.5174001]]]}},{"type":"Feature","properties":{"id":"lens-detail-london-1976-planning_cell-7","layer":"planning_cell","category":"built_environment","year":1976,"visible_year":1976,"title":"1 source-backed planning and built record","confidence":"documented","confidence_mix":"documented:1","event_count":1,"source_count":1,"source_ids":"lon-extra-planning-data-listed-building-outlines","event_ids":"lon_planning_designation_listed-building-outline_42116752","event_ids_all":"lon_planning_designation_listed-building-outline_42116752","source_urls":"https://www.planning.data.gov.uk/entity/42116752","geometry_precision_mix":"Row-level point from the adapter; source geocoding precision varies and may be approximate.:1","representation":"planning and built evidence grid cell","timing_note":"Filtered by event effective year. OSM mapped-visibility dates and administrative dates can differ from real-world physical change dates.","caveat":"Planning cells are derived from source-backed event locations; they are not parcel boundaries unless source geometry is separately present.","generated_from":"web/data/city-atlas/cities/london/events_1976.json","lifecycle_status":"uncertain","status":"source_record","cell_size_m":95,"intensity":0.289,"label":"Listed building outline: (South side) No.50"},"geometry":{"type":"Polygon","coordinates":[[[-0.176872,51.5517662],[-0.1755009,51.5517662],[-0.1755009,51.5526254],[-0.176872,51.5526254],[-0.176872,51.5517662]]]}},{"type":"Feature","properties":{"id":"lens-detail-london-1976-planning_cell-8","layer":"planning_cell","category":"built_environment","year":1976,"visible_year":1976,"title":"1 source-backed planning and built record","confidence":"documented","confidence_mix":"documented:1","event_count":1,"source_count":1,"source_ids":"lon-extra-planning-data-listed-building-outlines","event_ids":"lon_planning_designation_listed-building-outline_42120742","event_ids_all":"lon_planning_designation_listed-building-outline_42120742","source_urls":"https://www.planning.data.gov.uk/entity/42120742","geometry_precision_mix":"Row-level point from the adapter; source geocoding precision varies and may be approximate.:1","representation":"planning and built evidence grid cell","timing_note":"Filtered by event effective year. OSM mapped-visibility dates and administrative dates can differ from real-world physical change dates.","caveat":"Planning cells are derived from source-backed event locations; they are not parcel boundaries unless source geometry is separately present.","generated_from":"web/data/city-atlas/cities/london/events_1976.json","lifecycle_status":"uncertain","status":"source_record","cell_size_m":95,"intensity":0.289,"label":"Listed building outline: LODGE TO FINCHLEY CATHOLIC HIGH SCHOOL"},"geometry":{"type":"Polygon","coordinates":[[[-0.1837275,51.6213576],[-0.1823564,51.6213576],[-0.1823564,51.6222168],[-0.1837275,51.6222168],[-0.1837275,51.6213576]]]}},{"type":"Feature","properties":{"id":"lens-detail-london-1976-planning_cell-9","layer":"planning_cell","category":"built_environment","year":1976,"visible_year":1976,"title":"1 source-backed planning and built record","confidence":"documented","confidence_mix":"documented:1","event_count":1,"source_count":1,"source_ids":"lon-extra-planning-data-listed-building-outlines","event_ids":"lon_planning_designation_listed-building-outline_42120743","event_ids_all":"lon_planning_designation_listed-building-outline_42120743","source_urls":"https://www.planning.data.gov.uk/entity/42120743","geometry_precision_mix":"Row-level point from the adapter; source geocoding precision varies and may be approximate.:1","representation":"planning and built evidence grid cell","timing_note":"Filtered by event effective year. OSM mapped-visibility dates and administrative dates can differ from real-world physical change dates.","caveat":"Planning cells are derived from source-backed event locations; they are not parcel boundaries unless source geometry is separately present.","generated_from":"web/data/city-atlas/cities/london/events_1976.json","lifecycle_status":"uncertain","status":"source_record","cell_size_m":95,"intensity":0.289,"label":"Listed building outline: THE WHITE HOUSE (PART OF FINCHLEY CATHOLIC HIGH SCHOOL)"},"geometry":{"type":"Polygon","coordinates":[[[-0.1809853,51.6222168],[-0.1796142,51.6222168],[-0.1796142,51.6230759],[-0.1809853,51.6230759],[-0.1809853,51.6222168]]]}}]}
