{"type":"FeatureCollection","name":"london_lens_detail_1965","metadata":{"schema_version":"1.0.0","city_id":"london","year":1965,"generated_at":"2026-05-20T01:36:26.915Z","source_paths":["web/data/city-atlas/cities/london/events_1965.json","web/data/city-atlas/cities/london/events.json","web/data/city-atlas/cities/london/transport_roads_base.geojson"],"method":"Derived OpenCityLog lens geometry built from source-backed event points plus existing OSM road/detail geometry. Grid cells aggregate events by effective year. Trace lines reuse nearest mapped road geometry for context.","caveats":["Derived cells are evidence grids, not surveyed parcels, catchments, zones, or administrative boundaries.","Trace lines are nearest mapped street or work-location context, not surveyed utility networks, measured traffic speed, spend, vacancy, or service quality. No capacity data is inferred.","Borough, citywide, statistical, corridor, and multi-site records are excluded from site-like lens geometry; they remain available in the event list and evidence records.","OSM mapped-visibility dates and administrative decision dates can differ from real-world physical change dates."],"feature_layers":{"planning_cell":37},"excluded_non_site_record_count":1,"excluded_non_site_reasons":{"non_site_scope":1}},"features":[{"type":"Feature","properties":{"id":"lens-detail-london-1965-planning_cell-6","layer":"planning_cell","category":"built_environment","year":1965,"visible_year":1965,"title":"7 source-backed planning and built records","confidence":"documented","confidence_mix":"documented:7","event_count":7,"source_count":1,"source_ids":"lon-extra-planning-data-listed-building-outlines","event_ids":"lon_planning_designation_listed-building-outline_42120633,lon_planning_designation_listed-building-outline_42120634,lon_planning_designation_listed-building-outline_42120640,lon_planning_designation_listed-building-outline_42120641,lon_planning_designation_listed-building-outline_42120642,lon_planning_designation_listed-building-outline_42120669,lon_planning_designation_listed-building-outline_42120681","event_ids_all":"lon_planning_designation_listed-building-outline_42120633,lon_planning_designation_listed-building-outline_42120634,lon_planning_designation_listed-building-outline_42120640,lon_planning_designation_listed-building-outline_42120641,lon_planning_designation_listed-building-outline_42120642,lon_planning_designation_listed-building-outline_42120669,lon_planning_designation_listed-building-outline_42120681","source_urls":"https://www.planning.data.gov.uk/entity/42120633,https://www.planning.data.gov.uk/entity/42120634,https://www.planning.data.gov.uk/entity/42120640,https://www.planning.data.gov.uk/entity/42120641","geometry_precision_mix":"Row-level point from the adapter; source geocoding precision varies and may be approximate.:7","representation":"planning and built evidence grid cell","timing_note":"Filtered by event effective year. OSM mapped-visibility dates and administrative dates can differ from real-world physical change dates.","caveat":"Planning cells are derived from source-backed event locations; they are not parcel boundaries unless source geometry is separately present.","generated_from":"web/data/city-atlas/cities/london/events_1965.json","lifecycle_status":"uncertain","status":"source_record","cell_size_m":95,"intensity":0.866,"label":"Listed building outline: 6 AND 7 LINNELL CLOSE NW11"},"geometry":{"type":"Polygon","coordinates":[[[-0.1892302,51.5775408],[-0.187859,51.5775408],[-0.187859,51.5784],[-0.1892302,51.5784],[-0.1892302,51.5775408]]]}},{"type":"Feature","properties":{"id":"lens-detail-london-1965-planning_cell-12","layer":"planning_cell","category":"built_environment","year":1965,"visible_year":1965,"title":"5 source-backed planning and built records","confidence":"documented","confidence_mix":"documented:5","event_count":5,"source_count":1,"source_ids":"lon-extra-planning-data-listed-building-outlines","event_ids":"lon_planning_designation_listed-building-outline_42120652,lon_planning_designation_listed-building-outline_42120654,lon_planning_designation_listed-building-outline_42120663,lon_planning_designation_listed-building-outline_42120671,lon_planning_designation_listed-building-outline_42120675","event_ids_all":"lon_planning_designation_listed-building-outline_42120652,lon_planning_designation_listed-building-outline_42120654,lon_planning_designation_listed-building-outline_42120663,lon_planning_designation_listed-building-outline_42120671,lon_planning_designation_listed-building-outline_42120675","source_urls":"https://www.planning.data.gov.uk/entity/42120652,https://www.planning.data.gov.uk/entity/42120654,https://www.planning.data.gov.uk/entity/42120663,https://www.planning.data.gov.uk/entity/42120671","geometry_precision_mix":"Row-level point from the adapter; source geocoding precision varies and may be approximate.:5","representation":"planning and built evidence grid cell","timing_note":"Filtered by event effective year. OSM mapped-visibility dates and administrative dates can differ from real-world physical change dates.","caveat":"Planning cells are derived from source-backed event locations; they are not parcel boundaries unless source geometry is separately present.","generated_from":"web/data/city-atlas/cities/london/events_1965.json","lifecycle_status":"uncertain","status":"source_record","cell_size_m":95,"intensity":0.747,"label":"Listed building outline: 1-7, ERSKINE HILL NW11"},"geometry":{"type":"Polygon","coordinates":[[[-0.1919727,51.5818366],[-0.1906014,51.5818366],[-0.1906014,51.5826958],[-0.1919727,51.5826958],[-0.1919727,51.5818366]]]}},{"type":"Feature","properties":{"id":"lens-detail-london-1965-planning_cell-2","layer":"planning_cell","category":"built_environment","year":1965,"visible_year":1965,"title":"5 source-backed planning and built records","confidence":"documented","confidence_mix":"documented:5","event_count":5,"source_count":1,"source_ids":"lon-extra-planning-data-listed-building-outlines","event_ids":"lon_planning_designation_listed-building-outline_42120628,lon_planning_designation_listed-building-outline_42120629,lon_planning_designation_listed-building-outline_42120648,lon_planning_designation_listed-building-outline_42120649,lon_planning_designation_listed-building-outline_42120666","event_ids_all":"lon_planning_designation_listed-building-outline_42120628,lon_planning_designation_listed-building-outline_42120629,lon_planning_designation_listed-building-outline_42120648,lon_planning_designation_listed-building-outline_42120649,lon_planning_designation_listed-building-outline_42120666","source_urls":"https://www.planning.data.gov.uk/entity/42120628,https://www.planning.data.gov.uk/entity/42120629,https://www.planning.data.gov.uk/entity/42120648,https://www.planning.data.gov.uk/entity/42120649","geometry_precision_mix":"Row-level point from the adapter; source geocoding precision varies and may be approximate.:5","representation":"planning and built evidence grid cell","timing_note":"Filtered by event effective year. OSM mapped-visibility dates and administrative dates can differ from real-world physical change dates.","caveat":"Planning cells are derived from source-backed event locations; they are not parcel boundaries unless source geometry is separately present.","generated_from":"web/data/city-atlas/cities/london/events_1965.json","lifecycle_status":"uncertain","status":"source_record","cell_size_m":95,"intensity":0.747,"label":"Listed building outline: 21, SOUTH SQUARE NW11"},"geometry":{"type":"Polygon","coordinates":[[[-0.1892302,51.5792591],[-0.187859,51.5792591],[-0.187859,51.5801183],[-0.1892302,51.5801183],[-0.1892302,51.5792591]]]}},{"type":"Feature","properties":{"id":"lens-detail-london-1965-planning_cell-8","layer":"planning_cell","category":"built_environment","year":1965,"visible_year":1965,"title":"5 source-backed planning and built records","confidence":"documented","confidence_mix":"documented:5","event_count":5,"source_count":1,"source_ids":"lon-extra-planning-data-listed-building-outlines","event_ids":"lon_planning_designation_listed-building-outline_42120637,lon_planning_designation_listed-building-outline_42120643,lon_planning_designation_listed-building-outline_42120644,lon_planning_designation_listed-building-outline_42120670,lon_planning_designation_listed-building-outline_42120682","event_ids_all":"lon_planning_designation_listed-building-outline_42120637,lon_planning_designation_listed-building-outline_42120643,lon_planning_designation_listed-building-outline_42120644,lon_planning_designation_listed-building-outline_42120670,lon_planning_designation_listed-building-outline_42120682","source_urls":"https://www.planning.data.gov.uk/entity/42120637,https://www.planning.data.gov.uk/entity/42120643,https://www.planning.data.gov.uk/entity/42120644,https://www.planning.data.gov.uk/entity/42120670","geometry_precision_mix":"Row-level point from the adapter; source geocoding precision varies and may be approximate.:5","representation":"planning and built evidence grid cell","timing_note":"Filtered by event effective year. OSM mapped-visibility dates and administrative dates can differ from real-world physical change dates.","caveat":"Planning cells are derived from source-backed event locations; they are not parcel boundaries unless source geometry is separately present.","generated_from":"web/data/city-atlas/cities/london/events_1965.json","lifecycle_status":"uncertain","status":"source_record","cell_size_m":95,"intensity":0.747,"label":"Listed building outline: 20, MEADWAY NW11"},"geometry":{"type":"Polygon","coordinates":[[[-0.1892302,51.5784],[-0.187859,51.5784],[-0.187859,51.5792591],[-0.1892302,51.5792591],[-0.1892302,51.5784]]]}},{"type":"Feature","properties":{"id":"lens-detail-london-1965-planning_cell-1","layer":"planning_cell","category":"built_environment","year":1965,"visible_year":1965,"title":"4 source-backed planning and built records","confidence":"documented","confidence_mix":"documented:4","event_count":4,"source_count":1,"source_ids":"lon-extra-planning-data-listed-building-outlines","event_ids":"lon_planning_designation_listed-building-outline_42120626,lon_planning_designation_listed-building-outline_42120627,lon_planning_designation_listed-building-outline_42120653,lon_planning_designation_listed-building-outline_42120658","event_ids_all":"lon_planning_designation_listed-building-outline_42120626,lon_planning_designation_listed-building-outline_42120627,lon_planning_designation_listed-building-outline_42120653,lon_planning_designation_listed-building-outline_42120658","source_urls":"https://www.planning.data.gov.uk/entity/42120626,https://www.planning.data.gov.uk/entity/42120627,https://www.planning.data.gov.uk/entity/42120653,https://www.planning.data.gov.uk/entity/42120658","geometry_precision_mix":"Row-level point from the adapter; source geocoding precision varies and may be approximate.:4","representation":"planning and built evidence grid cell","timing_note":"Filtered by event effective year. OSM mapped-visibility dates and administrative dates can differ from real-world physical change dates.","caveat":"Planning cells are derived from source-backed event locations; they are not parcel boundaries unless source geometry is separately present.","generated_from":"web/data/city-atlas/cities/london/events_1965.json","lifecycle_status":"uncertain","status":"source_record","cell_size_m":95,"intensity":0.671,"label":"Listed building outline: 66, WILLIFIELD WAY NW11"},"geometry":{"type":"Polygon","coordinates":[[[-0.1933439,51.5818366],[-0.1919727,51.5818366],[-0.1919727,51.5826958],[-0.1933439,51.5826958],[-0.1933439,51.5818366]]]}},{"type":"Feature","properties":{"id":"lens-detail-london-1965-planning_cell-31","layer":"planning_cell","category":"built_environment","year":1965,"visible_year":1965,"title":"4 source-backed planning and built records","confidence":"documented","confidence_mix":"documented:4","event_count":4,"source_count":1,"source_ids":"lon-extra-planning-data-listed-building-outlines","event_ids":"lon_planning_designation_listed-building-outline_42166334,lon_planning_designation_listed-building-outline_42166893,lon_planning_designation_listed-building-outline_42166895,lon_planning_designation_listed-building-outline_42166896","event_ids_all":"lon_planning_designation_listed-building-outline_42166334,lon_planning_designation_listed-building-outline_42166893,lon_planning_designation_listed-building-outline_42166895,lon_planning_designation_listed-building-outline_42166896","source_urls":"https://www.planning.data.gov.uk/entity/42166334,https://www.planning.data.gov.uk/entity/42166893,https://www.planning.data.gov.uk/entity/42166895,https://www.planning.data.gov.uk/entity/42166896","geometry_precision_mix":"Row-level point from the adapter; source geocoding precision varies and may be approximate.:4","representation":"planning and built evidence grid cell","timing_note":"Filtered by event effective year. OSM mapped-visibility dates and administrative dates can differ from real-world physical change dates.","caveat":"Planning cells are derived from source-backed event locations; they are not parcel boundaries unless source geometry is separately present.","generated_from":"web/data/city-atlas/cities/london/events_1965.json","lifecycle_status":"uncertain","status":"source_record","cell_size_m":95,"intensity":0.671,"label":"Listed building outline: Grand Plaza Hotel 42 - 43 Prince's Square London W2 4AD"},"geometry":{"type":"Polygon","coordinates":[[[-0.1919727,51.5131043],[-0.1906014,51.5131043],[-0.1906014,51.5139635],[-0.1919727,51.5139635],[-0.1919727,51.5131043]]]}},{"type":"Feature","properties":{"id":"lens-detail-london-1965-planning_cell-5","layer":"planning_cell","category":"built_environment","year":1965,"visible_year":1965,"title":"4 source-backed planning and built records","confidence":"documented","confidence_mix":"documented:4","event_count":4,"source_count":1,"source_ids":"lon-extra-planning-data-listed-building-outlines","event_ids":"lon_planning_designation_listed-building-outline_42120632,lon_planning_designation_listed-building-outline_42120685,lon_planning_designation_listed-building-outline_42120686,lon_planning_designation_listed-building-outline_42120687","event_ids_all":"lon_planning_designation_listed-building-outline_42120632,lon_planning_designation_listed-building-outline_42120685,lon_planning_designation_listed-building-outline_42120686,lon_planning_designation_listed-building-outline_42120687","source_urls":"https://www.planning.data.gov.uk/entity/42120632,https://www.planning.data.gov.uk/entity/42120685,https://www.planning.data.gov.uk/entity/42120686,https://www.planning.data.gov.uk/entity/42120687","geometry_precision_mix":"Row-level point from the adapter; source geocoding precision varies and may be approximate.:4","representation":"planning and built evidence grid cell","timing_note":"Filtered by event effective year. OSM mapped-visibility dates and administrative dates can differ from real-world physical change dates.","caveat":"Planning cells are derived from source-backed event locations; they are not parcel boundaries unless source geometry is separately present.","generated_from":"web/data/city-atlas/cities/london/events_1965.json","lifecycle_status":"uncertain","status":"source_record","cell_size_m":95,"intensity":0.671,"label":"Listed building outline: 4, LINNELL CLOSE NW11"},"geometry":{"type":"Polygon","coordinates":[[[-0.1906014,51.5775408],[-0.1892302,51.5775408],[-0.1892302,51.5784],[-0.1906014,51.5784],[-0.1906014,51.5775408]]]}},{"type":"Feature","properties":{"id":"lens-detail-london-1965-planning_cell-7","layer":"planning_cell","category":"built_environment","year":1965,"visible_year":1965,"title":"4 source-backed planning and built records","confidence":"documented","confidence_mix":"documented:4","event_count":4,"source_count":1,"source_ids":"lon-extra-planning-data-listed-building-outlines","event_ids":"lon_planning_designation_listed-building-outline_42120635,lon_planning_designation_listed-building-outline_42120636,lon_planning_designation_listed-building-outline_42120645,lon_planning_designation_listed-building-outline_42120662","event_ids_all":"lon_planning_designation_listed-building-outline_42120635,lon_planning_designation_listed-building-outline_42120636,lon_planning_designation_listed-building-outline_42120645,lon_planning_designation_listed-building-outline_42120662","source_urls":"https://www.planning.data.gov.uk/entity/42120635,https://www.planning.data.gov.uk/entity/42120636,https://www.planning.data.gov.uk/entity/42120645,https://www.planning.data.gov.uk/entity/42120662","geometry_precision_mix":"Row-level point from the adapter; source geocoding precision varies and may be approximate.:4","representation":"planning and built evidence grid cell","timing_note":"Filtered by event effective year. OSM mapped-visibility dates and administrative dates can differ from real-world physical change dates.","caveat":"Planning cells are derived from source-backed event locations; they are not parcel boundaries unless source geometry is separately present.","generated_from":"web/data/city-atlas/cities/london/events_1965.json","lifecycle_status":"uncertain","status":"source_record","cell_size_m":95,"intensity":0.671,"label":"Listed building outline: 7,9,11 AND 13, MEADWAY NW11"},"geometry":{"type":"Polygon","coordinates":[[[-0.1906014,51.5784],[-0.1892302,51.5784],[-0.1892302,51.5792591],[-0.1906014,51.5792591],[-0.1906014,51.5784]]]}},{"type":"Feature","properties":{"id":"lens-detail-london-1965-planning_cell-11","layer":"planning_cell","category":"built_environment","year":1965,"visible_year":1965,"title":"3 source-backed planning and built records","confidence":"documented","confidence_mix":"documented:3","event_count":3,"source_count":1,"source_ids":"lon-extra-planning-data-listed-building-outlines","event_ids":"lon_planning_designation_listed-building-outline_42120646,lon_planning_designation_listed-building-outline_42120647,lon_planning_designation_listed-building-outline_42120661","event_ids_all":"lon_planning_designation_listed-building-outline_42120646,lon_planning_designation_listed-building-outline_42120647,lon_planning_designation_listed-building-outline_42120661","source_urls":"https://www.planning.data.gov.uk/entity/42120646,https://www.planning.data.gov.uk/entity/42120647,https://www.planning.data.gov.uk/entity/42120661","geometry_precision_mix":"Row-level point from the adapter; source geocoding precision varies and may be approximate.:3","representation":"planning and built evidence grid cell","timing_note":"Filtered by event effective year. OSM mapped-visibility dates and administrative dates can differ from real-world physical change dates.","caveat":"Planning cells are derived from source-backed event locations; they are not parcel boundaries unless source geometry is separately present.","generated_from":"web/data/city-atlas/cities/london/events_1965.json","lifecycle_status":"uncertain","status":"source_record","cell_size_m":95,"intensity":0.578,"label":"Listed building outline: 4 HEATHGATE NW11"},"geometry":{"type":"Polygon","coordinates":[[[-0.187859,51.5775408],[-0.1864877,51.5775408],[-0.1864877,51.5784],[-0.187859,51.5784],[-0.187859,51.5775408]]]}},{"type":"Feature","properties":{"id":"lens-detail-london-1965-planning_cell-28","layer":"planning_cell","category":"built_environment","year":1965,"visible_year":1965,"title":"3 source-backed planning and built records","confidence":"documented","confidence_mix":"documented:3","event_count":3,"source_count":1,"source_ids":"lon-extra-planning-data-listed-building-outlines","event_ids":"lon_planning_designation_listed-building-outline_42165905,lon_planning_designation_listed-building-outline_42165906,lon_planning_designation_listed-building-outline_42166621","event_ids_all":"lon_planning_designation_listed-building-outline_42165905,lon_planning_designation_listed-building-outline_42165906,lon_planning_designation_listed-building-outline_42166621","source_urls":"https://www.planning.data.gov.uk/entity/42165905,https://www.planning.data.gov.uk/entity/42165906,https://www.planning.data.gov.uk/entity/42166621","geometry_precision_mix":"Row-level point from the adapter; source geocoding precision varies and may be approximate.:3","representation":"planning and built evidence grid cell","timing_note":"Filtered by event effective year. OSM mapped-visibility dates and administrative dates can differ from real-world physical change dates.","caveat":"Planning cells are derived from source-backed event locations; they are not parcel boundaries unless source geometry is separately present.","generated_from":"web/data/city-atlas/cities/london/events_1965.json","lifecycle_status":"uncertain","status":"source_record","cell_size_m":95,"intensity":0.578,"label":"Listed building outline: 17 Leinster Square London W2 4PR"},"geometry":{"type":"Polygon","coordinates":[[[-0.1919727,51.5139635],[-0.1906014,51.5139635],[-0.1906014,51.5148227],[-0.1919727,51.5148227],[-0.1919727,51.5139635]]]}},{"type":"Feature","properties":{"id":"lens-detail-london-1965-planning_cell-33","layer":"planning_cell","category":"built_environment","year":1965,"visible_year":1965,"title":"3 source-backed planning and built records","confidence":"documented","confidence_mix":"documented:3","event_count":3,"source_count":1,"source_ids":"lon-extra-planning-data-listed-building-outlines","event_ids":"lon_planning_designation_listed-building-outline_42166376,lon_planning_designation_listed-building-outline_42166857,lon_planning_designation_listed-building-outline_42166892","event_ids_all":"lon_planning_designation_listed-building-outline_42166376,lon_planning_designation_listed-building-outline_42166857,lon_planning_designation_listed-building-outline_42166892","source_urls":"https://www.planning.data.gov.uk/entity/42166376,https://www.planning.data.gov.uk/entity/42166857,https://www.planning.data.gov.uk/entity/42166892","geometry_precision_mix":"Row-level point from the adapter; source geocoding precision varies and may be approximate.:3","representation":"planning and built evidence grid cell","timing_note":"Filtered by event effective year. OSM mapped-visibility dates and administrative dates can differ from real-world physical change dates.","caveat":"Planning cells are derived from source-backed event locations; they are not parcel boundaries unless source geometry is separately present.","generated_from":"web/data/city-atlas/cities/london/events_1965.json","lifecycle_status":"uncertain","status":"source_record","cell_size_m":95,"intensity":0.578,"label":"Listed building outline: Hotel Part 26 Prince's Square London W2 4NJ"},"geometry":{"type":"Polygon","coordinates":[[[-0.1919727,51.5122452],[-0.1906014,51.5122452],[-0.1906014,51.5131043],[-0.1919727,51.5131043],[-0.1919727,51.5122452]]]}},{"type":"Feature","properties":{"id":"lens-detail-london-1965-planning_cell-9","layer":"planning_cell","category":"built_environment","year":1965,"visible_year":1965,"title":"3 source-backed planning and built records","confidence":"documented","confidence_mix":"documented:3","event_count":3,"source_count":1,"source_ids":"lon-extra-planning-data-listed-building-outlines","event_ids":"lon_planning_designation_listed-building-outline_42120638,lon_planning_designation_listed-building-outline_42120664,lon_planning_designation_listed-building-outline_42120674","event_ids_all":"lon_planning_designation_listed-building-outline_42120638,lon_planning_designation_listed-building-outline_42120664,lon_planning_designation_listed-building-outline_42120674","source_urls":"https://www.planning.data.gov.uk/entity/42120638,https://www.planning.data.gov.uk/entity/42120664,https://www.planning.data.gov.uk/entity/42120674","geometry_precision_mix":"Row-level point from the adapter; source geocoding precision varies and may be approximate.:3","representation":"planning and built evidence grid cell","timing_note":"Filtered by event effective year. OSM mapped-visibility dates and administrative dates can differ from real-world physical change dates.","caveat":"Planning cells are derived from source-backed event locations; they are not parcel boundaries unless source geometry is separately present.","generated_from":"web/data/city-atlas/cities/london/events_1965.json","lifecycle_status":"uncertain","status":"source_record","cell_size_m":95,"intensity":0.578,"label":"Listed building outline: THE MANSE"},"geometry":{"type":"Polygon","coordinates":[[[-0.1906014,51.5809774],[-0.1892302,51.5809774],[-0.1892302,51.5818366],[-0.1906014,51.5818366],[-0.1906014,51.5809774]]]}},{"type":"Feature","properties":{"id":"lens-detail-london-1965-planning_cell-14","layer":"planning_cell","category":"built_environment","year":1965,"visible_year":1965,"title":"2 source-backed planning and built records","confidence":"documented","confidence_mix":"documented:2","event_count":2,"source_count":1,"source_ids":"lon-extra-planning-data-listed-building-outlines","event_ids":"lon_planning_designation_listed-building-outline_42120656,lon_planning_designation_listed-building-outline_42120677","event_ids_all":"lon_planning_designation_listed-building-outline_42120656,lon_planning_designation_listed-building-outline_42120677","source_urls":"https://www.planning.data.gov.uk/entity/42120656,https://www.planning.data.gov.uk/entity/42120677","geometry_precision_mix":"Row-level point from the adapter; source geocoding precision varies and may be approximate.:2","representation":"planning and built evidence grid cell","timing_note":"Filtered by event effective year. OSM mapped-visibility dates and administrative dates can differ from real-world physical change dates.","caveat":"Planning cells are derived from source-backed event locations; they are not parcel boundaries unless source geometry is separately present.","generated_from":"web/data/city-atlas/cities/london/events_1965.json","lifecycle_status":"uncertain","status":"source_record","cell_size_m":95,"intensity":0.458,"label":"Listed building outline: Hampstead Garden Suburb Free Church"},"geometry":{"type":"Polygon","coordinates":[[[-0.1919727,51.5809774],[-0.1906014,51.5809774],[-0.1906014,51.5818366],[-0.1919727,51.5818366],[-0.1919727,51.5809774]]]}},{"type":"Feature","properties":{"id":"lens-detail-london-1965-planning_cell-18","layer":"planning_cell","category":"built_environment","year":1965,"visible_year":1965,"title":"2 source-backed planning and built records","confidence":"documented","confidence_mix":"documented:2","event_count":2,"source_count":1,"source_ids":"lon-extra-planning-data-listed-building-outlines","event_ids":"lon_planning_designation_listed-building-outline_42120665,lon_planning_designation_listed-building-outline_42120683","event_ids_all":"lon_planning_designation_listed-building-outline_42120665,lon_planning_designation_listed-building-outline_42120683","source_urls":"https://www.planning.data.gov.uk/entity/42120665,https://www.planning.data.gov.uk/entity/42120683","geometry_precision_mix":"Row-level point from the adapter; source geocoding precision varies and may be approximate.:2","representation":"planning and built evidence grid cell","timing_note":"Filtered by event effective year. OSM mapped-visibility dates and administrative dates can differ from real-world physical change dates.","caveat":"Planning cells are derived from source-backed event locations; they are not parcel boundaries unless source geometry is separately present.","generated_from":"web/data/city-atlas/cities/london/events_1965.json","lifecycle_status":"uncertain","status":"source_record","cell_size_m":95,"intensity":0.458,"label":"Listed building outline: 1 AND 2, SOUTH SQUARE NW11"},"geometry":{"type":"Polygon","coordinates":[[[-0.1906014,51.5792591],[-0.1892302,51.5792591],[-0.1892302,51.5801183],[-0.1906014,51.5801183],[-0.1906014,51.5792591]]]}},{"type":"Feature","properties":{"id":"lens-detail-london-1965-planning_cell-19","layer":"planning_cell","category":"built_environment","year":1965,"visible_year":1965,"title":"2 source-backed planning and built records","confidence":"documented","confidence_mix":"documented:2","event_count":2,"source_count":1,"source_ids":"lon-extra-planning-data-listed-building-outlines","event_ids":"lon_planning_designation_listed-building-outline_42120667,lon_planning_designation_listed-building-outline_42120688","event_ids_all":"lon_planning_designation_listed-building-outline_42120667,lon_planning_designation_listed-building-outline_42120688","source_urls":"https://www.planning.data.gov.uk/entity/42120667,https://www.planning.data.gov.uk/entity/42120688","geometry_precision_mix":"Row-level point from the adapter; source geocoding precision varies and may be approximate.:2","representation":"planning and built evidence grid cell","timing_note":"Filtered by event effective year. OSM mapped-visibility dates and administrative dates can differ from real-world physical change dates.","caveat":"Planning cells are derived from source-backed event locations; they are not parcel boundaries unless source geometry is separately present.","generated_from":"web/data/city-atlas/cities/london/events_1965.json","lifecycle_status":"uncertain","status":"source_record","cell_size_m":95,"intensity":0.458,"label":"Listed building outline: 53 AND 55, WILLIFIELD WAY NW11"},"geometry":{"type":"Polygon","coordinates":[[[-0.1947151,51.5826958],[-0.1933439,51.5826958],[-0.1933439,51.5835549],[-0.1947151,51.5835549],[-0.1947151,51.5826958]]]}},{"type":"Feature","properties":{"id":"lens-detail-london-1965-planning_cell-20","layer":"planning_cell","category":"built_environment","year":1965,"visible_year":1965,"title":"2 source-backed planning and built records","confidence":"documented","confidence_mix":"documented:2","event_count":2,"source_count":1,"source_ids":"lon-extra-planning-data-listed-building-outlines","event_ids":"lon_planning_designation_listed-building-outline_42120668,lon_planning_designation_listed-building-outline_42120684","event_ids_all":"lon_planning_designation_listed-building-outline_42120668,lon_planning_designation_listed-building-outline_42120684","source_urls":"https://www.planning.data.gov.uk/entity/42120668,https://www.planning.data.gov.uk/entity/42120684","geometry_precision_mix":"Row-level point from the adapter; source geocoding precision varies and may be approximate.:2","representation":"planning and built evidence grid cell","timing_note":"Filtered by event effective year. OSM mapped-visibility dates and administrative dates can differ from real-world physical change dates.","caveat":"Planning cells are derived from source-backed event locations; they are not parcel boundaries unless source geometry is separately present.","generated_from":"web/data/city-atlas/cities/london/events_1965.json","lifecycle_status":"uncertain","status":"source_record","cell_size_m":95,"intensity":0.458,"label":"Listed building outline: 23, SOUTH SQUARE NW11"},"geometry":{"type":"Polygon","coordinates":[[[-0.1892302,51.5801183],[-0.187859,51.5801183],[-0.187859,51.5809774],[-0.1892302,51.5809774],[-0.1892302,51.5801183]]]}},{"type":"Feature","properties":{"id":"lens-detail-london-1965-planning_cell-27","layer":"planning_cell","category":"built_environment","year":1965,"visible_year":1965,"title":"2 source-backed planning and built records","confidence":"documented","confidence_mix":"documented:2","event_count":2,"source_count":1,"source_ids":"lon-extra-planning-data-listed-building-outlines","event_ids":"lon_planning_designation_listed-building-outline_42165903,lon_planning_designation_listed-building-outline_42165904","event_ids_all":"lon_planning_designation_listed-building-outline_42165903,lon_planning_designation_listed-building-outline_42165904","source_urls":"https://www.planning.data.gov.uk/entity/42165903,https://www.planning.data.gov.uk/entity/42165904","geometry_precision_mix":"Row-level point from the adapter; source geocoding precision varies and may be approximate.:2","representation":"planning and built evidence grid cell","timing_note":"Filtered by event effective year. OSM mapped-visibility dates and administrative dates can differ from real-world physical change dates.","caveat":"Planning cells are derived from source-backed event locations; they are not parcel boundaries unless source geometry is separately present.","generated_from":"web/data/city-atlas/cities/london/events_1965.json","lifecycle_status":"uncertain","status":"source_record","cell_size_m":95,"intensity":0.458,"label":"Listed building outline: Ground Floor Flat 1 1 Leinster Square London W2 4PL"},"geometry":{"type":"Polygon","coordinates":[[[-0.1933439,51.5139635],[-0.1919727,51.5139635],[-0.1919727,51.5148227],[-0.1933439,51.5148227],[-0.1933439,51.5139635]]]}},{"type":"Feature","properties":{"id":"lens-detail-london-1965-planning_cell-29","layer":"planning_cell","category":"built_environment","year":1965,"visible_year":1965,"title":"2 source-backed planning and built records","confidence":"documented","confidence_mix":"documented:2","event_count":2,"source_count":1,"source_ids":"lon-extra-planning-data-listed-building-outlines","event_ids":"lon_planning_designation_listed-building-outline_42165907,lon_planning_designation_listed-building-outline_42166371","event_ids_all":"lon_planning_designation_listed-building-outline_42165907,lon_planning_designation_listed-building-outline_42166371","source_urls":"https://www.planning.data.gov.uk/entity/42165907,https://www.planning.data.gov.uk/entity/42166371","geometry_precision_mix":"Row-level point from the adapter; source geocoding precision varies and may be approximate.:2","representation":"planning and built evidence grid cell","timing_note":"Filtered by event effective year. OSM mapped-visibility dates and administrative dates can differ from real-world physical change dates.","caveat":"Planning cells are derived from source-backed event locations; they are not parcel boundaries unless source geometry is separately present.","generated_from":"web/data/city-atlas/cities/london/events_1965.json","lifecycle_status":"uncertain","status":"source_record","cell_size_m":95,"intensity":0.458,"label":"Listed building outline: 52-53 Leinster Square London W2 4PU"},"geometry":{"type":"Polygon","coordinates":[[[-0.1933439,51.5131043],[-0.1919727,51.5131043],[-0.1919727,51.5139635],[-0.1933439,51.5139635],[-0.1933439,51.5131043]]]}},{"type":"Feature","properties":{"id":"lens-detail-london-1965-planning_cell-30","layer":"planning_cell","category":"built_environment","year":1965,"visible_year":1965,"title":"2 source-backed planning and built records","confidence":"documented","confidence_mix":"documented:2","event_count":2,"source_count":1,"source_ids":"lon-extra-planning-data-listed-building-outlines","event_ids":"lon_planning_designation_listed-building-outline_42166333,lon_planning_designation_listed-building-outline_42166894","event_ids_all":"lon_planning_designation_listed-building-outline_42166333,lon_planning_designation_listed-building-outline_42166894","source_urls":"https://www.planning.data.gov.uk/entity/42166333,https://www.planning.data.gov.uk/entity/42166894","geometry_precision_mix":"Row-level point from the adapter; source geocoding precision varies and may be approximate.:2","representation":"planning and built evidence grid cell","timing_note":"Filtered by event effective year. OSM mapped-visibility dates and administrative dates can differ from real-world physical change dates.","caveat":"Planning cells are derived from source-backed event locations; they are not parcel boundaries unless source geometry is separately present.","generated_from":"web/data/city-atlas/cities/london/events_1965.json","lifecycle_status":"uncertain","status":"source_record","cell_size_m":95,"intensity":0.458,"label":"Listed building outline: 37 Prince's Square London W2 4NJ"},"geometry":{"type":"Polygon","coordinates":[[[-0.1906014,51.5131043],[-0.1892302,51.5131043],[-0.1892302,51.5139635],[-0.1906014,51.5139635],[-0.1906014,51.5131043]]]}},{"type":"Feature","properties":{"id":"lens-detail-london-1965-planning_cell-0","layer":"planning_cell","category":"built_environment","year":1965,"visible_year":1965,"title":"1 source-backed planning and built record","confidence":"documented","confidence_mix":"documented:1","event_count":1,"source_count":1,"source_ids":"lon-extra-planning-data-listed-building-outlines","event_ids":"lon_planning_designation_listed-building-outline_42120625","event_ids_all":"lon_planning_designation_listed-building-outline_42120625","source_urls":"https://www.planning.data.gov.uk/entity/42120625","geometry_precision_mix":"Row-level point from the adapter; source geocoding precision varies and may be approximate.:1","representation":"planning and built evidence grid cell","timing_note":"Filtered by event effective year. OSM mapped-visibility dates and administrative dates can differ from real-world physical change dates.","caveat":"Planning cells are derived from source-backed event locations; they are not parcel boundaries unless source geometry is separately present.","generated_from":"web/data/city-atlas/cities/london/events_1965.json","lifecycle_status":"uncertain","status":"source_record","cell_size_m":95,"intensity":0.289,"label":"Listed building outline: 49 AND 51, WILLIFIELD WAY NW11"},"geometry":{"type":"Polygon","coordinates":[[[-0.1947151,51.5818366],[-0.1933439,51.5818366],[-0.1933439,51.5826958],[-0.1947151,51.5826958],[-0.1947151,51.5818366]]]}},{"type":"Feature","properties":{"id":"lens-detail-london-1965-planning_cell-10","layer":"planning_cell","category":"built_environment","year":1965,"visible_year":1965,"title":"1 source-backed planning and built record","confidence":"documented","confidence_mix":"documented:1","event_count":1,"source_count":1,"source_ids":"lon-extra-planning-data-listed-building-outlines","event_ids":"lon_planning_designation_listed-building-outline_42120639","event_ids_all":"lon_planning_designation_listed-building-outline_42120639","source_urls":"https://www.planning.data.gov.uk/entity/42120639","geometry_precision_mix":"Row-level point from the adapter; source geocoding precision varies and may be approximate.:1","representation":"planning and built evidence grid cell","timing_note":"Filtered by event effective year. OSM mapped-visibility dates and administrative dates can differ from real-world physical change dates.","caveat":"Planning cells are derived from source-backed event locations; they are not parcel boundaries unless source geometry is separately present.","generated_from":"web/data/city-atlas/cities/london/events_1965.json","lifecycle_status":"uncertain","status":"source_record","cell_size_m":95,"intensity":0.289,"label":"Listed building outline: LUCAS SQUARE"},"geometry":{"type":"Polygon","coordinates":[[[-0.1947151,51.5809774],[-0.1933439,51.5809774],[-0.1933439,51.5818366],[-0.1947151,51.5818366],[-0.1947151,51.5809774]]]}},{"type":"Feature","properties":{"id":"lens-detail-london-1965-planning_cell-13","layer":"planning_cell","category":"built_environment","year":1965,"visible_year":1965,"title":"1 source-backed planning and built record","confidence":"documented","confidence_mix":"documented:1","event_count":1,"source_count":1,"source_ids":"lon-extra-planning-data-listed-building-outlines","event_ids":"lon_planning_designation_listed-building-outline_42120655","event_ids_all":"lon_planning_designation_listed-building-outline_42120655","source_urls":"https://www.planning.data.gov.uk/entity/42120655","geometry_precision_mix":"Row-level point from the adapter; source geocoding precision varies and may be approximate.:1","representation":"planning and built evidence grid cell","timing_note":"Filtered by event effective year. OSM mapped-visibility dates and administrative dates can differ from real-world physical change dates.","caveat":"Planning cells are derived from source-backed event locations; they are not parcel boundaries unless source geometry is separately present.","generated_from":"web/data/city-atlas/cities/london/events_1965.json","lifecycle_status":"uncertain","status":"source_record","cell_size_m":95,"intensity":0.289,"label":"Listed building outline: BIGWOOD COURT"},"geometry":{"type":"Polygon","coordinates":[[[-0.187859,51.5809774],[-0.1864877,51.5809774],[-0.1864877,51.5818366],[-0.187859,51.5818366],[-0.187859,51.5809774]]]}},{"type":"Feature","properties":{"id":"lens-detail-london-1965-planning_cell-15","layer":"planning_cell","category":"built_environment","year":1965,"visible_year":1965,"title":"1 source-backed planning and built record","confidence":"documented","confidence_mix":"documented:1","event_count":1,"source_count":1,"source_ids":"lon-extra-planning-data-listed-building-outlines","event_ids":"lon_planning_designation_listed-building-outline_42120657","event_ids_all":"lon_planning_designation_listed-building-outline_42120657","source_urls":"https://www.planning.data.gov.uk/entity/42120657","geometry_precision_mix":"Row-level point from the adapter; source geocoding precision varies and may be approximate.:1","representation":"planning and built evidence grid cell","timing_note":"Filtered by event effective year. OSM mapped-visibility dates and administrative dates can differ from real-world physical change dates.","caveat":"Planning cells are derived from source-backed event locations; they are not parcel boundaries unless source geometry is separately present.","generated_from":"web/data/city-atlas/cities/london/events_1965.json","lifecycle_status":"uncertain","status":"source_record","cell_size_m":95,"intensity":0.289,"label":"Listed building outline: HENRIETTA BARNETT MEMORIAL"},"geometry":{"type":"Polygon","coordinates":[[[-0.1919727,51.5801183],[-0.1906014,51.5801183],[-0.1906014,51.5809774],[-0.1919727,51.5809774],[-0.1919727,51.5801183]]]}},{"type":"Feature","properties":{"id":"lens-detail-london-1965-planning_cell-16","layer":"planning_cell","category":"built_environment","year":1965,"visible_year":1965,"title":"1 source-backed planning and built record","confidence":"documented","confidence_mix":"documented:1","event_count":1,"source_count":1,"source_ids":"lon-extra-planning-data-listed-building-outlines","event_ids":"lon_planning_designation_listed-building-outline_42120659","event_ids_all":"lon_planning_designation_listed-building-outline_42120659","source_urls":"https://www.planning.data.gov.uk/entity/42120659","geometry_precision_mix":"Row-level point from the adapter; source geocoding precision varies and may be approximate.:1","representation":"planning and built evidence grid cell","timing_note":"Filtered by event effective year. OSM mapped-visibility dates and administrative dates can differ from real-world physical change dates.","caveat":"Planning cells are derived from source-backed event locations; they are not parcel boundaries unless source geometry is separately present.","generated_from":"web/data/city-atlas/cities/london/events_1965.json","lifecycle_status":"uncertain","status":"source_record","cell_size_m":95,"intensity":0.289,"label":"Listed building outline: ARCADE HOUSE"},"geometry":{"type":"Polygon","coordinates":[[[-0.2002001,51.5818366],[-0.1988288,51.5818366],[-0.1988288,51.5826958],[-0.2002001,51.5826958],[-0.2002001,51.5818366]]]}},{"type":"Feature","properties":{"id":"lens-detail-london-1965-planning_cell-17","layer":"planning_cell","category":"built_environment","year":1965,"visible_year":1965,"title":"1 source-backed planning and built record","confidence":"documented","confidence_mix":"documented:1","event_count":1,"source_count":1,"source_ids":"lon-extra-planning-data-listed-building-outlines","event_ids":"lon_planning_designation_listed-building-outline_42120660","event_ids_all":"lon_planning_designation_listed-building-outline_42120660","source_urls":"https://www.planning.data.gov.uk/entity/42120660","geometry_precision_mix":"Row-level point from the adapter; source geocoding precision varies and may be approximate.:1","representation":"planning and built evidence grid cell","timing_note":"Filtered by event effective year. OSM mapped-visibility dates and administrative dates can differ from real-world physical change dates.","caveat":"Planning cells are derived from source-backed event locations; they are not parcel boundaries unless source geometry is separately present.","generated_from":"web/data/city-atlas/cities/london/events_1965.json","lifecycle_status":"uncertain","status":"source_record","cell_size_m":95,"intensity":0.289,"label":"Listed building outline: 57 AND 59 HAMPSTEAD WAY NW11"},"geometry":{"type":"Polygon","coordinates":[[[-0.1892302,51.5741042],[-0.187859,51.5741042],[-0.187859,51.5749634],[-0.1892302,51.5749634],[-0.1892302,51.5741042]]]}},{"type":"Feature","properties":{"id":"lens-detail-london-1965-planning_cell-21","layer":"planning_cell","category":"built_environment","year":1965,"visible_year":1965,"title":"1 source-backed planning and built record","confidence":"documented","confidence_mix":"documented:1","event_count":1,"source_count":1,"source_ids":"lon-extra-planning-data-listed-building-outlines","event_ids":"lon_planning_designation_listed-building-outline_42120672","event_ids_all":"lon_planning_designation_listed-building-outline_42120672","source_urls":"https://www.planning.data.gov.uk/entity/42120672","geometry_precision_mix":"Row-level point from the adapter; source geocoding precision varies and may be approximate.:1","representation":"planning and built evidence grid cell","timing_note":"Filtered by event effective year. OSM mapped-visibility dates and administrative dates can differ from real-world physical change dates.","caveat":"Planning cells are derived from source-backed event locations; they are not parcel boundaries unless source geometry is separately present.","generated_from":"web/data/city-atlas/cities/london/events_1965.json","lifecycle_status":"uncertain","status":"source_record","cell_size_m":95,"intensity":0.289,"label":"Listed building outline: SOUTHWOOD COURT"},"geometry":{"type":"Polygon","coordinates":[[[-0.187859,51.5818366],[-0.1864877,51.5818366],[-0.1864877,51.5826958],[-0.187859,51.5826958],[-0.187859,51.5818366]]]}},{"type":"Feature","properties":{"id":"lens-detail-london-1965-planning_cell-22","layer":"planning_cell","category":"built_environment","year":1965,"visible_year":1965,"title":"1 source-backed planning and built record","confidence":"documented","confidence_mix":"documented:1","event_count":1,"source_count":1,"source_ids":"lon-extra-planning-data-listed-building-outlines","event_ids":"lon_planning_designation_listed-building-outline_42120673","event_ids_all":"lon_planning_designation_listed-building-outline_42120673","source_urls":"https://www.planning.data.gov.uk/entity/42120673","geometry_precision_mix":"Row-level point from the adapter; source geocoding precision varies and may be approximate.:1","representation":"planning and built evidence grid cell","timing_note":"Filtered by event effective year. OSM mapped-visibility dates and administrative dates can differ from real-world physical change dates.","caveat":"Planning cells are derived from source-backed event locations; they are not parcel boundaries unless source geometry is separately present.","generated_from":"web/data/city-atlas/cities/london/events_1965.json","lifecycle_status":"uncertain","status":"source_record","cell_size_m":95,"intensity":0.289,"label":"Listed building outline: THE HENRIETTA BARNETT JUNIOR SCHOOL"},"geometry":{"type":"Polygon","coordinates":[[[-0.1892302,51.5809774],[-0.187859,51.5809774],[-0.187859,51.5818366],[-0.1892302,51.5818366],[-0.1892302,51.5809774]]]}},{"type":"Feature","properties":{"id":"lens-detail-london-1965-planning_cell-23","layer":"planning_cell","category":"built_environment","year":1965,"visible_year":1965,"title":"1 source-backed planning and built record","confidence":"documented","confidence_mix":"documented:1","event_count":1,"source_count":1,"source_ids":"lon-extra-planning-data-listed-building-outlines","event_ids":"lon_planning_designation_listed-building-outline_42120676","event_ids_all":"lon_planning_designation_listed-building-outline_42120676","source_urls":"https://www.planning.data.gov.uk/entity/42120676","geometry_precision_mix":"Row-level point from the adapter; source geocoding precision varies and may be approximate.:1","representation":"planning and built evidence grid cell","timing_note":"Filtered by event effective year. OSM mapped-visibility dates and administrative dates can differ from real-world physical change dates.","caveat":"Planning cells are derived from source-backed event locations; they are not parcel boundaries unless source geometry is separately present.","generated_from":"web/data/city-atlas/cities/london/events_1965.json","lifecycle_status":"uncertain","status":"source_record","cell_size_m":95,"intensity":0.289,"label":"Listed building outline: TEMPLE FORTUNE HOUSE"},"geometry":{"type":"Polygon","coordinates":[[[-0.2002001,51.5826958],[-0.1988288,51.5826958],[-0.1988288,51.5835549],[-0.2002001,51.5835549],[-0.2002001,51.5826958]]]}},{"type":"Feature","properties":{"id":"lens-detail-london-1965-planning_cell-24","layer":"planning_cell","category":"built_environment","year":1965,"visible_year":1965,"title":"1 source-backed planning and built record","confidence":"documented","confidence_mix":"documented:1","event_count":1,"source_count":1,"source_ids":"lon-extra-planning-data-listed-building-outlines","event_ids":"lon_planning_designation_listed-building-outline_42120678","event_ids_all":"lon_planning_designation_listed-building-outline_42120678","source_urls":"https://www.planning.data.gov.uk/entity/42120678","geometry_precision_mix":"Row-level point from the adapter; source geocoding precision varies and may be approximate.:1","representation":"planning and built evidence grid cell","timing_note":"Filtered by event effective year. OSM mapped-visibility dates and administrative dates can differ from real-world physical change dates.","caveat":"Planning cells are derived from source-backed event locations; they are not parcel boundaries unless source geometry is separately present.","generated_from":"web/data/city-atlas/cities/london/events_1965.json","lifecycle_status":"uncertain","status":"source_record","cell_size_m":95,"intensity":0.289,"label":"Listed building outline: FRIENDS MEETING HOUSE"},"geometry":{"type":"Polygon","coordinates":[[[-0.1906014,51.5818366],[-0.1892302,51.5818366],[-0.1892302,51.5826958],[-0.1906014,51.5826958],[-0.1906014,51.5818366]]]}},{"type":"Feature","properties":{"id":"lens-detail-london-1965-planning_cell-25","layer":"planning_cell","category":"built_environment","year":1965,"visible_year":1965,"title":"1 source-backed planning and built record","confidence":"documented","confidence_mix":"documented:1","event_count":1,"source_count":1,"source_ids":"lon-extra-planning-data-listed-building-outlines","event_ids":"lon_planning_designation_listed-building-outline_42120679","event_ids_all":"lon_planning_designation_listed-building-outline_42120679","source_urls":"https://www.planning.data.gov.uk/entity/42120679","geometry_precision_mix":"Row-level point from the adapter; source geocoding precision varies and may be approximate.:1","representation":"planning and built evidence grid cell","timing_note":"Filtered by event effective year. OSM mapped-visibility dates and administrative dates can differ from real-world physical change dates.","caveat":"Planning cells are derived from source-backed event locations; they are not parcel boundaries unless source geometry is separately present.","generated_from":"web/data/city-atlas/cities/london/events_1965.json","lifecycle_status":"uncertain","status":"source_record","cell_size_m":95,"intensity":0.289,"label":"Listed building outline: FORECOURT WALLS AND PIERS FORECOURT WALLS AND PIERS TO LUCAS SQUARE"},"geometry":{"type":"Polygon","coordinates":[[[-0.1947151,51.5801183],[-0.1933439,51.5801183],[-0.1933439,51.5809774],[-0.1947151,51.5809774],[-0.1947151,51.5801183]]]}},{"type":"Feature","properties":{"id":"lens-detail-london-1965-planning_cell-26","layer":"planning_cell","category":"built_environment","year":1965,"visible_year":1965,"title":"1 source-backed planning and built record","confidence":"documented","confidence_mix":"documented:1","event_count":1,"source_count":1,"source_ids":"lon-extra-planning-data-listed-building-outlines","event_ids":"lon_planning_designation_listed-building-outline_42120680","event_ids_all":"lon_planning_designation_listed-building-outline_42120680","source_urls":"https://www.planning.data.gov.uk/entity/42120680","geometry_precision_mix":"Row-level point from the adapter; source geocoding precision varies and may be approximate.:1","representation":"planning and built evidence grid cell","timing_note":"Filtered by event effective year. OSM mapped-visibility dates and administrative dates can differ from real-world physical change dates.","caveat":"Planning cells are derived from source-backed event locations; they are not parcel boundaries unless source geometry is separately present.","generated_from":"web/data/city-atlas/cities/london/events_1965.json","lifecycle_status":"uncertain","status":"source_record","cell_size_m":95,"intensity":0.289,"label":"Listed building outline: RETAINING WALLS,STEPS AND GAZEBOS AT SOUTH END OF HEATHGATE"},"geometry":{"type":"Polygon","coordinates":[[[-0.187859,51.5766817],[-0.1864877,51.5766817],[-0.1864877,51.5775408],[-0.187859,51.5775408],[-0.187859,51.5766817]]]}},{"type":"Feature","properties":{"id":"lens-detail-london-1965-planning_cell-3","layer":"planning_cell","category":"built_environment","year":1965,"visible_year":1965,"title":"1 source-backed planning and built record","confidence":"documented","confidence_mix":"documented:1","event_count":1,"source_count":1,"source_ids":"lon-extra-planning-data-listed-building-outlines","event_ids":"lon_planning_designation_listed-building-outline_42120630","event_ids_all":"lon_planning_designation_listed-building-outline_42120630","source_urls":"https://www.planning.data.gov.uk/entity/42120630","geometry_precision_mix":"Row-level point from the adapter; source geocoding precision varies and may be approximate.:1","representation":"planning and built evidence grid cell","timing_note":"Filtered by event effective year. OSM mapped-visibility dates and administrative dates can differ from real-world physical change dates.","caveat":"Planning cells are derived from source-backed event locations; they are not parcel boundaries unless source geometry is separately present.","generated_from":"web/data/city-atlas/cities/london/events_1965.json","lifecycle_status":"uncertain","status":"source_record","cell_size_m":95,"intensity":0.289,"label":"Listed building outline: THE VICARAGE"},"geometry":{"type":"Polygon","coordinates":[[[-0.1906014,51.5801183],[-0.1892302,51.5801183],[-0.1892302,51.5809774],[-0.1906014,51.5809774],[-0.1906014,51.5801183]]]}},{"type":"Feature","properties":{"id":"lens-detail-london-1965-planning_cell-32","layer":"planning_cell","category":"built_environment","year":1965,"visible_year":1965,"title":"1 source-backed planning and built record","confidence":"documented","confidence_mix":"documented:1","event_count":1,"source_count":1,"source_ids":"lon-extra-planning-data-listed-building-outlines","event_ids":"lon_planning_designation_listed-building-outline_42166375","event_ids_all":"lon_planning_designation_listed-building-outline_42166375","source_urls":"https://www.planning.data.gov.uk/entity/42166375","geometry_precision_mix":"Row-level point from the adapter; source geocoding precision varies and may be approximate.:1","representation":"planning and built evidence grid cell","timing_note":"Filtered by event effective year. OSM mapped-visibility dates and administrative dates can differ from real-world physical change dates.","caveat":"Planning cells are derived from source-backed event locations; they are not parcel boundaries unless source geometry is separately present.","generated_from":"web/data/city-atlas/cities/london/events_1965.json","lifecycle_status":"uncertain","status":"source_record","cell_size_m":95,"intensity":0.289,"label":"Listed building outline: First Floor To Third Floor 8 - 16 Prince's Square London W2 4NT"},"geometry":{"type":"Polygon","coordinates":[[[-0.1933439,51.5122452],[-0.1919727,51.5122452],[-0.1919727,51.5131043],[-0.1933439,51.5131043],[-0.1933439,51.5122452]]]}},{"type":"Feature","properties":{"id":"lens-detail-london-1965-planning_cell-34","layer":"planning_cell","category":"built_environment","year":1965,"visible_year":1965,"title":"1 source-backed planning and built record","confidence":"documented","confidence_mix":"documented:1","event_count":1,"source_count":1,"source_ids":"lon-extra-planning-data-listed-building-outlines","event_ids":"lon_planning_designation_listed-building-outline_42167364","event_ids_all":"lon_planning_designation_listed-building-outline_42167364","source_urls":"https://www.planning.data.gov.uk/entity/42167364","geometry_precision_mix":"Row-level point from the adapter; source geocoding precision varies and may be approximate.:1","representation":"planning and built evidence grid cell","timing_note":"Filtered by event effective year. OSM mapped-visibility dates and administrative dates can differ from real-world physical change dates.","caveat":"Planning cells are derived from source-backed event locations; they are not parcel boundaries unless source geometry is separately present.","generated_from":"web/data/city-atlas/cities/london/events_1965.json","lifecycle_status":"uncertain","status":"source_record","cell_size_m":95,"intensity":0.289,"label":"Listed building outline: The Ritz Hotel 150 - 156 Piccadilly London W1J 9BR"},"geometry":{"type":"Polygon","coordinates":[[[-0.1426083,51.5062311],[-0.141237,51.5062311],[-0.141237,51.5070903],[-0.1426083,51.5070903],[-0.1426083,51.5062311]]]}},{"type":"Feature","properties":{"id":"lens-detail-london-1965-planning_cell-35","layer":"planning_cell","category":"built_environment","year":1965,"visible_year":1965,"title":"1 source-backed planning and built record","confidence":"documented","confidence_mix":"documented:1","event_count":1,"source_count":1,"source_ids":"lon-extra-planning-data-tree-preservation-zones","event_ids":"lon_planning_designation_tree-preservation-zone_19153470","event_ids_all":"lon_planning_designation_tree-preservation-zone_19153470","source_urls":"https://www.planning.data.gov.uk/entity/19153470","geometry_precision_mix":"Row-level point from the adapter; source geocoding precision varies and may be approximate.:1","representation":"planning and built evidence grid cell","timing_note":"Filtered by event effective year. OSM mapped-visibility dates and administrative dates can differ from real-world physical change dates.","caveat":"Planning cells are derived from source-backed event locations; they are not parcel boundaries unless source geometry is separately present.","generated_from":"web/data/city-atlas/cities/london/events_1965.json","lifecycle_status":"uncertain","status":"source_record","cell_size_m":95,"intensity":0.289,"label":"Tree preservation zone: W1_A2"},"geometry":{"type":"Polygon","coordinates":[[[-0.1357521,51.4864706],[-0.1343809,51.4864706],[-0.1343809,51.4873298],[-0.1357521,51.4873298],[-0.1357521,51.4864706]]]}},{"type":"Feature","properties":{"id":"lens-detail-london-1965-planning_cell-36","layer":"planning_cell","category":"built_environment","year":1965,"visible_year":1965,"title":"1 source-backed planning and built record","confidence":"documented","confidence_mix":"documented:1","event_count":1,"source_count":1,"source_ids":"lon-extra-planning-data-tree-preservation-zones","event_ids":"lon_planning_designation_tree-preservation-zone_19153471","event_ids_all":"lon_planning_designation_tree-preservation-zone_19153471","source_urls":"https://www.planning.data.gov.uk/entity/19153471","geometry_precision_mix":"Row-level point from the adapter; source geocoding precision varies and may be approximate.:1","representation":"planning and built evidence grid cell","timing_note":"Filtered by event effective year. OSM mapped-visibility dates and administrative dates can differ from real-world physical change dates.","caveat":"Planning cells are derived from source-backed event locations; they are not parcel boundaries unless source geometry is separately present.","generated_from":"web/data/city-atlas/cities/london/events_1965.json","lifecycle_status":"uncertain","status":"source_record","cell_size_m":95,"intensity":0.289,"label":"Tree preservation zone: W1_A1"},"geometry":{"type":"Polygon","coordinates":[[[-0.1357521,51.4881889],[-0.1343809,51.4881889],[-0.1343809,51.4890481],[-0.1357521,51.4890481],[-0.1357521,51.4881889]]]}},{"type":"Feature","properties":{"id":"lens-detail-london-1965-planning_cell-4","layer":"planning_cell","category":"built_environment","year":1965,"visible_year":1965,"title":"1 source-backed planning and built record","confidence":"documented","confidence_mix":"documented:1","event_count":1,"source_count":1,"source_ids":"lon-extra-planning-data-listed-building-outlines","event_ids":"lon_planning_designation_listed-building-outline_42120631","event_ids_all":"lon_planning_designation_listed-building-outline_42120631","source_urls":"https://www.planning.data.gov.uk/entity/42120631","geometry_precision_mix":"Row-level point from the adapter; source geocoding precision varies and may be approximate.:1","representation":"planning and built evidence grid cell","timing_note":"Filtered by event effective year. OSM mapped-visibility dates and administrative dates can differ from real-world physical change dates.","caveat":"Planning cells are derived from source-backed event locations; they are not parcel boundaries unless source geometry is separately present.","generated_from":"web/data/city-atlas/cities/london/events_1965.json","lifecycle_status":"uncertain","status":"source_record","cell_size_m":95,"intensity":0.289,"label":"Listed building outline: 1, LINNELL CLOSE NW11"},"geometry":{"type":"Polygon","coordinates":[[[-0.1906014,51.5766817],[-0.1892302,51.5766817],[-0.1892302,51.5775408],[-0.1906014,51.5775408],[-0.1906014,51.5766817]]]}}]}
