{"type":"FeatureCollection","name":"london_lens_detail_1949","metadata":{"schema_version":"1.0.0","city_id":"london","year":1949,"generated_at":"2026-05-20T03:06:58.360Z","source_paths":["web/data/city-atlas/cities/london/events_1949.json","web/data/city-atlas/cities/london/events.json","web/data/city-atlas/cities/london/transport_roads_base.geojson"],"method":"Derived OpenCityLog lens geometry built from source-backed event points plus existing OSM road/detail geometry. Grid cells aggregate events by effective year. Trace lines reuse nearest mapped road geometry for context.","caveats":["Derived cells are evidence grids, not surveyed parcels, catchments, zones, or administrative boundaries.","Trace lines are nearest mapped street or work-location context, not surveyed utility networks, measured traffic speed, spend, vacancy, or service quality. No capacity data is inferred.","Borough, citywide, statistical, corridor, and multi-site records are excluded from site-like lens geometry; they remain available in the event list and evidence records.","OSM mapped-visibility dates and administrative decision dates can differ from real-world physical change dates."],"feature_layers":{"planning_cell":51},"excluded_non_site_record_count":0,"excluded_non_site_reasons":{}},"features":[{"type":"Feature","properties":{"id":"lens-detail-london-1949-planning_cell-41","layer":"planning_cell","category":"built_environment","year":1949,"visible_year":1949,"title":"6 source-backed planning and built records","confidence":"documented","confidence_mix":"documented:6","event_count":6,"source_count":1,"source_ids":"lon-extra-planning-data-listed-building-outlines","event_ids":"lon_planning_designation_listed-building-outline_42149194,lon_planning_designation_listed-building-outline_42149195,lon_planning_designation_listed-building-outline_42149205,lon_planning_designation_listed-building-outline_42182849,lon_planning_designation_listed-building-outline_42182850,lon_planning_designation_listed-building-outline_42182860","event_ids_all":"lon_planning_designation_listed-building-outline_42149194,lon_planning_designation_listed-building-outline_42149195,lon_planning_designation_listed-building-outline_42149205,lon_planning_designation_listed-building-outline_42182849,lon_planning_designation_listed-building-outline_42182850,lon_planning_designation_listed-building-outline_42182860","source_urls":"https://www.planning.data.gov.uk/entity/42149194,https://www.planning.data.gov.uk/entity/42149195,https://www.planning.data.gov.uk/entity/42149205,https://www.planning.data.gov.uk/entity/42182849","geometry_precision_mix":"Row-level point from the adapter; source geocoding precision varies and may be approximate.:6","representation":"planning and built evidence grid cell","timing_note":"Filtered by event effective year. OSM mapped-visibility dates and administrative dates can differ from real-world physical change dates.","caveat":"Planning cells are derived from source-backed event locations; they are not parcel boundaries unless source geometry is separately present.","generated_from":"web/data/city-atlas/cities/london/events_1949.json","lifecycle_status":"uncertain","status":"source_record","cell_size_m":95,"intensity":0.811,"label":"Listed building outline: 34 KENSINGTON SQUARE"},"geometry":{"type":"Polygon","coordinates":[[[-0.1919727,51.500217],[-0.1906014,51.500217],[-0.1906014,51.5010762],[-0.1919727,51.5010762],[-0.1919727,51.500217]]]}},{"type":"Feature","properties":{"id":"lens-detail-london-1949-planning_cell-42","layer":"planning_cell","category":"built_environment","year":1949,"visible_year":1949,"title":"6 source-backed planning and built records","confidence":"documented","confidence_mix":"documented:6","event_count":6,"source_count":1,"source_ids":"lon-extra-planning-data-listed-building-outlines","event_ids":"lon_planning_designation_listed-building-outline_42149201,lon_planning_designation_listed-building-outline_42149204,lon_planning_designation_listed-building-outline_42149213,lon_planning_designation_listed-building-outline_42182856,lon_planning_designation_listed-building-outline_42182859,lon_planning_designation_listed-building-outline_42182868","event_ids_all":"lon_planning_designation_listed-building-outline_42149201,lon_planning_designation_listed-building-outline_42149204,lon_planning_designation_listed-building-outline_42149213,lon_planning_designation_listed-building-outline_42182856,lon_planning_designation_listed-building-outline_42182859,lon_planning_designation_listed-building-outline_42182868","source_urls":"https://www.planning.data.gov.uk/entity/42149201,https://www.planning.data.gov.uk/entity/42149204,https://www.planning.data.gov.uk/entity/42149213,https://www.planning.data.gov.uk/entity/42182856","geometry_precision_mix":"Row-level point from the adapter; source geocoding precision varies and may be approximate.:6","representation":"planning and built evidence grid cell","timing_note":"Filtered by event effective year. OSM mapped-visibility dates and administrative dates can differ from real-world physical change dates.","caveat":"Planning cells are derived from source-backed event locations; they are not parcel boundaries unless source geometry is separately present.","generated_from":"web/data/city-atlas/cities/london/events_1949.json","lifecycle_status":"uncertain","status":"source_record","cell_size_m":95,"intensity":0.811,"label":"Listed building outline: 18 KENSINGTON SQUARE"},"geometry":{"type":"Polygon","coordinates":[[[-0.1906014,51.4993579],[-0.1892302,51.4993579],[-0.1892302,51.500217],[-0.1906014,51.500217],[-0.1906014,51.4993579]]]}},{"type":"Feature","properties":{"id":"lens-detail-london-1949-planning_cell-32","layer":"planning_cell","category":"built_environment","year":1949,"visible_year":1949,"title":"4 source-backed planning and built records","confidence":"documented","confidence_mix":"documented:4","event_count":4,"source_count":1,"source_ids":"lon-extra-planning-data-listed-building-outlines","event_ids":"lon_planning_designation_listed-building-outline_42148542,lon_planning_designation_listed-building-outline_42149472,lon_planning_designation_listed-building-outline_42182219,lon_planning_designation_listed-building-outline_42183122","event_ids_all":"lon_planning_designation_listed-building-outline_42148542,lon_planning_designation_listed-building-outline_42149472,lon_planning_designation_listed-building-outline_42182219,lon_planning_designation_listed-building-outline_42183122","source_urls":"https://www.planning.data.gov.uk/entity/42148542,https://www.planning.data.gov.uk/entity/42149472,https://www.planning.data.gov.uk/entity/42182219,https://www.planning.data.gov.uk/entity/42183122","geometry_precision_mix":"Row-level point from the adapter; source geocoding precision varies and may be approximate.:4","representation":"planning and built evidence grid cell","timing_note":"Filtered by event effective year. OSM mapped-visibility dates and administrative dates can differ from real-world physical change dates.","caveat":"Planning cells are derived from source-backed event locations; they are not parcel boundaries unless source geometry is separately present.","generated_from":"web/data/city-atlas/cities/london/events_1949.json","lifecycle_status":"uncertain","status":"source_record","cell_size_m":95,"intensity":0.671,"label":"Listed building outline: 15-27 PELHAM CRESCENT"},"geometry":{"type":"Polygon","coordinates":[[[-0.1714042,51.4924847],[-0.1700329,51.4924847],[-0.1700329,51.4933438],[-0.1714042,51.4933438],[-0.1714042,51.4924847]]]}},{"type":"Feature","properties":{"id":"lens-detail-london-1949-planning_cell-12","layer":"planning_cell","category":"built_environment","year":1949,"visible_year":1949,"title":"3 source-backed planning and built records","confidence":"documented","confidence_mix":"documented:3","event_count":3,"source_count":1,"source_ids":"lon-extra-planning-data-listed-building-outlines","event_ids":"lon_planning_designation_listed-building-outline_42120558,lon_planning_designation_listed-building-outline_42120559,lon_planning_designation_listed-building-outline_42120560","event_ids_all":"lon_planning_designation_listed-building-outline_42120558,lon_planning_designation_listed-building-outline_42120559,lon_planning_designation_listed-building-outline_42120560","source_urls":"https://www.planning.data.gov.uk/entity/42120558,https://www.planning.data.gov.uk/entity/42120559,https://www.planning.data.gov.uk/entity/42120560","geometry_precision_mix":"Row-level point from the adapter; source geocoding precision varies and may be approximate.:3","representation":"planning and built evidence grid cell","timing_note":"Filtered by event effective year. OSM mapped-visibility dates and administrative dates can differ from real-world physical change dates.","caveat":"Planning cells are derived from source-backed event locations; they are not parcel boundaries unless source geometry is separately present.","generated_from":"web/data/city-atlas/cities/london/events_1949.json","lifecycle_status":"uncertain","status":"source_record","cell_size_m":95,"intensity":0.578,"label":"Listed building outline: Hurst Cottage"},"geometry":{"type":"Polygon","coordinates":[[[-0.1919727,51.6591604],[-0.1906014,51.6591604],[-0.1906014,51.6600195],[-0.1919727,51.6600195],[-0.1919727,51.6591604]]]}},{"type":"Feature","properties":{"id":"lens-detail-london-1949-planning_cell-15","layer":"planning_cell","category":"built_environment","year":1949,"visible_year":1949,"title":"2 source-backed planning and built records","confidence":"documented","confidence_mix":"documented:2","event_count":2,"source_count":1,"source_ids":"lon-extra-planning-data-listed-building-outlines","event_ids":"lon_planning_designation_listed-building-outline_42120563,lon_planning_designation_listed-building-outline_42120572","event_ids_all":"lon_planning_designation_listed-building-outline_42120563,lon_planning_designation_listed-building-outline_42120572","source_urls":"https://www.planning.data.gov.uk/entity/42120563,https://www.planning.data.gov.uk/entity/42120572","geometry_precision_mix":"Row-level point from the adapter; source geocoding precision varies and may be approximate.:2","representation":"planning and built evidence grid cell","timing_note":"Filtered by event effective year. OSM mapped-visibility dates and administrative dates can differ from real-world physical change dates.","caveat":"Planning cells are derived from source-backed event locations; they are not parcel boundaries unless source geometry is separately present.","generated_from":"web/data/city-atlas/cities/london/events_1949.json","lifecycle_status":"uncertain","status":"source_record","cell_size_m":95,"intensity":0.458,"label":"Listed building outline: WILBRAHAM ALMSHOUSES"},"geometry":{"type":"Polygon","coordinates":[[[-0.1960864,51.6608787],[-0.1947151,51.6608787],[-0.1947151,51.6617378],[-0.1960864,51.6617378],[-0.1960864,51.6608787]]]}},{"type":"Feature","properties":{"id":"lens-detail-london-1949-planning_cell-16","layer":"planning_cell","category":"built_environment","year":1949,"visible_year":1949,"title":"2 source-backed planning and built records","confidence":"documented","confidence_mix":"documented:2","event_count":2,"source_count":1,"source_ids":"lon-extra-planning-data-listed-building-outlines","event_ids":"lon_planning_designation_listed-building-outline_42120564,lon_planning_designation_listed-building-outline_42120571","event_ids_all":"lon_planning_designation_listed-building-outline_42120564,lon_planning_designation_listed-building-outline_42120571","source_urls":"https://www.planning.data.gov.uk/entity/42120564,https://www.planning.data.gov.uk/entity/42120571","geometry_precision_mix":"Row-level point from the adapter; source geocoding precision varies and may be approximate.:2","representation":"planning and built evidence grid cell","timing_note":"Filtered by event effective year. OSM mapped-visibility dates and administrative dates can differ from real-world physical change dates.","caveat":"Planning cells are derived from source-backed event locations; they are not parcel boundaries unless source geometry is separately present.","generated_from":"web/data/city-atlas/cities/london/events_1949.json","lifecycle_status":"uncertain","status":"source_record","cell_size_m":95,"intensity":0.458,"label":"Listed building outline: HADLEY HOUSE"},"geometry":{"type":"Polygon","coordinates":[[[-0.1988288,51.6600195],[-0.1974576,51.6600195],[-0.1974576,51.6608787],[-0.1988288,51.6608787],[-0.1988288,51.6600195]]]}},{"type":"Feature","properties":{"id":"lens-detail-london-1949-planning_cell-21","layer":"planning_cell","category":"built_environment","year":1949,"visible_year":1949,"title":"2 source-backed planning and built records","confidence":"documented","confidence_mix":"documented:2","event_count":2,"source_count":1,"source_ids":"lon-extra-planning-data-listed-building-outlines","event_ids":"lon_planning_designation_listed-building-outline_42120570,lon_planning_designation_listed-building-outline_42120576","event_ids_all":"lon_planning_designation_listed-building-outline_42120570,lon_planning_designation_listed-building-outline_42120576","source_urls":"https://www.planning.data.gov.uk/entity/42120570,https://www.planning.data.gov.uk/entity/42120576","geometry_precision_mix":"Row-level point from the adapter; source geocoding precision varies and may be approximate.:2","representation":"planning and built evidence grid cell","timing_note":"Filtered by event effective year. OSM mapped-visibility dates and administrative dates can differ from real-world physical change dates.","caveat":"Planning cells are derived from source-backed event locations; they are not parcel boundaries unless source geometry is separately present.","generated_from":"web/data/city-atlas/cities/london/events_1949.json","lifecycle_status":"uncertain","status":"source_record","cell_size_m":95,"intensity":0.458,"label":"Listed building outline: FAIRHOLT"},"geometry":{"type":"Polygon","coordinates":[[[-0.1974576,51.6600195],[-0.1960864,51.6600195],[-0.1960864,51.6608787],[-0.1974576,51.6608787],[-0.1974576,51.6600195]]]}},{"type":"Feature","properties":{"id":"lens-detail-london-1949-planning_cell-33","layer":"planning_cell","category":"built_environment","year":1949,"visible_year":1949,"title":"2 source-backed planning and built records","confidence":"documented","confidence_mix":"documented:2","event_count":2,"source_count":1,"source_ids":"lon-extra-planning-data-listed-building-outlines","event_ids":"lon_planning_designation_listed-building-outline_42148978,lon_planning_designation_listed-building-outline_42182634","event_ids_all":"lon_planning_designation_listed-building-outline_42148978,lon_planning_designation_listed-building-outline_42182634","source_urls":"https://www.planning.data.gov.uk/entity/42148978,https://www.planning.data.gov.uk/entity/42182634","geometry_precision_mix":"Row-level point from the adapter; source geocoding precision varies and may be approximate.:2","representation":"planning and built evidence grid cell","timing_note":"Filtered by event effective year. OSM mapped-visibility dates and administrative dates can differ from real-world physical change dates.","caveat":"Planning cells are derived from source-backed event locations; they are not parcel boundaries unless source geometry is separately present.","generated_from":"web/data/city-atlas/cities/london/events_1949.json","lifecycle_status":"uncertain","status":"source_record","cell_size_m":95,"intensity":0.458,"label":"Listed building outline: CHURCH OF ST PETER"},"geometry":{"type":"Polygon","coordinates":[[[-0.2029425,51.5122452],[-0.2015713,51.5122452],[-0.2015713,51.5131043],[-0.2029425,51.5131043],[-0.2029425,51.5122452]]]}},{"type":"Feature","properties":{"id":"lens-detail-london-1949-planning_cell-34","layer":"planning_cell","category":"built_environment","year":1949,"visible_year":1949,"title":"2 source-backed planning and built records","confidence":"documented","confidence_mix":"documented:2","event_count":2,"source_count":1,"source_ids":"lon-extra-planning-data-listed-building-outlines","event_ids":"lon_planning_designation_listed-building-outline_42149025,lon_planning_designation_listed-building-outline_42182681","event_ids_all":"lon_planning_designation_listed-building-outline_42149025,lon_planning_designation_listed-building-outline_42182681","source_urls":"https://www.planning.data.gov.uk/entity/42149025,https://www.planning.data.gov.uk/entity/42182681","geometry_precision_mix":"Row-level point from the adapter; source geocoding precision varies and may be approximate.:2","representation":"planning and built evidence grid cell","timing_note":"Filtered by event effective year. OSM mapped-visibility dates and administrative dates can differ from real-world physical change dates.","caveat":"Planning cells are derived from source-backed event locations; they are not parcel boundaries unless source geometry is separately present.","generated_from":"web/data/city-atlas/cities/london/events_1949.json","lifecycle_status":"uncertain","status":"source_record","cell_size_m":95,"intensity":0.458,"label":"Listed building outline: HOLLAND HOUSE"},"geometry":{"type":"Polygon","coordinates":[[[-0.2029425,51.5019354],[-0.2015713,51.5019354],[-0.2015713,51.5027945],[-0.2029425,51.5027945],[-0.2029425,51.5019354]]]}},{"type":"Feature","properties":{"id":"lens-detail-london-1949-planning_cell-35","layer":"planning_cell","category":"built_environment","year":1949,"visible_year":1949,"title":"2 source-backed planning and built records","confidence":"documented","confidence_mix":"documented:2","event_count":2,"source_count":1,"source_ids":"lon-extra-planning-data-listed-building-outlines","event_ids":"lon_planning_designation_listed-building-outline_42149087,lon_planning_designation_listed-building-outline_42182743","event_ids_all":"lon_planning_designation_listed-building-outline_42149087,lon_planning_designation_listed-building-outline_42182743","source_urls":"https://www.planning.data.gov.uk/entity/42149087,https://www.planning.data.gov.uk/entity/42182743","geometry_precision_mix":"Row-level point from the adapter; source geocoding precision varies and may be approximate.:2","representation":"planning and built evidence grid cell","timing_note":"Filtered by event effective year. OSM mapped-visibility dates and administrative dates can differ from real-world physical change dates.","caveat":"Planning cells are derived from source-backed event locations; they are not parcel boundaries unless source geometry is separately present.","generated_from":"web/data/city-atlas/cities/london/events_1949.json","lifecycle_status":"uncertain","status":"source_record","cell_size_m":95,"intensity":0.458,"label":"Listed building outline: AUBREY HOUSE"},"geometry":{"type":"Polygon","coordinates":[[[-0.2029425,51.505372],[-0.2015713,51.505372],[-0.2015713,51.5062311],[-0.2029425,51.5062311],[-0.2029425,51.505372]]]}},{"type":"Feature","properties":{"id":"lens-detail-london-1949-planning_cell-36","layer":"planning_cell","category":"built_environment","year":1949,"visible_year":1949,"title":"2 source-backed planning and built records","confidence":"documented","confidence_mix":"documented:2","event_count":2,"source_count":1,"source_ids":"lon-extra-planning-data-listed-building-outlines","event_ids":"lon_planning_designation_listed-building-outline_42149163,lon_planning_designation_listed-building-outline_42182818","event_ids_all":"lon_planning_designation_listed-building-outline_42149163,lon_planning_designation_listed-building-outline_42182818","source_urls":"https://www.planning.data.gov.uk/entity/42149163,https://www.planning.data.gov.uk/entity/42182818","geometry_precision_mix":"Row-level point from the adapter; source geocoding precision varies and may be approximate.:2","representation":"planning and built evidence grid cell","timing_note":"Filtered by event effective year. OSM mapped-visibility dates and administrative dates can differ from real-world physical change dates.","caveat":"Planning cells are derived from source-backed event locations; they are not parcel boundaries unless source geometry is separately present.","generated_from":"web/data/city-atlas/cities/london/events_1949.json","lifecycle_status":"uncertain","status":"source_record","cell_size_m":95,"intensity":0.458,"label":"Listed building outline: ST BARNABAS CHURCH"},"geometry":{"type":"Polygon","coordinates":[[[-0.2070562,51.4984987],[-0.205685,51.4984987],[-0.205685,51.4993579],[-0.2070562,51.4993579],[-0.2070562,51.4984987]]]}},{"type":"Feature","properties":{"id":"lens-detail-london-1949-planning_cell-37","layer":"planning_cell","category":"built_environment","year":1949,"visible_year":1949,"title":"2 source-backed planning and built records","confidence":"documented","confidence_mix":"documented:2","event_count":2,"source_count":1,"source_ids":"lon-extra-planning-data-listed-building-outlines","event_ids":"lon_planning_designation_listed-building-outline_42149165,lon_planning_designation_listed-building-outline_42182820","event_ids_all":"lon_planning_designation_listed-building-outline_42149165,lon_planning_designation_listed-building-outline_42182820","source_urls":"https://www.planning.data.gov.uk/entity/42149165,https://www.planning.data.gov.uk/entity/42182820","geometry_precision_mix":"Row-level point from the adapter; source geocoding precision varies and may be approximate.:2","representation":"planning and built evidence grid cell","timing_note":"Filtered by event effective year. OSM mapped-visibility dates and administrative dates can differ from real-world physical change dates.","caveat":"Planning cells are derived from source-backed event locations; they are not parcel boundaries unless source geometry is separately present.","generated_from":"web/data/city-atlas/cities/london/events_1949.json","lifecycle_status":"uncertain","status":"source_record","cell_size_m":95,"intensity":0.458,"label":"Listed building outline: WOODLANDS HOUSE"},"geometry":{"type":"Polygon","coordinates":[[[-0.2029425,51.4993579],[-0.2015713,51.4993579],[-0.2015713,51.500217],[-0.2029425,51.500217],[-0.2029425,51.4993579]]]}},{"type":"Feature","properties":{"id":"lens-detail-london-1949-planning_cell-38","layer":"planning_cell","category":"built_environment","year":1949,"visible_year":1949,"title":"2 source-backed planning and built records","confidence":"documented","confidence_mix":"documented:2","event_count":2,"source_count":1,"source_ids":"lon-extra-planning-data-listed-building-outlines","event_ids":"lon_planning_designation_listed-building-outline_42149166,lon_planning_designation_listed-building-outline_42182821","event_ids_all":"lon_planning_designation_listed-building-outline_42149166,lon_planning_designation_listed-building-outline_42182821","source_urls":"https://www.planning.data.gov.uk/entity/42149166,https://www.planning.data.gov.uk/entity/42182821","geometry_precision_mix":"Row-level point from the adapter; source geocoding precision varies and may be approximate.:2","representation":"planning and built evidence grid cell","timing_note":"Filtered by event effective year. OSM mapped-visibility dates and administrative dates can differ from real-world physical change dates.","caveat":"Planning cells are derived from source-backed event locations; they are not parcel boundaries unless source geometry is separately present.","generated_from":"web/data/city-atlas/cities/london/events_1949.json","lifecycle_status":"uncertain","status":"source_record","cell_size_m":95,"intensity":0.458,"label":"Listed building outline: THE TOWER HOUSE"},"geometry":{"type":"Polygon","coordinates":[[[-0.2043138,51.4993579],[-0.2029425,51.4993579],[-0.2029425,51.500217],[-0.2043138,51.500217],[-0.2043138,51.4993579]]]}},{"type":"Feature","properties":{"id":"lens-detail-london-1949-planning_cell-39","layer":"planning_cell","category":"built_environment","year":1949,"visible_year":1949,"title":"2 source-backed planning and built records","confidence":"documented","confidence_mix":"documented:2","event_count":2,"source_count":1,"source_ids":"lon-extra-planning-data-listed-building-outlines","event_ids":"lon_planning_designation_listed-building-outline_42149190,lon_planning_designation_listed-building-outline_42182845","event_ids_all":"lon_planning_designation_listed-building-outline_42149190,lon_planning_designation_listed-building-outline_42182845","source_urls":"https://www.planning.data.gov.uk/entity/42149190,https://www.planning.data.gov.uk/entity/42182845","geometry_precision_mix":"Row-level point from the adapter; source geocoding precision varies and may be approximate.:2","representation":"planning and built evidence grid cell","timing_note":"Filtered by event effective year. OSM mapped-visibility dates and administrative dates can differ from real-world physical change dates.","caveat":"Planning cells are derived from source-backed event locations; they are not parcel boundaries unless source geometry is separately present.","generated_from":"web/data/city-atlas/cities/london/events_1949.json","lifecycle_status":"uncertain","status":"source_record","cell_size_m":95,"intensity":0.458,"label":"Listed building outline: ST MARY ABBOT'S CHURCH OF ENGLAND PRIMARY SCHOOL AND PARISH OFFICE"},"geometry":{"type":"Polygon","coordinates":[[[-0.1933439,51.5019354],[-0.1919727,51.5019354],[-0.1919727,51.5027945],[-0.1933439,51.5027945],[-0.1933439,51.5019354]]]}},{"type":"Feature","properties":{"id":"lens-detail-london-1949-planning_cell-40","layer":"planning_cell","category":"built_environment","year":1949,"visible_year":1949,"title":"2 source-backed planning and built records","confidence":"documented","confidence_mix":"documented:2","event_count":2,"source_count":1,"source_ids":"lon-extra-planning-data-listed-building-outlines","event_ids":"lon_planning_designation_listed-building-outline_42149192,lon_planning_designation_listed-building-outline_42182847","event_ids_all":"lon_planning_designation_listed-building-outline_42149192,lon_planning_designation_listed-building-outline_42182847","source_urls":"https://www.planning.data.gov.uk/entity/42149192,https://www.planning.data.gov.uk/entity/42182847","geometry_precision_mix":"Row-level point from the adapter; source geocoding precision varies and may be approximate.:2","representation":"planning and built evidence grid cell","timing_note":"Filtered by event effective year. OSM mapped-visibility dates and administrative dates can differ from real-world physical change dates.","caveat":"Planning cells are derived from source-backed event locations; they are not parcel boundaries unless source geometry is separately present.","generated_from":"web/data/city-atlas/cities/london/events_1949.json","lifecycle_status":"uncertain","status":"source_record","cell_size_m":95,"intensity":0.458,"label":"Listed building outline: 16 YOUNG STREET"},"geometry":{"type":"Polygon","coordinates":[[[-0.1906014,51.5010762],[-0.1892302,51.5010762],[-0.1892302,51.5019354],[-0.1906014,51.5019354],[-0.1906014,51.5010762]]]}},{"type":"Feature","properties":{"id":"lens-detail-london-1949-planning_cell-44","layer":"planning_cell","category":"built_environment","year":1949,"visible_year":1949,"title":"2 source-backed planning and built records","confidence":"documented","confidence_mix":"documented:2","event_count":2,"source_count":1,"source_ids":"lon-extra-planning-data-listed-building-outlines","event_ids":"lon_planning_designation_listed-building-outline_42149231,lon_planning_designation_listed-building-outline_42182885","event_ids_all":"lon_planning_designation_listed-building-outline_42149231,lon_planning_designation_listed-building-outline_42182885","source_urls":"https://www.planning.data.gov.uk/entity/42149231,https://www.planning.data.gov.uk/entity/42182885","geometry_precision_mix":"Row-level point from the adapter; source geocoding precision varies and may be approximate.:2","representation":"planning and built evidence grid cell","timing_note":"Filtered by event effective year. OSM mapped-visibility dates and administrative dates can differ from real-world physical change dates.","caveat":"Planning cells are derived from source-backed event locations; they are not parcel boundaries unless source geometry is separately present.","generated_from":"web/data/city-atlas/cities/london/events_1949.json","lifecycle_status":"uncertain","status":"source_record","cell_size_m":95,"intensity":0.458,"label":"Listed building outline: ALL SAINTS CHURCH"},"geometry":{"type":"Polygon","coordinates":[[[-0.2029425,51.5156818],[-0.2015713,51.5156818],[-0.2015713,51.516541],[-0.2029425,51.516541],[-0.2029425,51.5156818]]]}},{"type":"Feature","properties":{"id":"lens-detail-london-1949-planning_cell-45","layer":"planning_cell","category":"built_environment","year":1949,"visible_year":1949,"title":"2 source-backed planning and built records","confidence":"documented","confidence_mix":"documented:2","event_count":2,"source_count":1,"source_ids":"lon-extra-planning-data-listed-building-outlines","event_ids":"lon_planning_designation_listed-building-outline_42149238,lon_planning_designation_listed-building-outline_42182892","event_ids_all":"lon_planning_designation_listed-building-outline_42149238,lon_planning_designation_listed-building-outline_42182892","source_urls":"https://www.planning.data.gov.uk/entity/42149238,https://www.planning.data.gov.uk/entity/42182892","geometry_precision_mix":"Row-level point from the adapter; source geocoding precision varies and may be approximate.:2","representation":"planning and built evidence grid cell","timing_note":"Filtered by event effective year. OSM mapped-visibility dates and administrative dates can differ from real-world physical change dates.","caveat":"Planning cells are derived from source-backed event locations; they are not parcel boundaries unless source geometry is separately present.","generated_from":"web/data/city-atlas/cities/london/events_1949.json","lifecycle_status":"uncertain","status":"source_record","cell_size_m":95,"intensity":0.458,"label":"Listed building outline: CHURCH OF ST AUGUSTINE"},"geometry":{"type":"Polygon","coordinates":[[[-0.1782603,51.4933438],[-0.1768891,51.4933438],[-0.1768891,51.494203],[-0.1782603,51.494203],[-0.1782603,51.4933438]]]}},{"type":"Feature","properties":{"id":"lens-detail-london-1949-planning_cell-46","layer":"planning_cell","category":"built_environment","year":1949,"visible_year":1949,"title":"2 source-backed planning and built records","confidence":"documented","confidence_mix":"documented:2","event_count":2,"source_count":1,"source_ids":"lon-extra-planning-data-listed-building-outlines","event_ids":"lon_planning_designation_listed-building-outline_42149332,lon_planning_designation_listed-building-outline_42182984","event_ids_all":"lon_planning_designation_listed-building-outline_42149332,lon_planning_designation_listed-building-outline_42182984","source_urls":"https://www.planning.data.gov.uk/entity/42149332,https://www.planning.data.gov.uk/entity/42182984","geometry_precision_mix":"Row-level point from the adapter; source geocoding precision varies and may be approximate.:2","representation":"planning and built evidence grid cell","timing_note":"Filtered by event effective year. OSM mapped-visibility dates and administrative dates can differ from real-world physical change dates.","caveat":"Planning cells are derived from source-backed event locations; they are not parcel boundaries unless source geometry is separately present.","generated_from":"web/data/city-atlas/cities/london/events_1949.json","lifecycle_status":"uncertain","status":"source_record","cell_size_m":95,"intensity":0.458,"label":"Listed building outline: CHURCH OF THE HOLY TRINITY"},"geometry":{"type":"Polygon","coordinates":[[[-0.1700329,51.4976396],[-0.1686617,51.4976396],[-0.1686617,51.4984987],[-0.1700329,51.4984987],[-0.1700329,51.4976396]]]}},{"type":"Feature","properties":{"id":"lens-detail-london-1949-planning_cell-47","layer":"planning_cell","category":"built_environment","year":1949,"visible_year":1949,"title":"2 source-backed planning and built records","confidence":"documented","confidence_mix":"documented:2","event_count":2,"source_count":1,"source_ids":"lon-extra-planning-data-listed-building-outlines","event_ids":"lon_planning_designation_listed-building-outline_42149440,lon_planning_designation_listed-building-outline_42183090","event_ids_all":"lon_planning_designation_listed-building-outline_42149440,lon_planning_designation_listed-building-outline_42183090","source_urls":"https://www.planning.data.gov.uk/entity/42149440,https://www.planning.data.gov.uk/entity/42183090","geometry_precision_mix":"Row-level point from the adapter; source geocoding precision varies and may be approximate.:2","representation":"planning and built evidence grid cell","timing_note":"Filtered by event effective year. OSM mapped-visibility dates and administrative dates can differ from real-world physical change dates.","caveat":"Planning cells are derived from source-backed event locations; they are not parcel boundaries unless source geometry is separately present.","generated_from":"web/data/city-atlas/cities/london/events_1949.json","lifecycle_status":"uncertain","status":"source_record","cell_size_m":95,"intensity":0.458,"label":"Listed building outline: 11 AND 12 KENSINGTON SQUARE"},"geometry":{"type":"Polygon","coordinates":[[[-0.1892302,51.500217],[-0.187859,51.500217],[-0.187859,51.5010762],[-0.1892302,51.5010762],[-0.1892302,51.500217]]]}},{"type":"Feature","properties":{"id":"lens-detail-london-1949-planning_cell-48","layer":"planning_cell","category":"built_environment","year":1949,"visible_year":1949,"title":"2 source-backed planning and built records","confidence":"documented","confidence_mix":"documented:2","event_count":2,"source_count":1,"source_ids":"lon-extra-planning-data-listed-building-outlines","event_ids":"lon_planning_designation_listed-building-outline_42149469,lon_planning_designation_listed-building-outline_42183119","event_ids_all":"lon_planning_designation_listed-building-outline_42149469,lon_planning_designation_listed-building-outline_42183119","source_urls":"https://www.planning.data.gov.uk/entity/42149469,https://www.planning.data.gov.uk/entity/42183119","geometry_precision_mix":"Row-level point from the adapter; source geocoding precision varies and may be approximate.:2","representation":"planning and built evidence grid cell","timing_note":"Filtered by event effective year. OSM mapped-visibility dates and administrative dates can differ from real-world physical change dates.","caveat":"Planning cells are derived from source-backed event locations; they are not parcel boundaries unless source geometry is separately present.","generated_from":"web/data/city-atlas/cities/london/events_1949.json","lifecycle_status":"uncertain","status":"source_record","cell_size_m":95,"intensity":0.458,"label":"Listed building outline: 1-29 PELHAM PLACE"},"geometry":{"type":"Polygon","coordinates":[[[-0.1727754,51.4924847],[-0.1714042,51.4924847],[-0.1714042,51.4933438],[-0.1727754,51.4933438],[-0.1727754,51.4924847]]]}},{"type":"Feature","properties":{"id":"lens-detail-london-1949-planning_cell-49","layer":"planning_cell","category":"built_environment","year":1949,"visible_year":1949,"title":"2 source-backed planning and built records","confidence":"documented","confidence_mix":"documented:2","event_count":2,"source_count":1,"source_ids":"lon-extra-planning-data-listed-building-outlines","event_ids":"lon_planning_designation_listed-building-outline_42149473,lon_planning_designation_listed-building-outline_42183123","event_ids_all":"lon_planning_designation_listed-building-outline_42149473,lon_planning_designation_listed-building-outline_42183123","source_urls":"https://www.planning.data.gov.uk/entity/42149473,https://www.planning.data.gov.uk/entity/42183123","geometry_precision_mix":"Row-level point from the adapter; source geocoding precision varies and may be approximate.:2","representation":"planning and built evidence grid cell","timing_note":"Filtered by event effective year. OSM mapped-visibility dates and administrative dates can differ from real-world physical change dates.","caveat":"Planning cells are derived from source-backed event locations; they are not parcel boundaries unless source geometry is separately present.","generated_from":"web/data/city-atlas/cities/london/events_1949.json","lifecycle_status":"uncertain","status":"source_record","cell_size_m":95,"intensity":0.458,"label":"Listed building outline: 2-14 PELHAM PLACE"},"geometry":{"type":"Polygon","coordinates":[[[-0.1714042,51.4933438],[-0.1700329,51.4933438],[-0.1700329,51.494203],[-0.1714042,51.494203],[-0.1714042,51.4933438]]]}},{"type":"Feature","properties":{"id":"lens-detail-london-1949-planning_cell-50","layer":"planning_cell","category":"built_environment","year":1949,"visible_year":1949,"title":"2 source-backed planning and built records","confidence":"documented","confidence_mix":"documented:2","event_count":2,"source_count":1,"source_ids":"lon-extra-planning-data-listed-building-outlines","event_ids":"lon_planning_designation_listed-building-outline_42149723,lon_planning_designation_listed-building-outline_42183321","event_ids_all":"lon_planning_designation_listed-building-outline_42149723,lon_planning_designation_listed-building-outline_42183321","source_urls":"https://www.planning.data.gov.uk/entity/42149723,https://www.planning.data.gov.uk/entity/42183321","geometry_precision_mix":"Row-level point from the adapter; source geocoding precision varies and may be approximate.:2","representation":"planning and built evidence grid cell","timing_note":"Filtered by event effective year. OSM mapped-visibility dates and administrative dates can differ from real-world physical change dates.","caveat":"Planning cells are derived from source-backed event locations; they are not parcel boundaries unless source geometry is separately present.","generated_from":"web/data/city-atlas/cities/london/events_1949.json","lifecycle_status":"uncertain","status":"source_record","cell_size_m":95,"intensity":0.458,"label":"Listed building outline: 24 KENSINGTON SQUARE"},"geometry":{"type":"Polygon","coordinates":[[[-0.1919727,51.4993579],[-0.1906014,51.4993579],[-0.1906014,51.500217],[-0.1919727,51.500217],[-0.1919727,51.4993579]]]}},{"type":"Feature","properties":{"id":"lens-detail-london-1949-planning_cell-0","layer":"planning_cell","category":"built_environment","year":1949,"visible_year":1949,"title":"1 source-backed planning and built record","confidence":"documented","confidence_mix":"documented:1","event_count":1,"source_count":1,"source_ids":"lon-extra-planning-data-listed-building-outlines","event_ids":"lon_planning_designation_listed-building-outline_42114955","event_ids_all":"lon_planning_designation_listed-building-outline_42114955","source_urls":"https://www.planning.data.gov.uk/entity/42114955","geometry_precision_mix":"Row-level point from the adapter; source geocoding precision varies and may be approximate.:1","representation":"planning and built evidence grid cell","timing_note":"Filtered by event effective year. OSM mapped-visibility dates and administrative dates can differ from real-world physical change dates.","caveat":"Planning cells are derived from source-backed event locations; they are not parcel boundaries unless source geometry is separately present.","generated_from":"web/data/city-atlas/cities/london/events_1949.json","lifecycle_status":"uncertain","status":"source_record","cell_size_m":95,"intensity":0.289,"label":"Listed building outline: Tower Bridge (that part that lies within the Borough of Southwark)"},"geometry":{"type":"Polygon","coordinates":[[[-0.0767891,51.5045128],[-0.0754178,51.5045128],[-0.0754178,51.505372],[-0.0767891,51.505372],[-0.0767891,51.5045128]]]}},{"type":"Feature","properties":{"id":"lens-detail-london-1949-planning_cell-1","layer":"planning_cell","category":"built_environment","year":1949,"visible_year":1949,"title":"1 source-backed planning and built record","confidence":"documented","confidence_mix":"documented:1","event_count":1,"source_count":1,"source_ids":"lon-extra-planning-data-listed-building-outlines","event_ids":"lon_planning_designation_listed-building-outline_42114959","event_ids_all":"lon_planning_designation_listed-building-outline_42114959","source_urls":"https://www.planning.data.gov.uk/entity/42114959","geometry_precision_mix":"Row-level point from the adapter; source geocoding precision varies and may be approximate.:1","representation":"planning and built evidence grid cell","timing_note":"Filtered by event effective year. OSM mapped-visibility dates and administrative dates can differ from real-world physical change dates.","caveat":"Planning cells are derived from source-backed event locations; they are not parcel boundaries unless source geometry is separately present.","generated_from":"web/data/city-atlas/cities/london/events_1949.json","lifecycle_status":"uncertain","status":"source_record","cell_size_m":95,"intensity":0.289,"label":"Listed building outline: Church of St Mary Rotherhithe"},"geometry":{"type":"Polygon","coordinates":[[[-0.0548493,51.5010762],[-0.0534781,51.5010762],[-0.0534781,51.5019354],[-0.0548493,51.5019354],[-0.0548493,51.5010762]]]}},{"type":"Feature","properties":{"id":"lens-detail-london-1949-planning_cell-10","layer":"planning_cell","category":"built_environment","year":1949,"visible_year":1949,"title":"1 source-backed planning and built record","confidence":"documented","confidence_mix":"documented:1","event_count":1,"source_count":1,"source_ids":"lon-extra-planning-data-listed-building-outlines","event_ids":"lon_planning_designation_listed-building-outline_42120556","event_ids_all":"lon_planning_designation_listed-building-outline_42120556","source_urls":"https://www.planning.data.gov.uk/entity/42120556","geometry_precision_mix":"Row-level point from the adapter; source geocoding precision varies and may be approximate.:1","representation":"planning and built evidence grid cell","timing_note":"Filtered by event effective year. OSM mapped-visibility dates and administrative dates can differ from real-world physical change dates.","caveat":"Planning cells are derived from source-backed event locations; they are not parcel boundaries unless source geometry is separately present.","generated_from":"web/data/city-atlas/cities/london/events_1949.json","lifecycle_status":"uncertain","status":"source_record","cell_size_m":95,"intensity":0.289,"label":"Listed building outline: THE FELIX AND FIRKIN PUBLIC HOUSE"},"geometry":{"type":"Polygon","coordinates":[[[-0.2002001,51.6522872],[-0.1988288,51.6522872],[-0.1988288,51.6531463],[-0.2002001,51.6531463],[-0.2002001,51.6522872]]]}},{"type":"Feature","properties":{"id":"lens-detail-london-1949-planning_cell-11","layer":"planning_cell","category":"built_environment","year":1949,"visible_year":1949,"title":"1 source-backed planning and built record","confidence":"documented","confidence_mix":"documented:1","event_count":1,"source_count":1,"source_ids":"lon-extra-planning-data-listed-building-outlines","event_ids":"lon_planning_designation_listed-building-outline_42120557","event_ids_all":"lon_planning_designation_listed-building-outline_42120557","source_urls":"https://www.planning.data.gov.uk/entity/42120557","geometry_precision_mix":"Row-level point from the adapter; source geocoding precision varies and may be approximate.:1","representation":"planning and built evidence grid cell","timing_note":"Filtered by event effective year. OSM mapped-visibility dates and administrative dates can differ from real-world physical change dates.","caveat":"Planning cells are derived from source-backed event locations; they are not parcel boundaries unless source geometry is separately present.","generated_from":"web/data/city-atlas/cities/london/events_1949.json","lifecycle_status":"uncertain","status":"source_record","cell_size_m":95,"intensity":0.289,"label":"Listed building outline: HADLEY HIGHSTONE"},"geometry":{"type":"Polygon","coordinates":[[[-0.2002001,51.6651745],[-0.1988288,51.6651745],[-0.1988288,51.6660336],[-0.2002001,51.6660336],[-0.2002001,51.6651745]]]}},{"type":"Feature","properties":{"id":"lens-detail-london-1949-planning_cell-13","layer":"planning_cell","category":"built_environment","year":1949,"visible_year":1949,"title":"1 source-backed planning and built record","confidence":"documented","confidence_mix":"documented:1","event_count":1,"source_count":1,"source_ids":"lon-extra-planning-data-listed-building-outlines","event_ids":"lon_planning_designation_listed-building-outline_42120561","event_ids_all":"lon_planning_designation_listed-building-outline_42120561","source_urls":"https://www.planning.data.gov.uk/entity/42120561","geometry_precision_mix":"Row-level point from the adapter; source geocoding precision varies and may be approximate.:1","representation":"planning and built evidence grid cell","timing_note":"Filtered by event effective year. OSM mapped-visibility dates and administrative dates can differ from real-world physical change dates.","caveat":"Planning cells are derived from source-backed event locations; they are not parcel boundaries unless source geometry is separately present.","generated_from":"web/data/city-atlas/cities/london/events_1949.json","lifecycle_status":"uncertain","status":"source_record","cell_size_m":95,"intensity":0.289,"label":"Listed building outline: HADLEY HURST COTTAGES"},"geometry":{"type":"Polygon","coordinates":[[[-0.1906014,51.6591604],[-0.1892302,51.6591604],[-0.1892302,51.6600195],[-0.1906014,51.6600195],[-0.1906014,51.6591604]]]}},{"type":"Feature","properties":{"id":"lens-detail-london-1949-planning_cell-14","layer":"planning_cell","category":"built_environment","year":1949,"visible_year":1949,"title":"1 source-backed planning and built record","confidence":"documented","confidence_mix":"documented:1","event_count":1,"source_count":1,"source_ids":"lon-extra-planning-data-listed-building-outlines","event_ids":"lon_planning_designation_listed-building-outline_42120562","event_ids_all":"lon_planning_designation_listed-building-outline_42120562","source_urls":"https://www.planning.data.gov.uk/entity/42120562","geometry_precision_mix":"Row-level point from the adapter; source geocoding precision varies and may be approximate.:1","representation":"planning and built evidence grid cell","timing_note":"Filtered by event effective year. OSM mapped-visibility dates and administrative dates can differ from real-world physical change dates.","caveat":"Planning cells are derived from source-backed event locations; they are not parcel boundaries unless source geometry is separately present.","generated_from":"web/data/city-atlas/cities/london/events_1949.json","lifecycle_status":"uncertain","status":"source_record","cell_size_m":95,"intensity":0.289,"label":"Listed building outline: Parish Church of St Mary the Virgin"},"geometry":{"type":"Polygon","coordinates":[[[-0.1947151,51.6608787],[-0.1933439,51.6608787],[-0.1933439,51.6617378],[-0.1947151,51.6617378],[-0.1947151,51.6608787]]]}},{"type":"Feature","properties":{"id":"lens-detail-london-1949-planning_cell-17","layer":"planning_cell","category":"built_environment","year":1949,"visible_year":1949,"title":"1 source-backed planning and built record","confidence":"documented","confidence_mix":"documented:1","event_count":1,"source_count":1,"source_ids":"lon-extra-planning-data-listed-building-outlines","event_ids":"lon_planning_designation_listed-building-outline_42120565","event_ids_all":"lon_planning_designation_listed-building-outline_42120565","source_urls":"https://www.planning.data.gov.uk/entity/42120565","geometry_precision_mix":"Row-level point from the adapter; source geocoding precision varies and may be approximate.:1","representation":"planning and built evidence grid cell","timing_note":"Filtered by event effective year. OSM mapped-visibility dates and administrative dates can differ from real-world physical change dates.","caveat":"Planning cells are derived from source-backed event locations; they are not parcel boundaries unless source geometry is separately present.","generated_from":"web/data/city-atlas/cities/london/events_1949.json","lifecycle_status":"uncertain","status":"source_record","cell_size_m":95,"intensity":0.289,"label":"Listed building outline: HADLEY BOURNE"},"geometry":{"type":"Polygon","coordinates":[[[-0.1974576,51.6617378],[-0.1960864,51.6617378],[-0.1960864,51.662597],[-0.1974576,51.662597],[-0.1974576,51.6617378]]]}},{"type":"Feature","properties":{"id":"lens-detail-london-1949-planning_cell-18","layer":"planning_cell","category":"built_environment","year":1949,"visible_year":1949,"title":"1 source-backed planning and built record","confidence":"documented","confidence_mix":"documented:1","event_count":1,"source_count":1,"source_ids":"lon-extra-planning-data-listed-building-outlines","event_ids":"lon_planning_designation_listed-building-outline_42120566","event_ids_all":"lon_planning_designation_listed-building-outline_42120566","source_urls":"https://www.planning.data.gov.uk/entity/42120566","geometry_precision_mix":"Row-level point from the adapter; source geocoding precision varies and may be approximate.:1","representation":"planning and built evidence grid cell","timing_note":"Filtered by event effective year. OSM mapped-visibility dates and administrative dates can differ from real-world physical change dates.","caveat":"Planning cells are derived from source-backed event locations; they are not parcel boundaries unless source geometry is separately present.","generated_from":"web/data/city-atlas/cities/london/events_1949.json","lifecycle_status":"uncertain","status":"source_record","cell_size_m":95,"intensity":0.289,"label":"Listed building outline: OAK HILL COLLEGE"},"geometry":{"type":"Polygon","coordinates":[[[-0.146722,51.640259],[-0.1453507,51.640259],[-0.1453507,51.6411182],[-0.146722,51.6411182],[-0.146722,51.640259]]]}},{"type":"Feature","properties":{"id":"lens-detail-london-1949-planning_cell-19","layer":"planning_cell","category":"built_environment","year":1949,"visible_year":1949,"title":"1 source-backed planning and built record","confidence":"documented","confidence_mix":"documented:1","event_count":1,"source_count":1,"source_ids":"lon-extra-planning-data-listed-building-outlines","event_ids":"lon_planning_designation_listed-building-outline_42120567","event_ids_all":"lon_planning_designation_listed-building-outline_42120567","source_urls":"https://www.planning.data.gov.uk/entity/42120567","geometry_precision_mix":"Row-level point from the adapter; source geocoding precision varies and may be approximate.:1","representation":"planning and built evidence grid cell","timing_note":"Filtered by event effective year. OSM mapped-visibility dates and administrative dates can differ from real-world physical change dates.","caveat":"Planning cells are derived from source-backed event locations; they are not parcel boundaries unless source geometry is separately present.","generated_from":"web/data/city-atlas/cities/london/events_1949.json","lifecycle_status":"uncertain","status":"source_record","cell_size_m":95,"intensity":0.289,"label":"Listed building outline: PARISH CHURCH OF ST MARY THE VIRGIN"},"geometry":{"type":"Polygon","coordinates":[[[-0.1563206,51.6351041],[-0.1549494,51.6351041],[-0.1549494,51.6359632],[-0.1563206,51.6359632],[-0.1563206,51.6351041]]]}},{"type":"Feature","properties":{"id":"lens-detail-london-1949-planning_cell-2","layer":"planning_cell","category":"built_environment","year":1949,"visible_year":1949,"title":"1 source-backed planning and built record","confidence":"documented","confidence_mix":"documented:1","event_count":1,"source_count":1,"source_ids":"lon-extra-planning-data-listed-building-outlines","event_ids":"lon_planning_designation_listed-building-outline_42114960","event_ids_all":"lon_planning_designation_listed-building-outline_42114960","source_urls":"https://www.planning.data.gov.uk/entity/42114960","geometry_precision_mix":"Row-level point from the adapter; source geocoding precision varies and may be approximate.:1","representation":"planning and built evidence grid cell","timing_note":"Filtered by event effective year. OSM mapped-visibility dates and administrative dates can differ from real-world physical change dates.","caveat":"Planning cells are derived from source-backed event locations; they are not parcel boundaries unless source geometry is separately present.","generated_from":"web/data/city-atlas/cities/london/events_1949.json","lifecycle_status":"uncertain","status":"source_record","cell_size_m":95,"intensity":0.289,"label":"Listed building outline: Church of St James"},"geometry":{"type":"Polygon","coordinates":[[[-0.0671904,51.4967804],[-0.0658192,51.4967804],[-0.0658192,51.4976396],[-0.0671904,51.4976396],[-0.0671904,51.4967804]]]}},{"type":"Feature","properties":{"id":"lens-detail-london-1949-planning_cell-20","layer":"planning_cell","category":"built_environment","year":1949,"visible_year":1949,"title":"1 source-backed planning and built record","confidence":"documented","confidence_mix":"documented:1","event_count":1,"source_count":1,"source_ids":"lon-extra-planning-data-listed-building-outlines","event_ids":"lon_planning_designation_listed-building-outline_42120568","event_ids_all":"lon_planning_designation_listed-building-outline_42120568","source_urls":"https://www.planning.data.gov.uk/entity/42120568","geometry_precision_mix":"Row-level point from the adapter; source geocoding precision varies and may be approximate.:1","representation":"planning and built evidence grid cell","timing_note":"Filtered by event effective year. OSM mapped-visibility dates and administrative dates can differ from real-world physical change dates.","caveat":"Planning cells are derived from source-backed event locations; they are not parcel boundaries unless source geometry is separately present.","generated_from":"web/data/city-atlas/cities/london/events_1949.json","lifecycle_status":"uncertain","status":"source_record","cell_size_m":95,"intensity":0.289,"label":"Listed building outline: HADLEY HURST"},"geometry":{"type":"Polygon","coordinates":[[[-0.1906014,51.6583012],[-0.1892302,51.6583012],[-0.1892302,51.6591604],[-0.1906014,51.6591604],[-0.1906014,51.6583012]]]}},{"type":"Feature","properties":{"id":"lens-detail-london-1949-planning_cell-22","layer":"planning_cell","category":"built_environment","year":1949,"visible_year":1949,"title":"1 source-backed planning and built record","confidence":"documented","confidence_mix":"documented:1","event_count":1,"source_count":1,"source_ids":"lon-extra-planning-data-listed-building-outlines","event_ids":"lon_planning_designation_listed-building-outline_42120573","event_ids_all":"lon_planning_designation_listed-building-outline_42120573","source_urls":"https://www.planning.data.gov.uk/entity/42120573","geometry_precision_mix":"Row-level point from the adapter; source geocoding precision varies and may be approximate.:1","representation":"planning and built evidence grid cell","timing_note":"Filtered by event effective year. OSM mapped-visibility dates and administrative dates can differ from real-world physical change dates.","caveat":"Planning cells are derived from source-backed event locations; they are not parcel boundaries unless source geometry is separately present.","generated_from":"web/data/city-atlas/cities/london/events_1949.json","lifecycle_status":"uncertain","status":"source_record","cell_size_m":95,"intensity":0.289,"label":"Listed building outline: ST MARTHAS CONVENT (THE MOUNT HOUSE) WITH ATTACHED STABLE BLOCK"},"geometry":{"type":"Polygon","coordinates":[[[-0.1892302,51.662597],[-0.187859,51.662597],[-0.187859,51.6634561],[-0.1892302,51.6634561],[-0.1892302,51.662597]]]}},{"type":"Feature","properties":{"id":"lens-detail-london-1949-planning_cell-23","layer":"planning_cell","category":"built_environment","year":1949,"visible_year":1949,"title":"1 source-backed planning and built record","confidence":"documented","confidence_mix":"documented:1","event_count":1,"source_count":1,"source_ids":"lon-extra-planning-data-listed-building-outlines","event_ids":"lon_planning_designation_listed-building-outline_42120574","event_ids_all":"lon_planning_designation_listed-building-outline_42120574","source_urls":"https://www.planning.data.gov.uk/entity/42120574","geometry_precision_mix":"Row-level point from the adapter; source geocoding precision varies and may be approximate.:1","representation":"planning and built evidence grid cell","timing_note":"Filtered by event effective year. OSM mapped-visibility dates and administrative dates can differ from real-world physical change dates.","caveat":"Planning cells are derived from source-backed event locations; they are not parcel boundaries unless source geometry is separately present.","generated_from":"web/data/city-atlas/cities/london/events_1949.json","lifecycle_status":"uncertain","status":"source_record","cell_size_m":95,"intensity":0.289,"label":"Listed building outline: THE GROVE"},"geometry":{"type":"Polygon","coordinates":[[[-0.1947151,51.6617378],[-0.1933439,51.6617378],[-0.1933439,51.662597],[-0.1947151,51.662597],[-0.1947151,51.6617378]]]}},{"type":"Feature","properties":{"id":"lens-detail-london-1949-planning_cell-24","layer":"planning_cell","category":"built_environment","year":1949,"visible_year":1949,"title":"1 source-backed planning and built record","confidence":"documented","confidence_mix":"documented:1","event_count":1,"source_count":1,"source_ids":"lon-extra-planning-data-listed-building-outlines","event_ids":"lon_planning_designation_listed-building-outline_42120575","event_ids_all":"lon_planning_designation_listed-building-outline_42120575","source_urls":"https://www.planning.data.gov.uk/entity/42120575","geometry_precision_mix":"Row-level point from the adapter; source geocoding precision varies and may be approximate.:1","representation":"planning and built evidence grid cell","timing_note":"Filtered by event effective year. OSM mapped-visibility dates and administrative dates can differ from real-world physical change dates.","caveat":"Planning cells are derived from source-backed event locations; they are not parcel boundaries unless source geometry is separately present.","generated_from":"web/data/city-atlas/cities/london/events_1949.json","lifecycle_status":"uncertain","status":"source_record","cell_size_m":95,"intensity":0.289,"label":"Listed building outline: GRANDON"},"geometry":{"type":"Polygon","coordinates":[[[-0.1974576,51.6608787],[-0.1960864,51.6608787],[-0.1960864,51.6617378],[-0.1974576,51.6617378],[-0.1974576,51.6608787]]]}},{"type":"Feature","properties":{"id":"lens-detail-london-1949-planning_cell-25","layer":"planning_cell","category":"built_environment","year":1949,"visible_year":1949,"title":"1 source-backed planning and built record","confidence":"documented","confidence_mix":"documented:1","event_count":1,"source_count":1,"source_ids":"lon-extra-planning-data-listed-building-outlines","event_ids":"lon_planning_designation_listed-building-outline_42120577","event_ids_all":"lon_planning_designation_listed-building-outline_42120577","source_urls":"https://www.planning.data.gov.uk/entity/42120577","geometry_precision_mix":"Row-level point from the adapter; source geocoding precision varies and may be approximate.:1","representation":"planning and built evidence grid cell","timing_note":"Filtered by event effective year. OSM mapped-visibility dates and administrative dates can differ from real-world physical change dates.","caveat":"Planning cells are derived from source-backed event locations; they are not parcel boundaries unless source geometry is separately present.","generated_from":"web/data/city-atlas/cities/london/events_1949.json","lifecycle_status":"uncertain","status":"source_record","cell_size_m":95,"intensity":0.289,"label":"Listed building outline: THE ABBEY CHURCH OF CHRIST THE KING"},"geometry":{"type":"Polygon","coordinates":[[[-0.1618055,51.6505688],[-0.1604343,51.6505688],[-0.1604343,51.651428],[-0.1618055,51.651428],[-0.1618055,51.6505688]]]}},{"type":"Feature","properties":{"id":"lens-detail-london-1949-planning_cell-26","layer":"planning_cell","category":"built_environment","year":1949,"visible_year":1949,"title":"1 source-backed planning and built record","confidence":"documented","confidence_mix":"documented:1","event_count":1,"source_count":1,"source_ids":"lon-extra-planning-data-listed-building-outlines","event_ids":"lon_planning_designation_listed-building-outline_42120578","event_ids_all":"lon_planning_designation_listed-building-outline_42120578","source_urls":"https://www.planning.data.gov.uk/entity/42120578","geometry_precision_mix":"Row-level point from the adapter; source geocoding precision varies and may be approximate.:1","representation":"planning and built evidence grid cell","timing_note":"Filtered by event effective year. OSM mapped-visibility dates and administrative dates can differ from real-world physical change dates.","caveat":"Planning cells are derived from source-backed event locations; they are not parcel boundaries unless source geometry is separately present.","generated_from":"web/data/city-atlas/cities/london/events_1949.json","lifecycle_status":"uncertain","status":"source_record","cell_size_m":95,"intensity":0.289,"label":"Listed building outline: GLADSMUIR"},"geometry":{"type":"Polygon","coordinates":[[[-0.1933439,51.6600195],[-0.1919727,51.6600195],[-0.1919727,51.6608787],[-0.1933439,51.6608787],[-0.1933439,51.6600195]]]}},{"type":"Feature","properties":{"id":"lens-detail-london-1949-planning_cell-27","layer":"planning_cell","category":"built_environment","year":1949,"visible_year":1949,"title":"1 source-backed planning and built record","confidence":"documented","confidence_mix":"documented:1","event_count":1,"source_count":1,"source_ids":"lon-extra-planning-data-listed-building-outlines","event_ids":"lon_planning_designation_listed-building-outline_42120579","event_ids_all":"lon_planning_designation_listed-building-outline_42120579","source_urls":"https://www.planning.data.gov.uk/entity/42120579","geometry_precision_mix":"Row-level point from the adapter; source geocoding precision varies and may be approximate.:1","representation":"planning and built evidence grid cell","timing_note":"Filtered by event effective year. OSM mapped-visibility dates and administrative dates can differ from real-world physical change dates.","caveat":"Planning cells are derived from source-backed event locations; they are not parcel boundaries unless source geometry is separately present.","generated_from":"web/data/city-atlas/cities/london/events_1949.json","lifecycle_status":"uncertain","status":"source_record","cell_size_m":95,"intensity":0.289,"label":"Listed building outline: THE SPANIARDS INN"},"geometry":{"type":"Polygon","coordinates":[[[-0.1741466,51.5698085],[-0.1727754,51.5698085],[-0.1727754,51.5706676],[-0.1741466,51.5706676],[-0.1741466,51.5698085]]]}},{"type":"Feature","properties":{"id":"lens-detail-london-1949-planning_cell-28","layer":"planning_cell","category":"built_environment","year":1949,"visible_year":1949,"title":"1 source-backed planning and built record","confidence":"documented","confidence_mix":"documented:1","event_count":1,"source_count":1,"source_ids":"lon-extra-planning-data-listed-building-outlines","event_ids":"lon_planning_designation_listed-building-outline_42120580","event_ids_all":"lon_planning_designation_listed-building-outline_42120580","source_urls":"https://www.planning.data.gov.uk/entity/42120580","geometry_precision_mix":"Row-level point from the adapter; source geocoding precision varies and may be approximate.:1","representation":"planning and built evidence grid cell","timing_note":"Filtered by event effective year. OSM mapped-visibility dates and administrative dates can differ from real-world physical change dates.","caveat":"Planning cells are derived from source-backed event locations; they are not parcel boundaries unless source geometry is separately present.","generated_from":"web/data/city-atlas/cities/london/events_1949.json","lifecycle_status":"uncertain","status":"source_record","cell_size_m":95,"intensity":0.289,"label":"Listed building outline: THE MANOR HOUSE"},"geometry":{"type":"Polygon","coordinates":[[[-0.1892302,51.5947239],[-0.187859,51.5947239],[-0.187859,51.595583],[-0.1892302,51.595583],[-0.1892302,51.5947239]]]}},{"type":"Feature","properties":{"id":"lens-detail-london-1949-planning_cell-29","layer":"planning_cell","category":"built_environment","year":1949,"visible_year":1949,"title":"1 source-backed planning and built record","confidence":"documented","confidence_mix":"documented:1","event_count":1,"source_count":1,"source_ids":"lon-extra-planning-data-listed-building-outlines","event_ids":"lon_planning_designation_listed-building-outline_42120581","event_ids_all":"lon_planning_designation_listed-building-outline_42120581","source_urls":"https://www.planning.data.gov.uk/entity/42120581","geometry_precision_mix":"Row-level point from the adapter; source geocoding precision varies and may be approximate.:1","representation":"planning and built evidence grid cell","timing_note":"Filtered by event effective year. OSM mapped-visibility dates and administrative dates can differ from real-world physical change dates.","caveat":"Planning cells are derived from source-backed event locations; they are not parcel boundaries unless source geometry is separately present.","generated_from":"web/data/city-atlas/cities/london/events_1949.json","lifecycle_status":"uncertain","status":"source_record","cell_size_m":95,"intensity":0.289,"label":"Listed building outline: PARISH CHURCH OF ST MARY"},"geometry":{"type":"Polygon","coordinates":[[[-0.1988288,51.5990197],[-0.1974576,51.5990197],[-0.1974576,51.5998788],[-0.1988288,51.5998788],[-0.1988288,51.5990197]]]}},{"type":"Feature","properties":{"id":"lens-detail-london-1949-planning_cell-3","layer":"planning_cell","category":"built_environment","year":1949,"visible_year":1949,"title":"1 source-backed planning and built record","confidence":"documented","confidence_mix":"documented:1","event_count":1,"source_count":1,"source_ids":"lon-extra-planning-data-listed-building-outlines","event_ids":"lon_planning_designation_listed-building-outline_42114969","event_ids_all":"lon_planning_designation_listed-building-outline_42114969","source_urls":"https://www.planning.data.gov.uk/entity/42114969","geometry_precision_mix":"Row-level point from the adapter; source geocoding precision varies and may be approximate.:1","representation":"planning and built evidence grid cell","timing_note":"Filtered by event effective year. OSM mapped-visibility dates and administrative dates can differ from real-world physical change dates.","caveat":"Planning cells are derived from source-backed event locations; they are not parcel boundaries unless source geometry is separately present.","generated_from":"web/data/city-atlas/cities/london/events_1949.json","lifecycle_status":"uncertain","status":"source_record","cell_size_m":95,"intensity":0.289,"label":"Listed building outline: Church of St Mary Magdalene"},"geometry":{"type":"Polygon","coordinates":[[[-0.0809028,51.4976396],[-0.0795315,51.4976396],[-0.0795315,51.4984987],[-0.0809028,51.4984987],[-0.0809028,51.4976396]]]}},{"type":"Feature","properties":{"id":"lens-detail-london-1949-planning_cell-30","layer":"planning_cell","category":"built_environment","year":1949,"visible_year":1949,"title":"1 source-backed planning and built record","confidence":"documented","confidence_mix":"documented:1","event_count":1,"source_count":1,"source_ids":"lon-extra-planning-data-listed-building-outlines","event_ids":"lon_planning_designation_listed-building-outline_42120582","event_ids_all":"lon_planning_designation_listed-building-outline_42120582","source_urls":"https://www.planning.data.gov.uk/entity/42120582","geometry_precision_mix":"Row-level point from the adapter; source geocoding precision varies and may be approximate.:1","representation":"planning and built evidence grid cell","timing_note":"Filtered by event effective year. OSM mapped-visibility dates and administrative dates can differ from real-world physical change dates.","caveat":"Planning cells are derived from source-backed event locations; they are not parcel boundaries unless source geometry is separately present.","generated_from":"web/data/city-atlas/cities/london/events_1949.json","lifecycle_status":"uncertain","status":"source_record","cell_size_m":95,"intensity":0.289,"label":"Listed building outline: PARK HOUSE"},"geometry":{"type":"Polygon","coordinates":[[[-0.2002001,51.5981605],[-0.1988288,51.5981605],[-0.1988288,51.5990197],[-0.2002001,51.5990197],[-0.2002001,51.5981605]]]}},{"type":"Feature","properties":{"id":"lens-detail-london-1949-planning_cell-31","layer":"planning_cell","category":"built_environment","year":1949,"visible_year":1949,"title":"1 source-backed planning and built record","confidence":"documented","confidence_mix":"documented:1","event_count":1,"source_count":1,"source_ids":"lon-extra-planning-data-listed-building-outlines","event_ids":"lon_planning_designation_listed-building-outline_42120583","event_ids_all":"lon_planning_designation_listed-building-outline_42120583","source_urls":"https://www.planning.data.gov.uk/entity/42120583","geometry_precision_mix":"Row-level point from the adapter; source geocoding precision varies and may be approximate.:1","representation":"planning and built evidence grid cell","timing_note":"Filtered by event effective year. OSM mapped-visibility dates and administrative dates can differ from real-world physical change dates.","caveat":"Planning cells are derived from source-backed event locations; they are not parcel boundaries unless source geometry is separately present.","generated_from":"web/data/city-atlas/cities/london/events_1949.json","lifecycle_status":"uncertain","status":"source_record","cell_size_m":95,"intensity":0.289,"label":"Listed building outline: THE LIMES"},"geometry":{"type":"Polygon","coordinates":[[[-0.1768891,51.6316675],[-0.1755179,51.6316675],[-0.1755179,51.6325266],[-0.1768891,51.6325266],[-0.1768891,51.6316675]]]}},{"type":"Feature","properties":{"id":"lens-detail-london-1949-planning_cell-4","layer":"planning_cell","category":"built_environment","year":1949,"visible_year":1949,"title":"1 source-backed planning and built record","confidence":"documented","confidence_mix":"documented:1","event_count":1,"source_count":1,"source_ids":"lon-extra-planning-data-listed-building-outlines","event_ids":"lon_planning_designation_listed-building-outline_42114980","event_ids_all":"lon_planning_designation_listed-building-outline_42114980","source_urls":"https://www.planning.data.gov.uk/entity/42114980","geometry_precision_mix":"Row-level point from the adapter; source geocoding precision varies and may be approximate.:1","representation":"planning and built evidence grid cell","timing_note":"Filtered by event effective year. OSM mapped-visibility dates and administrative dates can differ from real-world physical change dates.","caveat":"Planning cells are derived from source-backed event locations; they are not parcel boundaries unless source geometry is separately present.","generated_from":"web/data/city-atlas/cities/london/events_1949.json","lifecycle_status":"uncertain","status":"source_record","cell_size_m":95,"intensity":0.289,"label":"Listed building outline: No given name"},"geometry":{"type":"Polygon","coordinates":[[[-0.0891302,51.5045128],[-0.0877589,51.5045128],[-0.0877589,51.505372],[-0.0891302,51.505372],[-0.0891302,51.5045128]]]}},{"type":"Feature","properties":{"id":"lens-detail-london-1949-planning_cell-43","layer":"planning_cell","category":"built_environment","year":1949,"visible_year":1949,"title":"1 source-backed planning and built record","confidence":"documented","confidence_mix":"documented:1","event_count":1,"source_count":1,"source_ids":"lon-extra-planning-data-listed-building-outlines","event_ids":"lon_planning_designation_listed-building-outline_42149218","event_ids_all":"lon_planning_designation_listed-building-outline_42149218","source_urls":"https://www.planning.data.gov.uk/entity/42149218","geometry_precision_mix":"Row-level point from the adapter; source geocoding precision varies and may be approximate.:1","representation":"planning and built evidence grid cell","timing_note":"Filtered by event effective year. OSM mapped-visibility dates and administrative dates can differ from real-world physical change dates.","caveat":"Planning cells are derived from source-backed event locations; they are not parcel boundaries unless source geometry is separately present.","generated_from":"web/data/city-atlas/cities/london/events_1949.json","lifecycle_status":"uncertain","status":"source_record","cell_size_m":95,"intensity":0.289,"label":"Listed building outline: CHURCH OF ST JOHN THE BAPTIST"},"geometry":{"type":"Polygon","coordinates":[[[-0.2152836,51.5027945],[-0.2139124,51.5027945],[-0.2139124,51.5036537],[-0.2152836,51.5036537],[-0.2152836,51.5027945]]]}},{"type":"Feature","properties":{"id":"lens-detail-london-1949-planning_cell-5","layer":"planning_cell","category":"built_environment","year":1949,"visible_year":1949,"title":"1 source-backed planning and built record","confidence":"documented","confidence_mix":"documented:1","event_count":1,"source_count":1,"source_ids":"lon-extra-planning-data-listed-building-outlines","event_ids":"lon_planning_designation_listed-building-outline_42115182","event_ids_all":"lon_planning_designation_listed-building-outline_42115182","source_urls":"https://www.planning.data.gov.uk/entity/42115182","geometry_precision_mix":"Row-level point from the adapter; source geocoding precision varies and may be approximate.:1","representation":"planning and built evidence grid cell","timing_note":"Filtered by event effective year. OSM mapped-visibility dates and administrative dates can differ from real-world physical change dates.","caveat":"Planning cells are derived from source-backed event locations; they are not parcel boundaries unless source geometry is separately present.","generated_from":"web/data/city-atlas/cities/london/events_1949.json","lifecycle_status":"uncertain","status":"source_record","cell_size_m":95,"intensity":0.289,"label":"Listed building outline: St Olav’s Kirke"},"geometry":{"type":"Polygon","coordinates":[[[-0.0548493,51.4993579],[-0.0534781,51.4993579],[-0.0534781,51.500217],[-0.0548493,51.500217],[-0.0548493,51.4993579]]]}},{"type":"Feature","properties":{"id":"lens-detail-london-1949-planning_cell-6","layer":"planning_cell","category":"built_environment","year":1949,"visible_year":1949,"title":"1 source-backed planning and built record","confidence":"documented","confidence_mix":"documented:1","event_count":1,"source_count":1,"source_ids":"lon-extra-planning-data-listed-building-outlines","event_ids":"lon_planning_designation_listed-building-outline_42115324","event_ids_all":"lon_planning_designation_listed-building-outline_42115324","source_urls":"https://www.planning.data.gov.uk/entity/42115324","geometry_precision_mix":"Row-level point from the adapter; source geocoding precision varies and may be approximate.:1","representation":"planning and built evidence grid cell","timing_note":"Filtered by event effective year. OSM mapped-visibility dates and administrative dates can differ from real-world physical change dates.","caveat":"Planning cells are derived from source-backed event locations; they are not parcel boundaries unless source geometry is separately present.","generated_from":"web/data/city-atlas/cities/london/events_1949.json","lifecycle_status":"uncertain","status":"source_record","cell_size_m":95,"intensity":0.289,"label":"Listed building outline: No given name"},"geometry":{"type":"Polygon","coordinates":[[[-0.0548493,51.500217],[-0.0534781,51.500217],[-0.0534781,51.5010762],[-0.0548493,51.5010762],[-0.0548493,51.500217]]]}},{"type":"Feature","properties":{"id":"lens-detail-london-1949-planning_cell-7","layer":"planning_cell","category":"built_environment","year":1949,"visible_year":1949,"title":"1 source-backed planning and built record","confidence":"documented","confidence_mix":"documented:1","event_count":1,"source_count":1,"source_ids":"lon-extra-planning-data-listed-building-outlines","event_ids":"lon_planning_designation_listed-building-outline_42120553","event_ids_all":"lon_planning_designation_listed-building-outline_42120553","source_urls":"https://www.planning.data.gov.uk/entity/42120553","geometry_precision_mix":"Row-level point from the adapter; source geocoding precision varies and may be approximate.:1","representation":"planning and built evidence grid cell","timing_note":"Filtered by event effective year. OSM mapped-visibility dates and administrative dates can differ from real-world physical change dates.","caveat":"Planning cells are derived from source-backed event locations; they are not parcel boundaries unless source geometry is separately present.","generated_from":"web/data/city-atlas/cities/london/events_1949.json","lifecycle_status":"uncertain","status":"source_record","cell_size_m":95,"intensity":0.289,"label":"Listed building outline: LAWRENCE CAMPE ALMSHOUSES"},"geometry":{"type":"Polygon","coordinates":[[[-0.1700329,51.6247943],[-0.1686617,51.6247943],[-0.1686617,51.6256534],[-0.1700329,51.6256534],[-0.1700329,51.6247943]]]}},{"type":"Feature","properties":{"id":"lens-detail-london-1949-planning_cell-8","layer":"planning_cell","category":"built_environment","year":1949,"visible_year":1949,"title":"1 source-backed planning and built record","confidence":"documented","confidence_mix":"documented:1","event_count":1,"source_count":1,"source_ids":"lon-extra-planning-data-listed-building-outlines","event_ids":"lon_planning_designation_listed-building-outline_42120554","event_ids_all":"lon_planning_designation_listed-building-outline_42120554","source_urls":"https://www.planning.data.gov.uk/entity/42120554","geometry_precision_mix":"Row-level point from the adapter; source geocoding precision varies and may be approximate.:1","representation":"planning and built evidence grid cell","timing_note":"Filtered by event effective year. OSM mapped-visibility dates and administrative dates can differ from real-world physical change dates.","caveat":"Planning cells are derived from source-backed event locations; they are not parcel boundaries unless source geometry is separately present.","generated_from":"web/data/city-atlas/cities/london/events_1949.json","lifecycle_status":"uncertain","status":"source_record","cell_size_m":95,"intensity":0.289,"label":"Listed building outline: PARISH CHURCH OF ST JAMES"},"geometry":{"type":"Polygon","coordinates":[[[-0.164548,51.6204985],[-0.1631768,51.6204985],[-0.1631768,51.6213576],[-0.164548,51.6213576],[-0.164548,51.6204985]]]}},{"type":"Feature","properties":{"id":"lens-detail-london-1949-planning_cell-9","layer":"planning_cell","category":"built_environment","year":1949,"visible_year":1949,"title":"1 source-backed planning and built record","confidence":"documented","confidence_mix":"documented:1","event_count":1,"source_count":1,"source_ids":"lon-extra-planning-data-listed-building-outlines","event_ids":"lon_planning_designation_listed-building-outline_42120555","event_ids_all":"lon_planning_designation_listed-building-outline_42120555","source_urls":"https://www.planning.data.gov.uk/entity/42120555","geometry_precision_mix":"Row-level point from the adapter; source geocoding precision varies and may be approximate.:1","representation":"planning and built evidence grid cell","timing_note":"Filtered by event effective year. OSM mapped-visibility dates and administrative dates can differ from real-world physical change dates.","caveat":"Planning cells are derived from source-backed event locations; they are not parcel boundaries unless source geometry is separately present.","generated_from":"web/data/city-atlas/cities/london/events_1949.json","lifecycle_status":"uncertain","status":"source_record","cell_size_m":95,"intensity":0.289,"label":"Listed building outline: CHURCH OF ST JOHN THE EVANGELIST"},"geometry":{"type":"Polygon","coordinates":[[[-0.1549494,51.6127661],[-0.1535781,51.6127661],[-0.1535781,51.6136253],[-0.1549494,51.6136253],[-0.1549494,51.6127661]]]}}]}
