{"type":"FeatureCollection","name":"london_lens_detail_1971","metadata":{"schema_version":"1.0.0","city_id":"london","year":1971,"generated_at":"2026-06-02T07:41:37.138Z","source_paths":["web/data/city-atlas/cities/london/events_1971.json","web/data/city-atlas/cities/london/events.json","web/data/city-atlas/cities/london/transport_roads_base.geojson"],"method":"Derived OpenCityLog lens geometry built from source-backed event points plus existing OSM road/detail geometry. Grid cells aggregate events by effective year. Trace lines reuse nearest mapped road geometry for context.","caveats":["Derived cells are evidence grids, not surveyed parcels, catchments, zones, or administrative boundaries.","Trace lines are nearest mapped street or work-location context, not surveyed utility networks, measured traffic speed, spend, vacancy, or service quality. No capacity data is inferred.","When a lens/year has no same-category source-backed records, no coverage geometry is generated; sparse data remains sparse.","Borough, citywide, statistical, corridor, and multi-site records are excluded from site-like lens geometry; they remain available in the event list and evidence records.","OSM mapped-visibility dates and administrative decision dates can differ from real-world physical change dates."],"feature_layers":{"planning_cell":58},"excluded_non_site_record_count":0,"excluded_non_site_reasons":{}},"features":[{"type":"Feature","properties":{"id":"lens-detail-london-1971-planning_cell-41","layer":"planning_cell","category":"built_environment","year":1971,"visible_year":1971,"title":"9 source-backed planning and built records","confidence":"documented","confidence_mix":"documented:9","event_count":9,"source_count":1,"source_ids":"lon-extra-planning-data-listed-building-outlines","event_ids":"lon_planning_designation_listed-building-outline_42148673,lon_planning_designation_listed-building-outline_42149260,lon_planning_designation_listed-building-outline_42149474,lon_planning_designation_listed-building-outline_42149475,lon_planning_designation_listed-building-outline_42149476,lon_planning_designation_listed-building-outline_42182348,lon_planning_designation_listed-building-outline_42183124,lon_planning_designation_listed-building-outline_42183125,lon_planning_designation_listed-building-outline_42183126","event_ids_all":"lon_planning_designation_listed-building-outline_42148673,lon_planning_designation_listed-building-outline_42149260,lon_planning_designation_listed-building-outline_42149474,lon_planning_designation_listed-building-outline_42149475,lon_planning_designation_listed-building-outline_42149476,lon_planning_designation_listed-building-outline_42182348,lon_planning_designation_listed-building-outline_42183124,lon_planning_designation_listed-building-outline_42183125,lon_planning_designation_listed-building-outline_42183126","source_urls":"https://www.planning.data.gov.uk/entity/42148673,https://www.planning.data.gov.uk/entity/42149260,https://www.planning.data.gov.uk/entity/42149474,https://www.planning.data.gov.uk/entity/42149475","geometry_precision_mix":"Row-level point from the adapter; source geocoding precision varies and may be approximate.:9","representation":"planning and built evidence grid cell","timing_note":"Filtered by event effective year. OSM mapped-visibility dates and administrative dates can differ from real-world physical change dates.","caveat":"Planning cells are derived from source-backed event locations; they are not parcel boundaries unless source geometry is separately present.","generated_from":"web/data/city-atlas/cities/london/events_1971.json","lifecycle_status":"uncertain","status":"source_record","cell_size_m":95,"intensity":0.959,"label":"Listed building outline: 19-26 COULSON STREET — Kensington and Chelsea"},"geometry":{"type":"Polygon","coordinates":[[[-0.163161,51.4907664],[-0.1617899,51.4907664],[-0.1617899,51.4916255],[-0.163161,51.4916255],[-0.163161,51.4907664]]]}},{"type":"Feature","properties":{"id":"lens-detail-london-1971-planning_cell-39","layer":"planning_cell","category":"built_environment","year":1971,"visible_year":1971,"title":"8 source-backed planning and built records","confidence":"documented","confidence_mix":"documented:8","event_count":8,"source_count":1,"source_ids":"lon-extra-planning-data-listed-building-outlines","event_ids":"lon_planning_designation_listed-building-outline_42148669,lon_planning_designation_listed-building-outline_42148670,lon_planning_designation_listed-building-outline_42149262,lon_planning_designation_listed-building-outline_42149477,lon_planning_designation_listed-building-outline_42182344,lon_planning_designation_listed-building-outline_42182345,lon_planning_designation_listed-building-outline_42182915,lon_planning_designation_listed-building-outline_42183127","event_ids_all":"lon_planning_designation_listed-building-outline_42148669,lon_planning_designation_listed-building-outline_42148670,lon_planning_designation_listed-building-outline_42149262,lon_planning_designation_listed-building-outline_42149477,lon_planning_designation_listed-building-outline_42182344,lon_planning_designation_listed-building-outline_42182345,lon_planning_designation_listed-building-outline_42182915,lon_planning_designation_listed-building-outline_42183127","source_urls":"https://www.planning.data.gov.uk/entity/42148669,https://www.planning.data.gov.uk/entity/42148670,https://www.planning.data.gov.uk/entity/42149262,https://www.planning.data.gov.uk/entity/42149477","geometry_precision_mix":"Row-level point from the adapter; source geocoding precision varies and may be approximate.:8","representation":"planning and built evidence grid cell","timing_note":"Filtered by event effective year. OSM mapped-visibility dates and administrative dates can differ from real-world physical change dates.","caveat":"Planning cells are derived from source-backed event locations; they are not parcel boundaries unless source geometry is separately present.","generated_from":"web/data/city-atlas/cities/london/events_1971.json","lifecycle_status":"uncertain","status":"source_record","cell_size_m":95,"intensity":0.916,"label":"Listed building outline: 14-17 LINCOLN STREET — Kensington and Chelsea"},"geometry":{"type":"Polygon","coordinates":[[[-0.1617899,51.4907664],[-0.1604188,51.4907664],[-0.1604188,51.4916255],[-0.1617899,51.4916255],[-0.1617899,51.4907664]]]}},{"type":"Feature","properties":{"id":"lens-detail-london-1971-planning_cell-40","layer":"planning_cell","category":"built_environment","year":1971,"visible_year":1971,"title":"6 source-backed planning and built records","confidence":"documented","confidence_mix":"documented:6","event_count":6,"source_count":1,"source_ids":"lon-extra-planning-data-listed-building-outlines","event_ids":"lon_planning_designation_listed-building-outline_42148671,lon_planning_designation_listed-building-outline_42149478,lon_planning_designation_listed-building-outline_42149479,lon_planning_designation_listed-building-outline_42182346,lon_planning_designation_listed-building-outline_42183128,lon_planning_designation_listed-building-outline_42183129","event_ids_all":"lon_planning_designation_listed-building-outline_42148671,lon_planning_designation_listed-building-outline_42149478,lon_planning_designation_listed-building-outline_42149479,lon_planning_designation_listed-building-outline_42182346,lon_planning_designation_listed-building-outline_42183128,lon_planning_designation_listed-building-outline_42183129","source_urls":"https://www.planning.data.gov.uk/entity/42148671,https://www.planning.data.gov.uk/entity/42149478,https://www.planning.data.gov.uk/entity/42149479,https://www.planning.data.gov.uk/entity/42182346","geometry_precision_mix":"Row-level point from the adapter; source geocoding precision varies and may be approximate.:6","representation":"planning and built evidence grid cell","timing_note":"Filtered by event effective year. OSM mapped-visibility dates and administrative dates can differ from real-world physical change dates.","caveat":"Planning cells are derived from source-backed event locations; they are not parcel boundaries unless source geometry is separately present.","generated_from":"web/data/city-atlas/cities/london/events_1971.json","lifecycle_status":"uncertain","status":"source_record","cell_size_m":95,"intensity":0.811,"label":"Listed building outline: 16 AND 17 ANDERSON STREET — Kensington and Chelsea"},"geometry":{"type":"Polygon","coordinates":[[[-0.163161,51.4899072],[-0.1617899,51.4899072],[-0.1617899,51.4907664],[-0.163161,51.4907664],[-0.163161,51.4899072]]]}},{"type":"Feature","properties":{"id":"lens-detail-london-1971-planning_cell-45","layer":"planning_cell","category":"built_environment","year":1971,"visible_year":1971,"title":"6 source-backed planning and built records","confidence":"documented","confidence_mix":"documented:6","event_count":6,"source_count":1,"source_ids":"lon-extra-planning-data-listed-building-outlines","event_ids":"lon_planning_designation_listed-building-outline_42165935,lon_planning_designation_listed-building-outline_42165937,lon_planning_designation_listed-building-outline_42165938,lon_planning_designation_listed-building-outline_42165943,lon_planning_designation_listed-building-outline_42165944,lon_planning_designation_listed-building-outline_42166827","event_ids_all":"lon_planning_designation_listed-building-outline_42165935,lon_planning_designation_listed-building-outline_42165937,lon_planning_designation_listed-building-outline_42165938,lon_planning_designation_listed-building-outline_42165943,lon_planning_designation_listed-building-outline_42165944,lon_planning_designation_listed-building-outline_42166827","source_urls":"https://www.planning.data.gov.uk/entity/42165935,https://www.planning.data.gov.uk/entity/42165937,https://www.planning.data.gov.uk/entity/42165938,https://www.planning.data.gov.uk/entity/42165943","geometry_precision_mix":"Row-level point from the adapter; source geocoding precision varies and may be approximate.:6","representation":"planning and built evidence grid cell","timing_note":"Filtered by event effective year. OSM mapped-visibility dates and administrative dates can differ from real-world physical change dates.","caveat":"Planning cells are derived from source-backed event locations; they are not parcel boundaries unless source geometry is separately present.","generated_from":"web/data/city-atlas/cities/london/events_1971.json","lifecycle_status":"uncertain","status":"source_record","cell_size_m":95,"intensity":0.811,"label":"Listed building outline: 8A Montpelier Square London SW7 1JU"},"geometry":{"type":"Polygon","coordinates":[[[-0.1672743,51.4993579],[-0.1659032,51.4993579],[-0.1659032,51.500217],[-0.1672743,51.500217],[-0.1672743,51.4993579]]]}},{"type":"Feature","properties":{"id":"lens-detail-london-1971-planning_cell-49","layer":"planning_cell","category":"built_environment","year":1971,"visible_year":1971,"title":"3 source-backed planning and built records","confidence":"documented","confidence_mix":"documented:3","event_count":3,"source_count":1,"source_ids":"lon-extra-planning-data-listed-building-outlines","event_ids":"lon_planning_designation_listed-building-outline_42165941,lon_planning_designation_listed-building-outline_42165942,lon_planning_designation_listed-building-outline_42166157","event_ids_all":"lon_planning_designation_listed-building-outline_42165941,lon_planning_designation_listed-building-outline_42165942,lon_planning_designation_listed-building-outline_42166157","source_urls":"https://www.planning.data.gov.uk/entity/42165941,https://www.planning.data.gov.uk/entity/42165942,https://www.planning.data.gov.uk/entity/42166157","geometry_precision_mix":"Row-level point from the adapter; source geocoding precision varies and may be approximate.:3","representation":"planning and built evidence grid cell","timing_note":"Filtered by event effective year. OSM mapped-visibility dates and administrative dates can differ from real-world physical change dates.","caveat":"Planning cells are derived from source-backed event locations; they are not parcel boundaries unless source geometry is separately present.","generated_from":"web/data/city-atlas/cities/london/events_1971.json","lifecycle_status":"uncertain","status":"source_record","cell_size_m":95,"intensity":0.578,"label":"Listed building outline: 20B Montpelier Street London SW7 1HD"},"geometry":{"type":"Polygon","coordinates":[[[-0.1659032,51.4993579],[-0.1645321,51.4993579],[-0.1645321,51.500217],[-0.1659032,51.500217],[-0.1659032,51.4993579]]]}},{"type":"Feature","properties":{"id":"lens-detail-london-1971-planning_cell-42","layer":"planning_cell","category":"built_environment","year":1971,"visible_year":1971,"title":"2 source-backed planning and built records","confidence":"documented","confidence_mix":"documented:2","event_count":2,"source_count":1,"source_ids":"lon-extra-planning-data-listed-building-outlines","event_ids":"lon_planning_designation_listed-building-outline_42158662,lon_planning_designation_listed-building-outline_42172707","event_ids_all":"lon_planning_designation_listed-building-outline_42158662,lon_planning_designation_listed-building-outline_42172707","source_urls":"https://www.planning.data.gov.uk/entity/42158662,https://www.planning.data.gov.uk/entity/42172707","geometry_precision_mix":"Row-level point from the adapter; source geocoding precision varies and may be approximate.:2","representation":"planning and built evidence grid cell","timing_note":"Filtered by event effective year. OSM mapped-visibility dates and administrative dates can differ from real-world physical change dates.","caveat":"Planning cells are derived from source-backed event locations; they are not parcel boundaries unless source geometry is separately present.","generated_from":"web/data/city-atlas/cities/london/events_1971.json","lifecycle_status":"uncertain","status":"source_record","cell_size_m":95,"intensity":0.458,"label":"Listed building outline: BAKERS ALMSHOUSES"},"geometry":{"type":"Polygon","coordinates":[[[-0.0150821,51.5741042],[-0.013711,51.5741042],[-0.013711,51.5749634],[-0.0150821,51.5749634],[-0.0150821,51.5741042]]]}},{"type":"Feature","properties":{"id":"lens-detail-london-1971-planning_cell-44","layer":"planning_cell","category":"built_environment","year":1971,"visible_year":1971,"title":"2 source-backed planning and built records","confidence":"documented","confidence_mix":"documented:2","event_count":2,"source_count":1,"source_ids":"lon-extra-planning-data-listed-building-outlines","event_ids":"lon_planning_designation_listed-building-outline_42165452,lon_planning_designation_listed-building-outline_42167661","event_ids_all":"lon_planning_designation_listed-building-outline_42165452,lon_planning_designation_listed-building-outline_42167661","source_urls":"https://www.planning.data.gov.uk/entity/42165452,https://www.planning.data.gov.uk/entity/42167661","geometry_precision_mix":"Row-level point from the adapter; source geocoding precision varies and may be approximate.:2","representation":"planning and built evidence grid cell","timing_note":"Filtered by event effective year. OSM mapped-visibility dates and administrative dates can differ from real-world physical change dates.","caveat":"Planning cells are derived from source-backed event locations; they are not parcel boundaries unless source geometry is separately present.","generated_from":"web/data/city-atlas/cities/london/events_1971.json","lifecycle_status":"uncertain","status":"source_record","cell_size_m":95,"intensity":0.458,"label":"Listed building outline: Aldwych Theatre 43 Aldwych London WC2B 4DA"},"geometry":{"type":"Polygon","coordinates":[[[-0.1192858,51.5122452],[-0.1179147,51.5122452],[-0.1179147,51.5131043],[-0.1192858,51.5131043],[-0.1192858,51.5122452]]]}},{"type":"Feature","properties":{"id":"lens-detail-london-1971-planning_cell-48","layer":"planning_cell","category":"built_environment","year":1971,"visible_year":1971,"title":"2 source-backed planning and built records","confidence":"documented","confidence_mix":"documented:2","event_count":2,"source_count":1,"source_ids":"lon-extra-planning-data-listed-building-outlines","event_ids":"lon_planning_designation_listed-building-outline_42165940,lon_planning_designation_listed-building-outline_42166158","event_ids_all":"lon_planning_designation_listed-building-outline_42165940,lon_planning_designation_listed-building-outline_42166158","source_urls":"https://www.planning.data.gov.uk/entity/42165940,https://www.planning.data.gov.uk/entity/42166158","geometry_precision_mix":"Row-level point from the adapter; source geocoding precision varies and may be approximate.:2","representation":"planning and built evidence grid cell","timing_note":"Filtered by event effective year. OSM mapped-visibility dates and administrative dates can differ from real-world physical change dates.","caveat":"Planning cells are derived from source-backed event locations; they are not parcel boundaries unless source geometry is separately present.","generated_from":"web/data/city-atlas/cities/london/events_1971.json","lifecycle_status":"uncertain","status":"source_record","cell_size_m":95,"intensity":0.458,"label":"Listed building outline: 38 Montpelier Square London SW7 1JY"},"geometry":{"type":"Polygon","coordinates":[[[-0.1672743,51.500217],[-0.1659032,51.500217],[-0.1659032,51.5010762],[-0.1672743,51.5010762],[-0.1672743,51.500217]]]}},{"type":"Feature","properties":{"id":"lens-detail-london-1971-planning_cell-50","layer":"planning_cell","category":"built_environment","year":1971,"visible_year":1971,"title":"2 source-backed planning and built records","confidence":"documented","confidence_mix":"documented:2","event_count":2,"source_count":1,"source_ids":"lon-extra-planning-data-listed-building-outlines","event_ids":"lon_planning_designation_listed-building-outline_42166508,lon_planning_designation_listed-building-outline_42167407","event_ids_all":"lon_planning_designation_listed-building-outline_42166508,lon_planning_designation_listed-building-outline_42167407","source_urls":"https://www.planning.data.gov.uk/entity/42166508,https://www.planning.data.gov.uk/entity/42167407","geometry_precision_mix":"Row-level point from the adapter; source geocoding precision varies and may be approximate.:2","representation":"planning and built evidence grid cell","timing_note":"Filtered by event effective year. OSM mapped-visibility dates and administrative dates can differ from real-world physical change dates.","caveat":"Planning cells are derived from source-backed event locations; they are not parcel boundaries unless source geometry is separately present.","generated_from":"web/data/city-atlas/cities/london/events_1971.json","lifecycle_status":"uncertain","status":"source_record","cell_size_m":95,"intensity":0.458,"label":"Listed building outline: 50 Old Bond Street London W1S 4QP"},"geometry":{"type":"Polygon","coordinates":[[[-0.1412234,51.5079494],[-0.1398523,51.5079494],[-0.1398523,51.5088086],[-0.1412234,51.5088086],[-0.1412234,51.5079494]]]}},{"type":"Feature","properties":{"id":"lens-detail-london-1971-planning_cell-0","layer":"planning_cell","category":"built_environment","year":1971,"visible_year":1971,"title":"1 source-backed planning and built record","confidence":"documented","confidence_mix":"documented:1","event_count":1,"source_count":1,"source_ids":"lon-extra-planning-data-conservation-areas","event_ids":"lon_planning_designation_conservation-area_44002386","event_ids_all":"lon_planning_designation_conservation-area_44002386","source_urls":"https://www.planning.data.gov.uk/entity/44002386","geometry_precision_mix":"Row-level point from the adapter; source geocoding precision varies and may be approximate.:1","representation":"planning and built evidence grid cell","timing_note":"Filtered by event effective year. OSM mapped-visibility dates and administrative dates can differ from real-world physical change dates.","caveat":"Planning cells are derived from source-backed event locations; they are not parcel boundaries unless source geometry is separately present.","generated_from":"web/data/city-atlas/cities/london/events_1971.json","lifecycle_status":"uncertain","status":"source_record","cell_size_m":95,"intensity":0.289,"label":"Conservation area record: Old Malden"},"geometry":{"type":"Polygon","coordinates":[[[-0.2605092,51.3807948],[-0.2591381,51.3807948],[-0.2591381,51.3816539],[-0.2605092,51.3816539],[-0.2605092,51.3807948]]]}},{"type":"Feature","properties":{"id":"lens-detail-london-1971-planning_cell-1","layer":"planning_cell","category":"built_environment","year":1971,"visible_year":1971,"title":"1 source-backed planning and built record","confidence":"documented","confidence_mix":"documented:1","event_count":1,"source_count":1,"source_ids":"lon-extra-planning-data-conservation-areas","event_ids":"lon_planning_designation_conservation-area_44002398","event_ids_all":"lon_planning_designation_conservation-area_44002398","source_urls":"https://www.planning.data.gov.uk/entity/44002398","geometry_precision_mix":"Row-level point from the adapter; source geocoding precision varies and may be approximate.:1","representation":"planning and built evidence grid cell","timing_note":"Filtered by event effective year. OSM mapped-visibility dates and administrative dates can differ from real-world physical change dates.","caveat":"Planning cells are derived from source-backed event locations; they are not parcel boundaries unless source geometry is separately present.","generated_from":"web/data/city-atlas/cities/london/events_1971.json","lifecycle_status":"uncertain","status":"source_record","cell_size_m":95,"intensity":0.289,"label":"Conservation area record: Kingston Old Town"},"geometry":{"type":"Polygon","coordinates":[[[-0.3084977,51.4082877],[-0.3071266,51.4082877],[-0.3071266,51.4091468],[-0.3084977,51.4091468],[-0.3084977,51.4082877]]]}},{"type":"Feature","properties":{"id":"lens-detail-london-1971-planning_cell-10","layer":"planning_cell","category":"built_environment","year":1971,"visible_year":1971,"title":"1 source-backed planning and built record","confidence":"documented","confidence_mix":"documented:1","event_count":1,"source_count":1,"source_ids":"lon-extra-planning-data-conservation-areas","event_ids":"lon_planning_designation_conservation-area_44009645","event_ids_all":"lon_planning_designation_conservation-area_44009645","source_urls":"https://www.camden.gov.uk/seven-dials-conservation-area-appraisal-and-management-strategy","geometry_precision_mix":"Row-level point from the adapter; source geocoding precision varies and may be approximate.:1","representation":"planning and built evidence grid cell","timing_note":"Filtered by event effective year. OSM mapped-visibility dates and administrative dates can differ from real-world physical change dates.","caveat":"Planning cells are derived from source-backed event locations; they are not parcel boundaries unless source geometry is separately present.","generated_from":"web/data/city-atlas/cities/london/events_1971.json","lifecycle_status":"uncertain","status":"source_record","cell_size_m":95,"intensity":0.289,"label":"Conservation area record: Seven Dials (Covent Garden)"},"geometry":{"type":"Polygon","coordinates":[[[-0.1247702,51.5148227],[-0.1233991,51.5148227],[-0.1233991,51.5156818],[-0.1247702,51.5156818],[-0.1247702,51.5148227]]]}},{"type":"Feature","properties":{"id":"lens-detail-london-1971-planning_cell-11","layer":"planning_cell","category":"built_environment","year":1971,"visible_year":1971,"title":"1 source-backed planning and built record","confidence":"documented","confidence_mix":"documented:1","event_count":1,"source_count":1,"source_ids":"lon-extra-planning-data-conservation-areas","event_ids":"lon_planning_designation_conservation-area_44010217","event_ids_all":"lon_planning_designation_conservation-area_44010217","source_urls":"https://www.southwark.gov.uk/planning-and-building-control/design-and-conservation/conservation-areas?chapter=2","geometry_precision_mix":"Row-level point from the adapter; source geocoding precision varies and may be approximate.:1","representation":"planning and built evidence grid cell","timing_note":"Filtered by event effective year. OSM mapped-visibility dates and administrative dates can differ from real-world physical change dates.","caveat":"Planning cells are derived from source-backed event locations; they are not parcel boundaries unless source geometry is separately present.","generated_from":"web/data/city-atlas/cities/london/events_1971.json","lifecycle_status":"uncertain","status":"source_record","cell_size_m":95,"intensity":0.289,"label":"Conservation area record: Addington Square"},"geometry":{"type":"Polygon","coordinates":[[[-0.0932349,51.4804565],[-0.0918638,51.4804565],[-0.0918638,51.4813157],[-0.0932349,51.4813157],[-0.0932349,51.4804565]]]}},{"type":"Feature","properties":{"id":"lens-detail-london-1971-planning_cell-12","layer":"planning_cell","category":"built_environment","year":1971,"visible_year":1971,"title":"1 source-backed planning and built record","confidence":"documented","confidence_mix":"documented:1","event_count":1,"source_count":1,"source_ids":"lon-extra-planning-data-conservation-areas","event_ids":"lon_planning_designation_conservation-area_44010229","event_ids_all":"lon_planning_designation_conservation-area_44010229","source_urls":"http://www.southwark.gov.uk/planning-and-building-control/design-and-conservation/conservation-areas?chapter=52","geometry_precision_mix":"Row-level point from the adapter; source geocoding precision varies and may be approximate.:1","representation":"planning and built evidence grid cell","timing_note":"Filtered by event effective year. OSM mapped-visibility dates and administrative dates can differ from real-world physical change dates.","caveat":"Planning cells are derived from source-backed event locations; they are not parcel boundaries unless source geometry is separately present.","generated_from":"web/data/city-atlas/cities/london/events_1971.json","lifecycle_status":"uncertain","status":"source_record","cell_size_m":95,"intensity":0.289,"label":"Conservation area record: West Square"},"geometry":{"type":"Polygon","coordinates":[[[-0.108317,51.4959213],[-0.1069459,51.4959213],[-0.1069459,51.4967804],[-0.108317,51.4967804],[-0.108317,51.4959213]]]}},{"type":"Feature","properties":{"id":"lens-detail-london-1971-planning_cell-13","layer":"planning_cell","category":"built_environment","year":1971,"visible_year":1971,"title":"1 source-backed planning and built record","confidence":"documented","confidence_mix":"documented:1","event_count":1,"source_count":1,"source_ids":"lon-extra-planning-data-conservation-areas","event_ids":"lon_planning_designation_conservation-area_44010257","event_ids_all":"lon_planning_designation_conservation-area_44010257","source_urls":"http://www.southwark.gov.uk/planning-and-building-control/design-and-conservation/conservation-areas?chapter=17","geometry_precision_mix":"Row-level point from the adapter; source geocoding precision varies and may be approximate.:1","representation":"planning and built evidence grid cell","timing_note":"Filtered by event effective year. OSM mapped-visibility dates and administrative dates can differ from real-world physical change dates.","caveat":"Planning cells are derived from source-backed event locations; they are not parcel boundaries unless source geometry is separately present.","generated_from":"web/data/city-atlas/cities/london/events_1971.json","lifecycle_status":"uncertain","status":"source_record","cell_size_m":95,"intensity":0.289,"label":"Conservation area record: Holly Grove"},"geometry":{"type":"Polygon","coordinates":[[[-0.0740395,51.4692875],[-0.0726684,51.4692875],[-0.0726684,51.4701467],[-0.0740395,51.4701467],[-0.0740395,51.4692875]]]}},{"type":"Feature","properties":{"id":"lens-detail-london-1971-planning_cell-14","layer":"planning_cell","category":"built_environment","year":1971,"visible_year":1971,"title":"1 source-backed planning and built record","confidence":"documented","confidence_mix":"documented:1","event_count":1,"source_count":1,"source_ids":"lon-extra-planning-data-conservation-areas","event_ids":"lon_planning_designation_conservation-area_44012763","event_ids_all":"lon_planning_designation_conservation-area_44012763","source_urls":"https://www.rbkc.gov.uk/planning-and-building-control/heritage-and-conservation/conservation-areas-0/conservation-area-appraisals-and-proposal-statements","geometry_precision_mix":"Row-level point from the adapter; source geocoding precision varies and may be approximate.:1","representation":"planning and built evidence grid cell","timing_note":"Filtered by event effective year. OSM mapped-visibility dates and administrative dates can differ from real-world physical change dates.","caveat":"Planning cells are derived from source-backed event locations; they are not parcel boundaries unless source geometry is separately present.","generated_from":"web/data/city-atlas/cities/london/events_1971.json","lifecycle_status":"uncertain","status":"source_record","cell_size_m":95,"intensity":0.289,"label":"Conservation area record: Holland Park"},"geometry":{"type":"Polygon","coordinates":[[[-0.2070363,51.5019354],[-0.2056652,51.5019354],[-0.2056652,51.5027945],[-0.2070363,51.5027945],[-0.2070363,51.5019354]]]}},{"type":"Feature","properties":{"id":"lens-detail-london-1971-planning_cell-15","layer":"planning_cell","category":"built_environment","year":1971,"visible_year":1971,"title":"1 source-backed planning and built record","confidence":"documented","confidence_mix":"documented:1","event_count":1,"source_count":1,"source_ids":"lon-extra-planning-data-conservation-areas","event_ids":"lon_planning_designation_conservation-area_44012765","event_ids_all":"lon_planning_designation_conservation-area_44012765","source_urls":"https://www.rbkc.gov.uk/planning-and-building-control/heritage-and-conservation/conservation-areas-0/conservation-area-appraisals-and-proposal-statements","geometry_precision_mix":"Row-level point from the adapter; source geocoding precision varies and may be approximate.:1","representation":"planning and built evidence grid cell","timing_note":"Filtered by event effective year. OSM mapped-visibility dates and administrative dates can differ from real-world physical change dates.","caveat":"Planning cells are derived from source-backed event locations; they are not parcel boundaries unless source geometry is separately present.","generated_from":"web/data/city-atlas/cities/london/events_1971.json","lifecycle_status":"uncertain","status":"source_record","cell_size_m":95,"intensity":0.289,"label":"Conservation area record: Kensington Palace"},"geometry":{"type":"Polygon","coordinates":[[[-0.190583,51.505372],[-0.1892119,51.505372],[-0.1892119,51.5062311],[-0.190583,51.5062311],[-0.190583,51.505372]]]}},{"type":"Feature","properties":{"id":"lens-detail-london-1971-planning_cell-16","layer":"planning_cell","category":"built_environment","year":1971,"visible_year":1971,"title":"1 source-backed planning and built record","confidence":"documented","confidence_mix":"documented:1","event_count":1,"source_count":1,"source_ids":"lon-extra-planning-data-conservation-areas","event_ids":"lon_planning_designation_conservation-area_44012773","event_ids_all":"lon_planning_designation_conservation-area_44012773","source_urls":"https://www.rbkc.gov.uk/planning-and-building-control/heritage-and-conservation/conservation-areas-0/conservation-area-appraisals-and-proposal-statements","geometry_precision_mix":"Row-level point from the adapter; source geocoding precision varies and may be approximate.:1","representation":"planning and built evidence grid cell","timing_note":"Filtered by event effective year. OSM mapped-visibility dates and administrative dates can differ from real-world physical change dates.","caveat":"Planning cells are derived from source-backed event locations; they are not parcel boundaries unless source geometry is separately present.","generated_from":"web/data/city-atlas/cities/london/events_1971.json","lifecycle_status":"uncertain","status":"source_record","cell_size_m":95,"intensity":0.289,"label":"Conservation area record: Courtfield"},"geometry":{"type":"Polygon","coordinates":[[[-0.1878408,51.4916255],[-0.1864697,51.4916255],[-0.1864697,51.4924847],[-0.1878408,51.4924847],[-0.1878408,51.4916255]]]}},{"type":"Feature","properties":{"id":"lens-detail-london-1971-planning_cell-17","layer":"planning_cell","category":"built_environment","year":1971,"visible_year":1971,"title":"1 source-backed planning and built record","confidence":"documented","confidence_mix":"documented:1","event_count":1,"source_count":1,"source_ids":"lon-extra-planning-data-conservation-areas","event_ids":"lon_planning_designation_conservation-area_44012778","event_ids_all":"lon_planning_designation_conservation-area_44012778","source_urls":"https://www.rbkc.gov.uk/planning-and-building-control/heritage-and-conservation/conservation-areas-0/conservation-area-appraisals-and-proposal-statements","geometry_precision_mix":"Row-level point from the adapter; source geocoding precision varies and may be approximate.:1","representation":"planning and built evidence grid cell","timing_note":"Filtered by event effective year. OSM mapped-visibility dates and administrative dates can differ from real-world physical change dates.","caveat":"Planning cells are derived from source-backed event locations; they are not parcel boundaries unless source geometry is separately present.","generated_from":"web/data/city-atlas/cities/london/events_1971.json","lifecycle_status":"uncertain","status":"source_record","cell_size_m":95,"intensity":0.289,"label":"Conservation area record: Brompton"},"geometry":{"type":"Polygon","coordinates":[[[-0.1700165,51.4976396],[-0.1686454,51.4976396],[-0.1686454,51.4984987],[-0.1700165,51.4984987],[-0.1700165,51.4976396]]]}},{"type":"Feature","properties":{"id":"lens-detail-london-1971-planning_cell-18","layer":"planning_cell","category":"built_environment","year":1971,"visible_year":1971,"title":"1 source-backed planning and built record","confidence":"documented","confidence_mix":"documented:1","event_count":1,"source_count":1,"source_ids":"lon-extra-planning-data-conservation-areas","event_ids":"lon_planning_designation_conservation-area_44012779","event_ids_all":"lon_planning_designation_conservation-area_44012779","source_urls":"https://www.rbkc.gov.uk/planning-and-building-control/heritage-and-conservation/conservation-areas-0/conservation-area-appraisals-and-proposal-statements","geometry_precision_mix":"Row-level point from the adapter; source geocoding precision varies and may be approximate.:1","representation":"planning and built evidence grid cell","timing_note":"Filtered by event effective year. OSM mapped-visibility dates and administrative dates can differ from real-world physical change dates.","caveat":"Planning cells are derived from source-backed event locations; they are not parcel boundaries unless source geometry is separately present.","generated_from":"web/data/city-atlas/cities/london/events_1971.json","lifecycle_status":"uncertain","status":"source_record","cell_size_m":95,"intensity":0.289,"label":"Conservation area record: Hans Town"},"geometry":{"type":"Polygon","coordinates":[[[-0.1604188,51.4967804],[-0.1590477,51.4967804],[-0.1590477,51.4976396],[-0.1604188,51.4976396],[-0.1604188,51.4967804]]]}},{"type":"Feature","properties":{"id":"lens-detail-london-1971-planning_cell-19","layer":"planning_cell","category":"built_environment","year":1971,"visible_year":1971,"title":"1 source-backed planning and built record","confidence":"documented","confidence_mix":"documented:1","event_count":1,"source_count":1,"source_ids":"lon-extra-planning-data-conservation-areas","event_ids":"lon_planning_designation_conservation-area_44012780","event_ids_all":"lon_planning_designation_conservation-area_44012780","source_urls":"https://www.rbkc.gov.uk/planning-and-building-control/heritage-and-conservation/conservation-areas-0/conservation-area-appraisals-and-proposal-statements","geometry_precision_mix":"Row-level point from the adapter; source geocoding precision varies and may be approximate.:1","representation":"planning and built evidence grid cell","timing_note":"Filtered by event effective year. OSM mapped-visibility dates and administrative dates can differ from real-world physical change dates.","caveat":"Planning cells are derived from source-backed event locations; they are not parcel boundaries unless source geometry is separately present.","generated_from":"web/data/city-atlas/cities/london/events_1971.json","lifecycle_status":"uncertain","status":"source_record","cell_size_m":95,"intensity":0.289,"label":"Conservation area record: Sloane Square"},"geometry":{"type":"Polygon","coordinates":[[[-0.1590477,51.4916255],[-0.1576766,51.4916255],[-0.1576766,51.4924847],[-0.1590477,51.4924847],[-0.1590477,51.4916255]]]}},{"type":"Feature","properties":{"id":"lens-detail-london-1971-planning_cell-2","layer":"planning_cell","category":"built_environment","year":1971,"visible_year":1971,"title":"1 source-backed planning and built record","confidence":"documented","confidence_mix":"documented:1","event_count":1,"source_count":1,"source_ids":"lon-extra-planning-data-conservation-areas","event_ids":"lon_planning_designation_conservation-area_44002403","event_ids_all":"lon_planning_designation_conservation-area_44002403","source_urls":"https://www.planning.data.gov.uk/entity/44002403","geometry_precision_mix":"Row-level point from the adapter; source geocoding precision varies and may be approximate.:1","representation":"planning and built evidence grid cell","timing_note":"Filtered by event effective year. OSM mapped-visibility dates and administrative dates can differ from real-world physical change dates.","caveat":"Planning cells are derived from source-backed event locations; they are not parcel boundaries unless source geometry is separately present.","generated_from":"web/data/city-atlas/cities/london/events_1971.json","lifecycle_status":"uncertain","status":"source_record","cell_size_m":95,"intensity":0.289,"label":"Conservation area record: St Andrew's Square"},"geometry":{"type":"Polygon","coordinates":[[[-0.3098688,51.3928229],[-0.3084977,51.3928229],[-0.3084977,51.3936821],[-0.3098688,51.3936821],[-0.3098688,51.3928229]]]}},{"type":"Feature","properties":{"id":"lens-detail-london-1971-planning_cell-20","layer":"planning_cell","category":"built_environment","year":1971,"visible_year":1971,"title":"1 source-backed planning and built record","confidence":"documented","confidence_mix":"documented:1","event_count":1,"source_count":1,"source_ids":"lon-extra-planning-data-conservation-areas","event_ids":"lon_planning_designation_conservation-area_44012783","event_ids_all":"lon_planning_designation_conservation-area_44012783","source_urls":"https://www.rbkc.gov.uk/planning-and-building-control/heritage-and-conservation/conservation-areas-0/conservation-area-appraisals-and-proposal-statements","geometry_precision_mix":"Row-level point from the adapter; source geocoding precision varies and may be approximate.:1","representation":"planning and built evidence grid cell","timing_note":"Filtered by event effective year. OSM mapped-visibility dates and administrative dates can differ from real-world physical change dates.","caveat":"Planning cells are derived from source-backed event locations; they are not parcel boundaries unless source geometry is separately present.","generated_from":"web/data/city-atlas/cities/london/events_1971.json","lifecycle_status":"uncertain","status":"source_record","cell_size_m":95,"intensity":0.289,"label":"Conservation area record: Chelsea Park/Carlyle"},"geometry":{"type":"Polygon","coordinates":[[[-0.1755009,51.4873298],[-0.1741298,51.4873298],[-0.1741298,51.4881889],[-0.1755009,51.4881889],[-0.1755009,51.4873298]]]}},{"type":"Feature","properties":{"id":"lens-detail-london-1971-planning_cell-21","layer":"planning_cell","category":"built_environment","year":1971,"visible_year":1971,"title":"1 source-backed planning and built record","confidence":"documented","confidence_mix":"documented:1","event_count":1,"source_count":1,"source_ids":"lon-extra-planning-data-conservation-areas","event_ids":"lon_planning_designation_conservation-area_44012784","event_ids_all":"lon_planning_designation_conservation-area_44012784","source_urls":"https://www.rbkc.gov.uk/planning-and-building-control/heritage-and-conservation/conservation-areas-0/conservation-area-appraisals-and-proposal-statements","geometry_precision_mix":"Row-level point from the adapter; source geocoding precision varies and may be approximate.:1","representation":"planning and built evidence grid cell","timing_note":"Filtered by event effective year. OSM mapped-visibility dates and administrative dates can differ from real-world physical change dates.","caveat":"Planning cells are derived from source-backed event locations; they are not parcel boundaries unless source geometry is separately present.","generated_from":"web/data/city-atlas/cities/london/events_1971.json","lifecycle_status":"uncertain","status":"source_record","cell_size_m":95,"intensity":0.289,"label":"Conservation area record: Chelsea — Kensington and Chelsea"},"geometry":{"type":"Polygon","coordinates":[[[-0.1645321,51.494203],[-0.163161,51.494203],[-0.163161,51.4950621],[-0.1645321,51.4950621],[-0.1645321,51.494203]]]}},{"type":"Feature","properties":{"id":"lens-detail-london-1971-planning_cell-22","layer":"planning_cell","category":"built_environment","year":1971,"visible_year":1971,"title":"1 source-backed planning and built record","confidence":"documented","confidence_mix":"documented:1","event_count":1,"source_count":1,"source_ids":"lon-extra-planning-data-conservation-areas","event_ids":"lon_planning_designation_conservation-area_44012785","event_ids_all":"lon_planning_designation_conservation-area_44012785","source_urls":"https://www.rbkc.gov.uk/planning-and-building-control/heritage-and-conservation/conservation-areas-0/conservation-area-appraisals-and-proposal-statements","geometry_precision_mix":"Row-level point from the adapter; source geocoding precision varies and may be approximate.:1","representation":"planning and built evidence grid cell","timing_note":"Filtered by event effective year. OSM mapped-visibility dates and administrative dates can differ from real-world physical change dates.","caveat":"Planning cells are derived from source-backed event locations; they are not parcel boundaries unless source geometry is separately present.","generated_from":"web/data/city-atlas/cities/london/events_1971.json","lifecycle_status":"uncertain","status":"source_record","cell_size_m":95,"intensity":0.289,"label":"Conservation area record: Chelsea — Kensington and Chelsea · 44012785"},"geometry":{"type":"Polygon","coordinates":[[[-0.1672743,51.4899072],[-0.1659032,51.4899072],[-0.1659032,51.4907664],[-0.1672743,51.4907664],[-0.1672743,51.4899072]]]}},{"type":"Feature","properties":{"id":"lens-detail-london-1971-planning_cell-23","layer":"planning_cell","category":"built_environment","year":1971,"visible_year":1971,"title":"1 source-backed planning and built record","confidence":"documented","confidence_mix":"documented:1","event_count":1,"source_count":1,"source_ids":"lon-extra-planning-data-listed-building-outlines","event_ids":"lon_planning_designation_listed-building-outline_42114978","event_ids_all":"lon_planning_designation_listed-building-outline_42114978","source_urls":"https://www.planning.data.gov.uk/entity/42114978","geometry_precision_mix":"Row-level point from the adapter; source geocoding precision varies and may be approximate.:1","representation":"planning and built evidence grid cell","timing_note":"Filtered by event effective year. OSM mapped-visibility dates and administrative dates can differ from real-world physical change dates.","caveat":"Planning cells are derived from source-backed event locations; they are not parcel boundaries unless source geometry is separately present.","generated_from":"web/data/city-atlas/cities/london/events_1971.json","lifecycle_status":"uncertain","status":"source_record","cell_size_m":95,"intensity":0.289,"label":"Listed building outline: St Olaf House"},"geometry":{"type":"Polygon","coordinates":[[[-0.0877505,51.5062311],[-0.0863794,51.5062311],[-0.0863794,51.5070903],[-0.0877505,51.5070903],[-0.0877505,51.5062311]]]}},{"type":"Feature","properties":{"id":"lens-detail-london-1971-planning_cell-24","layer":"planning_cell","category":"built_environment","year":1971,"visible_year":1971,"title":"1 source-backed planning and built record","confidence":"documented","confidence_mix":"documented:1","event_count":1,"source_count":1,"source_ids":"lon-extra-planning-data-listed-building-outlines","event_ids":"lon_planning_designation_listed-building-outline_42114984","event_ids_all":"lon_planning_designation_listed-building-outline_42114984","source_urls":"https://www.planning.data.gov.uk/entity/42114984","geometry_precision_mix":"Row-level point from the adapter; source geocoding precision varies and may be approximate.:1","representation":"planning and built evidence grid cell","timing_note":"Filtered by event effective year. OSM mapped-visibility dates and administrative dates can differ from real-world physical change dates.","caveat":"Planning cells are derived from source-backed event locations; they are not parcel boundaries unless source geometry is separately present.","generated_from":"web/data/city-atlas/cities/london/events_1971.json","lifecycle_status":"uncertain","status":"source_record","cell_size_m":95,"intensity":0.289,"label":"Listed building outline: Kirkaldy Testing Works and Testing Machine"},"geometry":{"type":"Polygon","coordinates":[[[-0.1028326,51.505372],[-0.1014615,51.505372],[-0.1014615,51.5062311],[-0.1028326,51.5062311],[-0.1028326,51.505372]]]}},{"type":"Feature","properties":{"id":"lens-detail-london-1971-planning_cell-25","layer":"planning_cell","category":"built_environment","year":1971,"visible_year":1971,"title":"1 source-backed planning and built record","confidence":"documented","confidence_mix":"documented:1","event_count":1,"source_count":1,"source_ids":"lon-extra-planning-data-listed-building-outlines","event_ids":"lon_planning_designation_listed-building-outline_42115000","event_ids_all":"lon_planning_designation_listed-building-outline_42115000","source_urls":"https://www.planning.data.gov.uk/entity/42115000","geometry_precision_mix":"Row-level point from the adapter; source geocoding precision varies and may be approximate.:1","representation":"planning and built evidence grid cell","timing_note":"Filtered by event effective year. OSM mapped-visibility dates and administrative dates can differ from real-world physical change dates.","caveat":"Planning cells are derived from source-backed event locations; they are not parcel boundaries unless source geometry is separately present.","generated_from":"web/data/city-atlas/cities/london/events_1971.json","lifecycle_status":"uncertain","status":"source_record","cell_size_m":95,"intensity":0.289,"label":"Listed building outline: Rochester House"},"geometry":{"type":"Polygon","coordinates":[[[-0.1042037,51.5045128],[-0.1028326,51.5045128],[-0.1028326,51.505372],[-0.1042037,51.505372],[-0.1042037,51.5045128]]]}},{"type":"Feature","properties":{"id":"lens-detail-london-1971-planning_cell-26","layer":"planning_cell","category":"built_environment","year":1971,"visible_year":1971,"title":"1 source-backed planning and built record","confidence":"documented","confidence_mix":"documented:1","event_count":1,"source_count":1,"source_ids":"lon-extra-planning-data-listed-building-outlines","event_ids":"lon_planning_designation_listed-building-outline_42115015","event_ids_all":"lon_planning_designation_listed-building-outline_42115015","source_urls":"https://www.planning.data.gov.uk/entity/42115015","geometry_precision_mix":"Row-level point from the adapter; source geocoding precision varies and may be approximate.:1","representation":"planning and built evidence grid cell","timing_note":"Filtered by event effective year. OSM mapped-visibility dates and administrative dates can differ from real-world physical change dates.","caveat":"Planning cells are derived from source-backed event locations; they are not parcel boundaries unless source geometry is separately present.","generated_from":"web/data/city-atlas/cities/london/events_1971.json","lifecycle_status":"uncertain","status":"source_record","cell_size_m":95,"intensity":0.289,"label":"Listed building outline: Bridge House"},"geometry":{"type":"Polygon","coordinates":[[[-0.0891216,51.5062311],[-0.0877505,51.5062311],[-0.0877505,51.5070903],[-0.0891216,51.5070903],[-0.0891216,51.5062311]]]}},{"type":"Feature","properties":{"id":"lens-detail-london-1971-planning_cell-27","layer":"planning_cell","category":"built_environment","year":1971,"visible_year":1971,"title":"1 source-backed planning and built record","confidence":"documented","confidence_mix":"documented:1","event_count":1,"source_count":1,"source_ids":"lon-extra-planning-data-listed-building-outlines","event_ids":"lon_planning_designation_listed-building-outline_42115016","event_ids_all":"lon_planning_designation_listed-building-outline_42115016","source_urls":"https://www.planning.data.gov.uk/entity/42115016","geometry_precision_mix":"Row-level point from the adapter; source geocoding precision varies and may be approximate.:1","representation":"planning and built evidence grid cell","timing_note":"Filtered by event effective year. OSM mapped-visibility dates and administrative dates can differ from real-world physical change dates.","caveat":"Planning cells are derived from source-backed event locations; they are not parcel boundaries unless source geometry is separately present.","generated_from":"web/data/city-atlas/cities/london/events_1971.json","lifecycle_status":"uncertain","status":"source_record","cell_size_m":95,"intensity":0.289,"label":"Listed building outline: No given name — Southwark"},"geometry":{"type":"Polygon","coordinates":[[[-0.0891216,51.505372],[-0.0877505,51.505372],[-0.0877505,51.5062311],[-0.0891216,51.5062311],[-0.0891216,51.505372]]]}},{"type":"Feature","properties":{"id":"lens-detail-london-1971-planning_cell-28","layer":"planning_cell","category":"built_environment","year":1971,"visible_year":1971,"title":"1 source-backed planning and built record","confidence":"documented","confidence_mix":"documented:1","event_count":1,"source_count":1,"source_ids":"lon-extra-planning-data-listed-building-outlines","event_ids":"lon_planning_designation_listed-building-outline_42115035","event_ids_all":"lon_planning_designation_listed-building-outline_42115035","source_urls":"https://www.planning.data.gov.uk/entity/42115035","geometry_precision_mix":"Row-level point from the adapter; source geocoding precision varies and may be approximate.:1","representation":"planning and built evidence grid cell","timing_note":"Filtered by event effective year. OSM mapped-visibility dates and administrative dates can differ from real-world physical change dates.","caveat":"Planning cells are derived from source-backed event locations; they are not parcel boundaries unless source geometry is separately present.","generated_from":"web/data/city-atlas/cities/london/events_1971.json","lifecycle_status":"uncertain","status":"source_record","cell_size_m":95,"intensity":0.289,"label":"Listed building outline: No given name — Southwark · 42115035"},"geometry":{"type":"Polygon","coordinates":[[[-0.0904927,51.5036537],[-0.0891216,51.5036537],[-0.0891216,51.5045128],[-0.0904927,51.5045128],[-0.0904927,51.5036537]]]}},{"type":"Feature","properties":{"id":"lens-detail-london-1971-planning_cell-29","layer":"planning_cell","category":"built_environment","year":1971,"visible_year":1971,"title":"1 source-backed planning and built record","confidence":"documented","confidence_mix":"documented:1","event_count":1,"source_count":1,"source_ids":"lon-extra-planning-data-listed-building-outlines","event_ids":"lon_planning_designation_listed-building-outline_42115041","event_ids_all":"lon_planning_designation_listed-building-outline_42115041","source_urls":"https://www.planning.data.gov.uk/entity/42115041","geometry_precision_mix":"Row-level point from the adapter; source geocoding precision varies and may be approximate.:1","representation":"planning and built evidence grid cell","timing_note":"Filtered by event effective year. OSM mapped-visibility dates and administrative dates can differ from real-world physical change dates.","caveat":"Planning cells are derived from source-backed event locations; they are not parcel boundaries unless source geometry is separately present.","generated_from":"web/data/city-atlas/cities/london/events_1971.json","lifecycle_status":"uncertain","status":"source_record","cell_size_m":95,"intensity":0.289,"label":"Listed building outline: The Grapes Public House"},"geometry":{"type":"Polygon","coordinates":[[[-0.0918638,51.5036537],[-0.0904927,51.5036537],[-0.0904927,51.5045128],[-0.0918638,51.5045128],[-0.0918638,51.5036537]]]}},{"type":"Feature","properties":{"id":"lens-detail-london-1971-planning_cell-3","layer":"planning_cell","category":"built_environment","year":1971,"visible_year":1971,"title":"1 source-backed planning and built record","confidence":"documented","confidence_mix":"documented:1","event_count":1,"source_count":1,"source_ids":"lon-extra-planning-data-conservation-areas","event_ids":"lon_planning_designation_conservation-area_44002454","event_ids_all":"lon_planning_designation_conservation-area_44002454","source_urls":"https://www.richmond.gov.uk/services/planning/conservation_and_urban_design/conservation_areas/conservation_area_statements","geometry_precision_mix":"Row-level point from the adapter; source geocoding precision varies and may be approximate.:1","representation":"planning and built evidence grid cell","timing_note":"Filtered by event effective year. OSM mapped-visibility dates and administrative dates can differ from real-world physical change dates.","caveat":"Planning cells are derived from source-backed event locations; they are not parcel boundaries unless source geometry is separately present.","generated_from":"web/data/city-atlas/cities/london/events_1971.json","lifecycle_status":"uncertain","status":"source_record","cell_size_m":95,"intensity":0.289,"label":"Conservation area record: St Margaret's Estate"},"geometry":{"type":"Polygon","coordinates":[[[-0.3208376,51.460696],[-0.3194665,51.460696],[-0.3194665,51.4615552],[-0.3208376,51.4615552],[-0.3208376,51.460696]]]}},{"type":"Feature","properties":{"id":"lens-detail-london-1971-planning_cell-30","layer":"planning_cell","category":"built_environment","year":1971,"visible_year":1971,"title":"1 source-backed planning and built record","confidence":"documented","confidence_mix":"documented:1","event_count":1,"source_count":1,"source_ids":"lon-extra-planning-data-listed-building-outlines","event_ids":"lon_planning_designation_listed-building-outline_42115050","event_ids_all":"lon_planning_designation_listed-building-outline_42115050","source_urls":"https://www.planning.data.gov.uk/entity/42115050","geometry_precision_mix":"Row-level point from the adapter; source geocoding precision varies and may be approximate.:1","representation":"planning and built evidence grid cell","timing_note":"Filtered by event effective year. OSM mapped-visibility dates and administrative dates can differ from real-world physical change dates.","caveat":"Planning cells are derived from source-backed event locations; they are not parcel boundaries unless source geometry is separately present.","generated_from":"web/data/city-atlas/cities/london/events_1971.json","lifecycle_status":"uncertain","status":"source_record","cell_size_m":95,"intensity":0.289,"label":"Listed building outline: No given name — Southwark · 42115050"},"geometry":{"type":"Polygon","coordinates":[[[-0.0863794,51.505372],[-0.0850083,51.505372],[-0.0850083,51.5062311],[-0.0863794,51.5062311],[-0.0863794,51.505372]]]}},{"type":"Feature","properties":{"id":"lens-detail-london-1971-planning_cell-31","layer":"planning_cell","category":"built_environment","year":1971,"visible_year":1971,"title":"1 source-backed planning and built record","confidence":"documented","confidence_mix":"documented:1","event_count":1,"source_count":1,"source_ids":"lon-extra-planning-data-listed-building-outlines","event_ids":"lon_planning_designation_listed-building-outline_42115051","event_ids_all":"lon_planning_designation_listed-building-outline_42115051","source_urls":"https://www.planning.data.gov.uk/entity/42115051","geometry_precision_mix":"Row-level point from the adapter; source geocoding precision varies and may be approximate.:1","representation":"planning and built evidence grid cell","timing_note":"Filtered by event effective year. OSM mapped-visibility dates and administrative dates can differ from real-world physical change dates.","caveat":"Planning cells are derived from source-backed event locations; they are not parcel boundaries unless source geometry is separately present.","generated_from":"web/data/city-atlas/cities/london/events_1971.json","lifecycle_status":"uncertain","status":"source_record","cell_size_m":95,"intensity":0.289,"label":"Listed building outline: No given name — Southwark · 42115051"},"geometry":{"type":"Polygon","coordinates":[[[-0.0850083,51.505372],[-0.0836372,51.505372],[-0.0836372,51.5062311],[-0.0850083,51.5062311],[-0.0850083,51.505372]]]}},{"type":"Feature","properties":{"id":"lens-detail-london-1971-planning_cell-32","layer":"planning_cell","category":"built_environment","year":1971,"visible_year":1971,"title":"1 source-backed planning and built record","confidence":"documented","confidence_mix":"documented:1","event_count":1,"source_count":1,"source_ids":"lon-extra-planning-data-listed-building-outlines","event_ids":"lon_planning_designation_listed-building-outline_42115109","event_ids_all":"lon_planning_designation_listed-building-outline_42115109","source_urls":"https://www.planning.data.gov.uk/entity/42115109","geometry_precision_mix":"Row-level point from the adapter; source geocoding precision varies and may be approximate.:1","representation":"planning and built evidence grid cell","timing_note":"Filtered by event effective year. OSM mapped-visibility dates and administrative dates can differ from real-world physical change dates.","caveat":"Planning cells are derived from source-backed event locations; they are not parcel boundaries unless source geometry is separately present.","generated_from":"web/data/city-atlas/cities/london/events_1971.json","lifecycle_status":"uncertain","status":"source_record","cell_size_m":95,"intensity":0.289,"label":"Listed building outline: The counting house"},"geometry":{"type":"Polygon","coordinates":[[[-0.0850083,51.5045128],[-0.0836372,51.5045128],[-0.0836372,51.505372],[-0.0850083,51.505372],[-0.0850083,51.5045128]]]}},{"type":"Feature","properties":{"id":"lens-detail-london-1971-planning_cell-33","layer":"planning_cell","category":"built_environment","year":1971,"visible_year":1971,"title":"1 source-backed planning and built record","confidence":"documented","confidence_mix":"documented:1","event_count":1,"source_count":1,"source_ids":"lon-extra-planning-data-listed-building-outlines","event_ids":"lon_planning_designation_listed-building-outline_42115635","event_ids_all":"lon_planning_designation_listed-building-outline_42115635","source_urls":"https://www.planning.data.gov.uk/entity/42115635","geometry_precision_mix":"Row-level point from the adapter; source geocoding precision varies and may be approximate.:1","representation":"planning and built evidence grid cell","timing_note":"Filtered by event effective year. OSM mapped-visibility dates and administrative dates can differ from real-world physical change dates.","caveat":"Planning cells are derived from source-backed event locations; they are not parcel boundaries unless source geometry is separately present.","generated_from":"web/data/city-atlas/cities/london/events_1971.json","lifecycle_status":"uncertain","status":"source_record","cell_size_m":95,"intensity":0.289,"label":"Listed building outline: No given name — Southwark · 42115635"},"geometry":{"type":"Polygon","coordinates":[[[-0.0575862,51.4727241],[-0.0562151,51.4727241],[-0.0562151,51.4735833],[-0.0575862,51.4735833],[-0.0575862,51.4727241]]]}},{"type":"Feature","properties":{"id":"lens-detail-london-1971-planning_cell-34","layer":"planning_cell","category":"built_environment","year":1971,"visible_year":1971,"title":"1 source-backed planning and built record","confidence":"documented","confidence_mix":"documented:1","event_count":1,"source_count":1,"source_ids":"lon-extra-planning-data-listed-building-outlines","event_ids":"lon_planning_designation_listed-building-outline_42115898","event_ids_all":"lon_planning_designation_listed-building-outline_42115898","source_urls":"https://www.planning.data.gov.uk/entity/42115898","geometry_precision_mix":"Row-level point from the adapter; source geocoding precision varies and may be approximate.:1","representation":"planning and built evidence grid cell","timing_note":"Filtered by event effective year. OSM mapped-visibility dates and administrative dates can differ from real-world physical change dates.","caveat":"Planning cells are derived from source-backed event locations; they are not parcel boundaries unless source geometry is separately present.","generated_from":"web/data/city-atlas/cities/london/events_1971.json","lifecycle_status":"uncertain","status":"source_record","cell_size_m":95,"intensity":0.289,"label":"Listed building outline: (East side) 32 Cubitt Street"},"geometry":{"type":"Polygon","coordinates":[[[-0.1165436,51.5277099],[-0.1151725,51.5277099],[-0.1151725,51.5285691],[-0.1165436,51.5285691],[-0.1165436,51.5277099]]]}},{"type":"Feature","properties":{"id":"lens-detail-london-1971-planning_cell-35","layer":"planning_cell","category":"built_environment","year":1971,"visible_year":1971,"title":"1 source-backed planning and built record","confidence":"documented","confidence_mix":"documented:1","event_count":1,"source_count":1,"source_ids":"lon-extra-planning-data-listed-building-outlines","event_ids":"lon_planning_designation_listed-building-outline_42117217","event_ids_all":"lon_planning_designation_listed-building-outline_42117217","source_urls":"https://www.planning.data.gov.uk/entity/42117217","geometry_precision_mix":"Row-level point from the adapter; source geocoding precision varies and may be approximate.:1","representation":"planning and built evidence grid cell","timing_note":"Filtered by event effective year. OSM mapped-visibility dates and administrative dates can differ from real-world physical change dates.","caveat":"Planning cells are derived from source-backed event locations; they are not parcel boundaries unless source geometry is separately present.","generated_from":"web/data/city-atlas/cities/london/events_1971.json","lifecycle_status":"uncertain","status":"source_record","cell_size_m":95,"intensity":0.289,"label":"Listed building outline: (South side) No.233"},"geometry":{"type":"Polygon","coordinates":[[[-0.1206569,51.5174001],[-0.1192858,51.5174001],[-0.1192858,51.5182593],[-0.1206569,51.5182593],[-0.1206569,51.5174001]]]}},{"type":"Feature","properties":{"id":"lens-detail-london-1971-planning_cell-36","layer":"planning_cell","category":"built_environment","year":1971,"visible_year":1971,"title":"1 source-backed planning and built record","confidence":"documented","confidence_mix":"documented:1","event_count":1,"source_count":1,"source_ids":"lon-extra-planning-data-listed-building-outlines","event_ids":"lon_planning_designation_listed-building-outline_42117577","event_ids_all":"lon_planning_designation_listed-building-outline_42117577","source_urls":"https://www.planning.data.gov.uk/entity/42117577","geometry_precision_mix":"Row-level point from the adapter; source geocoding precision varies and may be approximate.:1","representation":"planning and built evidence grid cell","timing_note":"Filtered by event effective year. OSM mapped-visibility dates and administrative dates can differ from real-world physical change dates.","caveat":"Planning cells are derived from source-backed event locations; they are not parcel boundaries unless source geometry is separately present.","generated_from":"web/data/city-atlas/cities/london/events_1971.json","lifecycle_status":"uncertain","status":"source_record","cell_size_m":95,"intensity":0.289,"label":"Listed building outline: (West side) No.63 Kodak House"},"geometry":{"type":"Polygon","coordinates":[[[-0.1206569,51.5148227],[-0.1192858,51.5148227],[-0.1192858,51.5156818],[-0.1206569,51.5156818],[-0.1206569,51.5148227]]]}},{"type":"Feature","properties":{"id":"lens-detail-london-1971-planning_cell-37","layer":"planning_cell","category":"built_environment","year":1971,"visible_year":1971,"title":"1 source-backed planning and built record","confidence":"documented","confidence_mix":"documented:1","event_count":1,"source_count":1,"source_ids":"lon-extra-planning-data-listed-building-outlines","event_ids":"lon_planning_designation_listed-building-outline_42120707","event_ids_all":"lon_planning_designation_listed-building-outline_42120707","source_urls":"https://www.planning.data.gov.uk/entity/42120707","geometry_precision_mix":"Row-level point from the adapter; source geocoding precision varies and may be approximate.:1","representation":"planning and built evidence grid cell","timing_note":"Filtered by event effective year. OSM mapped-visibility dates and administrative dates can differ from real-world physical change dates.","caveat":"Planning cells are derived from source-backed event locations; they are not parcel boundaries unless source geometry is separately present.","generated_from":"web/data/city-atlas/cities/london/events_1971.json","lifecycle_status":"uncertain","status":"source_record","cell_size_m":95,"intensity":0.289,"label":"Listed building outline: HAWTHORNE DENE"},"geometry":{"type":"Polygon","coordinates":[[[-0.1727587,51.6015971],[-0.1713876,51.6015971],[-0.1713876,51.6024563],[-0.1727587,51.6024563],[-0.1727587,51.6015971]]]}},{"type":"Feature","properties":{"id":"lens-detail-london-1971-planning_cell-38","layer":"planning_cell","category":"built_environment","year":1971,"visible_year":1971,"title":"1 source-backed planning and built record","confidence":"documented","confidence_mix":"documented:1","event_count":1,"source_count":1,"source_ids":"lon-extra-planning-data-listed-building-outlines","event_ids":"lon_planning_designation_listed-building-outline_42120708","event_ids_all":"lon_planning_designation_listed-building-outline_42120708","source_urls":"https://www.planning.data.gov.uk/entity/42120708","geometry_precision_mix":"Row-level point from the adapter; source geocoding precision varies and may be approximate.:1","representation":"planning and built evidence grid cell","timing_note":"Filtered by event effective year. OSM mapped-visibility dates and administrative dates can differ from real-world physical change dates.","caveat":"Planning cells are derived from source-backed event locations; they are not parcel boundaries unless source geometry is separately present.","generated_from":"web/data/city-atlas/cities/london/events_1971.json","lifecycle_status":"uncertain","status":"source_record","cell_size_m":95,"intensity":0.289,"label":"Listed building outline: TERRACE COTTAGE TERRACE HOUSE"},"geometry":{"type":"Polygon","coordinates":[[[-0.1809853,51.6230759],[-0.1796142,51.6230759],[-0.1796142,51.6239351],[-0.1809853,51.6239351],[-0.1809853,51.6230759]]]}},{"type":"Feature","properties":{"id":"lens-detail-london-1971-planning_cell-4","layer":"planning_cell","category":"built_environment","year":1971,"visible_year":1971,"title":"1 source-backed planning and built record","confidence":"documented","confidence_mix":"documented:1","event_count":1,"source_count":1,"source_ids":"lon-extra-planning-data-conservation-areas","event_ids":"lon_planning_designation_conservation-area_44003453","event_ids_all":"lon_planning_designation_conservation-area_44003453","source_urls":"https://www.planning.data.gov.uk/entity/44003453","geometry_precision_mix":"Row-level point from the adapter; source geocoding precision varies and may be approximate.:1","representation":"planning and built evidence grid cell","timing_note":"Filtered by event effective year. OSM mapped-visibility dates and administrative dates can differ from real-world physical change dates.","caveat":"Planning cells are derived from source-backed event locations; they are not parcel boundaries unless source geometry is separately present.","generated_from":"web/data/city-atlas/cities/london/events_1971.json","lifecycle_status":"uncertain","status":"source_record","cell_size_m":95,"intensity":0.289,"label":"Conservation area record: Tredegar Square"},"geometry":{"type":"Polygon","coordinates":[[[-0.0315353,51.5268508],[-0.0301642,51.5268508],[-0.0301642,51.5277099],[-0.0315353,51.5277099],[-0.0315353,51.5268508]]]}},{"type":"Feature","properties":{"id":"lens-detail-london-1971-planning_cell-43","layer":"planning_cell","category":"built_environment","year":1971,"visible_year":1971,"title":"1 source-backed planning and built record","confidence":"documented","confidence_mix":"documented:1","event_count":1,"source_count":1,"source_ids":"lon-extra-planning-data-listed-building-outlines","event_ids":"lon_planning_designation_listed-building-outline_42165121","event_ids_all":"lon_planning_designation_listed-building-outline_42165121","source_urls":"https://www.planning.data.gov.uk/entity/42165121","geometry_precision_mix":"Row-level point from the adapter; source geocoding precision varies and may be approximate.:1","representation":"planning and built evidence grid cell","timing_note":"Filtered by event effective year. OSM mapped-visibility dates and administrative dates can differ from real-world physical change dates.","caveat":"Planning cells are derived from source-backed event locations; they are not parcel boundaries unless source geometry is separately present.","generated_from":"web/data/city-atlas/cities/london/events_1971.json","lifecycle_status":"uncertain","status":"source_record","cell_size_m":95,"intensity":0.289,"label":"Listed building outline: 9 Aldwych London WC2B 4DA"},"geometry":{"type":"Polygon","coordinates":[[[-0.1206569,51.5122452],[-0.1192858,51.5122452],[-0.1192858,51.5131043],[-0.1206569,51.5131043],[-0.1206569,51.5122452]]]}},{"type":"Feature","properties":{"id":"lens-detail-london-1971-planning_cell-46","layer":"planning_cell","category":"built_environment","year":1971,"visible_year":1971,"title":"1 source-backed planning and built record","confidence":"documented","confidence_mix":"documented:1","event_count":1,"source_count":1,"source_ids":"lon-extra-planning-data-listed-building-outlines","event_ids":"lon_planning_designation_listed-building-outline_42165936","event_ids_all":"lon_planning_designation_listed-building-outline_42165936","source_urls":"https://www.planning.data.gov.uk/entity/42165936","geometry_precision_mix":"Row-level point from the adapter; source geocoding precision varies and may be approximate.:1","representation":"planning and built evidence grid cell","timing_note":"Filtered by event effective year. OSM mapped-visibility dates and administrative dates can differ from real-world physical change dates.","caveat":"Planning cells are derived from source-backed event locations; they are not parcel boundaries unless source geometry is separately present.","generated_from":"web/data/city-atlas/cities/london/events_1971.json","lifecycle_status":"uncertain","status":"source_record","cell_size_m":95,"intensity":0.289,"label":"Listed building outline: 2 Montpelier Square London SW7 1JT"},"geometry":{"type":"Polygon","coordinates":[[[-0.1659032,51.500217],[-0.1645321,51.500217],[-0.1645321,51.5010762],[-0.1659032,51.5010762],[-0.1659032,51.500217]]]}},{"type":"Feature","properties":{"id":"lens-detail-london-1971-planning_cell-47","layer":"planning_cell","category":"built_environment","year":1971,"visible_year":1971,"title":"1 source-backed planning and built record","confidence":"documented","confidence_mix":"documented:1","event_count":1,"source_count":1,"source_ids":"lon-extra-planning-data-listed-building-outlines","event_ids":"lon_planning_designation_listed-building-outline_42165939","event_ids_all":"lon_planning_designation_listed-building-outline_42165939","source_urls":"https://www.planning.data.gov.uk/entity/42165939","geometry_precision_mix":"Row-level point from the adapter; source geocoding precision varies and may be approximate.:1","representation":"planning and built evidence grid cell","timing_note":"Filtered by event effective year. OSM mapped-visibility dates and administrative dates can differ from real-world physical change dates.","caveat":"Planning cells are derived from source-backed event locations; they are not parcel boundaries unless source geometry is separately present.","generated_from":"web/data/city-atlas/cities/london/events_1971.json","lifecycle_status":"uncertain","status":"source_record","cell_size_m":95,"intensity":0.289,"label":"Listed building outline: 26 Montpelier Square London SW7 1JY"},"geometry":{"type":"Polygon","coordinates":[[[-0.1686454,51.500217],[-0.1672743,51.500217],[-0.1672743,51.5010762],[-0.1686454,51.5010762],[-0.1686454,51.500217]]]}},{"type":"Feature","properties":{"id":"lens-detail-london-1971-planning_cell-5","layer":"planning_cell","category":"built_environment","year":1971,"visible_year":1971,"title":"1 source-backed planning and built record","confidence":"documented","confidence_mix":"documented:1","event_count":1,"source_count":1,"source_ids":"lon-extra-planning-data-conservation-areas","event_ids":"lon_planning_designation_conservation-area_44003454","event_ids_all":"lon_planning_designation_conservation-area_44003454","source_urls":"https://www.planning.data.gov.uk/entity/44003454","geometry_precision_mix":"Row-level point from the adapter; source geocoding precision varies and may be approximate.:1","representation":"planning and built evidence grid cell","timing_note":"Filtered by event effective year. OSM mapped-visibility dates and administrative dates can differ from real-world physical change dates.","caveat":"Planning cells are derived from source-backed event locations; they are not parcel boundaries unless source geometry is separately present.","generated_from":"web/data/city-atlas/cities/london/events_1971.json","lifecycle_status":"uncertain","status":"source_record","cell_size_m":95,"intensity":0.289,"label":"Conservation area record: Island Gardens"},"geometry":{"type":"Polygon","coordinates":[[[-0.0082266,51.4864706],[-0.0068555,51.4864706],[-0.0068555,51.4873298],[-0.0082266,51.4873298],[-0.0082266,51.4864706]]]}},{"type":"Feature","properties":{"id":"lens-detail-london-1971-planning_cell-51","layer":"planning_cell","category":"built_environment","year":1971,"visible_year":1971,"title":"1 source-backed planning and built record","confidence":"documented","confidence_mix":"documented:1","event_count":1,"source_count":1,"source_ids":"lon-extra-planning-data-listed-building-outlines","event_ids":"lon_planning_designation_listed-building-outline_42166509","event_ids_all":"lon_planning_designation_listed-building-outline_42166509","source_urls":"https://www.planning.data.gov.uk/entity/42166509","geometry_precision_mix":"Row-level point from the adapter; source geocoding precision varies and may be approximate.:1","representation":"planning and built evidence grid cell","timing_note":"Filtered by event effective year. OSM mapped-visibility dates and administrative dates can differ from real-world physical change dates.","caveat":"Planning cells are derived from source-backed event locations; they are not parcel boundaries unless source geometry is separately present.","generated_from":"web/data/city-atlas/cities/london/events_1971.json","lifecycle_status":"uncertain","status":"source_record","cell_size_m":95,"intensity":0.289,"label":"Listed building outline: 63 - 65 Piccadilly London W1J 0DY"},"geometry":{"type":"Polygon","coordinates":[[[-0.1412234,51.5070903],[-0.1398523,51.5070903],[-0.1398523,51.5079494],[-0.1412234,51.5079494],[-0.1412234,51.5070903]]]}},{"type":"Feature","properties":{"id":"lens-detail-london-1971-planning_cell-52","layer":"planning_cell","category":"built_environment","year":1971,"visible_year":1971,"title":"1 source-backed planning and built record","confidence":"documented","confidence_mix":"documented:1","event_count":1,"source_count":1,"source_ids":"lon-extra-planning-data-listed-building-outlines","event_ids":"lon_planning_designation_listed-building-outline_42166910","event_ids_all":"lon_planning_designation_listed-building-outline_42166910","source_urls":"https://www.planning.data.gov.uk/entity/42166910","geometry_precision_mix":"Row-level point from the adapter; source geocoding precision varies and may be approximate.:1","representation":"planning and built evidence grid cell","timing_note":"Filtered by event effective year. OSM mapped-visibility dates and administrative dates can differ from real-world physical change dates.","caveat":"Planning cells are derived from source-backed event locations; they are not parcel boundaries unless source geometry is separately present.","generated_from":"web/data/city-atlas/cities/london/events_1971.json","lifecycle_status":"uncertain","status":"source_record","cell_size_m":95,"intensity":0.289,"label":"Listed building outline: 5 Rutland Gate London SW7 1BL"},"geometry":{"type":"Polygon","coordinates":[[[-0.1686454,51.5010762],[-0.1672743,51.5010762],[-0.1672743,51.5019354],[-0.1686454,51.5019354],[-0.1686454,51.5010762]]]}},{"type":"Feature","properties":{"id":"lens-detail-london-1971-planning_cell-53","layer":"planning_cell","category":"built_environment","year":1971,"visible_year":1971,"title":"1 source-backed planning and built record","confidence":"documented","confidence_mix":"documented:1","event_count":1,"source_count":1,"source_ids":"lon-extra-planning-data-listed-building-outlines","event_ids":"lon_planning_designation_listed-building-outline_42167584","event_ids_all":"lon_planning_designation_listed-building-outline_42167584","source_urls":"https://www.planning.data.gov.uk/entity/42167584","geometry_precision_mix":"Row-level point from the adapter; source geocoding precision varies and may be approximate.:1","representation":"planning and built evidence grid cell","timing_note":"Filtered by event effective year. OSM mapped-visibility dates and administrative dates can differ from real-world physical change dates.","caveat":"Planning cells are derived from source-backed event locations; they are not parcel boundaries unless source geometry is separately present.","generated_from":"web/data/city-atlas/cities/london/events_1971.json","lifecycle_status":"uncertain","status":"source_record","cell_size_m":95,"intensity":0.289,"label":"Listed building outline: Flat 10 22-23 Hertford Street London W1J 7RX"},"geometry":{"type":"Polygon","coordinates":[[[-0.14945,51.5045128],[-0.1480789,51.5045128],[-0.1480789,51.505372],[-0.14945,51.505372],[-0.14945,51.5045128]]]}},{"type":"Feature","properties":{"id":"lens-detail-london-1971-planning_cell-54","layer":"planning_cell","category":"built_environment","year":1971,"visible_year":1971,"title":"1 source-backed planning and built record","confidence":"documented","confidence_mix":"documented:1","event_count":1,"source_count":1,"source_ids":"lon-extra-planning-data-listed-building-outlines","event_ids":"lon_planning_designation_listed-building-outline_42192572","event_ids_all":"lon_planning_designation_listed-building-outline_42192572","source_urls":"https://www.planning.data.gov.uk/entity/42192572","geometry_precision_mix":"Row-level point from the adapter; source geocoding precision varies and may be approximate.:1","representation":"planning and built evidence grid cell","timing_note":"Filtered by event effective year. OSM mapped-visibility dates and administrative dates can differ from real-world physical change dates.","caveat":"Planning cells are derived from source-backed event locations; they are not parcel boundaries unless source geometry is separately present.","generated_from":"web/data/city-atlas/cities/london/events_1971.json","lifecycle_status":"uncertain","status":"source_record","cell_size_m":95,"intensity":0.289,"label":"Listed building outline: Sudbury Town Station, Station Approach, Wembley, HA0 2LA"},"geometry":{"type":"Polygon","coordinates":[[[-0.3167243,51.5509071],[-0.3153532,51.5509071],[-0.3153532,51.5517662],[-0.3167243,51.5517662],[-0.3167243,51.5509071]]]}},{"type":"Feature","properties":{"id":"lens-detail-london-1971-planning_cell-55","layer":"planning_cell","category":"built_environment","year":1971,"visible_year":1971,"title":"1 source-backed planning and built record","confidence":"documented","confidence_mix":"documented:1","event_count":1,"source_count":1,"source_ids":"lon-extra-planning-data-tree-preservation-zones","event_ids":"lon_planning_designation_tree-preservation-zone_19114955","event_ids_all":"lon_planning_designation_tree-preservation-zone_19114955","source_urls":"https://www.planning.data.gov.uk/entity/19114955","geometry_precision_mix":"Row-level point from the adapter; source geocoding precision varies and may be approximate.:1","representation":"planning and built evidence grid cell","timing_note":"Filtered by event effective year. OSM mapped-visibility dates and administrative dates can differ from real-world physical change dates.","caveat":"Planning cells are derived from source-backed event locations; they are not parcel boundaries unless source geometry is separately present.","generated_from":"web/data/city-atlas/cities/london/events_1971.json","lifecycle_status":"uncertain","status":"source_record","cell_size_m":95,"intensity":0.289,"label":"Tree preservation zone: The London Borough of Barnet (Lawrence Street, Mill Hill, N.W.7.) Tree Preservation Order 1971 made... — Barnet"},"geometry":{"type":"Polygon","coordinates":[[[-0.2372005,51.6247943],[-0.2358294,51.6247943],[-0.2358294,51.6256534],[-0.2372005,51.6256534],[-0.2372005,51.6247943]]]}},{"type":"Feature","properties":{"id":"lens-detail-london-1971-planning_cell-56","layer":"planning_cell","category":"built_environment","year":1971,"visible_year":1971,"title":"1 source-backed planning and built record","confidence":"documented","confidence_mix":"documented:1","event_count":1,"source_count":1,"source_ids":"lon-extra-planning-data-tree-preservation-zones","event_ids":"lon_planning_designation_tree-preservation-zone_19114956","event_ids_all":"lon_planning_designation_tree-preservation-zone_19114956","source_urls":"https://www.planning.data.gov.uk/entity/19114956","geometry_precision_mix":"Row-level point from the adapter; source geocoding precision varies and may be approximate.:1","representation":"planning and built evidence grid cell","timing_note":"Filtered by event effective year. OSM mapped-visibility dates and administrative dates can differ from real-world physical change dates.","caveat":"Planning cells are derived from source-backed event locations; they are not parcel boundaries unless source geometry is separately present.","generated_from":"web/data/city-atlas/cities/london/events_1971.json","lifecycle_status":"uncertain","status":"source_record","cell_size_m":95,"intensity":0.289,"label":"Tree preservation zone: The London Borough of Barnet (Lawrence Street, Mill Hill, N.W.7.) Tree Preservation Order... — Barnet · 19114956"},"geometry":{"type":"Polygon","coordinates":[[[-0.2385716,51.6239351],[-0.2372005,51.6239351],[-0.2372005,51.6247943],[-0.2385716,51.6247943],[-0.2385716,51.6239351]]]}},{"type":"Feature","properties":{"id":"lens-detail-london-1971-planning_cell-57","layer":"planning_cell","category":"built_environment","year":1971,"visible_year":1971,"title":"1 source-backed planning and built record","confidence":"documented","confidence_mix":"documented:1","event_count":1,"source_count":1,"source_ids":"lon-extra-planning-data-tree-preservation-zones","event_ids":"lon_planning_designation_tree-preservation-zone_19114957","event_ids_all":"lon_planning_designation_tree-preservation-zone_19114957","source_urls":"https://www.planning.data.gov.uk/entity/19114957","geometry_precision_mix":"Row-level point from the adapter; source geocoding precision varies and may be approximate.:1","representation":"planning and built evidence grid cell","timing_note":"Filtered by event effective year. OSM mapped-visibility dates and administrative dates can differ from real-world physical change dates.","caveat":"Planning cells are derived from source-backed event locations; they are not parcel boundaries unless source geometry is separately present.","generated_from":"web/data/city-atlas/cities/london/events_1971.json","lifecycle_status":"uncertain","status":"source_record","cell_size_m":95,"intensity":0.289,"label":"Tree preservation zone: The London Borough of Barnet (Lawrence Street, Mill Hill, N.W.7.) Tree Preservation Order... — Barnet · 19114957"},"geometry":{"type":"Polygon","coordinates":[[[-0.2385716,51.6230759],[-0.2372005,51.6230759],[-0.2372005,51.6239351],[-0.2385716,51.6239351],[-0.2385716,51.6230759]]]}},{"type":"Feature","properties":{"id":"lens-detail-london-1971-planning_cell-6","layer":"planning_cell","category":"built_environment","year":1971,"visible_year":1971,"title":"1 source-backed planning and built record","confidence":"documented","confidence_mix":"documented:1","event_count":1,"source_count":1,"source_ids":"lon-extra-planning-data-conservation-areas","event_ids":"lon_planning_designation_conservation-area_44006231","event_ids_all":"lon_planning_designation_conservation-area_44006231","source_urls":"https://www.planning.data.gov.uk/entity/44006231","geometry_precision_mix":"Row-level point from the adapter; source geocoding precision varies and may be approximate.:1","representation":"planning and built evidence grid cell","timing_note":"Filtered by event effective year. OSM mapped-visibility dates and administrative dates can differ from real-world physical change dates.","caveat":"Planning cells are derived from source-backed event locations; they are not parcel boundaries unless source geometry is separately present.","generated_from":"web/data/city-atlas/cities/london/events_1971.json","lifecycle_status":"uncertain","status":"source_record","cell_size_m":95,"intensity":0.289,"label":"Conservation area record: De Beauvoir"},"geometry":{"type":"Polygon","coordinates":[[[-0.080895,51.5423156],[-0.0795239,51.5423156],[-0.0795239,51.5431747],[-0.080895,51.5431747],[-0.080895,51.5423156]]]}},{"type":"Feature","properties":{"id":"lens-detail-london-1971-planning_cell-7","layer":"planning_cell","category":"built_environment","year":1971,"visible_year":1971,"title":"1 source-backed planning and built record","confidence":"documented","confidence_mix":"documented:1","event_count":1,"source_count":1,"source_ids":"lon-extra-planning-data-conservation-areas","event_ids":"lon_planning_designation_conservation-area_44006876","event_ids_all":"lon_planning_designation_conservation-area_44006876","source_urls":"https://www.planning.data.gov.uk/entity/44006876","geometry_precision_mix":"Row-level point from the adapter; source geocoding precision varies and may be approximate.:1","representation":"planning and built evidence grid cell","timing_note":"Filtered by event effective year. OSM mapped-visibility dates and administrative dates can differ from real-world physical change dates.","caveat":"Planning cells are derived from source-backed event locations; they are not parcel boundaries unless source geometry is separately present.","generated_from":"web/data/city-atlas/cities/london/events_1971.json","lifecycle_status":"uncertain","status":"source_record","cell_size_m":95,"intensity":0.289,"label":"Conservation area record: Clapton Pond"},"geometry":{"type":"Polygon","coordinates":[[[-0.0562151,51.556062],[-0.054844,51.556062],[-0.054844,51.5569212],[-0.0562151,51.5569212],[-0.0562151,51.556062]]]}},{"type":"Feature","properties":{"id":"lens-detail-london-1971-planning_cell-8","layer":"planning_cell","category":"built_environment","year":1971,"visible_year":1971,"title":"1 source-backed planning and built record","confidence":"documented","confidence_mix":"documented:1","event_count":1,"source_count":1,"source_ids":"lon-extra-planning-data-conservation-areas","event_ids":"lon_planning_designation_conservation-area_44009023","event_ids_all":"lon_planning_designation_conservation-area_44009023","source_urls":"https://www.bromley.gov.uk/conservation/conservation-areas-2","geometry_precision_mix":"Row-level point from the adapter; source geocoding precision varies and may be approximate.:1","representation":"planning and built evidence grid cell","timing_note":"Filtered by event effective year. OSM mapped-visibility dates and administrative dates can differ from real-world physical change dates.","caveat":"Planning cells are derived from source-backed event locations; they are not parcel boundaries unless source geometry is separately present.","generated_from":"web/data/city-atlas/cities/london/events_1971.json","lifecycle_status":"uncertain","status":"source_record","cell_size_m":95,"intensity":0.289,"label":"Conservation area record: Chislehurst"},"geometry":{"type":"Polygon","coordinates":[[[0.0767817,51.4134426],[0.0781528,51.4134426],[0.0781528,51.4143017],[0.0767817,51.4143017],[0.0767817,51.4134426]]]}},{"type":"Feature","properties":{"id":"lens-detail-london-1971-planning_cell-9","layer":"planning_cell","category":"built_environment","year":1971,"visible_year":1971,"title":"1 source-backed planning and built record","confidence":"documented","confidence_mix":"documented:1","event_count":1,"source_count":1,"source_ids":"lon-extra-planning-data-conservation-areas","event_ids":"lon_planning_designation_conservation-area_44009630","event_ids_all":"lon_planning_designation_conservation-area_44009630","source_urls":"https://www.camden.gov.uk/primrose-hill-conservation-area","geometry_precision_mix":"Row-level point from the adapter; source geocoding precision varies and may be approximate.:1","representation":"planning and built evidence grid cell","timing_note":"Filtered by event effective year. OSM mapped-visibility dates and administrative dates can differ from real-world physical change dates.","caveat":"Planning cells are derived from source-backed event locations; they are not parcel boundaries unless source geometry is separately present.","generated_from":"web/data/city-atlas/cities/london/events_1971.json","lifecycle_status":"uncertain","status":"source_record","cell_size_m":95,"intensity":0.289,"label":"Conservation area record: Primrose Hill"},"geometry":{"type":"Polygon","coordinates":[[[-0.1535633,51.5388789],[-0.1521922,51.5388789],[-0.1521922,51.5397381],[-0.1535633,51.5397381],[-0.1535633,51.5388789]]]}}]}
