{"type":"FeatureCollection","name":"london_lens_detail_1960","metadata":{"schema_version":"1.0.0","city_id":"london","year":1960,"generated_at":"2026-05-30T13:43:36.065Z","source_paths":["web/data/city-atlas/cities/london/events_1960.json","web/data/city-atlas/cities/london/events.json","web/data/city-atlas/cities/london/transport_roads_base.geojson"],"method":"Derived OpenCityLog lens geometry built from source-backed event points plus existing OSM road/detail geometry. Grid cells aggregate events by effective year. Trace lines reuse nearest mapped road geometry for context.","caveats":["Derived cells are evidence grids, not surveyed parcels, catchments, zones, or administrative boundaries.","Trace lines are nearest mapped street or work-location context, not surveyed utility networks, measured traffic speed, spend, vacancy, or service quality. No capacity data is inferred.","When a lens/year has no same-category source-backed records, faint coverage-context grids keep the lens visible while explicitly recording the source gap. Those context features are not city-change events and are excluded from headline counts.","Borough, citywide, statistical, corridor, and multi-site records are excluded from site-like lens geometry; they remain available in the event list and evidence records.","OSM mapped-visibility dates and administrative decision dates can differ from real-world physical change dates."],"feature_layers":{"planning_cell":4,"civic_coverage_cell":25,"economy_activity_cell":25,"utility_trace":12},"excluded_non_site_record_count":0,"excluded_non_site_reasons":{}},"features":[{"type":"Feature","properties":{"id":"lens-detail-london-1960-planning_cell-2","layer":"planning_cell","category":"built_environment","year":1960,"visible_year":1960,"title":"2 source-backed planning and built records","confidence":"documented","confidence_mix":"documented:2","event_count":2,"source_count":1,"source_ids":"lon-extra-planning-data-listed-building-outlines","event_ids":"lon_planning_designation_listed-building-outline_42167236,lon_planning_designation_listed-building-outline_42167241","event_ids_all":"lon_planning_designation_listed-building-outline_42167236,lon_planning_designation_listed-building-outline_42167241","source_urls":"https://www.planning.data.gov.uk/entity/42167236,https://www.planning.data.gov.uk/entity/42167241","geometry_precision_mix":"Row-level point from the adapter; source geocoding precision varies and may be approximate.:2","representation":"planning and built evidence grid cell","timing_note":"Filtered by event effective year. OSM mapped-visibility dates and administrative dates can differ from real-world physical change dates.","caveat":"Planning cells are derived from source-backed event locations; they are not parcel boundaries unless source geometry is separately present.","generated_from":"web/data/city-atlas/cities/london/events_1960.json","lifecycle_status":"uncertain","status":"source_record","cell_size_m":95,"intensity":0.458,"label":"Listed building outline: Flat 1 36 St Martin's Lane London WC2N 4ER"},"geometry":{"type":"Polygon","coordinates":[[[-0.1275124,51.5096677],[-0.1261413,51.5096677],[-0.1261413,51.5105269],[-0.1275124,51.5105269],[-0.1275124,51.5096677]]]}},{"type":"Feature","properties":{"id":"lens-detail-london-1960-planning_cell-3","layer":"planning_cell","category":"built_environment","year":1960,"visible_year":1960,"title":"2 source-backed planning and built records","confidence":"documented","confidence_mix":"documented:2","event_count":2,"source_count":1,"source_ids":"lon-extra-planning-data-tree-preservation-zones","event_ids":"lon_planning_designation_tree-preservation-zone_19117323,lon_planning_designation_tree-preservation-zone_19117326","event_ids_all":"lon_planning_designation_tree-preservation-zone_19117323,lon_planning_designation_tree-preservation-zone_19117326","source_urls":"https://www.planning.data.gov.uk/entity/19117323,https://www.planning.data.gov.uk/entity/19117326","geometry_precision_mix":"Row-level point from the adapter; source geocoding precision varies and may be approximate.:2","representation":"planning and built evidence grid cell","timing_note":"Filtered by event effective year. OSM mapped-visibility dates and administrative dates can differ from real-world physical change dates.","caveat":"Planning cells are derived from source-backed event locations; they are not parcel boundaries unless source geometry is separately present.","generated_from":"web/data/city-atlas/cities/london/events_1960.json","lifecycle_status":"uncertain","status":"source_record","cell_size_m":95,"intensity":0.458,"label":"Tree preservation zone: Borough of Finchley (White Lodge Estate) No. 6. Tree Preservation Order made under The Town and Country Planning Act, 19"},"geometry":{"type":"Polygon","coordinates":[[[-0.1686454,51.5766817],[-0.1672743,51.5766817],[-0.1672743,51.5775408],[-0.1686454,51.5775408],[-0.1686454,51.5766817]]]}},{"type":"Feature","properties":{"id":"lens-detail-london-1960-planning_cell-0","layer":"planning_cell","category":"built_environment","year":1960,"visible_year":1960,"title":"1 source-backed planning and built record","confidence":"documented","confidence_mix":"documented:1","event_count":1,"source_count":1,"source_ids":"lon-extra-planning-data-listed-building-outlines","event_ids":"lon_planning_designation_listed-building-outline_42164896","event_ids_all":"lon_planning_designation_listed-building-outline_42164896","source_urls":"https://www.planning.data.gov.uk/entity/42164896","geometry_precision_mix":"Row-level point from the adapter; source geocoding precision varies and may be approximate.:1","representation":"planning and built evidence grid cell","timing_note":"Filtered by event effective year. OSM mapped-visibility dates and administrative dates can differ from real-world physical change dates.","caveat":"Planning cells are derived from source-backed event locations; they are not parcel boundaries unless source geometry is separately present.","generated_from":"web/data/city-atlas/cities/london/events_1960.json","lifecycle_status":"uncertain","status":"source_record","cell_size_m":95,"intensity":0.289,"label":"Listed building outline: Palace Theatre 109 - 113 Shaftesbury Avenue London W1D 5AY"},"geometry":{"type":"Polygon","coordinates":[[[-0.1302546,51.5131043],[-0.1288835,51.5131043],[-0.1288835,51.5139635],[-0.1302546,51.5139635],[-0.1302546,51.5131043]]]}},{"type":"Feature","properties":{"id":"lens-detail-london-1960-planning_cell-1","layer":"planning_cell","category":"built_environment","year":1960,"visible_year":1960,"title":"1 source-backed planning and built record","confidence":"documented","confidence_mix":"documented:1","event_count":1,"source_count":1,"source_ids":"lon-extra-planning-data-listed-building-outlines","event_ids":"lon_planning_designation_listed-building-outline_42166813","event_ids_all":"lon_planning_designation_listed-building-outline_42166813","source_urls":"https://www.planning.data.gov.uk/entity/42166813","geometry_precision_mix":"Row-level point from the adapter; source geocoding precision varies and may be approximate.:1","representation":"planning and built evidence grid cell","timing_note":"Filtered by event effective year. OSM mapped-visibility dates and administrative dates can differ from real-world physical change dates.","caveat":"Planning cells are derived from source-backed event locations; they are not parcel boundaries unless source geometry is separately present.","generated_from":"web/data/city-atlas/cities/london/events_1960.json","lifecycle_status":"uncertain","status":"source_record","cell_size_m":95,"intensity":0.289,"label":"Listed building outline: 2 Temple Place London WC2R 3BD"},"geometry":{"type":"Polygon","coordinates":[[[-0.1124303,51.511386],[-0.1110592,51.511386],[-0.1110592,51.5122452],[-0.1124303,51.5122452],[-0.1124303,51.511386]]]}},{"type":"Feature","properties":{"id":"lens-detail-london-1960-civic_coverage_cell-coverage-context-0","layer":"civic_coverage_cell","category":"civic_services","year":1960,"visible_year":1960,"title":"London, England 1960 civic service coverage context","confidence":"inferred","confidence_mix":"inferred:1","event_count":0,"source_count":3,"source_ids":"dft-road-safety-collisions,police-data-api,police-data-stop-search","event_ids":"","event_ids_all":"","source_urls":"","geometry_precision_mix":"configured atlas coverage grid from official scope sources","representation":"civic lens coverage context","timing_note":"No license-compatible civic service records are currently ingested for 1960; this lens geometry marks source coverage context only.","caveat":"Coverage context is not a city-change event, not a measured condition, and is excluded from headline counts.","generated_from":"web/data/city-atlas/cities/london/events_1960.json","coverage_status":"no_same_category_records","evidence_role":"context_not_year_specific_change_evidence","source_kind":"official_scope_context","headline_count_excluded":true,"intensity":0.16,"label":"No same-lens civic service records currently ingested","service_type":"coverage_context","status":"no_year_records"},"geometry":{"type":"Polygon","coordinates":[[[-0.5103,51.2868],[-0.34144,51.2868],[-0.34144,51.36782],[-0.5103,51.36782],[-0.5103,51.2868]]]}},{"type":"Feature","properties":{"id":"lens-detail-london-1960-civic_coverage_cell-coverage-context-1","layer":"civic_coverage_cell","category":"civic_services","year":1960,"visible_year":1960,"title":"London, England 1960 civic service coverage context","confidence":"inferred","confidence_mix":"inferred:1","event_count":0,"source_count":3,"source_ids":"dft-road-safety-collisions,police-data-api,police-data-stop-search","event_ids":"","event_ids_all":"","source_urls":"","geometry_precision_mix":"configured atlas coverage grid from official scope sources","representation":"civic lens coverage context","timing_note":"No license-compatible civic service records are currently ingested for 1960; this lens geometry marks source coverage context only.","caveat":"Coverage context is not a city-change event, not a measured condition, and is excluded from headline counts.","generated_from":"web/data/city-atlas/cities/london/events_1960.json","coverage_status":"no_same_category_records","evidence_role":"context_not_year_specific_change_evidence","source_kind":"official_scope_context","headline_count_excluded":true,"intensity":0.16,"label":"No same-lens civic service records currently ingested","service_type":"coverage_context","status":"no_year_records"},"geometry":{"type":"Polygon","coordinates":[[[-0.34144,51.2868],[-0.17258,51.2868],[-0.17258,51.36782],[-0.34144,51.36782],[-0.34144,51.2868]]]}},{"type":"Feature","properties":{"id":"lens-detail-london-1960-civic_coverage_cell-coverage-context-2","layer":"civic_coverage_cell","category":"civic_services","year":1960,"visible_year":1960,"title":"London, England 1960 civic service coverage context","confidence":"inferred","confidence_mix":"inferred:1","event_count":0,"source_count":3,"source_ids":"dft-road-safety-collisions,police-data-api,police-data-stop-search","event_ids":"","event_ids_all":"","source_urls":"","geometry_precision_mix":"configured atlas coverage grid from official scope sources","representation":"civic lens coverage context","timing_note":"No license-compatible civic service records are currently ingested for 1960; this lens geometry marks source coverage context only.","caveat":"Coverage context is not a city-change event, not a measured condition, and is excluded from headline counts.","generated_from":"web/data/city-atlas/cities/london/events_1960.json","coverage_status":"no_same_category_records","evidence_role":"context_not_year_specific_change_evidence","source_kind":"official_scope_context","headline_count_excluded":true,"intensity":0.16,"label":"No same-lens civic service records currently ingested","service_type":"coverage_context","status":"no_year_records"},"geometry":{"type":"Polygon","coordinates":[[[-0.17258,51.2868],[-0.00372,51.2868],[-0.00372,51.36782],[-0.17258,51.36782],[-0.17258,51.2868]]]}},{"type":"Feature","properties":{"id":"lens-detail-london-1960-civic_coverage_cell-coverage-context-3","layer":"civic_coverage_cell","category":"civic_services","year":1960,"visible_year":1960,"title":"London, England 1960 civic service coverage context","confidence":"inferred","confidence_mix":"inferred:1","event_count":0,"source_count":3,"source_ids":"dft-road-safety-collisions,police-data-api,police-data-stop-search","event_ids":"","event_ids_all":"","source_urls":"","geometry_precision_mix":"configured atlas coverage grid from official scope sources","representation":"civic lens coverage context","timing_note":"No license-compatible civic service records are currently ingested for 1960; this lens geometry marks source coverage context only.","caveat":"Coverage context is not a city-change event, not a measured condition, and is excluded from headline counts.","generated_from":"web/data/city-atlas/cities/london/events_1960.json","coverage_status":"no_same_category_records","evidence_role":"context_not_year_specific_change_evidence","source_kind":"official_scope_context","headline_count_excluded":true,"intensity":0.16,"label":"No same-lens civic service records currently ingested","service_type":"coverage_context","status":"no_year_records"},"geometry":{"type":"Polygon","coordinates":[[[-0.00372,51.2868],[0.16514,51.2868],[0.16514,51.36782],[-0.00372,51.36782],[-0.00372,51.2868]]]}},{"type":"Feature","properties":{"id":"lens-detail-london-1960-civic_coverage_cell-coverage-context-4","layer":"civic_coverage_cell","category":"civic_services","year":1960,"visible_year":1960,"title":"London, England 1960 civic service coverage context","confidence":"inferred","confidence_mix":"inferred:1","event_count":0,"source_count":3,"source_ids":"dft-road-safety-collisions,police-data-api,police-data-stop-search","event_ids":"","event_ids_all":"","source_urls":"","geometry_precision_mix":"configured atlas coverage grid from official scope sources","representation":"civic lens coverage context","timing_note":"No license-compatible civic service records are currently ingested for 1960; this lens geometry marks source coverage context only.","caveat":"Coverage context is not a city-change event, not a measured condition, and is excluded from headline counts.","generated_from":"web/data/city-atlas/cities/london/events_1960.json","coverage_status":"no_same_category_records","evidence_role":"context_not_year_specific_change_evidence","source_kind":"official_scope_context","headline_count_excluded":true,"intensity":0.16,"label":"No same-lens civic service records currently ingested","service_type":"coverage_context","status":"no_year_records"},"geometry":{"type":"Polygon","coordinates":[[[0.16514,51.2868],[0.334,51.2868],[0.334,51.36782],[0.16514,51.36782],[0.16514,51.2868]]]}},{"type":"Feature","properties":{"id":"lens-detail-london-1960-civic_coverage_cell-coverage-context-5","layer":"civic_coverage_cell","category":"civic_services","year":1960,"visible_year":1960,"title":"London, England 1960 civic service coverage context","confidence":"inferred","confidence_mix":"inferred:1","event_count":0,"source_count":3,"source_ids":"dft-road-safety-collisions,police-data-api,police-data-stop-search","event_ids":"","event_ids_all":"","source_urls":"","geometry_precision_mix":"configured atlas coverage grid from official scope sources","representation":"civic lens coverage context","timing_note":"No license-compatible civic service records are currently ingested for 1960; this lens geometry marks source coverage context only.","caveat":"Coverage context is not a city-change event, not a measured condition, and is excluded from headline counts.","generated_from":"web/data/city-atlas/cities/london/events_1960.json","coverage_status":"no_same_category_records","evidence_role":"context_not_year_specific_change_evidence","source_kind":"official_scope_context","headline_count_excluded":true,"intensity":0.16,"label":"No same-lens civic service records currently ingested","service_type":"coverage_context","status":"no_year_records"},"geometry":{"type":"Polygon","coordinates":[[[-0.5103,51.36782],[-0.34144,51.36782],[-0.34144,51.44884],[-0.5103,51.44884],[-0.5103,51.36782]]]}},{"type":"Feature","properties":{"id":"lens-detail-london-1960-civic_coverage_cell-coverage-context-6","layer":"civic_coverage_cell","category":"civic_services","year":1960,"visible_year":1960,"title":"London, England 1960 civic service coverage context","confidence":"inferred","confidence_mix":"inferred:1","event_count":0,"source_count":3,"source_ids":"dft-road-safety-collisions,police-data-api,police-data-stop-search","event_ids":"","event_ids_all":"","source_urls":"","geometry_precision_mix":"configured atlas coverage grid from official scope sources","representation":"civic lens coverage context","timing_note":"No license-compatible civic service records are currently ingested for 1960; this lens geometry marks source coverage context only.","caveat":"Coverage context is not a city-change event, not a measured condition, and is excluded from headline counts.","generated_from":"web/data/city-atlas/cities/london/events_1960.json","coverage_status":"no_same_category_records","evidence_role":"context_not_year_specific_change_evidence","source_kind":"official_scope_context","headline_count_excluded":true,"intensity":0.16,"label":"No same-lens civic service records currently ingested","service_type":"coverage_context","status":"no_year_records"},"geometry":{"type":"Polygon","coordinates":[[[-0.34144,51.36782],[-0.17258,51.36782],[-0.17258,51.44884],[-0.34144,51.44884],[-0.34144,51.36782]]]}},{"type":"Feature","properties":{"id":"lens-detail-london-1960-civic_coverage_cell-coverage-context-7","layer":"civic_coverage_cell","category":"civic_services","year":1960,"visible_year":1960,"title":"London, England 1960 civic service coverage context","confidence":"inferred","confidence_mix":"inferred:1","event_count":0,"source_count":3,"source_ids":"dft-road-safety-collisions,police-data-api,police-data-stop-search","event_ids":"","event_ids_all":"","source_urls":"","geometry_precision_mix":"configured atlas coverage grid from official scope sources","representation":"civic lens coverage context","timing_note":"No license-compatible civic service records are currently ingested for 1960; this lens geometry marks source coverage context only.","caveat":"Coverage context is not a city-change event, not a measured condition, and is excluded from headline counts.","generated_from":"web/data/city-atlas/cities/london/events_1960.json","coverage_status":"no_same_category_records","evidence_role":"context_not_year_specific_change_evidence","source_kind":"official_scope_context","headline_count_excluded":true,"intensity":0.16,"label":"No same-lens civic service records currently ingested","service_type":"coverage_context","status":"no_year_records"},"geometry":{"type":"Polygon","coordinates":[[[-0.17258,51.36782],[-0.00372,51.36782],[-0.00372,51.44884],[-0.17258,51.44884],[-0.17258,51.36782]]]}},{"type":"Feature","properties":{"id":"lens-detail-london-1960-civic_coverage_cell-coverage-context-8","layer":"civic_coverage_cell","category":"civic_services","year":1960,"visible_year":1960,"title":"London, England 1960 civic service coverage context","confidence":"inferred","confidence_mix":"inferred:1","event_count":0,"source_count":3,"source_ids":"dft-road-safety-collisions,police-data-api,police-data-stop-search","event_ids":"","event_ids_all":"","source_urls":"","geometry_precision_mix":"configured atlas coverage grid from official scope sources","representation":"civic lens coverage context","timing_note":"No license-compatible civic service records are currently ingested for 1960; this lens geometry marks source coverage context only.","caveat":"Coverage context is not a city-change event, not a measured condition, and is excluded from headline counts.","generated_from":"web/data/city-atlas/cities/london/events_1960.json","coverage_status":"no_same_category_records","evidence_role":"context_not_year_specific_change_evidence","source_kind":"official_scope_context","headline_count_excluded":true,"intensity":0.16,"label":"No same-lens civic service records currently ingested","service_type":"coverage_context","status":"no_year_records"},"geometry":{"type":"Polygon","coordinates":[[[-0.00372,51.36782],[0.16514,51.36782],[0.16514,51.44884],[-0.00372,51.44884],[-0.00372,51.36782]]]}},{"type":"Feature","properties":{"id":"lens-detail-london-1960-civic_coverage_cell-coverage-context-9","layer":"civic_coverage_cell","category":"civic_services","year":1960,"visible_year":1960,"title":"London, England 1960 civic service coverage context","confidence":"inferred","confidence_mix":"inferred:1","event_count":0,"source_count":3,"source_ids":"dft-road-safety-collisions,police-data-api,police-data-stop-search","event_ids":"","event_ids_all":"","source_urls":"","geometry_precision_mix":"configured atlas coverage grid from official scope sources","representation":"civic lens coverage context","timing_note":"No license-compatible civic service records are currently ingested for 1960; this lens geometry marks source coverage context only.","caveat":"Coverage context is not a city-change event, not a measured condition, and is excluded from headline counts.","generated_from":"web/data/city-atlas/cities/london/events_1960.json","coverage_status":"no_same_category_records","evidence_role":"context_not_year_specific_change_evidence","source_kind":"official_scope_context","headline_count_excluded":true,"intensity":0.16,"label":"No same-lens civic service records currently ingested","service_type":"coverage_context","status":"no_year_records"},"geometry":{"type":"Polygon","coordinates":[[[0.16514,51.36782],[0.334,51.36782],[0.334,51.44884],[0.16514,51.44884],[0.16514,51.36782]]]}},{"type":"Feature","properties":{"id":"lens-detail-london-1960-civic_coverage_cell-coverage-context-10","layer":"civic_coverage_cell","category":"civic_services","year":1960,"visible_year":1960,"title":"London, England 1960 civic service coverage context","confidence":"inferred","confidence_mix":"inferred:1","event_count":0,"source_count":3,"source_ids":"dft-road-safety-collisions,police-data-api,police-data-stop-search","event_ids":"","event_ids_all":"","source_urls":"","geometry_precision_mix":"configured atlas coverage grid from official scope sources","representation":"civic lens coverage context","timing_note":"No license-compatible civic service records are currently ingested for 1960; this lens geometry marks source coverage context only.","caveat":"Coverage context is not a city-change event, not a measured condition, and is excluded from headline counts.","generated_from":"web/data/city-atlas/cities/london/events_1960.json","coverage_status":"no_same_category_records","evidence_role":"context_not_year_specific_change_evidence","source_kind":"official_scope_context","headline_count_excluded":true,"intensity":0.16,"label":"No same-lens civic service records currently ingested","service_type":"coverage_context","status":"no_year_records"},"geometry":{"type":"Polygon","coordinates":[[[-0.5103,51.44884],[-0.34144,51.44884],[-0.34144,51.52986],[-0.5103,51.52986],[-0.5103,51.44884]]]}},{"type":"Feature","properties":{"id":"lens-detail-london-1960-civic_coverage_cell-coverage-context-11","layer":"civic_coverage_cell","category":"civic_services","year":1960,"visible_year":1960,"title":"London, England 1960 civic service coverage context","confidence":"inferred","confidence_mix":"inferred:1","event_count":0,"source_count":3,"source_ids":"dft-road-safety-collisions,police-data-api,police-data-stop-search","event_ids":"","event_ids_all":"","source_urls":"","geometry_precision_mix":"configured atlas coverage grid from official scope sources","representation":"civic lens coverage context","timing_note":"No license-compatible civic service records are currently ingested for 1960; this lens geometry marks source coverage context only.","caveat":"Coverage context is not a city-change event, not a measured condition, and is excluded from headline counts.","generated_from":"web/data/city-atlas/cities/london/events_1960.json","coverage_status":"no_same_category_records","evidence_role":"context_not_year_specific_change_evidence","source_kind":"official_scope_context","headline_count_excluded":true,"intensity":0.16,"label":"No same-lens civic service records currently ingested","service_type":"coverage_context","status":"no_year_records"},"geometry":{"type":"Polygon","coordinates":[[[-0.34144,51.44884],[-0.17258,51.44884],[-0.17258,51.52986],[-0.34144,51.52986],[-0.34144,51.44884]]]}},{"type":"Feature","properties":{"id":"lens-detail-london-1960-civic_coverage_cell-coverage-context-12","layer":"civic_coverage_cell","category":"civic_services","year":1960,"visible_year":1960,"title":"London, England 1960 civic service coverage context","confidence":"inferred","confidence_mix":"inferred:1","event_count":0,"source_count":3,"source_ids":"dft-road-safety-collisions,police-data-api,police-data-stop-search","event_ids":"","event_ids_all":"","source_urls":"","geometry_precision_mix":"configured atlas coverage grid from official scope sources","representation":"civic lens coverage context","timing_note":"No license-compatible civic service records are currently ingested for 1960; this lens geometry marks source coverage context only.","caveat":"Coverage context is not a city-change event, not a measured condition, and is excluded from headline counts.","generated_from":"web/data/city-atlas/cities/london/events_1960.json","coverage_status":"no_same_category_records","evidence_role":"context_not_year_specific_change_evidence","source_kind":"official_scope_context","headline_count_excluded":true,"intensity":0.16,"label":"No same-lens civic service records currently ingested","service_type":"coverage_context","status":"no_year_records"},"geometry":{"type":"Polygon","coordinates":[[[-0.17258,51.44884],[-0.00372,51.44884],[-0.00372,51.52986],[-0.17258,51.52986],[-0.17258,51.44884]]]}},{"type":"Feature","properties":{"id":"lens-detail-london-1960-civic_coverage_cell-coverage-context-13","layer":"civic_coverage_cell","category":"civic_services","year":1960,"visible_year":1960,"title":"London, England 1960 civic service coverage context","confidence":"inferred","confidence_mix":"inferred:1","event_count":0,"source_count":3,"source_ids":"dft-road-safety-collisions,police-data-api,police-data-stop-search","event_ids":"","event_ids_all":"","source_urls":"","geometry_precision_mix":"configured atlas coverage grid from official scope sources","representation":"civic lens coverage context","timing_note":"No license-compatible civic service records are currently ingested for 1960; this lens geometry marks source coverage context only.","caveat":"Coverage context is not a city-change event, not a measured condition, and is excluded from headline counts.","generated_from":"web/data/city-atlas/cities/london/events_1960.json","coverage_status":"no_same_category_records","evidence_role":"context_not_year_specific_change_evidence","source_kind":"official_scope_context","headline_count_excluded":true,"intensity":0.16,"label":"No same-lens civic service records currently ingested","service_type":"coverage_context","status":"no_year_records"},"geometry":{"type":"Polygon","coordinates":[[[-0.00372,51.44884],[0.16514,51.44884],[0.16514,51.52986],[-0.00372,51.52986],[-0.00372,51.44884]]]}},{"type":"Feature","properties":{"id":"lens-detail-london-1960-civic_coverage_cell-coverage-context-14","layer":"civic_coverage_cell","category":"civic_services","year":1960,"visible_year":1960,"title":"London, England 1960 civic service coverage context","confidence":"inferred","confidence_mix":"inferred:1","event_count":0,"source_count":3,"source_ids":"dft-road-safety-collisions,police-data-api,police-data-stop-search","event_ids":"","event_ids_all":"","source_urls":"","geometry_precision_mix":"configured atlas coverage grid from official scope sources","representation":"civic lens coverage context","timing_note":"No license-compatible civic service records are currently ingested for 1960; this lens geometry marks source coverage context only.","caveat":"Coverage context is not a city-change event, not a measured condition, and is excluded from headline counts.","generated_from":"web/data/city-atlas/cities/london/events_1960.json","coverage_status":"no_same_category_records","evidence_role":"context_not_year_specific_change_evidence","source_kind":"official_scope_context","headline_count_excluded":true,"intensity":0.16,"label":"No same-lens civic service records currently ingested","service_type":"coverage_context","status":"no_year_records"},"geometry":{"type":"Polygon","coordinates":[[[0.16514,51.44884],[0.334,51.44884],[0.334,51.52986],[0.16514,51.52986],[0.16514,51.44884]]]}},{"type":"Feature","properties":{"id":"lens-detail-london-1960-civic_coverage_cell-coverage-context-15","layer":"civic_coverage_cell","category":"civic_services","year":1960,"visible_year":1960,"title":"London, England 1960 civic service coverage context","confidence":"inferred","confidence_mix":"inferred:1","event_count":0,"source_count":3,"source_ids":"dft-road-safety-collisions,police-data-api,police-data-stop-search","event_ids":"","event_ids_all":"","source_urls":"","geometry_precision_mix":"configured atlas coverage grid from official scope sources","representation":"civic lens coverage context","timing_note":"No license-compatible civic service records are currently ingested for 1960; this lens geometry marks source coverage context only.","caveat":"Coverage context is not a city-change event, not a measured condition, and is excluded from headline counts.","generated_from":"web/data/city-atlas/cities/london/events_1960.json","coverage_status":"no_same_category_records","evidence_role":"context_not_year_specific_change_evidence","source_kind":"official_scope_context","headline_count_excluded":true,"intensity":0.16,"label":"No same-lens civic service records currently ingested","service_type":"coverage_context","status":"no_year_records"},"geometry":{"type":"Polygon","coordinates":[[[-0.5103,51.52986],[-0.34144,51.52986],[-0.34144,51.61088],[-0.5103,51.61088],[-0.5103,51.52986]]]}},{"type":"Feature","properties":{"id":"lens-detail-london-1960-civic_coverage_cell-coverage-context-16","layer":"civic_coverage_cell","category":"civic_services","year":1960,"visible_year":1960,"title":"London, England 1960 civic service coverage context","confidence":"inferred","confidence_mix":"inferred:1","event_count":0,"source_count":3,"source_ids":"dft-road-safety-collisions,police-data-api,police-data-stop-search","event_ids":"","event_ids_all":"","source_urls":"","geometry_precision_mix":"configured atlas coverage grid from official scope sources","representation":"civic lens coverage context","timing_note":"No license-compatible civic service records are currently ingested for 1960; this lens geometry marks source coverage context only.","caveat":"Coverage context is not a city-change event, not a measured condition, and is excluded from headline counts.","generated_from":"web/data/city-atlas/cities/london/events_1960.json","coverage_status":"no_same_category_records","evidence_role":"context_not_year_specific_change_evidence","source_kind":"official_scope_context","headline_count_excluded":true,"intensity":0.16,"label":"No same-lens civic service records currently ingested","service_type":"coverage_context","status":"no_year_records"},"geometry":{"type":"Polygon","coordinates":[[[-0.34144,51.52986],[-0.17258,51.52986],[-0.17258,51.61088],[-0.34144,51.61088],[-0.34144,51.52986]]]}},{"type":"Feature","properties":{"id":"lens-detail-london-1960-civic_coverage_cell-coverage-context-17","layer":"civic_coverage_cell","category":"civic_services","year":1960,"visible_year":1960,"title":"London, England 1960 civic service coverage context","confidence":"inferred","confidence_mix":"inferred:1","event_count":0,"source_count":3,"source_ids":"dft-road-safety-collisions,police-data-api,police-data-stop-search","event_ids":"","event_ids_all":"","source_urls":"","geometry_precision_mix":"configured atlas coverage grid from official scope sources","representation":"civic lens coverage context","timing_note":"No license-compatible civic service records are currently ingested for 1960; this lens geometry marks source coverage context only.","caveat":"Coverage context is not a city-change event, not a measured condition, and is excluded from headline counts.","generated_from":"web/data/city-atlas/cities/london/events_1960.json","coverage_status":"no_same_category_records","evidence_role":"context_not_year_specific_change_evidence","source_kind":"official_scope_context","headline_count_excluded":true,"intensity":0.16,"label":"No same-lens civic service records currently ingested","service_type":"coverage_context","status":"no_year_records"},"geometry":{"type":"Polygon","coordinates":[[[-0.17258,51.52986],[-0.00372,51.52986],[-0.00372,51.61088],[-0.17258,51.61088],[-0.17258,51.52986]]]}},{"type":"Feature","properties":{"id":"lens-detail-london-1960-civic_coverage_cell-coverage-context-18","layer":"civic_coverage_cell","category":"civic_services","year":1960,"visible_year":1960,"title":"London, England 1960 civic service coverage context","confidence":"inferred","confidence_mix":"inferred:1","event_count":0,"source_count":3,"source_ids":"dft-road-safety-collisions,police-data-api,police-data-stop-search","event_ids":"","event_ids_all":"","source_urls":"","geometry_precision_mix":"configured atlas coverage grid from official scope sources","representation":"civic lens coverage context","timing_note":"No license-compatible civic service records are currently ingested for 1960; this lens geometry marks source coverage context only.","caveat":"Coverage context is not a city-change event, not a measured condition, and is excluded from headline counts.","generated_from":"web/data/city-atlas/cities/london/events_1960.json","coverage_status":"no_same_category_records","evidence_role":"context_not_year_specific_change_evidence","source_kind":"official_scope_context","headline_count_excluded":true,"intensity":0.16,"label":"No same-lens civic service records currently ingested","service_type":"coverage_context","status":"no_year_records"},"geometry":{"type":"Polygon","coordinates":[[[-0.00372,51.52986],[0.16514,51.52986],[0.16514,51.61088],[-0.00372,51.61088],[-0.00372,51.52986]]]}},{"type":"Feature","properties":{"id":"lens-detail-london-1960-civic_coverage_cell-coverage-context-19","layer":"civic_coverage_cell","category":"civic_services","year":1960,"visible_year":1960,"title":"London, England 1960 civic service coverage context","confidence":"inferred","confidence_mix":"inferred:1","event_count":0,"source_count":3,"source_ids":"dft-road-safety-collisions,police-data-api,police-data-stop-search","event_ids":"","event_ids_all":"","source_urls":"","geometry_precision_mix":"configured atlas coverage grid from official scope sources","representation":"civic lens coverage context","timing_note":"No license-compatible civic service records are currently ingested for 1960; this lens geometry marks source coverage context only.","caveat":"Coverage context is not a city-change event, not a measured condition, and is excluded from headline counts.","generated_from":"web/data/city-atlas/cities/london/events_1960.json","coverage_status":"no_same_category_records","evidence_role":"context_not_year_specific_change_evidence","source_kind":"official_scope_context","headline_count_excluded":true,"intensity":0.16,"label":"No same-lens civic service records currently ingested","service_type":"coverage_context","status":"no_year_records"},"geometry":{"type":"Polygon","coordinates":[[[0.16514,51.52986],[0.334,51.52986],[0.334,51.61088],[0.16514,51.61088],[0.16514,51.52986]]]}},{"type":"Feature","properties":{"id":"lens-detail-london-1960-civic_coverage_cell-coverage-context-20","layer":"civic_coverage_cell","category":"civic_services","year":1960,"visible_year":1960,"title":"London, England 1960 civic service coverage context","confidence":"inferred","confidence_mix":"inferred:1","event_count":0,"source_count":3,"source_ids":"dft-road-safety-collisions,police-data-api,police-data-stop-search","event_ids":"","event_ids_all":"","source_urls":"","geometry_precision_mix":"configured atlas coverage grid from official scope sources","representation":"civic lens coverage context","timing_note":"No license-compatible civic service records are currently ingested for 1960; this lens geometry marks source coverage context only.","caveat":"Coverage context is not a city-change event, not a measured condition, and is excluded from headline counts.","generated_from":"web/data/city-atlas/cities/london/events_1960.json","coverage_status":"no_same_category_records","evidence_role":"context_not_year_specific_change_evidence","source_kind":"official_scope_context","headline_count_excluded":true,"intensity":0.16,"label":"No same-lens civic service records currently ingested","service_type":"coverage_context","status":"no_year_records"},"geometry":{"type":"Polygon","coordinates":[[[-0.5103,51.61088],[-0.34144,51.61088],[-0.34144,51.6919],[-0.5103,51.6919],[-0.5103,51.61088]]]}},{"type":"Feature","properties":{"id":"lens-detail-london-1960-civic_coverage_cell-coverage-context-21","layer":"civic_coverage_cell","category":"civic_services","year":1960,"visible_year":1960,"title":"London, England 1960 civic service coverage context","confidence":"inferred","confidence_mix":"inferred:1","event_count":0,"source_count":3,"source_ids":"dft-road-safety-collisions,police-data-api,police-data-stop-search","event_ids":"","event_ids_all":"","source_urls":"","geometry_precision_mix":"configured atlas coverage grid from official scope sources","representation":"civic lens coverage context","timing_note":"No license-compatible civic service records are currently ingested for 1960; this lens geometry marks source coverage context only.","caveat":"Coverage context is not a city-change event, not a measured condition, and is excluded from headline counts.","generated_from":"web/data/city-atlas/cities/london/events_1960.json","coverage_status":"no_same_category_records","evidence_role":"context_not_year_specific_change_evidence","source_kind":"official_scope_context","headline_count_excluded":true,"intensity":0.16,"label":"No same-lens civic service records currently ingested","service_type":"coverage_context","status":"no_year_records"},"geometry":{"type":"Polygon","coordinates":[[[-0.34144,51.61088],[-0.17258,51.61088],[-0.17258,51.6919],[-0.34144,51.6919],[-0.34144,51.61088]]]}},{"type":"Feature","properties":{"id":"lens-detail-london-1960-civic_coverage_cell-coverage-context-22","layer":"civic_coverage_cell","category":"civic_services","year":1960,"visible_year":1960,"title":"London, England 1960 civic service coverage context","confidence":"inferred","confidence_mix":"inferred:1","event_count":0,"source_count":3,"source_ids":"dft-road-safety-collisions,police-data-api,police-data-stop-search","event_ids":"","event_ids_all":"","source_urls":"","geometry_precision_mix":"configured atlas coverage grid from official scope sources","representation":"civic lens coverage context","timing_note":"No license-compatible civic service records are currently ingested for 1960; this lens geometry marks source coverage context only.","caveat":"Coverage context is not a city-change event, not a measured condition, and is excluded from headline counts.","generated_from":"web/data/city-atlas/cities/london/events_1960.json","coverage_status":"no_same_category_records","evidence_role":"context_not_year_specific_change_evidence","source_kind":"official_scope_context","headline_count_excluded":true,"intensity":0.16,"label":"No same-lens civic service records currently ingested","service_type":"coverage_context","status":"no_year_records"},"geometry":{"type":"Polygon","coordinates":[[[-0.17258,51.61088],[-0.00372,51.61088],[-0.00372,51.6919],[-0.17258,51.6919],[-0.17258,51.61088]]]}},{"type":"Feature","properties":{"id":"lens-detail-london-1960-civic_coverage_cell-coverage-context-23","layer":"civic_coverage_cell","category":"civic_services","year":1960,"visible_year":1960,"title":"London, England 1960 civic service coverage context","confidence":"inferred","confidence_mix":"inferred:1","event_count":0,"source_count":3,"source_ids":"dft-road-safety-collisions,police-data-api,police-data-stop-search","event_ids":"","event_ids_all":"","source_urls":"","geometry_precision_mix":"configured atlas coverage grid from official scope sources","representation":"civic lens coverage context","timing_note":"No license-compatible civic service records are currently ingested for 1960; this lens geometry marks source coverage context only.","caveat":"Coverage context is not a city-change event, not a measured condition, and is excluded from headline counts.","generated_from":"web/data/city-atlas/cities/london/events_1960.json","coverage_status":"no_same_category_records","evidence_role":"context_not_year_specific_change_evidence","source_kind":"official_scope_context","headline_count_excluded":true,"intensity":0.16,"label":"No same-lens civic service records currently ingested","service_type":"coverage_context","status":"no_year_records"},"geometry":{"type":"Polygon","coordinates":[[[-0.00372,51.61088],[0.16514,51.61088],[0.16514,51.6919],[-0.00372,51.6919],[-0.00372,51.61088]]]}},{"type":"Feature","properties":{"id":"lens-detail-london-1960-civic_coverage_cell-coverage-context-24","layer":"civic_coverage_cell","category":"civic_services","year":1960,"visible_year":1960,"title":"London, England 1960 civic service coverage context","confidence":"inferred","confidence_mix":"inferred:1","event_count":0,"source_count":3,"source_ids":"dft-road-safety-collisions,police-data-api,police-data-stop-search","event_ids":"","event_ids_all":"","source_urls":"","geometry_precision_mix":"configured atlas coverage grid from official scope sources","representation":"civic lens coverage context","timing_note":"No license-compatible civic service records are currently ingested for 1960; this lens geometry marks source coverage context only.","caveat":"Coverage context is not a city-change event, not a measured condition, and is excluded from headline counts.","generated_from":"web/data/city-atlas/cities/london/events_1960.json","coverage_status":"no_same_category_records","evidence_role":"context_not_year_specific_change_evidence","source_kind":"official_scope_context","headline_count_excluded":true,"intensity":0.16,"label":"No same-lens civic service records currently ingested","service_type":"coverage_context","status":"no_year_records"},"geometry":{"type":"Polygon","coordinates":[[[0.16514,51.61088],[0.334,51.61088],[0.334,51.6919],[0.16514,51.6919],[0.16514,51.61088]]]}},{"type":"Feature","properties":{"id":"lens-detail-london-1960-economy_activity_cell-coverage-context-0","layer":"economy_activity_cell","category":"economy","year":1960,"visible_year":1960,"title":"London, England 1960 economy coverage context","confidence":"inferred","confidence_mix":"inferred:1","event_count":0,"source_count":3,"source_ids":"dft-road-safety-collisions,police-data-api,police-data-stop-search","event_ids":"","event_ids_all":"","source_urls":"","geometry_precision_mix":"configured atlas coverage grid from official scope sources","representation":"economy lens coverage context","timing_note":"No license-compatible economy records are currently ingested for 1960; this lens geometry marks source coverage context only.","caveat":"Coverage context is not a city-change event, not a measured condition, and is excluded from headline counts.","generated_from":"web/data/city-atlas/cities/london/events_1960.json","coverage_status":"no_same_category_records","evidence_role":"context_not_year_specific_change_evidence","source_kind":"official_scope_context","headline_count_excluded":true,"intensity":0.16,"label":"No same-lens economy records currently ingested","sector":"coverage_context","activity_status":"no_year_records","status":"no_year_records"},"geometry":{"type":"Polygon","coordinates":[[[-0.5103,51.2868],[-0.34144,51.2868],[-0.34144,51.36782],[-0.5103,51.36782],[-0.5103,51.2868]]]}},{"type":"Feature","properties":{"id":"lens-detail-london-1960-economy_activity_cell-coverage-context-1","layer":"economy_activity_cell","category":"economy","year":1960,"visible_year":1960,"title":"London, England 1960 economy coverage context","confidence":"inferred","confidence_mix":"inferred:1","event_count":0,"source_count":3,"source_ids":"dft-road-safety-collisions,police-data-api,police-data-stop-search","event_ids":"","event_ids_all":"","source_urls":"","geometry_precision_mix":"configured atlas coverage grid from official scope sources","representation":"economy lens coverage context","timing_note":"No license-compatible economy records are currently ingested for 1960; this lens geometry marks source coverage context only.","caveat":"Coverage context is not a city-change event, not a measured condition, and is excluded from headline counts.","generated_from":"web/data/city-atlas/cities/london/events_1960.json","coverage_status":"no_same_category_records","evidence_role":"context_not_year_specific_change_evidence","source_kind":"official_scope_context","headline_count_excluded":true,"intensity":0.16,"label":"No same-lens economy records currently ingested","sector":"coverage_context","activity_status":"no_year_records","status":"no_year_records"},"geometry":{"type":"Polygon","coordinates":[[[-0.34144,51.2868],[-0.17258,51.2868],[-0.17258,51.36782],[-0.34144,51.36782],[-0.34144,51.2868]]]}},{"type":"Feature","properties":{"id":"lens-detail-london-1960-economy_activity_cell-coverage-context-2","layer":"economy_activity_cell","category":"economy","year":1960,"visible_year":1960,"title":"London, England 1960 economy coverage context","confidence":"inferred","confidence_mix":"inferred:1","event_count":0,"source_count":3,"source_ids":"dft-road-safety-collisions,police-data-api,police-data-stop-search","event_ids":"","event_ids_all":"","source_urls":"","geometry_precision_mix":"configured atlas coverage grid from official scope sources","representation":"economy lens coverage context","timing_note":"No license-compatible economy records are currently ingested for 1960; this lens geometry marks source coverage context only.","caveat":"Coverage context is not a city-change event, not a measured condition, and is excluded from headline counts.","generated_from":"web/data/city-atlas/cities/london/events_1960.json","coverage_status":"no_same_category_records","evidence_role":"context_not_year_specific_change_evidence","source_kind":"official_scope_context","headline_count_excluded":true,"intensity":0.16,"label":"No same-lens economy records currently ingested","sector":"coverage_context","activity_status":"no_year_records","status":"no_year_records"},"geometry":{"type":"Polygon","coordinates":[[[-0.17258,51.2868],[-0.00372,51.2868],[-0.00372,51.36782],[-0.17258,51.36782],[-0.17258,51.2868]]]}},{"type":"Feature","properties":{"id":"lens-detail-london-1960-economy_activity_cell-coverage-context-3","layer":"economy_activity_cell","category":"economy","year":1960,"visible_year":1960,"title":"London, England 1960 economy coverage context","confidence":"inferred","confidence_mix":"inferred:1","event_count":0,"source_count":3,"source_ids":"dft-road-safety-collisions,police-data-api,police-data-stop-search","event_ids":"","event_ids_all":"","source_urls":"","geometry_precision_mix":"configured atlas coverage grid from official scope sources","representation":"economy lens coverage context","timing_note":"No license-compatible economy records are currently ingested for 1960; this lens geometry marks source coverage context only.","caveat":"Coverage context is not a city-change event, not a measured condition, and is excluded from headline counts.","generated_from":"web/data/city-atlas/cities/london/events_1960.json","coverage_status":"no_same_category_records","evidence_role":"context_not_year_specific_change_evidence","source_kind":"official_scope_context","headline_count_excluded":true,"intensity":0.16,"label":"No same-lens economy records currently ingested","sector":"coverage_context","activity_status":"no_year_records","status":"no_year_records"},"geometry":{"type":"Polygon","coordinates":[[[-0.00372,51.2868],[0.16514,51.2868],[0.16514,51.36782],[-0.00372,51.36782],[-0.00372,51.2868]]]}},{"type":"Feature","properties":{"id":"lens-detail-london-1960-economy_activity_cell-coverage-context-4","layer":"economy_activity_cell","category":"economy","year":1960,"visible_year":1960,"title":"London, England 1960 economy coverage context","confidence":"inferred","confidence_mix":"inferred:1","event_count":0,"source_count":3,"source_ids":"dft-road-safety-collisions,police-data-api,police-data-stop-search","event_ids":"","event_ids_all":"","source_urls":"","geometry_precision_mix":"configured atlas coverage grid from official scope sources","representation":"economy lens coverage context","timing_note":"No license-compatible economy records are currently ingested for 1960; this lens geometry marks source coverage context only.","caveat":"Coverage context is not a city-change event, not a measured condition, and is excluded from headline counts.","generated_from":"web/data/city-atlas/cities/london/events_1960.json","coverage_status":"no_same_category_records","evidence_role":"context_not_year_specific_change_evidence","source_kind":"official_scope_context","headline_count_excluded":true,"intensity":0.16,"label":"No same-lens economy records currently ingested","sector":"coverage_context","activity_status":"no_year_records","status":"no_year_records"},"geometry":{"type":"Polygon","coordinates":[[[0.16514,51.2868],[0.334,51.2868],[0.334,51.36782],[0.16514,51.36782],[0.16514,51.2868]]]}},{"type":"Feature","properties":{"id":"lens-detail-london-1960-economy_activity_cell-coverage-context-5","layer":"economy_activity_cell","category":"economy","year":1960,"visible_year":1960,"title":"London, England 1960 economy coverage context","confidence":"inferred","confidence_mix":"inferred:1","event_count":0,"source_count":3,"source_ids":"dft-road-safety-collisions,police-data-api,police-data-stop-search","event_ids":"","event_ids_all":"","source_urls":"","geometry_precision_mix":"configured atlas coverage grid from official scope sources","representation":"economy lens coverage context","timing_note":"No license-compatible economy records are currently ingested for 1960; this lens geometry marks source coverage context only.","caveat":"Coverage context is not a city-change event, not a measured condition, and is excluded from headline counts.","generated_from":"web/data/city-atlas/cities/london/events_1960.json","coverage_status":"no_same_category_records","evidence_role":"context_not_year_specific_change_evidence","source_kind":"official_scope_context","headline_count_excluded":true,"intensity":0.16,"label":"No same-lens economy records currently ingested","sector":"coverage_context","activity_status":"no_year_records","status":"no_year_records"},"geometry":{"type":"Polygon","coordinates":[[[-0.5103,51.36782],[-0.34144,51.36782],[-0.34144,51.44884],[-0.5103,51.44884],[-0.5103,51.36782]]]}},{"type":"Feature","properties":{"id":"lens-detail-london-1960-economy_activity_cell-coverage-context-6","layer":"economy_activity_cell","category":"economy","year":1960,"visible_year":1960,"title":"London, England 1960 economy coverage context","confidence":"inferred","confidence_mix":"inferred:1","event_count":0,"source_count":3,"source_ids":"dft-road-safety-collisions,police-data-api,police-data-stop-search","event_ids":"","event_ids_all":"","source_urls":"","geometry_precision_mix":"configured atlas coverage grid from official scope sources","representation":"economy lens coverage context","timing_note":"No license-compatible economy records are currently ingested for 1960; this lens geometry marks source coverage context only.","caveat":"Coverage context is not a city-change event, not a measured condition, and is excluded from headline counts.","generated_from":"web/data/city-atlas/cities/london/events_1960.json","coverage_status":"no_same_category_records","evidence_role":"context_not_year_specific_change_evidence","source_kind":"official_scope_context","headline_count_excluded":true,"intensity":0.16,"label":"No same-lens economy records currently ingested","sector":"coverage_context","activity_status":"no_year_records","status":"no_year_records"},"geometry":{"type":"Polygon","coordinates":[[[-0.34144,51.36782],[-0.17258,51.36782],[-0.17258,51.44884],[-0.34144,51.44884],[-0.34144,51.36782]]]}},{"type":"Feature","properties":{"id":"lens-detail-london-1960-economy_activity_cell-coverage-context-7","layer":"economy_activity_cell","category":"economy","year":1960,"visible_year":1960,"title":"London, England 1960 economy coverage context","confidence":"inferred","confidence_mix":"inferred:1","event_count":0,"source_count":3,"source_ids":"dft-road-safety-collisions,police-data-api,police-data-stop-search","event_ids":"","event_ids_all":"","source_urls":"","geometry_precision_mix":"configured atlas coverage grid from official scope sources","representation":"economy lens coverage context","timing_note":"No license-compatible economy records are currently ingested for 1960; this lens geometry marks source coverage context only.","caveat":"Coverage context is not a city-change event, not a measured condition, and is excluded from headline counts.","generated_from":"web/data/city-atlas/cities/london/events_1960.json","coverage_status":"no_same_category_records","evidence_role":"context_not_year_specific_change_evidence","source_kind":"official_scope_context","headline_count_excluded":true,"intensity":0.16,"label":"No same-lens economy records currently ingested","sector":"coverage_context","activity_status":"no_year_records","status":"no_year_records"},"geometry":{"type":"Polygon","coordinates":[[[-0.17258,51.36782],[-0.00372,51.36782],[-0.00372,51.44884],[-0.17258,51.44884],[-0.17258,51.36782]]]}},{"type":"Feature","properties":{"id":"lens-detail-london-1960-economy_activity_cell-coverage-context-8","layer":"economy_activity_cell","category":"economy","year":1960,"visible_year":1960,"title":"London, England 1960 economy coverage context","confidence":"inferred","confidence_mix":"inferred:1","event_count":0,"source_count":3,"source_ids":"dft-road-safety-collisions,police-data-api,police-data-stop-search","event_ids":"","event_ids_all":"","source_urls":"","geometry_precision_mix":"configured atlas coverage grid from official scope sources","representation":"economy lens coverage context","timing_note":"No license-compatible economy records are currently ingested for 1960; this lens geometry marks source coverage context only.","caveat":"Coverage context is not a city-change event, not a measured condition, and is excluded from headline counts.","generated_from":"web/data/city-atlas/cities/london/events_1960.json","coverage_status":"no_same_category_records","evidence_role":"context_not_year_specific_change_evidence","source_kind":"official_scope_context","headline_count_excluded":true,"intensity":0.16,"label":"No same-lens economy records currently ingested","sector":"coverage_context","activity_status":"no_year_records","status":"no_year_records"},"geometry":{"type":"Polygon","coordinates":[[[-0.00372,51.36782],[0.16514,51.36782],[0.16514,51.44884],[-0.00372,51.44884],[-0.00372,51.36782]]]}},{"type":"Feature","properties":{"id":"lens-detail-london-1960-economy_activity_cell-coverage-context-9","layer":"economy_activity_cell","category":"economy","year":1960,"visible_year":1960,"title":"London, England 1960 economy coverage context","confidence":"inferred","confidence_mix":"inferred:1","event_count":0,"source_count":3,"source_ids":"dft-road-safety-collisions,police-data-api,police-data-stop-search","event_ids":"","event_ids_all":"","source_urls":"","geometry_precision_mix":"configured atlas coverage grid from official scope sources","representation":"economy lens coverage context","timing_note":"No license-compatible economy records are currently ingested for 1960; this lens geometry marks source coverage context only.","caveat":"Coverage context is not a city-change event, not a measured condition, and is excluded from headline counts.","generated_from":"web/data/city-atlas/cities/london/events_1960.json","coverage_status":"no_same_category_records","evidence_role":"context_not_year_specific_change_evidence","source_kind":"official_scope_context","headline_count_excluded":true,"intensity":0.16,"label":"No same-lens economy records currently ingested","sector":"coverage_context","activity_status":"no_year_records","status":"no_year_records"},"geometry":{"type":"Polygon","coordinates":[[[0.16514,51.36782],[0.334,51.36782],[0.334,51.44884],[0.16514,51.44884],[0.16514,51.36782]]]}},{"type":"Feature","properties":{"id":"lens-detail-london-1960-economy_activity_cell-coverage-context-10","layer":"economy_activity_cell","category":"economy","year":1960,"visible_year":1960,"title":"London, England 1960 economy coverage context","confidence":"inferred","confidence_mix":"inferred:1","event_count":0,"source_count":3,"source_ids":"dft-road-safety-collisions,police-data-api,police-data-stop-search","event_ids":"","event_ids_all":"","source_urls":"","geometry_precision_mix":"configured atlas coverage grid from official scope sources","representation":"economy lens coverage context","timing_note":"No license-compatible economy records are currently ingested for 1960; this lens geometry marks source coverage context only.","caveat":"Coverage context is not a city-change event, not a measured condition, and is excluded from headline counts.","generated_from":"web/data/city-atlas/cities/london/events_1960.json","coverage_status":"no_same_category_records","evidence_role":"context_not_year_specific_change_evidence","source_kind":"official_scope_context","headline_count_excluded":true,"intensity":0.16,"label":"No same-lens economy records currently ingested","sector":"coverage_context","activity_status":"no_year_records","status":"no_year_records"},"geometry":{"type":"Polygon","coordinates":[[[-0.5103,51.44884],[-0.34144,51.44884],[-0.34144,51.52986],[-0.5103,51.52986],[-0.5103,51.44884]]]}},{"type":"Feature","properties":{"id":"lens-detail-london-1960-economy_activity_cell-coverage-context-11","layer":"economy_activity_cell","category":"economy","year":1960,"visible_year":1960,"title":"London, England 1960 economy coverage context","confidence":"inferred","confidence_mix":"inferred:1","event_count":0,"source_count":3,"source_ids":"dft-road-safety-collisions,police-data-api,police-data-stop-search","event_ids":"","event_ids_all":"","source_urls":"","geometry_precision_mix":"configured atlas coverage grid from official scope sources","representation":"economy lens coverage context","timing_note":"No license-compatible economy records are currently ingested for 1960; this lens geometry marks source coverage context only.","caveat":"Coverage context is not a city-change event, not a measured condition, and is excluded from headline counts.","generated_from":"web/data/city-atlas/cities/london/events_1960.json","coverage_status":"no_same_category_records","evidence_role":"context_not_year_specific_change_evidence","source_kind":"official_scope_context","headline_count_excluded":true,"intensity":0.16,"label":"No same-lens economy records currently ingested","sector":"coverage_context","activity_status":"no_year_records","status":"no_year_records"},"geometry":{"type":"Polygon","coordinates":[[[-0.34144,51.44884],[-0.17258,51.44884],[-0.17258,51.52986],[-0.34144,51.52986],[-0.34144,51.44884]]]}},{"type":"Feature","properties":{"id":"lens-detail-london-1960-economy_activity_cell-coverage-context-12","layer":"economy_activity_cell","category":"economy","year":1960,"visible_year":1960,"title":"London, England 1960 economy coverage context","confidence":"inferred","confidence_mix":"inferred:1","event_count":0,"source_count":3,"source_ids":"dft-road-safety-collisions,police-data-api,police-data-stop-search","event_ids":"","event_ids_all":"","source_urls":"","geometry_precision_mix":"configured atlas coverage grid from official scope sources","representation":"economy lens coverage context","timing_note":"No license-compatible economy records are currently ingested for 1960; this lens geometry marks source coverage context only.","caveat":"Coverage context is not a city-change event, not a measured condition, and is excluded from headline counts.","generated_from":"web/data/city-atlas/cities/london/events_1960.json","coverage_status":"no_same_category_records","evidence_role":"context_not_year_specific_change_evidence","source_kind":"official_scope_context","headline_count_excluded":true,"intensity":0.16,"label":"No same-lens economy records currently ingested","sector":"coverage_context","activity_status":"no_year_records","status":"no_year_records"},"geometry":{"type":"Polygon","coordinates":[[[-0.17258,51.44884],[-0.00372,51.44884],[-0.00372,51.52986],[-0.17258,51.52986],[-0.17258,51.44884]]]}},{"type":"Feature","properties":{"id":"lens-detail-london-1960-economy_activity_cell-coverage-context-13","layer":"economy_activity_cell","category":"economy","year":1960,"visible_year":1960,"title":"London, England 1960 economy coverage context","confidence":"inferred","confidence_mix":"inferred:1","event_count":0,"source_count":3,"source_ids":"dft-road-safety-collisions,police-data-api,police-data-stop-search","event_ids":"","event_ids_all":"","source_urls":"","geometry_precision_mix":"configured atlas coverage grid from official scope sources","representation":"economy lens coverage context","timing_note":"No license-compatible economy records are currently ingested for 1960; this lens geometry marks source coverage context only.","caveat":"Coverage context is not a city-change event, not a measured condition, and is excluded from headline counts.","generated_from":"web/data/city-atlas/cities/london/events_1960.json","coverage_status":"no_same_category_records","evidence_role":"context_not_year_specific_change_evidence","source_kind":"official_scope_context","headline_count_excluded":true,"intensity":0.16,"label":"No same-lens economy records currently ingested","sector":"coverage_context","activity_status":"no_year_records","status":"no_year_records"},"geometry":{"type":"Polygon","coordinates":[[[-0.00372,51.44884],[0.16514,51.44884],[0.16514,51.52986],[-0.00372,51.52986],[-0.00372,51.44884]]]}},{"type":"Feature","properties":{"id":"lens-detail-london-1960-economy_activity_cell-coverage-context-14","layer":"economy_activity_cell","category":"economy","year":1960,"visible_year":1960,"title":"London, England 1960 economy coverage context","confidence":"inferred","confidence_mix":"inferred:1","event_count":0,"source_count":3,"source_ids":"dft-road-safety-collisions,police-data-api,police-data-stop-search","event_ids":"","event_ids_all":"","source_urls":"","geometry_precision_mix":"configured atlas coverage grid from official scope sources","representation":"economy lens coverage context","timing_note":"No license-compatible economy records are currently ingested for 1960; this lens geometry marks source coverage context only.","caveat":"Coverage context is not a city-change event, not a measured condition, and is excluded from headline counts.","generated_from":"web/data/city-atlas/cities/london/events_1960.json","coverage_status":"no_same_category_records","evidence_role":"context_not_year_specific_change_evidence","source_kind":"official_scope_context","headline_count_excluded":true,"intensity":0.16,"label":"No same-lens economy records currently ingested","sector":"coverage_context","activity_status":"no_year_records","status":"no_year_records"},"geometry":{"type":"Polygon","coordinates":[[[0.16514,51.44884],[0.334,51.44884],[0.334,51.52986],[0.16514,51.52986],[0.16514,51.44884]]]}},{"type":"Feature","properties":{"id":"lens-detail-london-1960-economy_activity_cell-coverage-context-15","layer":"economy_activity_cell","category":"economy","year":1960,"visible_year":1960,"title":"London, England 1960 economy coverage context","confidence":"inferred","confidence_mix":"inferred:1","event_count":0,"source_count":3,"source_ids":"dft-road-safety-collisions,police-data-api,police-data-stop-search","event_ids":"","event_ids_all":"","source_urls":"","geometry_precision_mix":"configured atlas coverage grid from official scope sources","representation":"economy lens coverage context","timing_note":"No license-compatible economy records are currently ingested for 1960; this lens geometry marks source coverage context only.","caveat":"Coverage context is not a city-change event, not a measured condition, and is excluded from headline counts.","generated_from":"web/data/city-atlas/cities/london/events_1960.json","coverage_status":"no_same_category_records","evidence_role":"context_not_year_specific_change_evidence","source_kind":"official_scope_context","headline_count_excluded":true,"intensity":0.16,"label":"No same-lens economy records currently ingested","sector":"coverage_context","activity_status":"no_year_records","status":"no_year_records"},"geometry":{"type":"Polygon","coordinates":[[[-0.5103,51.52986],[-0.34144,51.52986],[-0.34144,51.61088],[-0.5103,51.61088],[-0.5103,51.52986]]]}},{"type":"Feature","properties":{"id":"lens-detail-london-1960-economy_activity_cell-coverage-context-16","layer":"economy_activity_cell","category":"economy","year":1960,"visible_year":1960,"title":"London, England 1960 economy coverage context","confidence":"inferred","confidence_mix":"inferred:1","event_count":0,"source_count":3,"source_ids":"dft-road-safety-collisions,police-data-api,police-data-stop-search","event_ids":"","event_ids_all":"","source_urls":"","geometry_precision_mix":"configured atlas coverage grid from official scope sources","representation":"economy lens coverage context","timing_note":"No license-compatible economy records are currently ingested for 1960; this lens geometry marks source coverage context only.","caveat":"Coverage context is not a city-change event, not a measured condition, and is excluded from headline counts.","generated_from":"web/data/city-atlas/cities/london/events_1960.json","coverage_status":"no_same_category_records","evidence_role":"context_not_year_specific_change_evidence","source_kind":"official_scope_context","headline_count_excluded":true,"intensity":0.16,"label":"No same-lens economy records currently ingested","sector":"coverage_context","activity_status":"no_year_records","status":"no_year_records"},"geometry":{"type":"Polygon","coordinates":[[[-0.34144,51.52986],[-0.17258,51.52986],[-0.17258,51.61088],[-0.34144,51.61088],[-0.34144,51.52986]]]}},{"type":"Feature","properties":{"id":"lens-detail-london-1960-economy_activity_cell-coverage-context-17","layer":"economy_activity_cell","category":"economy","year":1960,"visible_year":1960,"title":"London, England 1960 economy coverage context","confidence":"inferred","confidence_mix":"inferred:1","event_count":0,"source_count":3,"source_ids":"dft-road-safety-collisions,police-data-api,police-data-stop-search","event_ids":"","event_ids_all":"","source_urls":"","geometry_precision_mix":"configured atlas coverage grid from official scope sources","representation":"economy lens coverage context","timing_note":"No license-compatible economy records are currently ingested for 1960; this lens geometry marks source coverage context only.","caveat":"Coverage context is not a city-change event, not a measured condition, and is excluded from headline counts.","generated_from":"web/data/city-atlas/cities/london/events_1960.json","coverage_status":"no_same_category_records","evidence_role":"context_not_year_specific_change_evidence","source_kind":"official_scope_context","headline_count_excluded":true,"intensity":0.16,"label":"No same-lens economy records currently ingested","sector":"coverage_context","activity_status":"no_year_records","status":"no_year_records"},"geometry":{"type":"Polygon","coordinates":[[[-0.17258,51.52986],[-0.00372,51.52986],[-0.00372,51.61088],[-0.17258,51.61088],[-0.17258,51.52986]]]}},{"type":"Feature","properties":{"id":"lens-detail-london-1960-economy_activity_cell-coverage-context-18","layer":"economy_activity_cell","category":"economy","year":1960,"visible_year":1960,"title":"London, England 1960 economy coverage context","confidence":"inferred","confidence_mix":"inferred:1","event_count":0,"source_count":3,"source_ids":"dft-road-safety-collisions,police-data-api,police-data-stop-search","event_ids":"","event_ids_all":"","source_urls":"","geometry_precision_mix":"configured atlas coverage grid from official scope sources","representation":"economy lens coverage context","timing_note":"No license-compatible economy records are currently ingested for 1960; this lens geometry marks source coverage context only.","caveat":"Coverage context is not a city-change event, not a measured condition, and is excluded from headline counts.","generated_from":"web/data/city-atlas/cities/london/events_1960.json","coverage_status":"no_same_category_records","evidence_role":"context_not_year_specific_change_evidence","source_kind":"official_scope_context","headline_count_excluded":true,"intensity":0.16,"label":"No same-lens economy records currently ingested","sector":"coverage_context","activity_status":"no_year_records","status":"no_year_records"},"geometry":{"type":"Polygon","coordinates":[[[-0.00372,51.52986],[0.16514,51.52986],[0.16514,51.61088],[-0.00372,51.61088],[-0.00372,51.52986]]]}},{"type":"Feature","properties":{"id":"lens-detail-london-1960-economy_activity_cell-coverage-context-19","layer":"economy_activity_cell","category":"economy","year":1960,"visible_year":1960,"title":"London, England 1960 economy coverage context","confidence":"inferred","confidence_mix":"inferred:1","event_count":0,"source_count":3,"source_ids":"dft-road-safety-collisions,police-data-api,police-data-stop-search","event_ids":"","event_ids_all":"","source_urls":"","geometry_precision_mix":"configured atlas coverage grid from official scope sources","representation":"economy lens coverage context","timing_note":"No license-compatible economy records are currently ingested for 1960; this lens geometry marks source coverage context only.","caveat":"Coverage context is not a city-change event, not a measured condition, and is excluded from headline counts.","generated_from":"web/data/city-atlas/cities/london/events_1960.json","coverage_status":"no_same_category_records","evidence_role":"context_not_year_specific_change_evidence","source_kind":"official_scope_context","headline_count_excluded":true,"intensity":0.16,"label":"No same-lens economy records currently ingested","sector":"coverage_context","activity_status":"no_year_records","status":"no_year_records"},"geometry":{"type":"Polygon","coordinates":[[[0.16514,51.52986],[0.334,51.52986],[0.334,51.61088],[0.16514,51.61088],[0.16514,51.52986]]]}},{"type":"Feature","properties":{"id":"lens-detail-london-1960-economy_activity_cell-coverage-context-20","layer":"economy_activity_cell","category":"economy","year":1960,"visible_year":1960,"title":"London, England 1960 economy coverage context","confidence":"inferred","confidence_mix":"inferred:1","event_count":0,"source_count":3,"source_ids":"dft-road-safety-collisions,police-data-api,police-data-stop-search","event_ids":"","event_ids_all":"","source_urls":"","geometry_precision_mix":"configured atlas coverage grid from official scope sources","representation":"economy lens coverage context","timing_note":"No license-compatible economy records are currently ingested for 1960; this lens geometry marks source coverage context only.","caveat":"Coverage context is not a city-change event, not a measured condition, and is excluded from headline counts.","generated_from":"web/data/city-atlas/cities/london/events_1960.json","coverage_status":"no_same_category_records","evidence_role":"context_not_year_specific_change_evidence","source_kind":"official_scope_context","headline_count_excluded":true,"intensity":0.16,"label":"No same-lens economy records currently ingested","sector":"coverage_context","activity_status":"no_year_records","status":"no_year_records"},"geometry":{"type":"Polygon","coordinates":[[[-0.5103,51.61088],[-0.34144,51.61088],[-0.34144,51.6919],[-0.5103,51.6919],[-0.5103,51.61088]]]}},{"type":"Feature","properties":{"id":"lens-detail-london-1960-economy_activity_cell-coverage-context-21","layer":"economy_activity_cell","category":"economy","year":1960,"visible_year":1960,"title":"London, England 1960 economy coverage context","confidence":"inferred","confidence_mix":"inferred:1","event_count":0,"source_count":3,"source_ids":"dft-road-safety-collisions,police-data-api,police-data-stop-search","event_ids":"","event_ids_all":"","source_urls":"","geometry_precision_mix":"configured atlas coverage grid from official scope sources","representation":"economy lens coverage context","timing_note":"No license-compatible economy records are currently ingested for 1960; this lens geometry marks source coverage context only.","caveat":"Coverage context is not a city-change event, not a measured condition, and is excluded from headline counts.","generated_from":"web/data/city-atlas/cities/london/events_1960.json","coverage_status":"no_same_category_records","evidence_role":"context_not_year_specific_change_evidence","source_kind":"official_scope_context","headline_count_excluded":true,"intensity":0.16,"label":"No same-lens economy records currently ingested","sector":"coverage_context","activity_status":"no_year_records","status":"no_year_records"},"geometry":{"type":"Polygon","coordinates":[[[-0.34144,51.61088],[-0.17258,51.61088],[-0.17258,51.6919],[-0.34144,51.6919],[-0.34144,51.61088]]]}},{"type":"Feature","properties":{"id":"lens-detail-london-1960-economy_activity_cell-coverage-context-22","layer":"economy_activity_cell","category":"economy","year":1960,"visible_year":1960,"title":"London, England 1960 economy coverage context","confidence":"inferred","confidence_mix":"inferred:1","event_count":0,"source_count":3,"source_ids":"dft-road-safety-collisions,police-data-api,police-data-stop-search","event_ids":"","event_ids_all":"","source_urls":"","geometry_precision_mix":"configured atlas coverage grid from official scope sources","representation":"economy lens coverage context","timing_note":"No license-compatible economy records are currently ingested for 1960; this lens geometry marks source coverage context only.","caveat":"Coverage context is not a city-change event, not a measured condition, and is excluded from headline counts.","generated_from":"web/data/city-atlas/cities/london/events_1960.json","coverage_status":"no_same_category_records","evidence_role":"context_not_year_specific_change_evidence","source_kind":"official_scope_context","headline_count_excluded":true,"intensity":0.16,"label":"No same-lens economy records currently ingested","sector":"coverage_context","activity_status":"no_year_records","status":"no_year_records"},"geometry":{"type":"Polygon","coordinates":[[[-0.17258,51.61088],[-0.00372,51.61088],[-0.00372,51.6919],[-0.17258,51.6919],[-0.17258,51.61088]]]}},{"type":"Feature","properties":{"id":"lens-detail-london-1960-economy_activity_cell-coverage-context-23","layer":"economy_activity_cell","category":"economy","year":1960,"visible_year":1960,"title":"London, England 1960 economy coverage context","confidence":"inferred","confidence_mix":"inferred:1","event_count":0,"source_count":3,"source_ids":"dft-road-safety-collisions,police-data-api,police-data-stop-search","event_ids":"","event_ids_all":"","source_urls":"","geometry_precision_mix":"configured atlas coverage grid from official scope sources","representation":"economy lens coverage context","timing_note":"No license-compatible economy records are currently ingested for 1960; this lens geometry marks source coverage context only.","caveat":"Coverage context is not a city-change event, not a measured condition, and is excluded from headline counts.","generated_from":"web/data/city-atlas/cities/london/events_1960.json","coverage_status":"no_same_category_records","evidence_role":"context_not_year_specific_change_evidence","source_kind":"official_scope_context","headline_count_excluded":true,"intensity":0.16,"label":"No same-lens economy records currently ingested","sector":"coverage_context","activity_status":"no_year_records","status":"no_year_records"},"geometry":{"type":"Polygon","coordinates":[[[-0.00372,51.61088],[0.16514,51.61088],[0.16514,51.6919],[-0.00372,51.6919],[-0.00372,51.61088]]]}},{"type":"Feature","properties":{"id":"lens-detail-london-1960-economy_activity_cell-coverage-context-24","layer":"economy_activity_cell","category":"economy","year":1960,"visible_year":1960,"title":"London, England 1960 economy coverage context","confidence":"inferred","confidence_mix":"inferred:1","event_count":0,"source_count":3,"source_ids":"dft-road-safety-collisions,police-data-api,police-data-stop-search","event_ids":"","event_ids_all":"","source_urls":"","geometry_precision_mix":"configured atlas coverage grid from official scope sources","representation":"economy lens coverage context","timing_note":"No license-compatible economy records are currently ingested for 1960; this lens geometry marks source coverage context only.","caveat":"Coverage context is not a city-change event, not a measured condition, and is excluded from headline counts.","generated_from":"web/data/city-atlas/cities/london/events_1960.json","coverage_status":"no_same_category_records","evidence_role":"context_not_year_specific_change_evidence","source_kind":"official_scope_context","headline_count_excluded":true,"intensity":0.16,"label":"No same-lens economy records currently ingested","sector":"coverage_context","activity_status":"no_year_records","status":"no_year_records"},"geometry":{"type":"Polygon","coordinates":[[[0.16514,51.61088],[0.334,51.61088],[0.334,51.6919],[0.16514,51.6919],[0.16514,51.61088]]]}},{"type":"Feature","properties":{"id":"lens-detail-london-1960-utility_trace-coverage-context-0","layer":"utility_trace","category":"utilities","year":1960,"visible_year":1960,"title":"London, England 1960 utility coverage context","confidence":"inferred","confidence_mix":"inferred:1","event_count":0,"source_count":3,"source_ids":"dft-road-safety-collisions,police-data-api,police-data-stop-search","event_ids":"","event_ids_all":"","source_urls":"","geometry_precision_mix":"configured atlas coverage grid from official scope sources","representation":"utility lens coverage context","timing_note":"No license-compatible utility records are currently ingested for 1960; this lens geometry marks source coverage context only.","caveat":"Coverage context is not a city-change event, not a measured condition, and is excluded from headline counts.","generated_from":"web/data/city-atlas/cities/london/events_1960.json","coverage_status":"no_same_category_records","evidence_role":"context_not_year_specific_change_evidence","source_kind":"official_scope_context","headline_count_excluded":true,"intensity":0.16,"label":"No same-lens utility records currently ingested","utility_type":"coverage_context","work_status":"no_year_records","status":"no_year_records"},"geometry":{"type":"LineString","coordinates":[[-0.3896857,51.2868],[-0.3896857,51.6919]]}},{"type":"Feature","properties":{"id":"lens-detail-london-1960-utility_trace-coverage-context-1","layer":"utility_trace","category":"utilities","year":1960,"visible_year":1960,"title":"London, England 1960 utility coverage context","confidence":"inferred","confidence_mix":"inferred:1","event_count":0,"source_count":3,"source_ids":"dft-road-safety-collisions,police-data-api,police-data-stop-search","event_ids":"","event_ids_all":"","source_urls":"","geometry_precision_mix":"configured atlas coverage grid from official scope sources","representation":"utility lens coverage context","timing_note":"No license-compatible utility records are currently ingested for 1960; this lens geometry marks source coverage context only.","caveat":"Coverage context is not a city-change event, not a measured condition, and is excluded from headline counts.","generated_from":"web/data/city-atlas/cities/london/events_1960.json","coverage_status":"no_same_category_records","evidence_role":"context_not_year_specific_change_evidence","source_kind":"official_scope_context","headline_count_excluded":true,"intensity":0.16,"label":"No same-lens utility records currently ingested","utility_type":"coverage_context","work_status":"no_year_records","status":"no_year_records"},"geometry":{"type":"LineString","coordinates":[[-0.2690714,51.2868],[-0.2690714,51.6919]]}},{"type":"Feature","properties":{"id":"lens-detail-london-1960-utility_trace-coverage-context-2","layer":"utility_trace","category":"utilities","year":1960,"visible_year":1960,"title":"London, England 1960 utility coverage context","confidence":"inferred","confidence_mix":"inferred:1","event_count":0,"source_count":3,"source_ids":"dft-road-safety-collisions,police-data-api,police-data-stop-search","event_ids":"","event_ids_all":"","source_urls":"","geometry_precision_mix":"configured atlas coverage grid from official scope sources","representation":"utility lens coverage context","timing_note":"No license-compatible utility records are currently ingested for 1960; this lens geometry marks source coverage context only.","caveat":"Coverage context is not a city-change event, not a measured condition, and is excluded from headline counts.","generated_from":"web/data/city-atlas/cities/london/events_1960.json","coverage_status":"no_same_category_records","evidence_role":"context_not_year_specific_change_evidence","source_kind":"official_scope_context","headline_count_excluded":true,"intensity":0.16,"label":"No same-lens utility records currently ingested","utility_type":"coverage_context","work_status":"no_year_records","status":"no_year_records"},"geometry":{"type":"LineString","coordinates":[[-0.1484571,51.2868],[-0.1484571,51.6919]]}},{"type":"Feature","properties":{"id":"lens-detail-london-1960-utility_trace-coverage-context-3","layer":"utility_trace","category":"utilities","year":1960,"visible_year":1960,"title":"London, England 1960 utility coverage context","confidence":"inferred","confidence_mix":"inferred:1","event_count":0,"source_count":3,"source_ids":"dft-road-safety-collisions,police-data-api,police-data-stop-search","event_ids":"","event_ids_all":"","source_urls":"","geometry_precision_mix":"configured atlas coverage grid from official scope sources","representation":"utility lens coverage context","timing_note":"No license-compatible utility records are currently ingested for 1960; this lens geometry marks source coverage context only.","caveat":"Coverage context is not a city-change event, not a measured condition, and is excluded from headline counts.","generated_from":"web/data/city-atlas/cities/london/events_1960.json","coverage_status":"no_same_category_records","evidence_role":"context_not_year_specific_change_evidence","source_kind":"official_scope_context","headline_count_excluded":true,"intensity":0.16,"label":"No same-lens utility records currently ingested","utility_type":"coverage_context","work_status":"no_year_records","status":"no_year_records"},"geometry":{"type":"LineString","coordinates":[[-0.0278429,51.2868],[-0.0278429,51.6919]]}},{"type":"Feature","properties":{"id":"lens-detail-london-1960-utility_trace-coverage-context-4","layer":"utility_trace","category":"utilities","year":1960,"visible_year":1960,"title":"London, England 1960 utility coverage context","confidence":"inferred","confidence_mix":"inferred:1","event_count":0,"source_count":3,"source_ids":"dft-road-safety-collisions,police-data-api,police-data-stop-search","event_ids":"","event_ids_all":"","source_urls":"","geometry_precision_mix":"configured atlas coverage grid from official scope sources","representation":"utility lens coverage context","timing_note":"No license-compatible utility records are currently ingested for 1960; this lens geometry marks source coverage context only.","caveat":"Coverage context is not a city-change event, not a measured condition, and is excluded from headline counts.","generated_from":"web/data/city-atlas/cities/london/events_1960.json","coverage_status":"no_same_category_records","evidence_role":"context_not_year_specific_change_evidence","source_kind":"official_scope_context","headline_count_excluded":true,"intensity":0.16,"label":"No same-lens utility records currently ingested","utility_type":"coverage_context","work_status":"no_year_records","status":"no_year_records"},"geometry":{"type":"LineString","coordinates":[[0.0927714,51.2868],[0.0927714,51.6919]]}},{"type":"Feature","properties":{"id":"lens-detail-london-1960-utility_trace-coverage-context-5","layer":"utility_trace","category":"utilities","year":1960,"visible_year":1960,"title":"London, England 1960 utility coverage context","confidence":"inferred","confidence_mix":"inferred:1","event_count":0,"source_count":3,"source_ids":"dft-road-safety-collisions,police-data-api,police-data-stop-search","event_ids":"","event_ids_all":"","source_urls":"","geometry_precision_mix":"configured atlas coverage grid from official scope sources","representation":"utility lens coverage context","timing_note":"No license-compatible utility records are currently ingested for 1960; this lens geometry marks source coverage context only.","caveat":"Coverage context is not a city-change event, not a measured condition, and is excluded from headline counts.","generated_from":"web/data/city-atlas/cities/london/events_1960.json","coverage_status":"no_same_category_records","evidence_role":"context_not_year_specific_change_evidence","source_kind":"official_scope_context","headline_count_excluded":true,"intensity":0.16,"label":"No same-lens utility records currently ingested","utility_type":"coverage_context","work_status":"no_year_records","status":"no_year_records"},"geometry":{"type":"LineString","coordinates":[[0.2133857,51.2868],[0.2133857,51.6919]]}},{"type":"Feature","properties":{"id":"lens-detail-london-1960-utility_trace-coverage-context-6","layer":"utility_trace","category":"utilities","year":1960,"visible_year":1960,"title":"London, England 1960 utility coverage context","confidence":"inferred","confidence_mix":"inferred:1","event_count":0,"source_count":3,"source_ids":"dft-road-safety-collisions,police-data-api,police-data-stop-search","event_ids":"","event_ids_all":"","source_urls":"","geometry_precision_mix":"configured atlas coverage grid from official scope sources","representation":"utility lens coverage context","timing_note":"No license-compatible utility records are currently ingested for 1960; this lens geometry marks source coverage context only.","caveat":"Coverage context is not a city-change event, not a measured condition, and is excluded from headline counts.","generated_from":"web/data/city-atlas/cities/london/events_1960.json","coverage_status":"no_same_category_records","evidence_role":"context_not_year_specific_change_evidence","source_kind":"official_scope_context","headline_count_excluded":true,"intensity":0.16,"label":"No same-lens utility records currently ingested","utility_type":"coverage_context","work_status":"no_year_records","status":"no_year_records"},"geometry":{"type":"LineString","coordinates":[[-0.5103,51.3446714],[0.334,51.3446714]]}},{"type":"Feature","properties":{"id":"lens-detail-london-1960-utility_trace-coverage-context-7","layer":"utility_trace","category":"utilities","year":1960,"visible_year":1960,"title":"London, England 1960 utility coverage context","confidence":"inferred","confidence_mix":"inferred:1","event_count":0,"source_count":3,"source_ids":"dft-road-safety-collisions,police-data-api,police-data-stop-search","event_ids":"","event_ids_all":"","source_urls":"","geometry_precision_mix":"configured atlas coverage grid from official scope sources","representation":"utility lens coverage context","timing_note":"No license-compatible utility records are currently ingested for 1960; this lens geometry marks source coverage context only.","caveat":"Coverage context is not a city-change event, not a measured condition, and is excluded from headline counts.","generated_from":"web/data/city-atlas/cities/london/events_1960.json","coverage_status":"no_same_category_records","evidence_role":"context_not_year_specific_change_evidence","source_kind":"official_scope_context","headline_count_excluded":true,"intensity":0.16,"label":"No same-lens utility records currently ingested","utility_type":"coverage_context","work_status":"no_year_records","status":"no_year_records"},"geometry":{"type":"LineString","coordinates":[[-0.5103,51.4025429],[0.334,51.4025429]]}},{"type":"Feature","properties":{"id":"lens-detail-london-1960-utility_trace-coverage-context-8","layer":"utility_trace","category":"utilities","year":1960,"visible_year":1960,"title":"London, England 1960 utility coverage context","confidence":"inferred","confidence_mix":"inferred:1","event_count":0,"source_count":3,"source_ids":"dft-road-safety-collisions,police-data-api,police-data-stop-search","event_ids":"","event_ids_all":"","source_urls":"","geometry_precision_mix":"configured atlas coverage grid from official scope sources","representation":"utility lens coverage context","timing_note":"No license-compatible utility records are currently ingested for 1960; this lens geometry marks source coverage context only.","caveat":"Coverage context is not a city-change event, not a measured condition, and is excluded from headline counts.","generated_from":"web/data/city-atlas/cities/london/events_1960.json","coverage_status":"no_same_category_records","evidence_role":"context_not_year_specific_change_evidence","source_kind":"official_scope_context","headline_count_excluded":true,"intensity":0.16,"label":"No same-lens utility records currently ingested","utility_type":"coverage_context","work_status":"no_year_records","status":"no_year_records"},"geometry":{"type":"LineString","coordinates":[[-0.5103,51.4604143],[0.334,51.4604143]]}},{"type":"Feature","properties":{"id":"lens-detail-london-1960-utility_trace-coverage-context-9","layer":"utility_trace","category":"utilities","year":1960,"visible_year":1960,"title":"London, England 1960 utility coverage context","confidence":"inferred","confidence_mix":"inferred:1","event_count":0,"source_count":3,"source_ids":"dft-road-safety-collisions,police-data-api,police-data-stop-search","event_ids":"","event_ids_all":"","source_urls":"","geometry_precision_mix":"configured atlas coverage grid from official scope sources","representation":"utility lens coverage context","timing_note":"No license-compatible utility records are currently ingested for 1960; this lens geometry marks source coverage context only.","caveat":"Coverage context is not a city-change event, not a measured condition, and is excluded from headline counts.","generated_from":"web/data/city-atlas/cities/london/events_1960.json","coverage_status":"no_same_category_records","evidence_role":"context_not_year_specific_change_evidence","source_kind":"official_scope_context","headline_count_excluded":true,"intensity":0.16,"label":"No same-lens utility records currently ingested","utility_type":"coverage_context","work_status":"no_year_records","status":"no_year_records"},"geometry":{"type":"LineString","coordinates":[[-0.5103,51.5182857],[0.334,51.5182857]]}},{"type":"Feature","properties":{"id":"lens-detail-london-1960-utility_trace-coverage-context-10","layer":"utility_trace","category":"utilities","year":1960,"visible_year":1960,"title":"London, England 1960 utility coverage context","confidence":"inferred","confidence_mix":"inferred:1","event_count":0,"source_count":3,"source_ids":"dft-road-safety-collisions,police-data-api,police-data-stop-search","event_ids":"","event_ids_all":"","source_urls":"","geometry_precision_mix":"configured atlas coverage grid from official scope sources","representation":"utility lens coverage context","timing_note":"No license-compatible utility records are currently ingested for 1960; this lens geometry marks source coverage context only.","caveat":"Coverage context is not a city-change event, not a measured condition, and is excluded from headline counts.","generated_from":"web/data/city-atlas/cities/london/events_1960.json","coverage_status":"no_same_category_records","evidence_role":"context_not_year_specific_change_evidence","source_kind":"official_scope_context","headline_count_excluded":true,"intensity":0.16,"label":"No same-lens utility records currently ingested","utility_type":"coverage_context","work_status":"no_year_records","status":"no_year_records"},"geometry":{"type":"LineString","coordinates":[[-0.5103,51.5761571],[0.334,51.5761571]]}},{"type":"Feature","properties":{"id":"lens-detail-london-1960-utility_trace-coverage-context-11","layer":"utility_trace","category":"utilities","year":1960,"visible_year":1960,"title":"London, England 1960 utility coverage context","confidence":"inferred","confidence_mix":"inferred:1","event_count":0,"source_count":3,"source_ids":"dft-road-safety-collisions,police-data-api,police-data-stop-search","event_ids":"","event_ids_all":"","source_urls":"","geometry_precision_mix":"configured atlas coverage grid from official scope sources","representation":"utility lens coverage context","timing_note":"No license-compatible utility records are currently ingested for 1960; this lens geometry marks source coverage context only.","caveat":"Coverage context is not a city-change event, not a measured condition, and is excluded from headline counts.","generated_from":"web/data/city-atlas/cities/london/events_1960.json","coverage_status":"no_same_category_records","evidence_role":"context_not_year_specific_change_evidence","source_kind":"official_scope_context","headline_count_excluded":true,"intensity":0.16,"label":"No same-lens utility records currently ingested","utility_type":"coverage_context","work_status":"no_year_records","status":"no_year_records"},"geometry":{"type":"LineString","coordinates":[[-0.5103,51.6340286],[0.334,51.6340286]]}}]}
