{"type":"FeatureCollection","name":"london_lens_detail_1983","metadata":{"schema_version":"1.0.0","city_id":"london","year":1983,"generated_at":"2026-06-03T13:25:16.461Z","source_paths":["web/data/city-atlas/cities/london/events_1983.json","web/data/city-atlas/cities/london/events.json","web/data/city-atlas/cities/london/transport_roads_base.geojson"],"method":"Derived OpenCityLog lens geometry built from source-backed event points plus existing OSM road/detail geometry. Grid cells aggregate events by effective year. Trace lines reuse nearest mapped road geometry for context.","caveats":["Derived cells are evidence grids, not surveyed parcels, catchments, zones, or administrative boundaries.","Trace lines are nearest mapped street or work-location context, not surveyed utility networks, measured traffic speed, spend, vacancy, or service quality. No capacity data is inferred.","When a lens/year has no same-category source-backed records, no coverage geometry is generated; sparse data remains sparse.","Borough, citywide, statistical, corridor, and multi-site records are excluded from site-like lens geometry; they remain available in the event list and evidence records.","OSM mapped-visibility dates and administrative decision dates can differ from real-world physical change dates."],"feature_layers":{"planning_cell":3},"excluded_non_site_record_count":0,"excluded_non_site_reasons":{}},"features":[{"type":"Feature","properties":{"id":"lens-detail-london-1983-planning_cell-0","layer":"planning_cell","category":"built_environment","year":1983,"visible_year":1983,"title":"2 source-backed planning and built records","confidence":"documented","confidence_mix":"documented:2","event_count":2,"source_count":1,"source_ids":"lon-extra-planning-data-tree-preservation-zones","event_ids":"lon_planning_designation_tree-preservation-zone_19114952,lon_planning_designation_tree-preservation-zone_19114953","event_ids_all":"lon_planning_designation_tree-preservation-zone_19114952,lon_planning_designation_tree-preservation-zone_19114953","source_urls":"https://www.planning.data.gov.uk/entity/19114952,https://www.planning.data.gov.uk/entity/19114953","geometry_precision_mix":"Row-level point from the adapter; source geocoding precision varies and may be approximate.:2","representation":"planning and built evidence grid cell","timing_note":"Filtered by event effective year. OSM mapped-visibility dates and administrative dates can differ from real-world physical change dates.","caveat":"Planning cells are derived from source-backed event locations; they are not parcel boundaries unless source geometry is separately present.","generated_from":"web/data/city-atlas/cities/london/events_1983.json","lifecycle_status":"uncertain","status":"source_record","cell_size_m":95,"intensity":0.458,"label":"Tree preservation zone: The London Borough of Barnet (8 Holne Chase, 56 Winnington Road, 4 Winnington Close, N2) Tree... — Barnet"},"geometry":{"type":"Polygon","coordinates":[[[-0.1755009,51.5775408],[-0.1741298,51.5775408],[-0.1741298,51.5784],[-0.1755009,51.5784],[-0.1755009,51.5775408]]]}},{"type":"Feature","properties":{"id":"lens-detail-london-1983-planning_cell-1","layer":"planning_cell","category":"built_environment","year":1983,"visible_year":1983,"title":"1 source-backed planning and built record","confidence":"documented","confidence_mix":"documented:1","event_count":1,"source_count":1,"source_ids":"lon-extra-planning-data-tree-preservation-zones","event_ids":"lon_planning_designation_tree-preservation-zone_19114954","event_ids_all":"lon_planning_designation_tree-preservation-zone_19114954","source_urls":"https://www.planning.data.gov.uk/entity/19114954","geometry_precision_mix":"Row-level point from the adapter; source geocoding precision varies and may be approximate.:1","representation":"planning and built evidence grid cell","timing_note":"Filtered by event effective year. OSM mapped-visibility dates and administrative dates can differ from real-world physical change dates.","caveat":"Planning cells are derived from source-backed event locations; they are not parcel boundaries unless source geometry is separately present.","generated_from":"web/data/city-atlas/cities/london/events_1983.json","lifecycle_status":"uncertain","status":"source_record","cell_size_m":95,"intensity":0.289,"label":"Tree preservation zone: The London Borough of Barnet (8 Holne Chase, 56 Winnington Road, 4 Winnington Close, N2)... — Barnet · 19114954"},"geometry":{"type":"Polygon","coordinates":[[[-0.1755009,51.5792591],[-0.1741298,51.5792591],[-0.1741298,51.5801183],[-0.1755009,51.5801183],[-0.1755009,51.5792591]]]}},{"type":"Feature","properties":{"id":"lens-detail-london-1983-planning_cell-2","layer":"planning_cell","category":"built_environment","year":1983,"visible_year":1983,"title":"1 source-backed planning and built record","confidence":"documented","confidence_mix":"documented:1","event_count":1,"source_count":1,"source_ids":"lon-extra-planning-data-tree-preservation-zones","event_ids":"lon_planning_designation_tree-preservation-zone_19116655","event_ids_all":"lon_planning_designation_tree-preservation-zone_19116655","source_urls":"https://www.planning.data.gov.uk/entity/19116655","geometry_precision_mix":"Row-level point from the adapter; source geocoding precision varies and may be approximate.:1","representation":"planning and built evidence grid cell","timing_note":"Filtered by event effective year. OSM mapped-visibility dates and administrative dates can differ from real-world physical change dates.","caveat":"Planning cells are derived from source-backed event locations; they are not parcel boundaries unless source geometry is separately present.","generated_from":"web/data/city-atlas/cities/london/events_1983.json","lifecycle_status":"uncertain","status":"source_record","cell_size_m":95,"intensity":0.289,"label":"Tree preservation zone: London Borough of Enfield Tree Preservation Order (No. 154) 1983 made under The Town & Country Planning Acts..."},"geometry":{"type":"Polygon","coordinates":[[[-0.1453367,51.6411182],[-0.1439656,51.6411182],[-0.1439656,51.6419773],[-0.1453367,51.6419773],[-0.1453367,51.6411182]]]}}]}
