{"type":"FeatureCollection","name":"london_lens_detail_1963","metadata":{"schema_version":"1.0.0","city_id":"london","year":1963,"generated_at":"2026-05-20T02:54:16.270Z","source_paths":["web/data/city-atlas/cities/london/events_1963.json","web/data/city-atlas/cities/london/events.json","web/data/city-atlas/cities/london/transport_roads_base.geojson"],"method":"Derived OpenCityLog lens geometry built from source-backed event points plus existing OSM road/detail geometry. Grid cells aggregate events by effective year. Trace lines reuse nearest mapped road geometry for context.","caveats":["Derived cells are evidence grids, not surveyed parcels, catchments, zones, or administrative boundaries.","Trace lines are nearest mapped street or work-location context, not surveyed utility networks, measured traffic speed, spend, vacancy, or service quality. No capacity data is inferred.","Borough, citywide, statistical, corridor, and multi-site records are excluded from site-like lens geometry; they remain available in the event list and evidence records.","OSM mapped-visibility dates and administrative decision dates can differ from real-world physical change dates."],"feature_layers":{"planning_cell":6},"excluded_non_site_record_count":0,"excluded_non_site_reasons":{}},"features":[{"type":"Feature","properties":{"id":"lens-detail-london-1963-planning_cell-4","layer":"planning_cell","category":"built_environment","year":1963,"visible_year":1963,"title":"2 source-backed planning and built records","confidence":"documented","confidence_mix":"documented:2","event_count":2,"source_count":1,"source_ids":"lon-extra-planning-data-listed-building-outlines","event_ids":"lon_planning_designation_listed-building-outline_42120623,lon_planning_designation_listed-building-outline_42120624","event_ids_all":"lon_planning_designation_listed-building-outline_42120623,lon_planning_designation_listed-building-outline_42120624","source_urls":"https://www.planning.data.gov.uk/entity/42120623,https://www.planning.data.gov.uk/entity/42120624","geometry_precision_mix":"Row-level point from the adapter; source geocoding precision varies and may be approximate.:2","representation":"planning and built evidence grid cell","timing_note":"Filtered by event effective year. OSM mapped-visibility dates and administrative dates can differ from real-world physical change dates.","caveat":"Planning cells are derived from source-backed event locations; they are not parcel boundaries unless source geometry is separately present.","generated_from":"web/data/city-atlas/cities/london/events_1963.json","lifecycle_status":"uncertain","status":"source_record","cell_size_m":95,"intensity":0.458,"label":"Listed building outline: WYLDES FARM"},"geometry":{"type":"Polygon","coordinates":[[[-0.182374,51.5689493],[-0.1810028,51.5689493],[-0.1810028,51.5698085],[-0.182374,51.5698085],[-0.182374,51.5689493]]]}},{"type":"Feature","properties":{"id":"lens-detail-london-1963-planning_cell-0","layer":"planning_cell","category":"built_environment","year":1963,"visible_year":1963,"title":"1 source-backed planning and built record","confidence":"documented","confidence_mix":"documented:1","event_count":1,"source_count":1,"source_ids":"lon-extra-planning-data-listed-building-outlines","event_ids":"lon_planning_designation_listed-building-outline_42115604","event_ids_all":"lon_planning_designation_listed-building-outline_42115604","source_urls":"https://www.planning.data.gov.uk/entity/42115604","geometry_precision_mix":"Row-level point from the adapter; source geocoding precision varies and may be approximate.:1","representation":"planning and built evidence grid cell","timing_note":"Filtered by event effective year. OSM mapped-visibility dates and administrative dates can differ from real-world physical change dates.","caveat":"Planning cells are derived from source-backed event locations; they are not parcel boundaries unless source geometry is separately present.","generated_from":"web/data/city-atlas/cities/london/events_1963.json","lifecycle_status":"uncertain","status":"source_record","cell_size_m":95,"intensity":0.289,"label":"Listed building outline: Carlton Cottages"},"geometry":{"type":"Polygon","coordinates":[[[-0.0534781,51.4778791],[-0.0521069,51.4778791],[-0.0521069,51.4787382],[-0.0534781,51.4787382],[-0.0534781,51.4778791]]]}},{"type":"Feature","properties":{"id":"lens-detail-london-1963-planning_cell-1","layer":"planning_cell","category":"built_environment","year":1963,"visible_year":1963,"title":"1 source-backed planning and built record","confidence":"documented","confidence_mix":"documented:1","event_count":1,"source_count":1,"source_ids":"lon-extra-planning-data-listed-building-outlines","event_ids":"lon_planning_designation_listed-building-outline_42115637","event_ids_all":"lon_planning_designation_listed-building-outline_42115637","source_urls":"https://www.planning.data.gov.uk/entity/42115637","geometry_precision_mix":"Row-level point from the adapter; source geocoding precision varies and may be approximate.:1","representation":"planning and built evidence grid cell","timing_note":"Filtered by event effective year. OSM mapped-visibility dates and administrative dates can differ from real-world physical change dates.","caveat":"Planning cells are derived from source-backed event locations; they are not parcel boundaries unless source geometry is separately present.","generated_from":"web/data/city-atlas/cities/london/events_1963.json","lifecycle_status":"uncertain","status":"source_record","cell_size_m":95,"intensity":0.289,"label":"Listed building outline: Carlton Cottages"},"geometry":{"type":"Polygon","coordinates":[[[-0.0534781,51.4770199],[-0.0521069,51.4770199],[-0.0521069,51.4778791],[-0.0534781,51.4778791],[-0.0534781,51.4770199]]]}},{"type":"Feature","properties":{"id":"lens-detail-london-1963-planning_cell-2","layer":"planning_cell","category":"built_environment","year":1963,"visible_year":1963,"title":"1 source-backed planning and built record","confidence":"documented","confidence_mix":"documented:1","event_count":1,"source_count":1,"source_ids":"lon-extra-planning-data-listed-building-outlines","event_ids":"lon_planning_designation_listed-building-outline_42116502","event_ids_all":"lon_planning_designation_listed-building-outline_42116502","source_urls":"https://www.planning.data.gov.uk/entity/42116502","geometry_precision_mix":"Row-level point from the adapter; source geocoding precision varies and may be approximate.:1","representation":"planning and built evidence grid cell","timing_note":"Filtered by event effective year. OSM mapped-visibility dates and administrative dates can differ from real-world physical change dates.","caveat":"Planning cells are derived from source-backed event locations; they are not parcel boundaries unless source geometry is separately present.","generated_from":"web/data/city-atlas/cities/london/events_1963.json","lifecycle_status":"uncertain","status":"source_record","cell_size_m":95,"intensity":0.289,"label":"Listed building outline: (North side) Nos.2 AND 4"},"geometry":{"type":"Polygon","coordinates":[[[-0.1851165,51.556062],[-0.1837453,51.556062],[-0.1837453,51.5569212],[-0.1851165,51.5569212],[-0.1851165,51.556062]]]}},{"type":"Feature","properties":{"id":"lens-detail-london-1963-planning_cell-3","layer":"planning_cell","category":"built_environment","year":1963,"visible_year":1963,"title":"1 source-backed planning and built record","confidence":"documented","confidence_mix":"documented:1","event_count":1,"source_count":1,"source_ids":"lon-extra-planning-data-listed-building-outlines","event_ids":"lon_planning_designation_listed-building-outline_42120622","event_ids_all":"lon_planning_designation_listed-building-outline_42120622","source_urls":"https://www.planning.data.gov.uk/entity/42120622","geometry_precision_mix":"Row-level point from the adapter; source geocoding precision varies and may be approximate.:1","representation":"planning and built evidence grid cell","timing_note":"Filtered by event effective year. OSM mapped-visibility dates and administrative dates can differ from real-world physical change dates.","caveat":"Planning cells are derived from source-backed event locations; they are not parcel boundaries unless source geometry is separately present.","generated_from":"web/data/city-atlas/cities/london/events_1963.json","lifecycle_status":"uncertain","status":"source_record","cell_size_m":95,"intensity":0.289,"label":"Listed building outline: LAWRENCE FARM HOUSE"},"geometry":{"type":"Polygon","coordinates":[[[-0.246822,51.6162027],[-0.2454508,51.6162027],[-0.2454508,51.6170619],[-0.246822,51.6170619],[-0.246822,51.6162027]]]}},{"type":"Feature","properties":{"id":"lens-detail-london-1963-planning_cell-5","layer":"planning_cell","category":"built_environment","year":1963,"visible_year":1963,"title":"1 source-backed planning and built record","confidence":"documented","confidence_mix":"documented:1","event_count":1,"source_count":1,"source_ids":"lon-extra-planning-data-listed-building-outlines","event_ids":"lon_planning_designation_listed-building-outline_42166000","event_ids_all":"lon_planning_designation_listed-building-outline_42166000","source_urls":"https://www.planning.data.gov.uk/entity/42166000","geometry_precision_mix":"Row-level point from the adapter; source geocoding precision varies and may be approximate.:1","representation":"planning and built evidence grid cell","timing_note":"Filtered by event effective year. OSM mapped-visibility dates and administrative dates can differ from real-world physical change dates.","caveat":"Planning cells are derived from source-backed event locations; they are not parcel boundaries unless source geometry is separately present.","generated_from":"web/data/city-atlas/cities/london/events_1963.json","lifecycle_status":"uncertain","status":"source_record","cell_size_m":95,"intensity":0.289,"label":"Listed building outline: Noel Coward Theatre 85-89 St Martin's Lane London WC2N 4AU"},"geometry":{"type":"Polygon","coordinates":[[[-0.1275247,51.5105269],[-0.1261535,51.5105269],[-0.1261535,51.511386],[-0.1275247,51.511386],[-0.1275247,51.5105269]]]}}]}
