{"type":"FeatureCollection","name":"london_lens_detail_1943","metadata":{"schema_version":"1.0.0","city_id":"london","year":1943,"generated_at":"2026-05-20T03:44:30.628Z","source_paths":["web/data/city-atlas/cities/london/events_1943.json","web/data/city-atlas/cities/london/events.json","web/data/city-atlas/cities/london/transport_roads_base.geojson"],"method":"Derived OpenCityLog lens geometry built from source-backed event points plus existing OSM road/detail geometry. Grid cells aggregate events by effective year. Trace lines reuse nearest mapped road geometry for context.","caveats":["Derived cells are evidence grids, not surveyed parcels, catchments, zones, or administrative boundaries.","Trace lines are nearest mapped street or work-location context, not surveyed utility networks, measured traffic speed, spend, vacancy, or service quality. No capacity data is inferred.","Borough, citywide, statistical, corridor, and multi-site records are excluded from site-like lens geometry; they remain available in the event list and evidence records.","OSM mapped-visibility dates and administrative decision dates can differ from real-world physical change dates."],"feature_layers":{},"excluded_non_site_record_count":1,"excluded_non_site_reasons":{"non_site_scope":1}},"features":[]}
