{"type":"FeatureCollection","name":"london_lens_detail_1979","metadata":{"schema_version":"1.0.0","city_id":"london","year":1979,"generated_at":"2026-06-03T17:32:55.250Z","source_paths":["web/data/city-atlas/cities/london/events_1979.json","web/data/city-atlas/cities/london/events.json","web/data/city-atlas/cities/london/transport_roads_base.geojson"],"method":"Derived OpenCityLog lens geometry built from source-backed event points plus existing OSM road/detail geometry. Grid cells aggregate events by effective year. Trace lines reuse nearest mapped road geometry for context.","caveats":["Derived cells are evidence grids, not surveyed parcels, catchments, zones, or administrative boundaries.","Trace lines are nearest mapped street or work-location context, not surveyed utility networks, measured traffic speed, spend, vacancy, or service quality. No capacity data is inferred.","When a lens/year has no same-category source-backed records, no coverage geometry is generated; sparse data remains sparse.","Borough, citywide, statistical, corridor, and multi-site records are excluded from site-like lens geometry; they remain available in the event list and evidence records.","OSM mapped-visibility dates and administrative decision dates can differ from real-world physical change dates."],"feature_layers":{"planning_cell":12},"excluded_non_site_record_count":0,"excluded_non_site_reasons":{}},"features":[{"type":"Feature","properties":{"id":"lens-detail-london-1979-planning_cell-6","layer":"planning_cell","category":"built_environment","year":1979,"visible_year":1979,"title":"5 source-backed planning and built records","confidence":"documented","confidence_mix":"documented:5","event_count":5,"source_count":1,"source_ids":"lon-extra-planning-data-tree-preservation-zones","event_ids":"lon_planning_designation_tree-preservation-zone_19114874,lon_planning_designation_tree-preservation-zone_19114876,lon_planning_designation_tree-preservation-zone_19114877,lon_planning_designation_tree-preservation-zone_19114878,lon_planning_designation_tree-preservation-zone_19114879","event_ids_all":"lon_planning_designation_tree-preservation-zone_19114874,lon_planning_designation_tree-preservation-zone_19114876,lon_planning_designation_tree-preservation-zone_19114877,lon_planning_designation_tree-preservation-zone_19114878,lon_planning_designation_tree-preservation-zone_19114879","source_urls":"https://www.planning.data.gov.uk/entity/19114874,https://www.planning.data.gov.uk/entity/19114876,https://www.planning.data.gov.uk/entity/19114877,https://www.planning.data.gov.uk/entity/19114878","geometry_precision_mix":"Row-level point from the adapter; source geocoding precision varies and may be approximate.:5","representation":"planning and built evidence grid cell","timing_note":"Filtered by event effective year. OSM mapped-visibility dates and administrative dates can differ from real-world physical change dates.","caveat":"Planning cells are derived from source-backed event locations; they are not parcel boundaries unless source geometry is separately present.","generated_from":"web/data/city-atlas/cities/london/events_1979.json","lifecycle_status":"uncertain","status":"source_record","cell_size_m":95,"intensity":0.747,"label":"Tree preservation zone: The London Borough of Barnet (126 Hendon Lane) Tree Preservation Order 1979 made under The Town and... — Barnet"},"geometry":{"type":"Polygon","coordinates":[[[-0.2084074,51.5947239],[-0.2070363,51.5947239],[-0.2070363,51.595583],[-0.2084074,51.595583],[-0.2084074,51.5947239]]]}},{"type":"Feature","properties":{"id":"lens-detail-london-1979-planning_cell-11","layer":"planning_cell","category":"built_environment","year":1979,"visible_year":1979,"title":"2 source-backed planning and built records","confidence":"documented","confidence_mix":"documented:2","event_count":2,"source_count":1,"source_ids":"lon-extra-planning-data-tree-preservation-zones","event_ids":"lon_planning_designation_tree-preservation-zone_19114893,lon_planning_designation_tree-preservation-zone_19114894","event_ids_all":"lon_planning_designation_tree-preservation-zone_19114893,lon_planning_designation_tree-preservation-zone_19114894","source_urls":"https://www.planning.data.gov.uk/entity/19114893,https://www.planning.data.gov.uk/entity/19114894","geometry_precision_mix":"Row-level point from the adapter; source geocoding precision varies and may be approximate.:2","representation":"planning and built evidence grid cell","timing_note":"Filtered by event effective year. OSM mapped-visibility dates and administrative dates can differ from real-world physical change dates.","caveat":"Planning cells are derived from source-backed event locations; they are not parcel boundaries unless source geometry is separately present.","generated_from":"web/data/city-atlas/cities/london/events_1979.json","lifecycle_status":"uncertain","status":"source_record","cell_size_m":95,"intensity":0.458,"label":"Tree preservation zone: The London Borough of Barnet (Land rear of 71-105 Colin Crescent NW9) Tree Preservation Order 1979 made... — Barnet"},"geometry":{"type":"Polygon","coordinates":[[[-0.2399427,51.5869915],[-0.2385716,51.5869915],[-0.2385716,51.5878507],[-0.2399427,51.5878507],[-0.2399427,51.5869915]]]}},{"type":"Feature","properties":{"id":"lens-detail-london-1979-planning_cell-2","layer":"planning_cell","category":"built_environment","year":1979,"visible_year":1979,"title":"2 source-backed planning and built records","confidence":"documented","confidence_mix":"documented:2","event_count":2,"source_count":1,"source_ids":"lon-extra-planning-data-tree-preservation-zones","event_ids":"lon_planning_designation_tree-preservation-zone_19114869,lon_planning_designation_tree-preservation-zone_19114871","event_ids_all":"lon_planning_designation_tree-preservation-zone_19114869,lon_planning_designation_tree-preservation-zone_19114871","source_urls":"https://www.planning.data.gov.uk/entity/19114869,https://www.planning.data.gov.uk/entity/19114871","geometry_precision_mix":"Row-level point from the adapter; source geocoding precision varies and may be approximate.:2","representation":"planning and built evidence grid cell","timing_note":"Filtered by event effective year. OSM mapped-visibility dates and administrative dates can differ from real-world physical change dates.","caveat":"Planning cells are derived from source-backed event locations; they are not parcel boundaries unless source geometry is separately present.","generated_from":"web/data/city-atlas/cities/london/events_1979.json","lifecycle_status":"uncertain","status":"source_record","cell_size_m":95,"intensity":0.458,"label":"Tree preservation zone: The London Borough of Barnet (Downage, Hendon, N.W.4.) Tree Preservation Order 1979 made... — Barnet · 19114869"},"geometry":{"type":"Polygon","coordinates":[[[-0.2221184,51.5921464],[-0.2207473,51.5921464],[-0.2207473,51.5930056],[-0.2221184,51.5930056],[-0.2221184,51.5921464]]]}},{"type":"Feature","properties":{"id":"lens-detail-london-1979-planning_cell-8","layer":"planning_cell","category":"built_environment","year":1979,"visible_year":1979,"title":"2 source-backed planning and built records","confidence":"documented","confidence_mix":"documented:2","event_count":2,"source_count":1,"source_ids":"lon-extra-planning-data-tree-preservation-zones","event_ids":"lon_planning_designation_tree-preservation-zone_19114889,lon_planning_designation_tree-preservation-zone_19114891","event_ids_all":"lon_planning_designation_tree-preservation-zone_19114889,lon_planning_designation_tree-preservation-zone_19114891","source_urls":"https://www.planning.data.gov.uk/entity/19114889,https://www.planning.data.gov.uk/entity/19114891","geometry_precision_mix":"Row-level point from the adapter; source geocoding precision varies and may be approximate.:2","representation":"planning and built evidence grid cell","timing_note":"Filtered by event effective year. OSM mapped-visibility dates and administrative dates can differ from real-world physical change dates.","caveat":"Planning cells are derived from source-backed event locations; they are not parcel boundaries unless source geometry is separately present.","generated_from":"web/data/city-atlas/cities/london/events_1979.json","lifecycle_status":"uncertain","status":"source_record","cell_size_m":95,"intensity":0.458,"label":"Tree preservation zone: The London Borough of Barnet (Richmond Road, Somerset Road and West Side of York Road, New Barnet) Tree... — Barnet"},"geometry":{"type":"Polygon","coordinates":[[[-0.1741298,51.6471322],[-0.1727587,51.6471322],[-0.1727587,51.6479914],[-0.1741298,51.6479914],[-0.1741298,51.6471322]]]}},{"type":"Feature","properties":{"id":"lens-detail-london-1979-planning_cell-0","layer":"planning_cell","category":"built_environment","year":1979,"visible_year":1979,"title":"1 source-backed planning and built record","confidence":"documented","confidence_mix":"documented:1","event_count":1,"source_count":1,"source_ids":"lon-extra-planning-data-tree-preservation-zones","event_ids":"lon_planning_designation_tree-preservation-zone_19114867","event_ids_all":"lon_planning_designation_tree-preservation-zone_19114867","source_urls":"https://www.planning.data.gov.uk/entity/19114867","geometry_precision_mix":"Row-level point from the adapter; source geocoding precision varies and may be approximate.:1","representation":"planning and built evidence grid cell","timing_note":"Filtered by event effective year. OSM mapped-visibility dates and administrative dates can differ from real-world physical change dates.","caveat":"Planning cells are derived from source-backed event locations; they are not parcel boundaries unless source geometry is separately present.","generated_from":"web/data/city-atlas/cities/london/events_1979.json","lifecycle_status":"uncertain","status":"source_record","cell_size_m":95,"intensity":0.289,"label":"Tree preservation zone: The London Borough of Barnet (Downage, Hendon, N.W.4.) Tree Preservation Order 1979 made under The Town... — Barnet"},"geometry":{"type":"Polygon","coordinates":[[[-0.2221184,51.5912873],[-0.2207473,51.5912873],[-0.2207473,51.5921464],[-0.2221184,51.5921464],[-0.2221184,51.5912873]]]}},{"type":"Feature","properties":{"id":"lens-detail-london-1979-planning_cell-1","layer":"planning_cell","category":"built_environment","year":1979,"visible_year":1979,"title":"1 source-backed planning and built record","confidence":"documented","confidence_mix":"documented:1","event_count":1,"source_count":1,"source_ids":"lon-extra-planning-data-tree-preservation-zones","event_ids":"lon_planning_designation_tree-preservation-zone_19114868","event_ids_all":"lon_planning_designation_tree-preservation-zone_19114868","source_urls":"https://www.planning.data.gov.uk/entity/19114868","geometry_precision_mix":"Row-level point from the adapter; source geocoding precision varies and may be approximate.:1","representation":"planning and built evidence grid cell","timing_note":"Filtered by event effective year. OSM mapped-visibility dates and administrative dates can differ from real-world physical change dates.","caveat":"Planning cells are derived from source-backed event locations; they are not parcel boundaries unless source geometry is separately present.","generated_from":"web/data/city-atlas/cities/london/events_1979.json","lifecycle_status":"uncertain","status":"source_record","cell_size_m":95,"intensity":0.289,"label":"Tree preservation zone: The London Borough of Barnet (Downage, Hendon, N.W.4.) Tree Preservation Order 1979 made... — Barnet · 19114868"},"geometry":{"type":"Polygon","coordinates":[[[-0.2234895,51.5921464],[-0.2221184,51.5921464],[-0.2221184,51.5930056],[-0.2234895,51.5930056],[-0.2234895,51.5921464]]]}},{"type":"Feature","properties":{"id":"lens-detail-london-1979-planning_cell-10","layer":"planning_cell","category":"built_environment","year":1979,"visible_year":1979,"title":"1 source-backed planning and built record","confidence":"documented","confidence_mix":"documented:1","event_count":1,"source_count":1,"source_ids":"lon-extra-planning-data-tree-preservation-zones","event_ids":"lon_planning_designation_tree-preservation-zone_19114892","event_ids_all":"lon_planning_designation_tree-preservation-zone_19114892","source_urls":"https://www.planning.data.gov.uk/entity/19114892","geometry_precision_mix":"Row-level point from the adapter; source geocoding precision varies and may be approximate.:1","representation":"planning and built evidence grid cell","timing_note":"Filtered by event effective year. OSM mapped-visibility dates and administrative dates can differ from real-world physical change dates.","caveat":"Planning cells are derived from source-backed event locations; they are not parcel boundaries unless source geometry is separately present.","generated_from":"web/data/city-atlas/cities/london/events_1979.json","lifecycle_status":"uncertain","status":"source_record","cell_size_m":95,"intensity":0.289,"label":"Tree preservation zone: The London Borough of Barnet (St. Luke's Church, Mountfield Road, N.3.) Tree Preservation Order 1979 made under..."},"geometry":{"type":"Polygon","coordinates":[[[-0.1933252,51.5938647],[-0.1919541,51.5938647],[-0.1919541,51.5947239],[-0.1933252,51.5947239],[-0.1933252,51.5938647]]]}},{"type":"Feature","properties":{"id":"lens-detail-london-1979-planning_cell-3","layer":"planning_cell","category":"built_environment","year":1979,"visible_year":1979,"title":"1 source-backed planning and built record","confidence":"documented","confidence_mix":"documented:1","event_count":1,"source_count":1,"source_ids":"lon-extra-planning-data-tree-preservation-zones","event_ids":"lon_planning_designation_tree-preservation-zone_19114870","event_ids_all":"lon_planning_designation_tree-preservation-zone_19114870","source_urls":"https://www.planning.data.gov.uk/entity/19114870","geometry_precision_mix":"Row-level point from the adapter; source geocoding precision varies and may be approximate.:1","representation":"planning and built evidence grid cell","timing_note":"Filtered by event effective year. OSM mapped-visibility dates and administrative dates can differ from real-world physical change dates.","caveat":"Planning cells are derived from source-backed event locations; they are not parcel boundaries unless source geometry is separately present.","generated_from":"web/data/city-atlas/cities/london/events_1979.json","lifecycle_status":"uncertain","status":"source_record","cell_size_m":95,"intensity":0.289,"label":"Tree preservation zone: The London Borough of Barnet (Downage, Hendon, N.W.4.) Tree Preservation Order 1979 made... — Barnet · 19114870"},"geometry":{"type":"Polygon","coordinates":[[[-0.2207473,51.5921464],[-0.2193762,51.5921464],[-0.2193762,51.5930056],[-0.2207473,51.5930056],[-0.2207473,51.5921464]]]}},{"type":"Feature","properties":{"id":"lens-detail-london-1979-planning_cell-4","layer":"planning_cell","category":"built_environment","year":1979,"visible_year":1979,"title":"1 source-backed planning and built record","confidence":"documented","confidence_mix":"documented:1","event_count":1,"source_count":1,"source_ids":"lon-extra-planning-data-tree-preservation-zones","event_ids":"lon_planning_designation_tree-preservation-zone_19114872","event_ids_all":"lon_planning_designation_tree-preservation-zone_19114872","source_urls":"https://www.planning.data.gov.uk/entity/19114872","geometry_precision_mix":"Row-level point from the adapter; source geocoding precision varies and may be approximate.:1","representation":"planning and built evidence grid cell","timing_note":"Filtered by event effective year. OSM mapped-visibility dates and administrative dates can differ from real-world physical change dates.","caveat":"Planning cells are derived from source-backed event locations; they are not parcel boundaries unless source geometry is separately present.","generated_from":"web/data/city-atlas/cities/london/events_1979.json","lifecycle_status":"uncertain","status":"source_record","cell_size_m":95,"intensity":0.289,"label":"Tree preservation zone: The London Borough of Barnet (Bury Farm, Edgwarebury Lane, Edgware, No.2) Tree Preservation Order 1979... — Barnet"},"geometry":{"type":"Polygon","coordinates":[[[-0.2961578,51.6308083],[-0.2947867,51.6308083],[-0.2947867,51.6316675],[-0.2961578,51.6316675],[-0.2961578,51.6308083]]]}},{"type":"Feature","properties":{"id":"lens-detail-london-1979-planning_cell-5","layer":"planning_cell","category":"built_environment","year":1979,"visible_year":1979,"title":"1 source-backed planning and built record","confidence":"documented","confidence_mix":"documented:1","event_count":1,"source_count":1,"source_ids":"lon-extra-planning-data-tree-preservation-zones","event_ids":"lon_planning_designation_tree-preservation-zone_19114873","event_ids_all":"lon_planning_designation_tree-preservation-zone_19114873","source_urls":"https://www.planning.data.gov.uk/entity/19114873","geometry_precision_mix":"Row-level point from the adapter; source geocoding precision varies and may be approximate.:1","representation":"planning and built evidence grid cell","timing_note":"Filtered by event effective year. OSM mapped-visibility dates and administrative dates can differ from real-world physical change dates.","caveat":"Planning cells are derived from source-backed event locations; they are not parcel boundaries unless source geometry is separately present.","generated_from":"web/data/city-atlas/cities/london/events_1979.json","lifecycle_status":"uncertain","status":"source_record","cell_size_m":95,"intensity":0.289,"label":"Tree preservation zone: The London Borough of Barnet (Bury Farm, Edgwarebury Lane, Edgware, No.2) Tree Preservation... — Barnet · 19114873"},"geometry":{"type":"Polygon","coordinates":[[[-0.2934156,51.6316675],[-0.2920445,51.6316675],[-0.2920445,51.6325266],[-0.2934156,51.6325266],[-0.2934156,51.6316675]]]}},{"type":"Feature","properties":{"id":"lens-detail-london-1979-planning_cell-7","layer":"planning_cell","category":"built_environment","year":1979,"visible_year":1979,"title":"1 source-backed planning and built record","confidence":"documented","confidence_mix":"documented:1","event_count":1,"source_count":1,"source_ids":"lon-extra-planning-data-tree-preservation-zones","event_ids":"lon_planning_designation_tree-preservation-zone_19114875","event_ids_all":"lon_planning_designation_tree-preservation-zone_19114875","source_urls":"https://www.planning.data.gov.uk/entity/19114875","geometry_precision_mix":"Row-level point from the adapter; source geocoding precision varies and may be approximate.:1","representation":"planning and built evidence grid cell","timing_note":"Filtered by event effective year. OSM mapped-visibility dates and administrative dates can differ from real-world physical change dates.","caveat":"Planning cells are derived from source-backed event locations; they are not parcel boundaries unless source geometry is separately present.","generated_from":"web/data/city-atlas/cities/london/events_1979.json","lifecycle_status":"uncertain","status":"source_record","cell_size_m":95,"intensity":0.289,"label":"Tree preservation zone: The London Borough of Barnet (126 Hendon Lane) Tree Preservation Order 1979 made under The... — Barnet · 19114875"},"geometry":{"type":"Polygon","coordinates":[[[-0.2084074,51.5938647],[-0.2070363,51.5938647],[-0.2070363,51.5947239],[-0.2084074,51.5947239],[-0.2084074,51.5938647]]]}},{"type":"Feature","properties":{"id":"lens-detail-london-1979-planning_cell-9","layer":"planning_cell","category":"built_environment","year":1979,"visible_year":1979,"title":"1 source-backed planning and built record","confidence":"documented","confidence_mix":"documented:1","event_count":1,"source_count":1,"source_ids":"lon-extra-planning-data-tree-preservation-zones","event_ids":"lon_planning_designation_tree-preservation-zone_19114890","event_ids_all":"lon_planning_designation_tree-preservation-zone_19114890","source_urls":"https://www.planning.data.gov.uk/entity/19114890","geometry_precision_mix":"Row-level point from the adapter; source geocoding precision varies and may be approximate.:1","representation":"planning and built evidence grid cell","timing_note":"Filtered by event effective year. OSM mapped-visibility dates and administrative dates can differ from real-world physical change dates.","caveat":"Planning cells are derived from source-backed event locations; they are not parcel boundaries unless source geometry is separately present.","generated_from":"web/data/city-atlas/cities/london/events_1979.json","lifecycle_status":"uncertain","status":"source_record","cell_size_m":95,"intensity":0.289,"label":"Tree preservation zone: The London Borough of Barnet (Richmond Road, Somerset Road and West Side of York Road, New... — Barnet · 19114890"},"geometry":{"type":"Polygon","coordinates":[[[-0.1741298,51.6462731],[-0.1727587,51.6462731],[-0.1727587,51.6471322],[-0.1741298,51.6471322],[-0.1741298,51.6462731]]]}}]}
