{"type":"FeatureCollection","name":"london_lens_detail_1982","metadata":{"schema_version":"1.0.0","city_id":"london","year":1982,"generated_at":"2026-06-03T14:33:15.905Z","source_paths":["web/data/city-atlas/cities/london/events_1982.json","web/data/city-atlas/cities/london/events.json","web/data/city-atlas/cities/london/transport_roads_base.geojson"],"method":"Derived OpenCityLog lens geometry built from source-backed event points plus existing OSM road/detail geometry. Grid cells aggregate events by effective year. Trace lines reuse nearest mapped road geometry for context.","caveats":["Derived cells are evidence grids, not surveyed parcels, catchments, zones, or administrative boundaries.","Trace lines are nearest mapped street or work-location context, not surveyed utility networks, measured traffic speed, spend, vacancy, or service quality. No capacity data is inferred.","When a lens/year has no same-category source-backed records, no coverage geometry is generated; sparse data remains sparse.","Borough, citywide, statistical, corridor, and multi-site records are excluded from site-like lens geometry; they remain available in the event list and evidence records.","OSM mapped-visibility dates and administrative decision dates can differ from real-world physical change dates."],"feature_layers":{"planning_cell":19},"excluded_non_site_record_count":0,"excluded_non_site_reasons":{}},"features":[{"type":"Feature","properties":{"id":"lens-detail-london-1982-planning_cell-5","layer":"planning_cell","category":"built_environment","year":1982,"visible_year":1982,"title":"4 source-backed planning and built records","confidence":"documented","confidence_mix":"documented:4","event_count":4,"source_count":1,"source_ids":"lon-extra-planning-data-tree-preservation-zones","event_ids":"lon_planning_designation_tree-preservation-zone_19114937,lon_planning_designation_tree-preservation-zone_19114938,lon_planning_designation_tree-preservation-zone_19114939,lon_planning_designation_tree-preservation-zone_19114940","event_ids_all":"lon_planning_designation_tree-preservation-zone_19114937,lon_planning_designation_tree-preservation-zone_19114938,lon_planning_designation_tree-preservation-zone_19114939,lon_planning_designation_tree-preservation-zone_19114940","source_urls":"https://www.planning.data.gov.uk/entity/19114937,https://www.planning.data.gov.uk/entity/19114938,https://www.planning.data.gov.uk/entity/19114939,https://www.planning.data.gov.uk/entity/19114940","geometry_precision_mix":"Row-level point from the adapter; source geocoding precision varies and may be approximate.:4","representation":"planning and built evidence grid cell","timing_note":"Filtered by event effective year. OSM mapped-visibility dates and administrative dates can differ from real-world physical change dates.","caveat":"Planning cells are derived from source-backed event locations; they are not parcel boundaries unless source geometry is separately present.","generated_from":"web/data/city-atlas/cities/london/events_1982.json","lifecycle_status":"uncertain","status":"source_record","cell_size_m":95,"intensity":0.671,"label":"Tree preservation zone: The London Borough of Barnet (Vacant land at Potters Lane/Great North Road, Barnet) Tree Preservation... — Barnet"},"geometry":{"type":"Polygon","coordinates":[[[-0.190583,51.6479914],[-0.1892119,51.6479914],[-0.1892119,51.6488505],[-0.190583,51.6488505],[-0.190583,51.6479914]]]}},{"type":"Feature","properties":{"id":"lens-detail-london-1982-planning_cell-0","layer":"planning_cell","category":"built_environment","year":1982,"visible_year":1982,"title":"2 source-backed planning and built records","confidence":"documented","confidence_mix":"documented:2","event_count":2,"source_count":1,"source_ids":"lon-extra-planning-data-tree-preservation-zones","event_ids":"lon_planning_designation_tree-preservation-zone_19114925,lon_planning_designation_tree-preservation-zone_19114926","event_ids_all":"lon_planning_designation_tree-preservation-zone_19114925,lon_planning_designation_tree-preservation-zone_19114926","source_urls":"https://www.planning.data.gov.uk/entity/19114925,https://www.planning.data.gov.uk/entity/19114926","geometry_precision_mix":"Row-level point from the adapter; source geocoding precision varies and may be approximate.:2","representation":"planning and built evidence grid cell","timing_note":"Filtered by event effective year. OSM mapped-visibility dates and administrative dates can differ from real-world physical change dates.","caveat":"Planning cells are derived from source-backed event locations; they are not parcel boundaries unless source geometry is separately present.","generated_from":"web/data/city-atlas/cities/london/events_1982.json","lifecycle_status":"uncertain","status":"source_record","cell_size_m":95,"intensity":0.458,"label":"Tree preservation zone: The London Borough of Barnet (St. Michael's Convent Nether Street, N.12.) Tree Preservation Order 1982... — Barnet"},"geometry":{"type":"Polygon","coordinates":[[[-0.1809853,51.6136253],[-0.1796142,51.6136253],[-0.1796142,51.6144844],[-0.1809853,51.6144844],[-0.1809853,51.6136253]]]}},{"type":"Feature","properties":{"id":"lens-detail-london-1982-planning_cell-12","layer":"planning_cell","category":"built_environment","year":1982,"visible_year":1982,"title":"2 source-backed planning and built records","confidence":"documented","confidence_mix":"documented:2","event_count":2,"source_count":1,"source_ids":"lon-extra-planning-data-tree-preservation-zones","event_ids":"lon_planning_designation_tree-preservation-zone_19114947,lon_planning_designation_tree-preservation-zone_19114948","event_ids_all":"lon_planning_designation_tree-preservation-zone_19114947,lon_planning_designation_tree-preservation-zone_19114948","source_urls":"https://www.planning.data.gov.uk/entity/19114947,https://www.planning.data.gov.uk/entity/19114948","geometry_precision_mix":"Row-level point from the adapter; source geocoding precision varies and may be approximate.:2","representation":"planning and built evidence grid cell","timing_note":"Filtered by event effective year. OSM mapped-visibility dates and administrative dates can differ from real-world physical change dates.","caveat":"Planning cells are derived from source-backed event locations; they are not parcel boundaries unless source geometry is separately present.","generated_from":"web/data/city-atlas/cities/london/events_1982.json","lifecycle_status":"uncertain","status":"source_record","cell_size_m":95,"intensity":0.458,"label":"Tree preservation zone: The London Borough of Barnet (Pymlicoe House and Environs, Hadley, Barnet, Herts.) Tree... — Barnet · 19114947"},"geometry":{"type":"Polygon","coordinates":[[[-0.2042941,51.6591604],[-0.202923,51.6591604],[-0.202923,51.6600195],[-0.2042941,51.6600195],[-0.2042941,51.6591604]]]}},{"type":"Feature","properties":{"id":"lens-detail-london-1982-planning_cell-14","layer":"planning_cell","category":"built_environment","year":1982,"visible_year":1982,"title":"2 source-backed planning and built records","confidence":"documented","confidence_mix":"documented:2","event_count":2,"source_count":1,"source_ids":"lon-extra-planning-data-tree-preservation-zones","event_ids":"lon_planning_designation_tree-preservation-zone_19114950,lon_planning_designation_tree-preservation-zone_19114951","event_ids_all":"lon_planning_designation_tree-preservation-zone_19114950,lon_planning_designation_tree-preservation-zone_19114951","source_urls":"https://www.planning.data.gov.uk/entity/19114950,https://www.planning.data.gov.uk/entity/19114951","geometry_precision_mix":"Row-level point from the adapter; source geocoding precision varies and may be approximate.:2","representation":"planning and built evidence grid cell","timing_note":"Filtered by event effective year. OSM mapped-visibility dates and administrative dates can differ from real-world physical change dates.","caveat":"Planning cells are derived from source-backed event locations; they are not parcel boundaries unless source geometry is separately present.","generated_from":"web/data/city-atlas/cities/london/events_1982.json","lifecycle_status":"uncertain","status":"source_record","cell_size_m":95,"intensity":0.458,"label":"Tree preservation zone: The London Borough of Barnet (Pymlicoe House and Environs, Hadley, Barnet, Herts.) Tree... — Barnet · 19114950"},"geometry":{"type":"Polygon","coordinates":[[[-0.2042941,51.6600195],[-0.202923,51.6600195],[-0.202923,51.6608787],[-0.2042941,51.6608787],[-0.2042941,51.6600195]]]}},{"type":"Feature","properties":{"id":"lens-detail-london-1982-planning_cell-15","layer":"planning_cell","category":"built_environment","year":1982,"visible_year":1982,"title":"2 source-backed planning and built records","confidence":"documented","confidence_mix":"documented:2","event_count":2,"source_count":1,"source_ids":"lon-extra-planning-data-tree-preservation-zones","event_ids":"lon_planning_designation_tree-preservation-zone_19114958,lon_planning_designation_tree-preservation-zone_19114959","event_ids_all":"lon_planning_designation_tree-preservation-zone_19114958,lon_planning_designation_tree-preservation-zone_19114959","source_urls":"https://www.planning.data.gov.uk/entity/19114958,https://www.planning.data.gov.uk/entity/19114959","geometry_precision_mix":"Row-level point from the adapter; source geocoding precision varies and may be approximate.:2","representation":"planning and built evidence grid cell","timing_note":"Filtered by event effective year. OSM mapped-visibility dates and administrative dates can differ from real-world physical change dates.","caveat":"Planning cells are derived from source-backed event locations; they are not parcel boundaries unless source geometry is separately present.","generated_from":"web/data/city-atlas/cities/london/events_1982.json","lifecycle_status":"uncertain","status":"source_record","cell_size_m":95,"intensity":0.458,"label":"Tree preservation zone: The London Borough of Barnet (Montebello, 19 Totteridge Common, N.20.) Tree Preservation Order 198 made... — Barnet"},"geometry":{"type":"Polygon","coordinates":[[[-0.2138918,51.6325266],[-0.2125207,51.6325266],[-0.2125207,51.6333858],[-0.2138918,51.6333858],[-0.2138918,51.6325266]]]}},{"type":"Feature","properties":{"id":"lens-detail-london-1982-planning_cell-4","layer":"planning_cell","category":"built_environment","year":1982,"visible_year":1982,"title":"2 source-backed planning and built records","confidence":"documented","confidence_mix":"documented:2","event_count":2,"source_count":1,"source_ids":"lon-extra-planning-data-tree-preservation-zones","event_ids":"lon_planning_designation_tree-preservation-zone_19114935,lon_planning_designation_tree-preservation-zone_19114936","event_ids_all":"lon_planning_designation_tree-preservation-zone_19114935,lon_planning_designation_tree-preservation-zone_19114936","source_urls":"https://www.planning.data.gov.uk/entity/19114935,https://www.planning.data.gov.uk/entity/19114936","geometry_precision_mix":"Row-level point from the adapter; source geocoding precision varies and may be approximate.:2","representation":"planning and built evidence grid cell","timing_note":"Filtered by event effective year. OSM mapped-visibility dates and administrative dates can differ from real-world physical change dates.","caveat":"Planning cells are derived from source-backed event locations; they are not parcel boundaries unless source geometry is separately present.","generated_from":"web/data/city-atlas/cities/london/events_1982.json","lifecycle_status":"uncertain","status":"source_record","cell_size_m":95,"intensity":0.458,"label":"Tree preservation zone: The London Borough of Barnet (St. John the Baptist Church/Churchyard, Wood Street, Barnet) Tree... — Barnet"},"geometry":{"type":"Polygon","coordinates":[[[-0.2015519,51.6531463],[-0.2001808,51.6531463],[-0.2001808,51.6540055],[-0.2015519,51.6540055],[-0.2015519,51.6531463]]]}},{"type":"Feature","properties":{"id":"lens-detail-london-1982-planning_cell-1","layer":"planning_cell","category":"built_environment","year":1982,"visible_year":1982,"title":"1 source-backed planning and built record","confidence":"documented","confidence_mix":"documented:1","event_count":1,"source_count":1,"source_ids":"lon-extra-planning-data-tree-preservation-zones","event_ids":"lon_planning_designation_tree-preservation-zone_19114927","event_ids_all":"lon_planning_designation_tree-preservation-zone_19114927","source_urls":"https://www.planning.data.gov.uk/entity/19114927","geometry_precision_mix":"Row-level point from the adapter; source geocoding precision varies and may be approximate.:1","representation":"planning and built evidence grid cell","timing_note":"Filtered by event effective year. OSM mapped-visibility dates and administrative dates can differ from real-world physical change dates.","caveat":"Planning cells are derived from source-backed event locations; they are not parcel boundaries unless source geometry is separately present.","generated_from":"web/data/city-atlas/cities/london/events_1982.json","lifecycle_status":"uncertain","status":"source_record","cell_size_m":95,"intensity":0.289,"label":"Tree preservation zone: The London Borough of Barnet (St. Michael's Convent Nether Street, N.12.) Tree Preservation... — Barnet · 19114927"},"geometry":{"type":"Polygon","coordinates":[[[-0.1809853,51.6144844],[-0.1796142,51.6144844],[-0.1796142,51.6153436],[-0.1809853,51.6153436],[-0.1809853,51.6144844]]]}},{"type":"Feature","properties":{"id":"lens-detail-london-1982-planning_cell-10","layer":"planning_cell","category":"built_environment","year":1982,"visible_year":1982,"title":"1 source-backed planning and built record","confidence":"documented","confidence_mix":"documented:1","event_count":1,"source_count":1,"source_ids":"lon-extra-planning-data-tree-preservation-zones","event_ids":"lon_planning_designation_tree-preservation-zone_19114945","event_ids_all":"lon_planning_designation_tree-preservation-zone_19114945","source_urls":"https://www.planning.data.gov.uk/entity/19114945","geometry_precision_mix":"Row-level point from the adapter; source geocoding precision varies and may be approximate.:1","representation":"planning and built evidence grid cell","timing_note":"Filtered by event effective year. OSM mapped-visibility dates and administrative dates can differ from real-world physical change dates.","caveat":"Planning cells are derived from source-backed event locations; they are not parcel boundaries unless source geometry is separately present.","generated_from":"web/data/city-atlas/cities/london/events_1982.json","lifecycle_status":"uncertain","status":"source_record","cell_size_m":95,"intensity":0.289,"label":"Tree preservation zone: The London Borough of Barnet (Pymlicoe House and Environs, Hadley, Barnet, Herts.) Tree Preservation... — Barnet"},"geometry":{"type":"Polygon","coordinates":[[[-0.2015519,51.6591604],[-0.2001808,51.6591604],[-0.2001808,51.6600195],[-0.2015519,51.6600195],[-0.2015519,51.6591604]]]}},{"type":"Feature","properties":{"id":"lens-detail-london-1982-planning_cell-11","layer":"planning_cell","category":"built_environment","year":1982,"visible_year":1982,"title":"1 source-backed planning and built record","confidence":"documented","confidence_mix":"documented:1","event_count":1,"source_count":1,"source_ids":"lon-extra-planning-data-tree-preservation-zones","event_ids":"lon_planning_designation_tree-preservation-zone_19114946","event_ids_all":"lon_planning_designation_tree-preservation-zone_19114946","source_urls":"https://www.planning.data.gov.uk/entity/19114946","geometry_precision_mix":"Row-level point from the adapter; source geocoding precision varies and may be approximate.:1","representation":"planning and built evidence grid cell","timing_note":"Filtered by event effective year. OSM mapped-visibility dates and administrative dates can differ from real-world physical change dates.","caveat":"Planning cells are derived from source-backed event locations; they are not parcel boundaries unless source geometry is separately present.","generated_from":"web/data/city-atlas/cities/london/events_1982.json","lifecycle_status":"uncertain","status":"source_record","cell_size_m":95,"intensity":0.289,"label":"Tree preservation zone: The London Borough of Barnet (Pymlicoe House and Environs, Hadley, Barnet, Herts.) Tree... — Barnet · 19114946"},"geometry":{"type":"Polygon","coordinates":[[[-0.202923,51.6591604],[-0.2015519,51.6591604],[-0.2015519,51.6600195],[-0.202923,51.6600195],[-0.202923,51.6591604]]]}},{"type":"Feature","properties":{"id":"lens-detail-london-1982-planning_cell-13","layer":"planning_cell","category":"built_environment","year":1982,"visible_year":1982,"title":"1 source-backed planning and built record","confidence":"documented","confidence_mix":"documented:1","event_count":1,"source_count":1,"source_ids":"lon-extra-planning-data-tree-preservation-zones","event_ids":"lon_planning_designation_tree-preservation-zone_19114949","event_ids_all":"lon_planning_designation_tree-preservation-zone_19114949","source_urls":"https://www.planning.data.gov.uk/entity/19114949","geometry_precision_mix":"Row-level point from the adapter; source geocoding precision varies and may be approximate.:1","representation":"planning and built evidence grid cell","timing_note":"Filtered by event effective year. OSM mapped-visibility dates and administrative dates can differ from real-world physical change dates.","caveat":"Planning cells are derived from source-backed event locations; they are not parcel boundaries unless source geometry is separately present.","generated_from":"web/data/city-atlas/cities/london/events_1982.json","lifecycle_status":"uncertain","status":"source_record","cell_size_m":95,"intensity":0.289,"label":"Tree preservation zone: The London Borough of Barnet (Pymlicoe House and Environs, Hadley, Barnet, Herts.) Tree... — Barnet · 19114949"},"geometry":{"type":"Polygon","coordinates":[[[-0.202923,51.6600195],[-0.2015519,51.6600195],[-0.2015519,51.6608787],[-0.202923,51.6608787],[-0.202923,51.6600195]]]}},{"type":"Feature","properties":{"id":"lens-detail-london-1982-planning_cell-16","layer":"planning_cell","category":"built_environment","year":1982,"visible_year":1982,"title":"1 source-backed planning and built record","confidence":"documented","confidence_mix":"documented:1","event_count":1,"source_count":1,"source_ids":"lon-extra-planning-data-tree-preservation-zones","event_ids":"lon_planning_designation_tree-preservation-zone_19119973","event_ids_all":"lon_planning_designation_tree-preservation-zone_19119973","source_urls":"https://www.planning.data.gov.uk/entity/19119973","geometry_precision_mix":"Row-level point from the adapter; source geocoding precision varies and may be approximate.:1","representation":"planning and built evidence grid cell","timing_note":"Filtered by event effective year. OSM mapped-visibility dates and administrative dates can differ from real-world physical change dates.","caveat":"Planning cells are derived from source-backed event locations; they are not parcel boundaries unless source geometry is separately present.","generated_from":"web/data/city-atlas/cities/london/events_1982.json","lifecycle_status":"uncertain","status":"source_record","cell_size_m":95,"intensity":0.289,"label":"Tree preservation zone: 114/A2 - Sycamore Birch Thorn Beech Hornbeam Ash Scots Pine White Poplar Larch And Oak"},"geometry":{"type":"Polygon","coordinates":[[[-0.2234895,51.3301047],[-0.2221184,51.3301047],[-0.2221184,51.3309639],[-0.2234895,51.3309639],[-0.2234895,51.3301047]]]}},{"type":"Feature","properties":{"id":"lens-detail-london-1982-planning_cell-17","layer":"planning_cell","category":"built_environment","year":1982,"visible_year":1982,"title":"1 source-backed planning and built record","confidence":"documented","confidence_mix":"documented:1","event_count":1,"source_count":1,"source_ids":"lon-extra-planning-data-tree-preservation-zones","event_ids":"lon_planning_designation_tree-preservation-zone_19119974","event_ids_all":"lon_planning_designation_tree-preservation-zone_19119974","source_urls":"https://www.planning.data.gov.uk/entity/19119974","geometry_precision_mix":"Row-level point from the adapter; source geocoding precision varies and may be approximate.:1","representation":"planning and built evidence grid cell","timing_note":"Filtered by event effective year. OSM mapped-visibility dates and administrative dates can differ from real-world physical change dates.","caveat":"Planning cells are derived from source-backed event locations; they are not parcel boundaries unless source geometry is separately present.","generated_from":"web/data/city-atlas/cities/london/events_1982.json","lifecycle_status":"uncertain","status":"source_record","cell_size_m":95,"intensity":0.289,"label":"Tree preservation zone: 114/A1 - Oak Hornbeam Sweet Chestnut Ash Horse Chestnut Prunas White Poplar Sycamore Beech Thorn And Field Maple"},"geometry":{"type":"Polygon","coordinates":[[[-0.2262317,51.3335413],[-0.2248606,51.3335413],[-0.2248606,51.3344005],[-0.2262317,51.3344005],[-0.2262317,51.3335413]]]}},{"type":"Feature","properties":{"id":"lens-detail-london-1982-planning_cell-18","layer":"planning_cell","category":"built_environment","year":1982,"visible_year":1982,"title":"1 source-backed planning and built record","confidence":"documented","confidence_mix":"documented:1","event_count":1,"source_count":1,"source_ids":"lon-extra-planning-data-tree-preservation-zones","event_ids":"lon_planning_designation_tree-preservation-zone_19140828","event_ids_all":"lon_planning_designation_tree-preservation-zone_19140828","source_urls":"https://www.planning.data.gov.uk/entity/19140828","geometry_precision_mix":"Row-level point from the adapter; source geocoding precision varies and may be approximate.:1","representation":"planning and built evidence grid cell","timing_note":"Filtered by event effective year. OSM mapped-visibility dates and administrative dates can differ from real-world physical change dates.","caveat":"Planning cells are derived from source-backed event locations; they are not parcel boundaries unless source geometry is separately present.","generated_from":"web/data/city-atlas/cities/london/events_1982.json","lifecycle_status":"uncertain","status":"source_record","cell_size_m":95,"intensity":0.289,"label":"Tree preservation zone: 46 Vicarage Grove"},"geometry":{"type":"Polygon","coordinates":[[[-0.0877505,51.4744425],[-0.0863794,51.4744425],[-0.0863794,51.4753016],[-0.0877505,51.4753016],[-0.0877505,51.4744425]]]}},{"type":"Feature","properties":{"id":"lens-detail-london-1982-planning_cell-2","layer":"planning_cell","category":"built_environment","year":1982,"visible_year":1982,"title":"1 source-backed planning and built record","confidence":"documented","confidence_mix":"documented:1","event_count":1,"source_count":1,"source_ids":"lon-extra-planning-data-tree-preservation-zones","event_ids":"lon_planning_designation_tree-preservation-zone_19114928","event_ids_all":"lon_planning_designation_tree-preservation-zone_19114928","source_urls":"https://www.planning.data.gov.uk/entity/19114928","geometry_precision_mix":"Row-level point from the adapter; source geocoding precision varies and may be approximate.:1","representation":"planning and built evidence grid cell","timing_note":"Filtered by event effective year. OSM mapped-visibility dates and administrative dates can differ from real-world physical change dates.","caveat":"Planning cells are derived from source-backed event locations; they are not parcel boundaries unless source geometry is separately present.","generated_from":"web/data/city-atlas/cities/london/events_1982.json","lifecycle_status":"uncertain","status":"source_record","cell_size_m":95,"intensity":0.289,"label":"Tree preservation zone: The London Borough of Barnet (Norman Court 395 Nether Street, Finchley, N.3.) Tree Preservation Order... — Barnet"},"geometry":{"type":"Polygon","coordinates":[[[-0.1946963,51.6033154],[-0.1933252,51.6033154],[-0.1933252,51.6041746],[-0.1946963,51.6041746],[-0.1946963,51.6033154]]]}},{"type":"Feature","properties":{"id":"lens-detail-london-1982-planning_cell-3","layer":"planning_cell","category":"built_environment","year":1982,"visible_year":1982,"title":"1 source-backed planning and built record","confidence":"documented","confidence_mix":"documented:1","event_count":1,"source_count":1,"source_ids":"lon-extra-planning-data-tree-preservation-zones","event_ids":"lon_planning_designation_tree-preservation-zone_19114929","event_ids_all":"lon_planning_designation_tree-preservation-zone_19114929","source_urls":"https://www.planning.data.gov.uk/entity/19114929","geometry_precision_mix":"Row-level point from the adapter; source geocoding precision varies and may be approximate.:1","representation":"planning and built evidence grid cell","timing_note":"Filtered by event effective year. OSM mapped-visibility dates and administrative dates can differ from real-world physical change dates.","caveat":"Planning cells are derived from source-backed event locations; they are not parcel boundaries unless source geometry is separately present.","generated_from":"web/data/city-atlas/cities/london/events_1982.json","lifecycle_status":"uncertain","status":"source_record","cell_size_m":95,"intensity":0.289,"label":"Tree preservation zone: The London Borough of Barnet (Norman Court 395 Nether Street, Finchley, N.3.) Tree... — Barnet · 19114929"},"geometry":{"type":"Polygon","coordinates":[[[-0.1946963,51.6024563],[-0.1933252,51.6024563],[-0.1933252,51.6033154],[-0.1946963,51.6033154],[-0.1946963,51.6024563]]]}},{"type":"Feature","properties":{"id":"lens-detail-london-1982-planning_cell-6","layer":"planning_cell","category":"built_environment","year":1982,"visible_year":1982,"title":"1 source-backed planning and built record","confidence":"documented","confidence_mix":"documented:1","event_count":1,"source_count":1,"source_ids":"lon-extra-planning-data-tree-preservation-zones","event_ids":"lon_planning_designation_tree-preservation-zone_19114941","event_ids_all":"lon_planning_designation_tree-preservation-zone_19114941","source_urls":"https://www.planning.data.gov.uk/entity/19114941","geometry_precision_mix":"Row-level point from the adapter; source geocoding precision varies and may be approximate.:1","representation":"planning and built evidence grid cell","timing_note":"Filtered by event effective year. OSM mapped-visibility dates and administrative dates can differ from real-world physical change dates.","caveat":"Planning cells are derived from source-backed event locations; they are not parcel boundaries unless source geometry is separately present.","generated_from":"web/data/city-atlas/cities/london/events_1982.json","lifecycle_status":"uncertain","status":"source_record","cell_size_m":95,"intensity":0.289,"label":"Tree preservation zone: The London Borough of Barnet (Vacant land at Potters Lane/Great North Road, Barnet) Tree... — Barnet · 19114941"},"geometry":{"type":"Polygon","coordinates":[[[-0.190583,51.6471322],[-0.1892119,51.6471322],[-0.1892119,51.6479914],[-0.190583,51.6479914],[-0.190583,51.6471322]]]}},{"type":"Feature","properties":{"id":"lens-detail-london-1982-planning_cell-7","layer":"planning_cell","category":"built_environment","year":1982,"visible_year":1982,"title":"1 source-backed planning and built record","confidence":"documented","confidence_mix":"documented:1","event_count":1,"source_count":1,"source_ids":"lon-extra-planning-data-tree-preservation-zones","event_ids":"lon_planning_designation_tree-preservation-zone_19114942","event_ids_all":"lon_planning_designation_tree-preservation-zone_19114942","source_urls":"https://www.planning.data.gov.uk/entity/19114942","geometry_precision_mix":"Row-level point from the adapter; source geocoding precision varies and may be approximate.:1","representation":"planning and built evidence grid cell","timing_note":"Filtered by event effective year. OSM mapped-visibility dates and administrative dates can differ from real-world physical change dates.","caveat":"Planning cells are derived from source-backed event locations; they are not parcel boundaries unless source geometry is separately present.","generated_from":"web/data/city-atlas/cities/london/events_1982.json","lifecycle_status":"uncertain","status":"source_record","cell_size_m":95,"intensity":0.289,"label":"Tree preservation zone: The London Borough of Barnet (Former Chapel Site Totteridge Lane N.20) Tree Preservation Order 1982... — Barnet"},"geometry":{"type":"Polygon","coordinates":[[[-0.1850986,51.6308083],[-0.1837275,51.6308083],[-0.1837275,51.6316675],[-0.1850986,51.6316675],[-0.1850986,51.6308083]]]}},{"type":"Feature","properties":{"id":"lens-detail-london-1982-planning_cell-8","layer":"planning_cell","category":"built_environment","year":1982,"visible_year":1982,"title":"1 source-backed planning and built record","confidence":"documented","confidence_mix":"documented:1","event_count":1,"source_count":1,"source_ids":"lon-extra-planning-data-tree-preservation-zones","event_ids":"lon_planning_designation_tree-preservation-zone_19114943","event_ids_all":"lon_planning_designation_tree-preservation-zone_19114943","source_urls":"https://www.planning.data.gov.uk/entity/19114943","geometry_precision_mix":"Row-level point from the adapter; source geocoding precision varies and may be approximate.:1","representation":"planning and built evidence grid cell","timing_note":"Filtered by event effective year. OSM mapped-visibility dates and administrative dates can differ from real-world physical change dates.","caveat":"Planning cells are derived from source-backed event locations; they are not parcel boundaries unless source geometry is separately present.","generated_from":"web/data/city-atlas/cities/london/events_1982.json","lifecycle_status":"uncertain","status":"source_record","cell_size_m":95,"intensity":0.289,"label":"Tree preservation zone: The London Borough of Barnet (Former Chapel Site Totteridge Lane N.20) Tree Preservation... — Barnet · 19114943"},"geometry":{"type":"Polygon","coordinates":[[[-0.1850986,51.6299492],[-0.1837275,51.6299492],[-0.1837275,51.6308083],[-0.1850986,51.6308083],[-0.1850986,51.6299492]]]}},{"type":"Feature","properties":{"id":"lens-detail-london-1982-planning_cell-9","layer":"planning_cell","category":"built_environment","year":1982,"visible_year":1982,"title":"1 source-backed planning and built record","confidence":"documented","confidence_mix":"documented:1","event_count":1,"source_count":1,"source_ids":"lon-extra-planning-data-tree-preservation-zones","event_ids":"lon_planning_designation_tree-preservation-zone_19114944","event_ids_all":"lon_planning_designation_tree-preservation-zone_19114944","source_urls":"https://www.planning.data.gov.uk/entity/19114944","geometry_precision_mix":"Row-level point from the adapter; source geocoding precision varies and may be approximate.:1","representation":"planning and built evidence grid cell","timing_note":"Filtered by event effective year. OSM mapped-visibility dates and administrative dates can differ from real-world physical change dates.","caveat":"Planning cells are derived from source-backed event locations; they are not parcel boundaries unless source geometry is separately present.","generated_from":"web/data/city-atlas/cities/london/events_1982.json","lifecycle_status":"uncertain","status":"source_record","cell_size_m":95,"intensity":0.289,"label":"Tree preservation zone: The London Borough of Barnet (50 Windermere Avenue N3.) Tree Preservation Order 1982 made under The Town and..."},"geometry":{"type":"Polygon","coordinates":[[[-0.1933252,51.5930056],[-0.1919541,51.5930056],[-0.1919541,51.5938647],[-0.1933252,51.5938647],[-0.1933252,51.5930056]]]}}]}
