{"type":"FeatureCollection","name":"london_lens_detail_1955","metadata":{"schema_version":"1.0.0","city_id":"london","year":1955,"generated_at":"2026-06-03T13:25:16.232Z","source_paths":["web/data/city-atlas/cities/london/events_1955.json","web/data/city-atlas/cities/london/events.json","web/data/city-atlas/cities/london/transport_roads_base.geojson"],"method":"Derived OpenCityLog lens geometry built from source-backed event points plus existing OSM road/detail geometry. Grid cells aggregate events by effective year. Trace lines reuse nearest mapped road geometry for context.","caveats":["Derived cells are evidence grids, not surveyed parcels, catchments, zones, or administrative boundaries.","Trace lines are nearest mapped street or work-location context, not surveyed utility networks, measured traffic speed, spend, vacancy, or service quality. No capacity data is inferred.","When a lens/year has no same-category source-backed records, no coverage geometry is generated; sparse data remains sparse.","Borough, citywide, statistical, corridor, and multi-site records are excluded from site-like lens geometry; they remain available in the event list and evidence records.","OSM mapped-visibility dates and administrative decision dates can differ from real-world physical change dates."],"feature_layers":{"planning_cell":4},"excluded_non_site_record_count":0,"excluded_non_site_reasons":{}},"features":[{"type":"Feature","properties":{"id":"lens-detail-london-1955-planning_cell-0","layer":"planning_cell","category":"built_environment","year":1955,"visible_year":1955,"title":"1 source-backed planning and built record","confidence":"documented","confidence_mix":"documented:1","event_count":1,"source_count":1,"source_ids":"lon-extra-planning-data-tree-preservation-zones","event_ids":"lon_planning_designation_tree-preservation-zone_19153301","event_ids_all":"lon_planning_designation_tree-preservation-zone_19153301","source_urls":"https://www.planning.data.gov.uk/entity/19153301","geometry_precision_mix":"Row-level point from the adapter; source geocoding precision varies and may be approximate.:1","representation":"planning and built evidence grid cell","timing_note":"Filtered by event effective year. OSM mapped-visibility dates and administrative dates can differ from real-world physical change dates.","caveat":"Planning cells are derived from source-backed event locations; they are not parcel boundaries unless source geometry is separately present.","generated_from":"web/data/city-atlas/cities/london/events_1955.json","lifecycle_status":"uncertain","status":"source_record","cell_size_m":95,"intensity":0.289,"label":"Tree preservation zone: STM2_A1"},"geometry":{"type":"Polygon","coordinates":[[[-0.1617899,51.522555],[-0.1604188,51.522555],[-0.1604188,51.5234142],[-0.1617899,51.5234142],[-0.1617899,51.522555]]]}},{"type":"Feature","properties":{"id":"lens-detail-london-1955-planning_cell-1","layer":"planning_cell","category":"built_environment","year":1955,"visible_year":1955,"title":"1 source-backed planning and built record","confidence":"documented","confidence_mix":"documented:1","event_count":1,"source_count":1,"source_ids":"lon-extra-planning-data-tree-preservation-zones","event_ids":"lon_planning_designation_tree-preservation-zone_19153302","event_ids_all":"lon_planning_designation_tree-preservation-zone_19153302","source_urls":"https://www.planning.data.gov.uk/entity/19153302","geometry_precision_mix":"Row-level point from the adapter; source geocoding precision varies and may be approximate.:1","representation":"planning and built evidence grid cell","timing_note":"Filtered by event effective year. OSM mapped-visibility dates and administrative dates can differ from real-world physical change dates.","caveat":"Planning cells are derived from source-backed event locations; they are not parcel boundaries unless source geometry is separately present.","generated_from":"web/data/city-atlas/cities/london/events_1955.json","lifecycle_status":"uncertain","status":"source_record","cell_size_m":95,"intensity":0.289,"label":"Tree preservation zone: STM3_A1"},"geometry":{"type":"Polygon","coordinates":[[[-0.1617899,51.5174001],[-0.1604188,51.5174001],[-0.1604188,51.5182593],[-0.1617899,51.5182593],[-0.1617899,51.5174001]]]}},{"type":"Feature","properties":{"id":"lens-detail-london-1955-planning_cell-2","layer":"planning_cell","category":"built_environment","year":1955,"visible_year":1955,"title":"1 source-backed planning and built record","confidence":"documented","confidence_mix":"documented:1","event_count":1,"source_count":1,"source_ids":"lon-extra-planning-data-tree-preservation-zones","event_ids":"lon_planning_designation_tree-preservation-zone_19153303","event_ids_all":"lon_planning_designation_tree-preservation-zone_19153303","source_urls":"https://www.planning.data.gov.uk/entity/19153303","geometry_precision_mix":"Row-level point from the adapter; source geocoding precision varies and may be approximate.:1","representation":"planning and built evidence grid cell","timing_note":"Filtered by event effective year. OSM mapped-visibility dates and administrative dates can differ from real-world physical change dates.","caveat":"Planning cells are derived from source-backed event locations; they are not parcel boundaries unless source geometry is separately present.","generated_from":"web/data/city-atlas/cities/london/events_1955.json","lifecycle_status":"uncertain","status":"source_record","cell_size_m":95,"intensity":0.289,"label":"Tree preservation zone: STM3_A2"},"geometry":{"type":"Polygon","coordinates":[[[-0.1604188,51.5174001],[-0.1590477,51.5174001],[-0.1590477,51.5182593],[-0.1604188,51.5182593],[-0.1604188,51.5174001]]]}},{"type":"Feature","properties":{"id":"lens-detail-london-1955-planning_cell-3","layer":"planning_cell","category":"built_environment","year":1955,"visible_year":1955,"title":"1 source-backed planning and built record","confidence":"documented","confidence_mix":"documented:1","event_count":1,"source_count":1,"source_ids":"lon-extra-planning-data-tree-preservation-zones","event_ids":"lon_planning_designation_tree-preservation-zone_19153304","event_ids_all":"lon_planning_designation_tree-preservation-zone_19153304","source_urls":"https://www.planning.data.gov.uk/entity/19153304","geometry_precision_mix":"Row-level point from the adapter; source geocoding precision varies and may be approximate.:1","representation":"planning and built evidence grid cell","timing_note":"Filtered by event effective year. OSM mapped-visibility dates and administrative dates can differ from real-world physical change dates.","caveat":"Planning cells are derived from source-backed event locations; they are not parcel boundaries unless source geometry is separately present.","generated_from":"web/data/city-atlas/cities/london/events_1955.json","lifecycle_status":"uncertain","status":"source_record","cell_size_m":95,"intensity":0.289,"label":"Tree preservation zone: STM4_A1"},"geometry":{"type":"Polygon","coordinates":[[[-0.1535633,51.516541],[-0.1521922,51.516541],[-0.1521922,51.5174001],[-0.1535633,51.5174001],[-0.1535633,51.516541]]]}}]}
