{"type":"FeatureCollection","name":"london_lens_detail_1974","metadata":{"schema_version":"1.0.0","city_id":"london","year":1974,"generated_at":"2026-06-03T12:52:25.127Z","source_paths":["web/data/city-atlas/cities/london/events_1974.json","web/data/city-atlas/cities/london/events.json","web/data/city-atlas/cities/london/transport_roads_base.geojson"],"method":"Derived OpenCityLog lens geometry built from source-backed event points plus existing OSM road/detail geometry. Grid cells aggregate events by effective year. Trace lines reuse nearest mapped road geometry for context.","caveats":["Derived cells are evidence grids, not surveyed parcels, catchments, zones, or administrative boundaries.","Trace lines are nearest mapped street or work-location context, not surveyed utility networks, measured traffic speed, spend, vacancy, or service quality. No capacity data is inferred.","When a lens/year has no same-category source-backed records, no coverage geometry is generated; sparse data remains sparse.","Borough, citywide, statistical, corridor, and multi-site records are excluded from site-like lens geometry; they remain available in the event list and evidence records.","OSM mapped-visibility dates and administrative decision dates can differ from real-world physical change dates."],"feature_layers":{"planning_cell":2},"excluded_non_site_record_count":0,"excluded_non_site_reasons":{}},"features":[{"type":"Feature","properties":{"id":"lens-detail-london-1974-planning_cell-0","layer":"planning_cell","category":"built_environment","year":1974,"visible_year":1974,"title":"1 source-backed planning and built record","confidence":"documented","confidence_mix":"documented:1","event_count":1,"source_count":1,"source_ids":"lon-extra-planning-data-tree-preservation-zones","event_ids":"lon_planning_designation_tree-preservation-zone_19176119","event_ids_all":"lon_planning_designation_tree-preservation-zone_19176119","source_urls":"https://www.planning.data.gov.uk/entity/19176119","geometry_precision_mix":"Row-level point from the adapter; source geocoding precision varies and may be approximate.:1","representation":"planning and built evidence grid cell","timing_note":"Filtered by event effective year. OSM mapped-visibility dates and administrative dates can differ from real-world physical change dates.","caveat":"Planning cells are derived from source-backed event locations; they are not parcel boundaries unless source geometry is separately present.","generated_from":"web/data/city-atlas/cities/london/events_1974.json","lifecycle_status":"uncertain","status":"source_record","cell_size_m":95,"intensity":0.289,"label":"Tree preservation zone: 595-601 Harrow Road"},"geometry":{"type":"Polygon","coordinates":[[[-0.3057555,51.5509071],[-0.3043844,51.5509071],[-0.3043844,51.5517662],[-0.3057555,51.5517662],[-0.3057555,51.5509071]]]}},{"type":"Feature","properties":{"id":"lens-detail-london-1974-planning_cell-1","layer":"planning_cell","category":"built_environment","year":1974,"visible_year":1974,"title":"1 source-backed planning and built record","confidence":"documented","confidence_mix":"documented:1","event_count":1,"source_count":1,"source_ids":"lon-extra-planning-data-tree-preservation-zones","event_ids":"lon_planning_designation_tree-preservation-zone_19176120","event_ids_all":"lon_planning_designation_tree-preservation-zone_19176120","source_urls":"https://www.planning.data.gov.uk/entity/19176120","geometry_precision_mix":"Row-level point from the adapter; source geocoding precision varies and may be approximate.:1","representation":"planning and built evidence grid cell","timing_note":"Filtered by event effective year. OSM mapped-visibility dates and administrative dates can differ from real-world physical change dates.","caveat":"Planning cells are derived from source-backed event locations; they are not parcel boundaries unless source geometry is separately present.","generated_from":"web/data/city-atlas/cities/london/events_1974.json","lifecycle_status":"uncertain","status":"source_record","cell_size_m":95,"intensity":0.289,"label":"Tree preservation zone: 595-601 Harrow Road, Wembley"},"geometry":{"type":"Polygon","coordinates":[[[-0.3057555,51.5517662],[-0.3043844,51.5517662],[-0.3043844,51.5526254],[-0.3057555,51.5526254],[-0.3057555,51.5517662]]]}}]}
