{"type":"FeatureCollection","name":"london_lens_detail_1964","metadata":{"schema_version":"1.0.0","city_id":"london","year":1964,"generated_at":"2026-06-03T19:48:59.955Z","source_paths":["web/data/city-atlas/cities/london/events_1964.json","web/data/city-atlas/cities/london/events.json","web/data/city-atlas/cities/london/transport_roads_base.geojson"],"method":"Derived OpenCityLog lens geometry built from source-backed event points plus existing OSM road/detail geometry. Grid cells aggregate events by effective year. Trace lines reuse nearest mapped road geometry for context.","caveats":["Derived cells are evidence grids, not surveyed parcels, catchments, zones, or administrative boundaries.","Trace lines are nearest mapped street or work-location context, not surveyed utility networks, measured traffic speed, spend, vacancy, or service quality. No capacity data is inferred.","When a lens/year has no same-category source-backed records, no coverage geometry is generated; sparse data remains sparse.","Borough, citywide, statistical, corridor, and multi-site records are excluded from site-like lens geometry; they remain available in the event list and evidence records.","OSM mapped-visibility dates and administrative decision dates can differ from real-world physical change dates."],"feature_layers":{"planning_cell":6},"excluded_non_site_record_count":0,"excluded_non_site_reasons":{}},"features":[{"type":"Feature","properties":{"id":"lens-detail-london-1964-planning_cell-1","layer":"planning_cell","category":"built_environment","year":1964,"visible_year":1964,"title":"2 source-backed planning and built records","confidence":"documented","confidence_mix":"documented:2","event_count":2,"source_count":1,"source_ids":"lon-extra-planning-data-tree-preservation-zones","event_ids":"lon_planning_designation_tree-preservation-zone_19153463,lon_planning_designation_tree-preservation-zone_19153466","event_ids_all":"lon_planning_designation_tree-preservation-zone_19153463,lon_planning_designation_tree-preservation-zone_19153466","source_urls":"https://www.planning.data.gov.uk/entity/19153463,https://www.planning.data.gov.uk/entity/19153466","geometry_precision_mix":"Row-level point from the adapter; source geocoding precision varies and may be approximate.:2","representation":"planning and built evidence grid cell","timing_note":"Filtered by event effective year. OSM mapped-visibility dates and administrative dates can differ from real-world physical change dates.","caveat":"Planning cells are derived from source-backed event locations; they are not parcel boundaries unless source geometry is separately present.","generated_from":"web/data/city-atlas/cities/london/events_1964.json","lifecycle_status":"uncertain","status":"source_record","cell_size_m":95,"intensity":0.458,"label":"Tree preservation zone: STM22_G4"},"geometry":{"type":"Polygon","coordinates":[[[-0.1713876,51.5320057],[-0.1700165,51.5320057],[-0.1700165,51.5328649],[-0.1713876,51.5328649],[-0.1713876,51.5320057]]]}},{"type":"Feature","properties":{"id":"lens-detail-london-1964-planning_cell-2","layer":"planning_cell","category":"built_environment","year":1964,"visible_year":1964,"title":"2 source-backed planning and built records","confidence":"documented","confidence_mix":"documented:2","event_count":2,"source_count":1,"source_ids":"lon-extra-planning-data-tree-preservation-zones","event_ids":"lon_planning_designation_tree-preservation-zone_19153464,lon_planning_designation_tree-preservation-zone_19153465","event_ids_all":"lon_planning_designation_tree-preservation-zone_19153464,lon_planning_designation_tree-preservation-zone_19153465","source_urls":"https://www.planning.data.gov.uk/entity/19153464,https://www.planning.data.gov.uk/entity/19153465","geometry_precision_mix":"Row-level point from the adapter; source geocoding precision varies and may be approximate.:2","representation":"planning and built evidence grid cell","timing_note":"Filtered by event effective year. OSM mapped-visibility dates and administrative dates can differ from real-world physical change dates.","caveat":"Planning cells are derived from source-backed event locations; they are not parcel boundaries unless source geometry is separately present.","generated_from":"web/data/city-atlas/cities/london/events_1964.json","lifecycle_status":"uncertain","status":"source_record","cell_size_m":95,"intensity":0.458,"label":"Tree preservation zone: STM22_G1"},"geometry":{"type":"Polygon","coordinates":[[[-0.1727587,51.5320057],[-0.1713876,51.5320057],[-0.1713876,51.5328649],[-0.1727587,51.5328649],[-0.1727587,51.5320057]]]}},{"type":"Feature","properties":{"id":"lens-detail-london-1964-planning_cell-0","layer":"planning_cell","category":"built_environment","year":1964,"visible_year":1964,"title":"1 source-backed planning and built record","confidence":"documented","confidence_mix":"documented:1","event_count":1,"source_count":1,"source_ids":"lon-extra-planning-data-tree-preservation-zones","event_ids":"lon_planning_designation_tree-preservation-zone_19140060","event_ids_all":"lon_planning_designation_tree-preservation-zone_19140060","source_urls":"https://www.planning.data.gov.uk/entity/19140060","geometry_precision_mix":"Row-level point from the adapter; source geocoding precision varies and may be approximate.:1","representation":"planning and built evidence grid cell","timing_note":"Filtered by event effective year. OSM mapped-visibility dates and administrative dates can differ from real-world physical change dates.","caveat":"Planning cells are derived from source-backed event locations; they are not parcel boundaries unless source geometry is separately present.","generated_from":"web/data/city-atlas/cities/london/events_1964.json","lifecycle_status":"uncertain","status":"source_record","cell_size_m":95,"intensity":0.289,"label":"Tree preservation zone: Broom Shaw Old Farleigh Road Farleigh"},"geometry":{"type":"Polygon","coordinates":[[[-0.0452463,51.3326822],[-0.0438752,51.3326822],[-0.0438752,51.3335413],[-0.0452463,51.3335413],[-0.0452463,51.3326822]]]}},{"type":"Feature","properties":{"id":"lens-detail-london-1964-planning_cell-3","layer":"planning_cell","category":"built_environment","year":1964,"visible_year":1964,"title":"1 source-backed planning and built record","confidence":"documented","confidence_mix":"documented:1","event_count":1,"source_count":1,"source_ids":"lon-extra-planning-data-tree-preservation-zones","event_ids":"lon_planning_designation_tree-preservation-zone_19153467","event_ids_all":"lon_planning_designation_tree-preservation-zone_19153467","source_urls":"https://www.planning.data.gov.uk/entity/19153467","geometry_precision_mix":"Row-level point from the adapter; source geocoding precision varies and may be approximate.:1","representation":"planning and built evidence grid cell","timing_note":"Filtered by event effective year. OSM mapped-visibility dates and administrative dates can differ from real-world physical change dates.","caveat":"Planning cells are derived from source-backed event locations; they are not parcel boundaries unless source geometry is separately present.","generated_from":"web/data/city-atlas/cities/london/events_1964.json","lifecycle_status":"uncertain","status":"source_record","cell_size_m":95,"intensity":0.289,"label":"Tree preservation zone: STM22_G5"},"geometry":{"type":"Polygon","coordinates":[[[-0.1672743,51.5311466],[-0.1659032,51.5311466],[-0.1659032,51.5320057],[-0.1672743,51.5320057],[-0.1672743,51.5311466]]]}},{"type":"Feature","properties":{"id":"lens-detail-london-1964-planning_cell-4","layer":"planning_cell","category":"built_environment","year":1964,"visible_year":1964,"title":"1 source-backed planning and built record","confidence":"documented","confidence_mix":"documented:1","event_count":1,"source_count":1,"source_ids":"lon-extra-planning-data-tree-preservation-zones","event_ids":"lon_planning_designation_tree-preservation-zone_19153468","event_ids_all":"lon_planning_designation_tree-preservation-zone_19153468","source_urls":"https://www.planning.data.gov.uk/entity/19153468","geometry_precision_mix":"Row-level point from the adapter; source geocoding precision varies and may be approximate.:1","representation":"planning and built evidence grid cell","timing_note":"Filtered by event effective year. OSM mapped-visibility dates and administrative dates can differ from real-world physical change dates.","caveat":"Planning cells are derived from source-backed event locations; they are not parcel boundaries unless source geometry is separately present.","generated_from":"web/data/city-atlas/cities/london/events_1964.json","lifecycle_status":"uncertain","status":"source_record","cell_size_m":95,"intensity":0.289,"label":"Tree preservation zone: STM22_G6"},"geometry":{"type":"Polygon","coordinates":[[[-0.1672743,51.5328649],[-0.1659032,51.5328649],[-0.1659032,51.533724],[-0.1672743,51.533724],[-0.1672743,51.5328649]]]}},{"type":"Feature","properties":{"id":"lens-detail-london-1964-planning_cell-5","layer":"planning_cell","category":"built_environment","year":1964,"visible_year":1964,"title":"1 source-backed planning and built record","confidence":"documented","confidence_mix":"documented:1","event_count":1,"source_count":1,"source_ids":"lon-extra-planning-data-tree-preservation-zones","event_ids":"lon_planning_designation_tree-preservation-zone_19153469","event_ids_all":"lon_planning_designation_tree-preservation-zone_19153469","source_urls":"https://www.planning.data.gov.uk/entity/19153469","geometry_precision_mix":"Row-level point from the adapter; source geocoding precision varies and may be approximate.:1","representation":"planning and built evidence grid cell","timing_note":"Filtered by event effective year. OSM mapped-visibility dates and administrative dates can differ from real-world physical change dates.","caveat":"Planning cells are derived from source-backed event locations; they are not parcel boundaries unless source geometry is separately present.","generated_from":"web/data/city-atlas/cities/london/events_1964.json","lifecycle_status":"uncertain","status":"source_record","cell_size_m":95,"intensity":0.289,"label":"Tree preservation zone: STM22_G7"},"geometry":{"type":"Polygon","coordinates":[[[-0.1686454,51.5320057],[-0.1672743,51.5320057],[-0.1672743,51.5328649],[-0.1686454,51.5328649],[-0.1686454,51.5320057]]]}}]}
