{"type":"FeatureCollection","name":"london_lens_detail_1962","metadata":{"schema_version":"1.0.0","city_id":"london","year":1962,"generated_at":"2026-05-20T02:50:43.295Z","source_paths":["web/data/city-atlas/cities/london/events_1962.json","web/data/city-atlas/cities/london/events.json","web/data/city-atlas/cities/london/transport_roads_base.geojson"],"method":"Derived OpenCityLog lens geometry built from source-backed event points plus existing OSM road/detail geometry. Grid cells aggregate events by effective year. Trace lines reuse nearest mapped road geometry for context.","caveats":["Derived cells are evidence grids, not surveyed parcels, catchments, zones, or administrative boundaries.","Trace lines are nearest mapped street or work-location context, not surveyed utility networks, measured traffic speed, spend, vacancy, or service quality. No capacity data is inferred.","Borough, citywide, statistical, corridor, and multi-site records are excluded from site-like lens geometry; they remain available in the event list and evidence records.","OSM mapped-visibility dates and administrative decision dates can differ from real-world physical change dates."],"feature_layers":{"planning_cell":9},"excluded_non_site_record_count":0,"excluded_non_site_reasons":{}},"features":[{"type":"Feature","properties":{"id":"lens-detail-london-1962-planning_cell-4","layer":"planning_cell","category":"built_environment","year":1962,"visible_year":1962,"title":"4 source-backed planning and built records","confidence":"documented","confidence_mix":"documented:4","event_count":4,"source_count":1,"source_ids":"lon-extra-planning-data-listed-building-outlines","event_ids":"lon_planning_designation_listed-building-outline_42149286,lon_planning_designation_listed-building-outline_42149287,lon_planning_designation_listed-building-outline_42182938,lon_planning_designation_listed-building-outline_42182939","event_ids_all":"lon_planning_designation_listed-building-outline_42149286,lon_planning_designation_listed-building-outline_42149287,lon_planning_designation_listed-building-outline_42182938,lon_planning_designation_listed-building-outline_42182939","source_urls":"https://www.planning.data.gov.uk/entity/42149286,https://www.planning.data.gov.uk/entity/42149287,https://www.planning.data.gov.uk/entity/42182938,https://www.planning.data.gov.uk/entity/42182939","geometry_precision_mix":"Row-level point from the adapter; source geocoding precision varies and may be approximate.:4","representation":"planning and built evidence grid cell","timing_note":"Filtered by event effective year. OSM mapped-visibility dates and administrative dates can differ from real-world physical change dates.","caveat":"Planning cells are derived from source-backed event locations; they are not parcel boundaries unless source geometry is separately present.","generated_from":"web/data/city-atlas/cities/london/events_1962.json","lifecycle_status":"uncertain","status":"source_record","cell_size_m":95,"intensity":0.671,"label":"Listed building outline: 38 CHEYNE WALK"},"geometry":{"type":"Polygon","coordinates":[[[-0.1686617,51.483034],[-0.1672905,51.483034],[-0.1672905,51.4838931],[-0.1686617,51.4838931],[-0.1686617,51.483034]]]}},{"type":"Feature","properties":{"id":"lens-detail-london-1962-planning_cell-7","layer":"planning_cell","category":"built_environment","year":1962,"visible_year":1962,"title":"4 source-backed planning and built records","confidence":"documented","confidence_mix":"documented:4","event_count":4,"source_count":1,"source_ids":"lon-extra-planning-data-listed-building-outlines","event_ids":"lon_planning_designation_listed-building-outline_42149314,lon_planning_designation_listed-building-outline_42149315,lon_planning_designation_listed-building-outline_42182966,lon_planning_designation_listed-building-outline_42182967","event_ids_all":"lon_planning_designation_listed-building-outline_42149314,lon_planning_designation_listed-building-outline_42149315,lon_planning_designation_listed-building-outline_42182966,lon_planning_designation_listed-building-outline_42182967","source_urls":"https://www.planning.data.gov.uk/entity/42149314,https://www.planning.data.gov.uk/entity/42149315,https://www.planning.data.gov.uk/entity/42182966,https://www.planning.data.gov.uk/entity/42182967","geometry_precision_mix":"Row-level point from the adapter; source geocoding precision varies and may be approximate.:4","representation":"planning and built evidence grid cell","timing_note":"Filtered by event effective year. OSM mapped-visibility dates and administrative dates can differ from real-world physical change dates.","caveat":"Planning cells are derived from source-backed event locations; they are not parcel boundaries unless source geometry is separately present.","generated_from":"web/data/city-atlas/cities/london/events_1962.json","lifecycle_status":"uncertain","status":"source_record","cell_size_m":95,"intensity":0.671,"label":"Listed building outline: 52 CADOGAN SQUARE"},"geometry":{"type":"Polygon","coordinates":[[[-0.1618055,51.4950621],[-0.1604343,51.4950621],[-0.1604343,51.4959213],[-0.1618055,51.4959213],[-0.1618055,51.4950621]]]}},{"type":"Feature","properties":{"id":"lens-detail-london-1962-planning_cell-0","layer":"planning_cell","category":"built_environment","year":1962,"visible_year":1962,"title":"2 source-backed planning and built records","confidence":"documented","confidence_mix":"documented:2","event_count":2,"source_count":1,"source_ids":"lon-extra-planning-data-listed-building-outlines","event_ids":"lon_planning_designation_listed-building-outline_42115338,lon_planning_designation_listed-building-outline_42115340","event_ids_all":"lon_planning_designation_listed-building-outline_42115338,lon_planning_designation_listed-building-outline_42115340","source_urls":"https://www.planning.data.gov.uk/entity/42115338,https://www.planning.data.gov.uk/entity/42115340","geometry_precision_mix":"Row-level point from the adapter; source geocoding precision varies and may be approximate.:2","representation":"planning and built evidence grid cell","timing_note":"Filtered by event effective year. OSM mapped-visibility dates and administrative dates can differ from real-world physical change dates.","caveat":"Planning cells are derived from source-backed event locations; they are not parcel boundaries unless source geometry is separately present.","generated_from":"web/data/city-atlas/cities/london/events_1962.json","lifecycle_status":"uncertain","status":"source_record","cell_size_m":95,"intensity":0.458,"label":"Listed building outline: Licensed Victuallers Benevolent Institution (Caroline Gardens)"},"geometry":{"type":"Polygon","coordinates":[[[-0.0617055,51.4787382],[-0.0603343,51.4787382],[-0.0603343,51.4795974],[-0.0617055,51.4795974],[-0.0617055,51.4787382]]]}},{"type":"Feature","properties":{"id":"lens-detail-london-1962-planning_cell-5","layer":"planning_cell","category":"built_environment","year":1962,"visible_year":1962,"title":"2 source-backed planning and built records","confidence":"documented","confidence_mix":"documented:2","event_count":2,"source_count":1,"source_ids":"lon-extra-planning-data-listed-building-outlines","event_ids":"lon_planning_designation_listed-building-outline_42149290,lon_planning_designation_listed-building-outline_42182942","event_ids_all":"lon_planning_designation_listed-building-outline_42149290,lon_planning_designation_listed-building-outline_42182942","source_urls":"https://www.planning.data.gov.uk/entity/42149290,https://www.planning.data.gov.uk/entity/42182942","geometry_precision_mix":"Row-level point from the adapter; source geocoding precision varies and may be approximate.:2","representation":"planning and built evidence grid cell","timing_note":"Filtered by event effective year. OSM mapped-visibility dates and administrative dates can differ from real-world physical change dates.","caveat":"Planning cells are derived from source-backed event locations; they are not parcel boundaries unless source geometry is separately present.","generated_from":"web/data/city-atlas/cities/london/events_1962.json","lifecycle_status":"uncertain","status":"source_record","cell_size_m":95,"intensity":0.458,"label":"Listed building outline: 8 CHEYNE WALK"},"geometry":{"type":"Polygon","coordinates":[[[-0.1659192,51.4838931],[-0.164548,51.4838931],[-0.164548,51.4847523],[-0.1659192,51.4847523],[-0.1659192,51.4838931]]]}},{"type":"Feature","properties":{"id":"lens-detail-london-1962-planning_cell-6","layer":"planning_cell","category":"built_environment","year":1962,"visible_year":1962,"title":"2 source-backed planning and built records","confidence":"documented","confidence_mix":"documented:2","event_count":2,"source_count":1,"source_ids":"lon-extra-planning-data-listed-building-outlines","event_ids":"lon_planning_designation_listed-building-outline_42149304,lon_planning_designation_listed-building-outline_42182956","event_ids_all":"lon_planning_designation_listed-building-outline_42149304,lon_planning_designation_listed-building-outline_42182956","source_urls":"https://www.planning.data.gov.uk/entity/42149304,https://www.planning.data.gov.uk/entity/42182956","geometry_precision_mix":"Row-level point from the adapter; source geocoding precision varies and may be approximate.:2","representation":"planning and built evidence grid cell","timing_note":"Filtered by event effective year. OSM mapped-visibility dates and administrative dates can differ from real-world physical change dates.","caveat":"Planning cells are derived from source-backed event locations; they are not parcel boundaries unless source geometry is separately present.","generated_from":"web/data/city-atlas/cities/london/events_1962.json","lifecycle_status":"uncertain","status":"source_record","cell_size_m":95,"intensity":0.458,"label":"Listed building outline: THE RIVER HOUSE"},"geometry":{"type":"Polygon","coordinates":[[[-0.1604343,51.4838931],[-0.1590631,51.4838931],[-0.1590631,51.4847523],[-0.1604343,51.4847523],[-0.1604343,51.4838931]]]}},{"type":"Feature","properties":{"id":"lens-detail-london-1962-planning_cell-1","layer":"planning_cell","category":"built_environment","year":1962,"visible_year":1962,"title":"1 source-backed planning and built record","confidence":"documented","confidence_mix":"documented:1","event_count":1,"source_count":1,"source_ids":"lon-extra-planning-data-listed-building-outlines","event_ids":"lon_planning_designation_listed-building-outline_42115339","event_ids_all":"lon_planning_designation_listed-building-outline_42115339","source_urls":"https://www.planning.data.gov.uk/entity/42115339","geometry_precision_mix":"Row-level point from the adapter; source geocoding precision varies and may be approximate.:1","representation":"planning and built evidence grid cell","timing_note":"Filtered by event effective year. OSM mapped-visibility dates and administrative dates can differ from real-world physical change dates.","caveat":"Planning cells are derived from source-backed event locations; they are not parcel boundaries unless source geometry is separately present.","generated_from":"web/data/city-atlas/cities/london/events_1962.json","lifecycle_status":"uncertain","status":"source_record","cell_size_m":95,"intensity":0.289,"label":"Listed building outline: Licensed Victuallers Benevolent Institution (Caroline Gardens)"},"geometry":{"type":"Polygon","coordinates":[[[-0.0617055,51.4795974],[-0.0603343,51.4795974],[-0.0603343,51.4804565],[-0.0617055,51.4804565],[-0.0617055,51.4795974]]]}},{"type":"Feature","properties":{"id":"lens-detail-london-1962-planning_cell-2","layer":"planning_cell","category":"built_environment","year":1962,"visible_year":1962,"title":"1 source-backed planning and built record","confidence":"documented","confidence_mix":"documented:1","event_count":1,"source_count":1,"source_ids":"lon-extra-planning-data-listed-building-outlines","event_ids":"lon_planning_designation_listed-building-outline_42115341","event_ids_all":"lon_planning_designation_listed-building-outline_42115341","source_urls":"https://www.planning.data.gov.uk/entity/42115341","geometry_precision_mix":"Row-level point from the adapter; source geocoding precision varies and may be approximate.:1","representation":"planning and built evidence grid cell","timing_note":"Filtered by event effective year. OSM mapped-visibility dates and administrative dates can differ from real-world physical change dates.","caveat":"Planning cells are derived from source-backed event locations; they are not parcel boundaries unless source geometry is separately present.","generated_from":"web/data/city-atlas/cities/london/events_1962.json","lifecycle_status":"uncertain","status":"source_record","cell_size_m":95,"intensity":0.289,"label":"Listed building outline: North lodge to Licensed Victuallers Benevolent Institution (Caroline Gardens)"},"geometry":{"type":"Polygon","coordinates":[[[-0.0603343,51.4795974],[-0.058963,51.4795974],[-0.058963,51.4804565],[-0.0603343,51.4804565],[-0.0603343,51.4795974]]]}},{"type":"Feature","properties":{"id":"lens-detail-london-1962-planning_cell-3","layer":"planning_cell","category":"built_environment","year":1962,"visible_year":1962,"title":"1 source-backed planning and built record","confidence":"documented","confidence_mix":"documented:1","event_count":1,"source_count":1,"source_ids":"lon-extra-planning-data-listed-building-outlines","event_ids":"lon_planning_designation_listed-building-outline_42115342","event_ids_all":"lon_planning_designation_listed-building-outline_42115342","source_urls":"https://www.planning.data.gov.uk/entity/42115342","geometry_precision_mix":"Row-level point from the adapter; source geocoding precision varies and may be approximate.:1","representation":"planning and built evidence grid cell","timing_note":"Filtered by event effective year. OSM mapped-visibility dates and administrative dates can differ from real-world physical change dates.","caveat":"Planning cells are derived from source-backed event locations; they are not parcel boundaries unless source geometry is separately present.","generated_from":"web/data/city-atlas/cities/london/events_1962.json","lifecycle_status":"uncertain","status":"source_record","cell_size_m":95,"intensity":0.289,"label":"Listed building outline: South lodge to Licensed Victuallers Benevolent Institution (Caroline Gardens)"},"geometry":{"type":"Polygon","coordinates":[[[-0.0603343,51.4787382],[-0.058963,51.4787382],[-0.058963,51.4795974],[-0.0603343,51.4795974],[-0.0603343,51.4787382]]]}},{"type":"Feature","properties":{"id":"lens-detail-london-1962-planning_cell-8","layer":"planning_cell","category":"built_environment","year":1962,"visible_year":1962,"title":"1 source-backed planning and built record","confidence":"documented","confidence_mix":"documented:1","event_count":1,"source_count":1,"source_ids":"lon-extra-planning-data-listed-building-outlines","event_ids":"lon_planning_designation_listed-building-outline_42165577","event_ids_all":"lon_planning_designation_listed-building-outline_42165577","source_urls":"https://www.planning.data.gov.uk/entity/42165577","geometry_precision_mix":"Row-level point from the adapter; source geocoding precision varies and may be approximate.:1","representation":"planning and built evidence grid cell","timing_note":"Filtered by event effective year. OSM mapped-visibility dates and administrative dates can differ from real-world physical change dates.","caveat":"Planning cells are derived from source-backed event locations; they are not parcel boundaries unless source geometry is separately present.","generated_from":"web/data/city-atlas/cities/london/events_1962.json","lifecycle_status":"uncertain","status":"source_record","cell_size_m":95,"intensity":0.289,"label":"Listed building outline: Ground Floor To Second Floor 9 Grosvenor Square London W1K 5AE"},"geometry":{"type":"Polygon","coordinates":[[[-0.1508357,51.5122452],[-0.1494644,51.5122452],[-0.1494644,51.5131043],[-0.1508357,51.5131043],[-0.1508357,51.5122452]]]}}]}
