{"type":"FeatureCollection","name":"london_transport_roads_1933","metadata":{"schema_version":"1.0.0","city_id":"london","year":1933,"road_source":"data/raw/overpass/london_major_roads_osm_2026.geojson","method":"Road features are colored from nearby source-backed transport records in a rolling three-year window.","caveat":"Transport road colors are activity hotspots, not measured traffic counts or live congestion."},"features":[{"type":"Feature","properties":{"id":"lens-traffic-road-london-way/50443385","layer":"traffic_road","category":"transport","year":1933,"visible_year":2023,"rank":4,"name":"Long Lane","source_id":"way/50443385","source_url":"https://www.openstreetmap.org/way/50443385","license":"ODbL","transport_raw":0.829,"transport_count":1,"transport_activity":1,"representation":"major-road transport-event activity","timing_note":"Road color is a three-year transport-event activity surface on current OSM major road geometry, not measured traffic volume or congestion."},"geometry":{"type":"LineString","coordinates":[[-0.4489742,51.5506825],[-0.4489368,51.5502502],[-0.4489075,51.5497006],[-0.4488891,51.5494462],[-0.4488732,51.5492256],[-0.4488631,51.5488223],[-0.4489294,51.548569],[-0.4489994,51.5483905],[-0.4490694,51.5482463],[-0.4493231,51.5477243],[-0.4494315,51.5473419],[-0.4494916,51.5468261],[-0.4495711,51.5462307],[-0.449626,51.545819],[-0.4496459,51.5456706],[-0.4496819,51.5454006],[-0.449835,51.5443989],[-0.4498692,51.5441084],[-0.4498798,51.5440181],[-0.449942,51.5434913],[-0.4499487,51.5434345],[-0.4499825,51.5431476],[-0.449989,51.5430926]]}},{"type":"Feature","properties":{"id":"lens-traffic-road-london-way/25638849","layer":"traffic_road","category":"transport","year":1933,"visible_year":2018,"rank":4,"name":"Long Lane","source_id":"way/25638849","source_url":"https://www.openstreetmap.org/way/25638849","license":"ODbL","transport_raw":0.36,"transport_count":1,"transport_activity":0.434,"representation":"major-road transport-event activity","timing_note":"Road color is a three-year transport-event activity surface on current OSM major road geometry, not measured traffic volume or congestion."},"geometry":{"type":"LineString","coordinates":[[-0.4489643,51.5507334],[-0.4489742,51.5506825]]}},{"type":"Feature","properties":{"id":"lens-traffic-road-london-way/511365650","layer":"traffic_road","category":"transport","year":1933,"visible_year":2026,"rank":4,"name":"Long Lane","source_id":"way/511365650","source_url":"https://www.openstreetmap.org/way/511365650","license":"ODbL","transport_raw":0.269,"transport_count":1,"transport_activity":0.324,"representation":"major-road transport-event activity","timing_note":"Road color is a three-year transport-event activity surface on current OSM major road geometry, not measured traffic volume or congestion."},"geometry":{"type":"LineString","coordinates":[[-0.4486891,51.5520637],[-0.4487344,51.5519471],[-0.4487813,51.5518364],[-0.4488311,51.551708],[-0.4488531,51.5516521],[-0.4488978,51.5514488],[-0.4489423,51.5512346],[-0.4489467,51.5511378],[-0.4489487,51.551093],[-0.4489565,51.5508211],[-0.4489643,51.5507334]]}},{"type":"Feature","properties":{"id":"lens-traffic-road-london-way/25638847","layer":"traffic_road","category":"transport","year":1933,"visible_year":2026,"rank":4,"name":"Long Lane","source_id":"way/25638847","source_url":"https://www.openstreetmap.org/way/25638847","license":"ODbL","transport_raw":0.264,"transport_count":1,"transport_activity":0.319,"representation":"major-road transport-event activity","timing_note":"Road color is a three-year transport-event activity surface on current OSM major road geometry, not measured traffic volume or congestion."},"geometry":{"type":"LineString","coordinates":[[-0.4489742,51.5506825],[-0.4490292,51.5508113],[-0.4490437,51.5508855],[-0.449058,51.5509858],[-0.4490591,51.5510246],[-0.449061,51.5510961],[-0.4490502,51.5514419],[-0.4490012,51.5515972],[-0.4489478,51.5517669],[-0.4489427,51.551783],[-0.4488944,51.5519376],[-0.4488841,51.5519717],[-0.4488482,51.5520966],[-0.4488114,51.5522032]]}},{"type":"Feature","properties":{"id":"lens-traffic-road-london-way/1167769250","layer":"traffic_road","category":"transport","year":1933,"visible_year":2023,"rank":4,"name":"Freezeland Way","source_id":"way/1167769250","source_url":"https://www.openstreetmap.org/way/1167769250","license":"ODbL","transport_raw":0.253,"transport_count":1,"transport_activity":0.305,"representation":"major-road transport-event activity","timing_note":"Road color is a three-year transport-event activity surface on current OSM major road geometry, not measured traffic volume or congestion."},"geometry":{"type":"LineString","coordinates":[[-0.446264,51.551399],[-0.4474009,51.5517034]]}},{"type":"Feature","properties":{"id":"lens-traffic-road-london-way/9222124","layer":"traffic_road","category":"transport","year":1933,"visible_year":2023,"rank":4,"name":"Freezeland Way","source_id":"way/9222124","source_url":"https://www.openstreetmap.org/way/9222124","license":"ODbL","transport_raw":0.232,"transport_count":1,"transport_activity":0.28,"representation":"major-road transport-event activity","timing_note":"Road color is a three-year transport-event activity surface on current OSM major road geometry, not measured traffic volume or congestion."},"geometry":{"type":"LineString","coordinates":[[-0.4486675,51.5521693],[-0.4484086,51.5521157],[-0.4478469,51.5519504],[-0.4476769,51.5519062],[-0.446856,51.5517062],[-0.4467272,51.5516962],[-0.4465344,51.5516959],[-0.4463785,51.5516995],[-0.446293,51.5517025],[-0.4461801,51.5516862],[-0.4460999,51.5516425],[-0.4460567,51.5516028],[-0.4460516,51.5515524],[-0.4460838,51.5515091],[-0.446132,51.5514657],[-0.4461803,51.551439],[-0.446264,51.551399]]}},{"type":"Feature","properties":{"id":"lens-traffic-road-london-way/511365646","layer":"traffic_road","category":"transport","year":1933,"visible_year":2023,"rank":4,"name":"Freezeland Way","source_id":"way/511365646","source_url":"https://www.openstreetmap.org/way/511365646","license":"ODbL","transport_raw":0.222,"transport_count":1,"transport_activity":0.268,"representation":"major-road transport-event activity","timing_note":"Road color is a three-year transport-event activity surface on current OSM major road geometry, not measured traffic volume or congestion."},"geometry":{"type":"LineString","coordinates":[[-0.4474009,51.5517034],[-0.4476402,51.5517697],[-0.4479067,51.5518492],[-0.448276,51.5519461]]}},{"type":"Feature","properties":{"id":"lens-traffic-road-london-way/1167769251","layer":"traffic_road","category":"transport","year":1933,"visible_year":2023,"rank":4,"name":"Freezeland Way","source_id":"way/1167769251","source_url":"https://www.openstreetmap.org/way/1167769251","license":"ODbL","transport_raw":0.195,"transport_count":1,"transport_activity":0.235,"representation":"major-road transport-event activity","timing_note":"Road color is a three-year transport-event activity surface on current OSM major road geometry, not measured traffic volume or congestion."},"geometry":{"type":"LineString","coordinates":[[-0.448276,51.5519461],[-0.4485046,51.5520178],[-0.4485684,51.5520317],[-0.4486891,51.5520637]]}},{"type":"Feature","properties":{"id":"lens-traffic-road-london-way/50443386","layer":"traffic_road","category":"transport","year":1933,"visible_year":2024,"rank":4,"name":"Freezeland Way","source_id":"way/50443386","source_url":"https://www.openstreetmap.org/way/50443386","license":"ODbL","transport_raw":0.185,"transport_count":1,"transport_activity":0.223,"representation":"major-road transport-event activity","timing_note":"Road color is a three-year transport-event activity surface on current OSM major road geometry, not measured traffic volume or congestion."},"geometry":{"type":"LineString","coordinates":[[-0.4486891,51.5520637],[-0.4488482,51.5520966]]}},{"type":"Feature","properties":{"id":"lens-traffic-road-london-way/511365648","layer":"traffic_road","category":"transport","year":1933,"visible_year":2024,"rank":4,"name":"Freezeland Way","source_id":"way/511365648","source_url":"https://www.openstreetmap.org/way/511365648","license":"ODbL","transport_raw":0.171,"transport_count":1,"transport_activity":0.206,"representation":"major-road transport-event activity","timing_note":"Road color is a three-year transport-event activity surface on current OSM major road geometry, not measured traffic volume or congestion."},"geometry":{"type":"LineString","coordinates":[[-0.4488114,51.5522032],[-0.4486675,51.5521693]]}},{"type":"Feature","properties":{"id":"lens-traffic-road-london-way/2293950","layer":"traffic_road","category":"transport","year":1933,"visible_year":2024,"rank":4,"name":"A437","source_id":"way/2293950","source_url":"https://www.openstreetmap.org/way/2293950","license":"ODbL","transport_raw":0.169,"transport_count":1,"transport_activity":0.204,"representation":"major-road transport-event activity","timing_note":"Road color is a three-year transport-event activity surface on current OSM major road geometry, not measured traffic volume or congestion."},"geometry":{"type":"LineString","coordinates":[[-0.4488482,51.5520966],[-0.4490374,51.5521521],[-0.4490977,51.5521698],[-0.4494929,51.5522946]]}},{"type":"Feature","properties":{"id":"lens-traffic-road-london-way/50443387","layer":"traffic_road","category":"transport","year":1933,"visible_year":2024,"rank":4,"name":"mapped road segment","source_id":"way/50443387","source_url":"https://www.openstreetmap.org/way/50443387","license":"ODbL","transport_raw":0.158,"transport_count":1,"transport_activity":0.191,"representation":"major-road transport-event activity","timing_note":"Road color is a three-year transport-event activity surface on current OSM major road geometry, not measured traffic volume or congestion."},"geometry":{"type":"LineString","coordinates":[[-0.4491532,51.5523371],[-0.4490602,51.5522851],[-0.448999,51.552269],[-0.4489339,51.5522499],[-0.4488114,51.5522032]]}},{"type":"Feature","properties":{"id":"lens-traffic-road-london-way/511365649","layer":"traffic_road","category":"transport","year":1933,"visible_year":2024,"rank":4,"name":"Long Lane","source_id":"way/511365649","source_url":"https://www.openstreetmap.org/way/511365649","license":"ODbL","transport_raw":0.156,"transport_count":1,"transport_activity":0.188,"representation":"major-road transport-event activity","timing_note":"Road color is a three-year transport-event activity surface on current OSM major road geometry, not measured traffic volume or congestion."},"geometry":{"type":"LineString","coordinates":[[-0.4488114,51.5522032],[-0.4487877,51.5522822],[-0.4487405,51.5524158]]}},{"type":"Feature","properties":{"id":"lens-traffic-road-london-way/572765611","layer":"traffic_road","category":"transport","year":1933,"visible_year":2021,"rank":2,"name":"Hercies Road","source_id":"way/572765611","source_url":"https://www.openstreetmap.org/way/572765611","license":"ODbL","transport_raw":0.155,"transport_count":1,"transport_activity":0.187,"representation":"major-road transport-event activity","timing_note":"Road color is a three-year transport-event activity surface on current OSM major road geometry, not measured traffic volume or congestion."},"geometry":{"type":"LineString","coordinates":[[-0.4494929,51.5522946],[-0.4495588,51.5522478],[-0.4495966,51.5522262],[-0.4496236,51.5522123],[-0.4497022,51.5522082]]}},{"type":"Feature","properties":{"id":"lens-traffic-road-london-way/572765609","layer":"traffic_road","category":"transport","year":1933,"visible_year":2024,"rank":2,"name":"Hercies Road","source_id":"way/572765609","source_url":"https://www.openstreetmap.org/way/572765609","license":"ODbL","transport_raw":0.148,"transport_count":1,"transport_activity":0.179,"representation":"major-road transport-event activity","timing_note":"Road color is a three-year transport-event activity surface on current OSM major road geometry, not measured traffic volume or congestion."},"geometry":{"type":"LineString","coordinates":[[-0.4497022,51.5522082],[-0.4497379,51.5522436],[-0.4497278,51.5522733],[-0.449723,51.5522882],[-0.4497086,51.5523195],[-0.4496904,51.552359]]}},{"type":"Feature","properties":{"id":"lens-traffic-road-london-way/575630260","layer":"traffic_road","category":"transport","year":1933,"visible_year":2024,"rank":4,"name":"A437","source_id":"way/575630260","source_url":"https://www.openstreetmap.org/way/575630260","license":"ODbL","transport_raw":0.144,"transport_count":1,"transport_activity":0.174,"representation":"major-road transport-event activity","timing_note":"Road color is a three-year transport-event activity surface on current OSM major road geometry, not measured traffic volume or congestion."},"geometry":{"type":"LineString","coordinates":[[-0.4494929,51.5522946],[-0.4495993,51.5523275],[-0.4496904,51.552359]]}},{"type":"Feature","properties":{"id":"lens-traffic-road-london-way/9222252","layer":"traffic_road","category":"transport","year":1933,"visible_year":2024,"rank":4,"name":"A437","source_id":"way/9222252","source_url":"https://www.openstreetmap.org/way/9222252","license":"ODbL","transport_raw":0.114,"transport_count":1,"transport_activity":0.138,"representation":"major-road transport-event activity","timing_note":"Road color is a three-year transport-event activity surface on current OSM major road geometry, not measured traffic volume or congestion."},"geometry":{"type":"LineString","coordinates":[[-0.4507571,51.5528235],[-0.4498741,51.552536],[-0.4495118,51.5524418],[-0.4491532,51.5523371]]}},{"type":"Feature","properties":{"id":"lens-traffic-road-london-way/574782636","layer":"traffic_road","category":"transport","year":1933,"visible_year":2024,"rank":4,"name":"Long Lane","source_id":"way/574782636","source_url":"https://www.openstreetmap.org/way/574782636","license":"ODbL","transport_raw":0.114,"transport_count":1,"transport_activity":0.137,"representation":"major-road transport-event activity","timing_note":"Road color is a three-year transport-event activity surface on current OSM major road geometry, not measured traffic volume or congestion."},"geometry":{"type":"LineString","coordinates":[[-0.447917,51.5534712],[-0.4481733,51.5531475],[-0.4483727,51.5528924],[-0.4484519,51.5527615],[-0.4485504,51.5526059],[-0.4486131,51.5523596],[-0.4486222,51.5523214],[-0.4486675,51.5521693],[-0.4486891,51.5520637]]}},{"type":"Feature","properties":{"id":"lens-traffic-road-london-way/134521152","layer":"traffic_road","category":"transport","year":1933,"visible_year":2025,"rank":2,"name":"Hercies Road","source_id":"way/134521152","source_url":"https://www.openstreetmap.org/way/134521152","license":"ODbL","transport_raw":0.11,"transport_count":1,"transport_activity":0.132,"representation":"major-road transport-event activity","timing_note":"Road color is a three-year transport-event activity surface on current OSM major road geometry, not measured traffic volume or congestion."},"geometry":{"type":"LineString","coordinates":[[-0.4630709,51.5481639],[-0.4625879,51.5482695],[-0.4617414,51.5483871],[-0.461558,51.5483985],[-0.461029,51.5484485],[-0.4605248,51.548497],[-0.460208,51.5485406],[-0.4599666,51.5485906],[-0.4597359,51.5486573],[-0.4595428,51.5487241],[-0.4593497,51.5488041],[-0.4591673,51.5489042],[-0.4588511,51.5490917],[-0.4585663,51.5493138],[-0.4582473,51.5496859],[-0.4581227,51.5498313],[-0.4576409,51.5503957],[-0.4575071,51.5505149],[-0.4573354,51.5506283],[-0.4570431,51.5507334],[-0.456512,51.5508918],[-0.4561593,51.5509961],[-0.4555517,51.5511587],[-0.4542133,51.5515356],[-0.4535401,51.5517216],[-0.4527099,51.5519476],[-0.4522215,51.5520509],[-0.4520126,51.5520718],[-0.4517046,51.5521168],[-0.4514882,51.5521407],[-0.4511461,51.5521784],[-0.4509633,51.5521986],[-0.4509042,51.5522051],[-0.4508055,51.5522112],[-0.4505751,51.5522084],[-0.4503236,51.552202],[-0.4498747,51.5521681],[-0.4497897,51.5521714],[-0.4497408,51.5521899],[-0.4497022,51.5522082]]}},{"type":"Feature","properties":{"id":"lens-traffic-road-london-way/23084705","layer":"traffic_road","category":"transport","year":1933,"visible_year":2025,"rank":2,"name":"Court Drive","source_id":"way/23084705","source_url":"https://www.openstreetmap.org/way/23084705","license":"ODbL","transport_raw":0.098,"transport_count":1,"transport_activity":0.118,"representation":"major-road transport-event activity","timing_note":"Road color is a three-year transport-event activity surface on current OSM major road geometry, not measured traffic volume or congestion."},"geometry":{"type":"LineString","coordinates":[[-0.4618039,51.5411039],[-0.4614538,51.5411851],[-0.461173,51.5412506],[-0.4610336,51.5412831],[-0.4606902,51.5413679],[-0.4603641,51.54148],[-0.4601066,51.5415654],[-0.4598632,51.5416335],[-0.4598011,51.5416508],[-0.4594285,51.5416988],[-0.4593165,51.5417049],[-0.4590337,51.5417202],[-0.4585788,51.5417309],[-0.4580737,51.5417354],[-0.4577543,51.5417322],[-0.4576454,51.5417338],[-0.4570696,51.5417548],[-0.4566178,51.5417771],[-0.4559537,51.541817],[-0.4555294,51.5418462],[-0.4552976,51.5418552],[-0.4550546,51.5418732],[-0.4548717,51.5419027],[-0.4546551,51.5419432],[-0.4545096,51.5419705],[-0.4543956,51.5419828],[-0.4542577,51.5419731],[-0.4541202,51.5419536],[-0.4538039,51.5418848],[-0.4537224,51.541867],[-0.4533881,51.5417755],[-0.4531167,51.5417012],[-0.4530472,51.5416863],[-0.4524237,51.54152],[-0.4518325,51.5413679],[-0.450741,51.5410868]]}},{"type":"Feature","properties":{"id":"lens-traffic-road-london-way/50443382","layer":"traffic_road","category":"transport","year":1933,"visible_year":2024,"rank":4,"name":"Long Lane","source_id":"way/50443382","source_url":"https://www.openstreetmap.org/way/50443382","license":"ODbL","transport_raw":0.094,"transport_count":1,"transport_activity":0.114,"representation":"major-road transport-event activity","timing_note":"Road color is a three-year transport-event activity surface on current OSM major road geometry, not measured traffic volume or congestion."},"geometry":{"type":"LineString","coordinates":[[-0.4487405,51.5524158],[-0.4486525,51.5526309],[-0.4485579,51.5527868],[-0.4484783,51.5529181],[-0.4483201,51.5531938]]}},{"type":"Feature","properties":{"id":"lens-traffic-road-london-way/575630280","layer":"traffic_road","category":"transport","year":1933,"visible_year":2024,"rank":4,"name":"A437","source_id":"way/575630280","source_url":"https://www.openstreetmap.org/way/575630280","license":"ODbL","transport_raw":0.095,"transport_count":1,"transport_activity":0.114,"representation":"major-road transport-event activity","timing_note":"Road color is a three-year transport-event activity surface on current OSM major road geometry, not measured traffic volume or congestion."},"geometry":{"type":"LineString","coordinates":[[-0.4496904,51.552359],[-0.4504674,51.5526335],[-0.4506791,51.5526953],[-0.4508728,51.5527328]]}},{"type":"Feature","properties":{"id":"lens-traffic-road-london-way/575630248","layer":"traffic_road","category":"transport","year":1933,"visible_year":2023,"rank":4,"name":"mapped road segment","source_id":"way/575630248","source_url":"https://www.openstreetmap.org/way/575630248","license":"ODbL","transport_raw":0.066,"transport_count":1,"transport_activity":0.08,"representation":"major-road transport-event activity","timing_note":"Road color is a three-year transport-event activity surface on current OSM major road geometry, not measured traffic volume or congestion."},"geometry":{"type":"LineString","coordinates":[[-0.4508728,51.5527328],[-0.4509425,51.5527284],[-0.451009,51.5527421],[-0.4510607,51.5527716]]}},{"type":"Feature","properties":{"id":"lens-traffic-road-london-way/575630273","layer":"traffic_road","category":"transport","year":1933,"visible_year":2023,"rank":4,"name":"mapped road segment","source_id":"way/575630273","source_url":"https://www.openstreetmap.org/way/575630273","license":"ODbL","transport_raw":0.066,"transport_count":1,"transport_activity":0.08,"representation":"major-road transport-event activity","timing_note":"Road color is a three-year transport-event activity surface on current OSM major road geometry, not measured traffic volume or congestion."},"geometry":{"type":"LineString","coordinates":[[-0.4507571,51.5528235],[-0.4507751,51.5527844],[-0.4508157,51.5527526],[-0.4508728,51.5527328]]}},{"type":"Feature","properties":{"id":"lens-traffic-road-london-way/575630264","layer":"traffic_road","category":"transport","year":1933,"visible_year":2023,"rank":4,"name":"mapped road segment","source_id":"way/575630264","source_url":"https://www.openstreetmap.org/way/575630264","license":"ODbL","transport_raw":0.052,"transport_count":1,"transport_activity":0.062,"representation":"major-road transport-event activity","timing_note":"Road color is a three-year transport-event activity surface on current OSM major road geometry, not measured traffic volume or congestion."},"geometry":{"type":"LineString","coordinates":[[-0.4510607,51.5527716],[-0.4510864,51.552806],[-0.4510906,51.5528438],[-0.4510728,51.55288],[-0.4510353,51.5529099]]}},{"type":"Feature","properties":{"id":"lens-traffic-road-london-way/575630254","layer":"traffic_road","category":"transport","year":1933,"visible_year":2023,"rank":4,"name":"mapped road segment","source_id":"way/575630254","source_url":"https://www.openstreetmap.org/way/575630254","license":"ODbL","transport_raw":0.049,"transport_count":1,"transport_activity":0.059,"representation":"major-road transport-event activity","timing_note":"Road color is a three-year transport-event activity surface on current OSM major road geometry, not measured traffic volume or congestion."},"geometry":{"type":"LineString","coordinates":[[-0.4510353,51.5529099],[-0.4509859,51.5529288],[-0.4509291,51.5529361],[-0.4508726,51.5529311],[-0.4508221,51.5529146],[-0.4507835,51.5528886],[-0.4507616,51.5528574],[-0.4507571,51.5528235]]}},{"type":"Feature","properties":{"id":"lens-traffic-road-london-way/574756864","layer":"traffic_road","category":"transport","year":1933,"visible_year":2024,"rank":4,"name":"Long Lane","source_id":"way/574756864","source_url":"https://www.openstreetmap.org/way/574756864","license":"ODbL","transport_raw":0.01,"transport_count":1,"transport_activity":0.012,"representation":"major-road transport-event activity","timing_note":"Road color is a three-year transport-event activity surface on current OSM major road geometry, not measured traffic volume or congestion."},"geometry":{"type":"LineString","coordinates":[[-0.4483201,51.5531938],[-0.4481474,51.55346],[-0.4480217,51.5536925]]}}]}
