{"type":"FeatureCollection","name":"london_transport_roads_1964","metadata":{"schema_version":"1.0.0","city_id":"london","year":1964,"road_source":"data/raw/overpass/london_major_roads_osm_2026.geojson","city_scope_filter":{"boundary_source_path":"data/raw/boundaries/london_ons_region_boundary_2024.geojson","boundary_source_name":"Regions (December 2024) Boundaries EN BGC","boundary_source_url":"https://ckan.publishing.service.gov.uk/dataset/regions-december-2024-boundaries-en-bgc","boundary_licence":"Open Government Licence v3.0; contains Ordnance Survey and ONS intellectual property rights.","boundary_scope":"Greater London region E12000007, December 2024, generalised 20m and clipped to coastline.","method":"Retains current OSM major-road features only where they intersect the official city boundary polygon, then splits or truncates line geometry at the boundary using source vertices and approximate crossing points. The boundary scopes the visual context; OSM remains the road-geometry source.","input_feature_count":61678,"kept_feature_count":51766,"dropped_out_of_scope_feature_count":9912,"boundary_scoped_feature_count":51766,"boundary_feature_count":1,"boundary_polygon_count":12,"road_source_path":"data/raw/overpass/london_major_roads_osm_2026.geojson"},"method":"Road features inside the official city boundary are colored from nearby source-backed transport records in a rolling three-year window.","caveat":"Transport road colors are activity hotspots, not measured traffic counts or live congestion.","suppressed":false,"suppression_reason":null},"features":[{"type":"Feature","properties":{"id":"lens-traffic-road-london-way/285588478","layer":"traffic_road","category":"transport","year":1964,"visible_year":2018,"rank":2,"name":"Old Farleigh Road","source_id":"way/285588478","source_url":"https://www.openstreetmap.org/way/285588478","license":"ODbL","city_scope_status":"inside_official_city_boundary","transport_raw":0.458,"transport_count":1,"transport_activity":1,"representation":"official-boundary-scoped major-road transport-event activity","timing_note":"Road color is a three-year transport-event activity surface on current OSM major road geometry retained inside the official city boundary, not measured traffic volume or congestion."},"geometry":{"type":"LineString","coordinates":[[-0.05023811081736354,51.33264139050869],[-0.0503602,51.3327603],[-0.0505844,51.3329821],[-0.0506664,51.3330943],[-0.0508596,51.3334554],[-0.0510209,51.3337677]]}},{"type":"Feature","properties":{"id":"lens-traffic-road-london-way/249221408","layer":"traffic_road","category":"transport","year":1964,"visible_year":2021,"rank":2,"name":"Old Farleigh Road","source_id":"way/249221408","source_url":"https://www.openstreetmap.org/way/249221408","license":"ODbL","city_scope_status":"inside_official_city_boundary","transport_raw":0.253,"transport_count":1,"transport_activity":0.551,"representation":"official-boundary-scoped major-road transport-event activity","timing_note":"Road color is a three-year transport-event activity surface on current OSM major road geometry retained inside the official city boundary, not measured traffic volume or congestion."},"geometry":{"type":"LineString","coordinates":[[-0.0510209,51.3337677],[-0.0513055,51.3345485],[-0.0515021,51.3349724],[-0.0518007,51.3354074],[-0.0522735,51.335845],[-0.0527137,51.3362257],[-0.0530021,51.3364416],[-0.0533915,51.3366802],[-0.0534976,51.3367435],[-0.053609,51.3368049]]}},{"type":"Feature","properties":{"id":"lens-traffic-road-london-way/380023431","layer":"traffic_road","category":"transport","year":1964,"visible_year":2021,"rank":2,"name":"Old Farleigh Road","source_id":"way/380023431","source_url":"https://www.openstreetmap.org/way/380023431","license":"ODbL","city_scope_status":"inside_official_city_boundary","transport_raw":0.059,"transport_count":1,"transport_activity":0.129,"representation":"official-boundary-scoped major-road transport-event activity","timing_note":"Road color is a three-year transport-event activity surface on current OSM major road geometry retained inside the official city boundary, not measured traffic volume or congestion."},"geometry":{"type":"LineString","coordinates":[[-0.0547164,51.3374774],[-0.05372,51.3368605],[-0.053609,51.3368049]]}}]}
