{"type":"FeatureCollection","name":"london_transport_roads_1987","metadata":{"schema_version":"1.0.0","city_id":"london","year":1987,"road_source":"data/raw/overpass/london_major_roads_osm_2026.geojson","method":"Road features are colored from nearby source-backed transport records in a rolling three-year window.","caveat":"Transport road colors are activity hotspots, not measured traffic counts or live congestion.","suppressed":true,"suppression_reason":"No same-year source-backed, road-scorable transport event records support a selected-year transport activity overlay."},"features":[]}
