{"type":"FeatureCollection","name":"london_transport_roads_1969","metadata":{"schema_version":"1.0.0","city_id":"london","year":1969,"road_source":"data/raw/overpass/london_major_roads_osm_2026.geojson","method":"Road features are colored from nearby source-backed transport records in a rolling three-year window.","caveat":"Transport road colors are activity hotspots, not measured traffic counts or live congestion.","suppressed":false,"suppression_reason":null},"features":[{"type":"Feature","properties":{"id":"lens-traffic-road-london-way/10142417","layer":"traffic_road","category":"transport","year":1969,"visible_year":2023,"rank":2,"name":"The Bishops Avenue","source_id":"way/10142417","source_url":"https://www.openstreetmap.org/way/10142417","license":"ODbL","transport_raw":3.359,"transport_count":5,"transport_activity":1,"representation":"major-road transport-event activity","timing_note":"Road color is a three-year transport-event activity surface on current OSM major road geometry, not measured traffic volume or congestion."},"geometry":{"type":"LineString","coordinates":[[-0.1712796,51.5725179],[-0.1713507,51.5726166],[-0.1713624,51.5727976],[-0.1713198,51.5735132],[-0.1713195,51.5739308],[-0.1713094,51.5743988],[-0.1713072,51.574461],[-0.1713382,51.5748106],[-0.1713603,51.5750149],[-0.1713852,51.5752096],[-0.1714475,51.5754669],[-0.1715187,51.5758606],[-0.1715375,51.5765148],[-0.1715316,51.5765472],[-0.1714531,51.5767466],[-0.1713459,51.5770186],[-0.1713171,51.5770713],[-0.1711668,51.5773461],[-0.1710913,51.5774611],[-0.1710045,51.5775677],[-0.1708642,51.5777399],[-0.1707193,51.5778568],[-0.1704997,51.578034],[-0.1701589,51.5784145],[-0.1698182,51.5786905],[-0.1694488,51.5790711],[-0.1690945,51.5796361],[-0.1689631,51.5799891],[-0.1688998,51.5802174],[-0.168858,51.5805546],[-0.1688118,51.5811214],[-0.1688067,51.5811648],[-0.1687667,51.5814878],[-0.1686346,51.5819952],[-0.168554,51.5822388],[-0.1684547,51.582491],[-0.168353,51.5827177],[-0.1682318,51.5830108],[-0.1681014,51.5832335],[-0.1680439,51.5833223]]}},{"type":"Feature","properties":{"id":"lens-traffic-road-london-way/1154710108","layer":"traffic_road","category":"transport","year":1969,"visible_year":2023,"rank":4.5,"name":"Aylmer Road","source_id":"way/1154710108","source_url":"https://www.openstreetmap.org/way/1154710108","license":"ODbL","transport_raw":2.211,"transport_count":5,"transport_activity":0.658,"representation":"major-road transport-event activity","timing_note":"Road color is a three-year transport-event activity surface on current OSM major road geometry, not measured traffic volume or congestion."},"geometry":{"type":"LineString","coordinates":[[-0.1664723,51.5832936],[-0.1667045,51.5833185],[-0.1668264,51.5833532],[-0.1671467,51.5834508]]}},{"type":"Feature","properties":{"id":"lens-traffic-road-london-way/1154610551","layer":"traffic_road","category":"transport","year":1969,"visible_year":2023,"rank":2,"name":"The Bishops Avenue","source_id":"way/1154610551","source_url":"https://www.openstreetmap.org/way/1154610551","license":"ODbL","transport_raw":2.153,"transport_count":5,"transport_activity":0.641,"representation":"major-road transport-event activity","timing_note":"Road color is a three-year transport-event activity surface on current OSM major road geometry, not measured traffic volume or congestion."},"geometry":{"type":"LineString","coordinates":[[-0.1677487,51.5836226],[-0.167856,51.5834924],[-0.167887,51.583458],[-0.1679137,51.5834133],[-0.1680439,51.5833223]]}},{"type":"Feature","properties":{"id":"lens-traffic-road-london-way/1154610557","layer":"traffic_road","category":"transport","year":1969,"visible_year":2023,"rank":2,"name":"The Bishops Avenue","source_id":"way/1154610557","source_url":"https://www.openstreetmap.org/way/1154610557","license":"ODbL","transport_raw":2.117,"transport_count":5,"transport_activity":0.63,"representation":"major-road transport-event activity","timing_note":"Road color is a three-year transport-event activity surface on current OSM major road geometry, not measured traffic volume or congestion."},"geometry":{"type":"LineString","coordinates":[[-0.1680439,51.5833223],[-0.1680317,51.5834418],[-0.1679803,51.5835496],[-0.1679614,51.5835867],[-0.1679204,51.5836613]]}},{"type":"Feature","properties":{"id":"lens-traffic-road-london-way/23509716","layer":"traffic_road","category":"transport","year":1969,"visible_year":2023,"rank":4.5,"name":"Aylmer Road","source_id":"way/23509716","source_url":"https://www.openstreetmap.org/way/23509716","license":"ODbL","transport_raw":2.111,"transport_count":5,"transport_activity":0.628,"representation":"major-road transport-event activity","timing_note":"Road color is a three-year transport-event activity surface on current OSM major road geometry, not measured traffic volume or congestion."},"geometry":{"type":"LineString","coordinates":[[-0.1671467,51.5834508],[-0.1671646,51.5834563],[-0.1675261,51.5835664],[-0.1675803,51.5835801],[-0.1677487,51.5836226]]}},{"type":"Feature","properties":{"id":"lens-traffic-road-london-way/2521872","layer":"traffic_road","category":"transport","year":1969,"visible_year":2023,"rank":4.5,"name":"Aylmer Road","source_id":"way/2521872","source_url":"https://www.openstreetmap.org/way/2521872","license":"ODbL","transport_raw":2.098,"transport_count":5,"transport_activity":0.625,"representation":"major-road transport-event activity","timing_note":"Road color is a three-year transport-event activity surface on current OSM major road geometry, not measured traffic volume or congestion."},"geometry":{"type":"LineString","coordinates":[[-0.1676879,51.5837223],[-0.1675244,51.5836784],[-0.1673226,51.5836131],[-0.1672672,51.5835941],[-0.1666564,51.5833945],[-0.1664723,51.5832936]]}},{"type":"Feature","properties":{"id":"lens-traffic-road-london-way/1154610554","layer":"traffic_road","category":"transport","year":1969,"visible_year":2023,"rank":4.5,"name":"Aylmer Road","source_id":"way/1154610554","source_url":"https://www.openstreetmap.org/way/1154610554","license":"ODbL","transport_raw":2.045,"transport_count":5,"transport_activity":0.609,"representation":"major-road transport-event activity","timing_note":"Road color is a three-year transport-event activity surface on current OSM major road geometry, not measured traffic volume or congestion."},"geometry":{"type":"LineString","coordinates":[[-0.1677487,51.5836226],[-0.1678346,51.5836419]]}},{"type":"Feature","properties":{"id":"lens-traffic-road-london-way/1154610556","layer":"traffic_road","category":"transport","year":1969,"visible_year":2023,"rank":4.5,"name":"Lyttelton Road","source_id":"way/1154610556","source_url":"https://www.openstreetmap.org/way/1154610556","license":"ODbL","transport_raw":2.03,"transport_count":5,"transport_activity":0.605,"representation":"major-road transport-event activity","timing_note":"Road color is a three-year transport-event activity surface on current OSM major road geometry, not measured traffic volume or congestion."},"geometry":{"type":"LineString","coordinates":[[-0.1678346,51.5836419],[-0.1679204,51.5836613]]}},{"type":"Feature","properties":{"id":"lens-traffic-road-london-way/25975613","layer":"traffic_road","category":"transport","year":1969,"visible_year":2024,"rank":4.5,"name":"Aylmer Road","source_id":"way/25975613","source_url":"https://www.openstreetmap.org/way/25975613","license":"ODbL","transport_raw":2.028,"transport_count":5,"transport_activity":0.604,"representation":"major-road transport-event activity","timing_note":"Road color is a three-year transport-event activity surface on current OSM major road geometry, not measured traffic volume or congestion."},"geometry":{"type":"LineString","coordinates":[[-0.15968,51.5817937],[-0.1598876,51.5818212],[-0.1601832,51.581858],[-0.1603695,51.5818815],[-0.1605314,51.5819031],[-0.1606796,51.5819228],[-0.1609827,51.5819648],[-0.1611095,51.5819815],[-0.1611339,51.5819847],[-0.1616507,51.5820646],[-0.1624312,51.5822079],[-0.1626367,51.5822486],[-0.1628084,51.5822839],[-0.163641,51.5824785],[-0.1641879,51.5826201],[-0.1653295,51.582956],[-0.1655489,51.5830205],[-0.1657744,51.5830874],[-0.1658568,51.5831118],[-0.1660409,51.5831662],[-0.1661979,51.5832126],[-0.1664723,51.5832936]]}},{"type":"Feature","properties":{"id":"lens-traffic-road-london-way/1154610553","layer":"traffic_road","category":"transport","year":1969,"visible_year":2023,"rank":2,"name":"The Bishops Avenue","source_id":"way/1154610553","source_url":"https://www.openstreetmap.org/way/1154610553","license":"ODbL","transport_raw":2.02,"transport_count":5,"transport_activity":0.602,"representation":"major-road transport-event activity","timing_note":"Road color is a three-year transport-event activity surface on current OSM major road geometry, not measured traffic volume or congestion."},"geometry":{"type":"LineString","coordinates":[[-0.1676879,51.5837223],[-0.1677487,51.5836226]]}},{"type":"Feature","properties":{"id":"lens-traffic-road-london-way/51180856","layer":"traffic_road","category":"transport","year":1969,"visible_year":2023,"rank":2,"name":"The Bishops Avenue","source_id":"way/51180856","source_url":"https://www.openstreetmap.org/way/51180856","license":"ODbL","transport_raw":1.991,"transport_count":5,"transport_activity":0.593,"representation":"major-road transport-event activity","timing_note":"Road color is a three-year transport-event activity surface on current OSM major road geometry, not measured traffic volume or congestion."},"geometry":{"type":"LineString","coordinates":[[-0.1679204,51.5836613],[-0.1678467,51.5837632]]}},{"type":"Feature","properties":{"id":"lens-traffic-road-london-way/1154610576","layer":"traffic_road","category":"transport","year":1969,"visible_year":2023,"rank":4.5,"name":"Aylmer Road","source_id":"way/1154610576","source_url":"https://www.openstreetmap.org/way/1154610576","license":"ODbL","transport_raw":1.981,"transport_count":5,"transport_activity":0.59,"representation":"major-road transport-event activity","timing_note":"Road color is a three-year transport-event activity surface on current OSM major road geometry, not measured traffic volume or congestion."},"geometry":{"type":"LineString","coordinates":[[-0.1677673,51.5837428],[-0.1676879,51.5837223]]}},{"type":"Feature","properties":{"id":"lens-traffic-road-london-way/1154610555","layer":"traffic_road","category":"transport","year":1969,"visible_year":2023,"rank":4.5,"name":"Lyttelton Road","source_id":"way/1154610555","source_url":"https://www.openstreetmap.org/way/1154610555","license":"ODbL","transport_raw":1.967,"transport_count":5,"transport_activity":0.586,"representation":"major-road transport-event activity","timing_note":"Road color is a three-year transport-event activity surface on current OSM major road geometry, not measured traffic volume or congestion."},"geometry":{"type":"LineString","coordinates":[[-0.1678467,51.5837632],[-0.1677673,51.5837428]]}},{"type":"Feature","properties":{"id":"lens-traffic-road-london-way/1154610577","layer":"traffic_road","category":"transport","year":1969,"visible_year":2023,"rank":2,"name":"The Bishops Avenue","source_id":"way/1154610577","source_url":"https://www.openstreetmap.org/way/1154610577","license":"ODbL","transport_raw":1.907,"transport_count":5,"transport_activity":0.568,"representation":"major-road transport-event activity","timing_note":"Road color is a three-year transport-event activity surface on current OSM major road geometry, not measured traffic volume or congestion."},"geometry":{"type":"LineString","coordinates":[[-0.1675139,51.584034],[-0.1676059,51.583837],[-0.1676301,51.5838031],[-0.1676879,51.5837223]]}},{"type":"Feature","properties":{"id":"lens-traffic-road-london-way/1154602985","layer":"traffic_road","category":"transport","year":1969,"visible_year":2023,"rank":4.5,"name":"Lyttelton Road","source_id":"way/1154602985","source_url":"https://www.openstreetmap.org/way/1154602985","license":"ODbL","transport_raw":1.902,"transport_count":5,"transport_activity":0.566,"representation":"major-road transport-event activity","timing_note":"Road color is a three-year transport-event activity surface on current OSM major road geometry, not measured traffic volume or congestion."},"geometry":{"type":"LineString","coordinates":[[-0.1685223,51.5839534],[-0.1680752,51.5838283],[-0.1680186,51.5838135],[-0.1678467,51.5837632]]}},{"type":"Feature","properties":{"id":"lens-traffic-road-london-way/2521928","layer":"traffic_road","category":"transport","year":1969,"visible_year":2023,"rank":4.5,"name":"Lyttelton Road","source_id":"way/2521928","source_url":"https://www.openstreetmap.org/way/2521928","license":"ODbL","transport_raw":1.88,"transport_count":5,"transport_activity":0.56,"representation":"major-road transport-event activity","timing_note":"Road color is a three-year transport-event activity surface on current OSM major road geometry, not measured traffic volume or congestion."},"geometry":{"type":"LineString","coordinates":[[-0.1679204,51.5836613],[-0.1680251,51.5836923],[-0.1681972,51.5837477],[-0.168258,51.5837664],[-0.1687326,51.5839185],[-0.169127,51.584027],[-0.1692379,51.5840935]]}},{"type":"Feature","properties":{"id":"lens-traffic-road-london-way/1154610552","layer":"traffic_road","category":"transport","year":1969,"visible_year":2023,"rank":2,"name":"The Bishops Avenue","source_id":"way/1154610552","source_url":"https://www.openstreetmap.org/way/1154610552","license":"ODbL","transport_raw":1.869,"transport_count":5,"transport_activity":0.556,"representation":"major-road transport-event activity","timing_note":"Road color is a three-year transport-event activity surface on current OSM major road geometry, not measured traffic volume or congestion."},"geometry":{"type":"LineString","coordinates":[[-0.1678467,51.5837632],[-0.1677145,51.5838999],[-0.1676738,51.5839315],[-0.1675139,51.584034]]}},{"type":"Feature","properties":{"id":"lens-traffic-road-london-way/8124222","layer":"traffic_road","category":"transport","year":1969,"visible_year":2023,"rank":4.5,"name":"Lyttelton Road","source_id":"way/8124222","source_url":"https://www.openstreetmap.org/way/8124222","license":"ODbL","transport_raw":1.721,"transport_count":5,"transport_activity":0.512,"representation":"major-road transport-event activity","timing_note":"Road color is a three-year transport-event activity surface on current OSM major road geometry, not measured traffic volume or congestion."},"geometry":{"type":"LineString","coordinates":[[-0.1692379,51.5840935],[-0.1690753,51.5840966],[-0.1688622,51.5840435],[-0.1685223,51.5839534]]}},{"type":"Feature","properties":{"id":"lens-traffic-road-london-way/23509715","layer":"traffic_road","category":"transport","year":1969,"visible_year":2023,"rank":4.5,"name":"Lyttelton Road","source_id":"way/23509715","source_url":"https://www.openstreetmap.org/way/23509715","license":"ODbL","transport_raw":1.42,"transport_count":4,"transport_activity":0.423,"representation":"major-road transport-event activity","timing_note":"Road color is a three-year transport-event activity surface on current OSM major road geometry, not measured traffic volume or congestion."},"geometry":{"type":"LineString","coordinates":[[-0.1692379,51.5840935],[-0.16931,51.5841111],[-0.1696881,51.5842015],[-0.1699009,51.5842515],[-0.1703588,51.5843562],[-0.1705572,51.5843951],[-0.1711051,51.5844951],[-0.1718668,51.5846282]]}},{"type":"Feature","properties":{"id":"lens-traffic-road-london-way/8124219","layer":"traffic_road","category":"transport","year":1969,"visible_year":2026,"rank":4.5,"name":"Aylmer Road","source_id":"way/8124219","source_url":"https://www.openstreetmap.org/way/8124219","license":"ODbL","transport_raw":1.182,"transport_count":4,"transport_activity":0.352,"representation":"major-road transport-event activity","timing_note":"Road color is a three-year transport-event activity surface on current OSM major road geometry, not measured traffic volume or congestion."},"geometry":{"type":"LineString","coordinates":[[-0.15968,51.5817937],[-0.1595187,51.5818328],[-0.1589914,51.5817859]]}},{"type":"Feature","properties":{"id":"lens-traffic-road-london-way/3567177","layer":"traffic_road","category":"transport","year":1969,"visible_year":2025,"rank":2,"name":"The Bishops Avenue","source_id":"way/3567177","source_url":"https://www.openstreetmap.org/way/3567177","license":"ODbL","transport_raw":1.07,"transport_count":4,"transport_activity":0.318,"representation":"major-road transport-event activity","timing_note":"Road color is a three-year transport-event activity surface on current OSM major road geometry, not measured traffic volume or congestion."},"geometry":{"type":"LineString","coordinates":[[-0.1637526,51.5860391],[-0.1638573,51.5860033],[-0.1641328,51.5859134],[-0.1644216,51.5858219],[-0.1647491,51.5857182],[-0.1651737,51.5855611],[-0.1654281,51.5854481],[-0.1657483,51.5852971],[-0.1662927,51.585003],[-0.1663456,51.5849697],[-0.1667114,51.5847338],[-0.1673411,51.584198],[-0.1675139,51.584034]]}},{"type":"Feature","properties":{"id":"lens-traffic-road-london-way/51182817","layer":"traffic_road","category":"transport","year":1969,"visible_year":2025,"rank":3,"name":"Hampstead Lane","source_id":"way/51182817","source_url":"https://www.openstreetmap.org/way/51182817","license":"ODbL","transport_raw":1.012,"transport_count":4,"transport_activity":0.301,"representation":"major-road transport-event activity","timing_note":"Road color is a three-year transport-event activity surface on current OSM major road geometry, not measured traffic volume or congestion."},"geometry":{"type":"LineString","coordinates":[[-0.1712796,51.5725179],[-0.1705935,51.5726924],[-0.1700764,51.5727881],[-0.1692691,51.5729059],[-0.1680204,51.5730054],[-0.1674481,51.5730432],[-0.1670703,51.5730483],[-0.1666239,51.5730143],[-0.1662381,51.5729431],[-0.1659894,51.5728952],[-0.1658532,51.572868],[-0.1655559,51.5728085],[-0.1653097,51.5727397]]}},{"type":"Feature","properties":{"id":"lens-traffic-road-london-way/48921134","layer":"traffic_road","category":"transport","year":1969,"visible_year":2023,"rank":4.5,"name":"Lyttelton Road","source_id":"way/48921134","source_url":"https://www.openstreetmap.org/way/48921134","license":"ODbL","transport_raw":0.946,"transport_count":4,"transport_activity":0.282,"representation":"major-road transport-event activity","timing_note":"Road color is a three-year transport-event activity surface on current OSM major road geometry, not measured traffic volume or congestion."},"geometry":{"type":"LineString","coordinates":[[-0.1725536,51.5847665],[-0.1720906,51.5846957],[-0.1718668,51.5846282]]}},{"type":"Feature","properties":{"id":"lens-traffic-road-london-way/231175414","layer":"traffic_road","category":"transport","year":1969,"visible_year":2023,"rank":4.5,"name":"Aylmer Road","source_id":"way/231175414","source_url":"https://www.openstreetmap.org/way/231175414","license":"ODbL","transport_raw":0.943,"transport_count":4,"transport_activity":0.281,"representation":"major-road transport-event activity","timing_note":"Road color is a three-year transport-event activity surface on current OSM major road geometry, not measured traffic volume or congestion."},"geometry":{"type":"LineString","coordinates":[[-0.1572055,51.581616],[-0.157646,51.5816041],[-0.1579571,51.5816048],[-0.1583451,51.5816214],[-0.1588062,51.5816571],[-0.1589268,51.5816655],[-0.1595401,51.5817243],[-0.15968,51.5817937]]}},{"type":"Feature","properties":{"id":"lens-traffic-road-london-way/314063853","layer":"traffic_road","category":"transport","year":1969,"visible_year":2026,"rank":4,"name":"Great North Road","source_id":"way/314063853","source_url":"https://www.openstreetmap.org/way/314063853","license":"ODbL","transport_raw":0.936,"transport_count":4,"transport_activity":0.279,"representation":"major-road transport-event activity","timing_note":"Road color is a three-year transport-event activity surface on current OSM major road geometry, not measured traffic volume or congestion."},"geometry":{"type":"LineString","coordinates":[[-0.1621891,51.5847579],[-0.1614637,51.5843338],[-0.1611976,51.5841924],[-0.1602386,51.5836782],[-0.1599123,51.5835085],[-0.1596613,51.5833758]]}},{"type":"Feature","properties":{"id":"lens-traffic-road-london-way/3635535","layer":"traffic_road","category":"transport","year":1969,"visible_year":2025,"rank":4.5,"name":"Lyttleton Road","source_id":"way/3635535","source_url":"https://www.openstreetmap.org/way/3635535","license":"ODbL","transport_raw":0.919,"transport_count":4,"transport_activity":0.274,"representation":"major-road transport-event activity","timing_note":"Road color is a three-year transport-event activity surface on current OSM major road geometry, not measured traffic volume or congestion."},"geometry":{"type":"LineString","coordinates":[[-0.1718668,51.5846282],[-0.1721093,51.5846182],[-0.1724902,51.5846686],[-0.172729,51.5846978],[-0.1727948,51.5847089]]}},{"type":"Feature","properties":{"id":"lens-traffic-road-london-way/297032819","layer":"traffic_road","category":"transport","year":1969,"visible_year":2026,"rank":4.5,"name":"Aylmer Road","source_id":"way/297032819","source_url":"https://www.openstreetmap.org/way/297032819","license":"ODbL","transport_raw":0.898,"transport_count":4,"transport_activity":0.267,"representation":"major-road transport-event activity","timing_note":"Road color is a three-year transport-event activity surface on current OSM major road geometry, not measured traffic volume or congestion."},"geometry":{"type":"LineString","coordinates":[[-0.1589914,51.5817859],[-0.1581882,51.5817122],[-0.1580366,51.5817178]]}},{"type":"Feature","properties":{"id":"lens-traffic-road-london-way/1067663261","layer":"traffic_road","category":"transport","year":1969,"visible_year":2026,"rank":4,"name":"Great North Road","source_id":"way/1067663261","source_url":"https://www.openstreetmap.org/way/1067663261","license":"ODbL","transport_raw":0.842,"transport_count":4,"transport_activity":0.251,"representation":"major-road transport-event activity","timing_note":"Road color is a three-year transport-event activity surface on current OSM major road geometry, not measured traffic volume or congestion."},"geometry":{"type":"LineString","coordinates":[[-0.1596613,51.5833758],[-0.1594355,51.5832604],[-0.1592638,51.583166]]}},{"type":"Feature","properties":{"id":"lens-traffic-road-london-way/389409881","layer":"traffic_road","category":"transport","year":1969,"visible_year":2025,"rank":3,"name":"Hampstead Lane","source_id":"way/389409881","source_url":"https://www.openstreetmap.org/way/389409881","license":"ODbL","transport_raw":0.835,"transport_count":3,"transport_activity":0.249,"representation":"major-road transport-event activity","timing_note":"Road color is a three-year transport-event activity surface on current OSM major road geometry, not measured traffic volume or congestion."},"geometry":{"type":"LineString","coordinates":[[-0.1653097,51.5727397],[-0.1652471,51.5727261],[-0.1650227,51.5726796]]}},{"type":"Feature","properties":{"id":"lens-traffic-road-london-way/2212","layer":"traffic_road","category":"transport","year":1969,"visible_year":2023,"rank":4,"name":"Great North Road","source_id":"way/2212","source_url":"https://www.openstreetmap.org/way/2212","license":"ODbL","transport_raw":0.832,"transport_count":4,"transport_activity":0.248,"representation":"major-road transport-event activity","timing_note":"Road color is a three-year transport-event activity surface on current OSM major road geometry, not measured traffic volume or congestion."},"geometry":{"type":"LineString","coordinates":[[-0.1632859,51.5855381],[-0.1631993,51.5854676],[-0.1628829,51.585233],[-0.1628033,51.5851732],[-0.1625549,51.5849986],[-0.1622761,51.5848145],[-0.1621891,51.5847579]]}},{"type":"Feature","properties":{"id":"lens-traffic-road-london-way/48921133","layer":"traffic_road","category":"transport","year":1969,"visible_year":2023,"rank":4.5,"name":"Lyttelton Road","source_id":"way/48921133","source_url":"https://www.openstreetmap.org/way/48921133","license":"ODbL","transport_raw":0.808,"transport_count":4,"transport_activity":0.241,"representation":"major-road transport-event activity","timing_note":"Road color is a three-year transport-event activity surface on current OSM major road geometry, not measured traffic volume or congestion."},"geometry":{"type":"LineString","coordinates":[[-0.1728784,51.5848062],[-0.1725536,51.5847665]]}},{"type":"Feature","properties":{"id":"lens-traffic-road-london-way/48921131","layer":"traffic_road","category":"transport","year":1969,"visible_year":2025,"rank":4.5,"name":"Lyttleton Road","source_id":"way/48921131","source_url":"https://www.openstreetmap.org/way/48921131","license":"ODbL","transport_raw":0.792,"transport_count":4,"transport_activity":0.236,"representation":"major-road transport-event activity","timing_note":"Road color is a three-year transport-event activity surface on current OSM major road geometry, not measured traffic volume or congestion."},"geometry":{"type":"LineString","coordinates":[[-0.1727948,51.5847089],[-0.1730743,51.5847404]]}},{"type":"Feature","properties":{"id":"lens-traffic-road-london-way/164438773","layer":"traffic_road","category":"transport","year":1969,"visible_year":2026,"rank":4,"name":"Great North Road","source_id":"way/164438773","source_url":"https://www.openstreetmap.org/way/164438773","license":"ODbL","transport_raw":0.722,"transport_count":4,"transport_activity":0.215,"representation":"major-road transport-event activity","timing_note":"Road color is a three-year transport-event activity surface on current OSM major road geometry, not measured traffic volume or congestion."},"geometry":{"type":"LineString","coordinates":[[-0.1592638,51.583166],[-0.1591715,51.5831158],[-0.1589952,51.583021],[-0.1588475,51.5829514],[-0.1587132,51.5828786],[-0.1580852,51.5825384],[-0.1578296,51.5823831],[-0.1572502,51.5820201]]}},{"type":"Feature","properties":{"id":"lens-traffic-road-london-way/8124220","layer":"traffic_road","category":"transport","year":1969,"visible_year":2025,"rank":4.5,"name":"Lyttelton Road","source_id":"way/8124220","source_url":"https://www.openstreetmap.org/way/8124220","license":"ODbL","transport_raw":0.685,"transport_count":4,"transport_activity":0.204,"representation":"major-road transport-event activity","timing_note":"Road color is a three-year transport-event activity surface on current OSM major road geometry, not measured traffic volume or congestion."},"geometry":{"type":"LineString","coordinates":[[-0.1737251,51.5848526],[-0.173551,51.5848768],[-0.1731219,51.5848342],[-0.1729432,51.5848137],[-0.1728784,51.5848062]]}},{"type":"Feature","properties":{"id":"lens-traffic-road-london-way/48921130","layer":"traffic_road","category":"transport","year":1969,"visible_year":2025,"rank":4.5,"name":"Lyttelton Road","source_id":"way/48921130","source_url":"https://www.openstreetmap.org/way/48921130","license":"ODbL","transport_raw":0.658,"transport_count":4,"transport_activity":0.196,"representation":"major-road transport-event activity","timing_note":"Road color is a three-year transport-event activity surface on current OSM major road geometry, not measured traffic volume or congestion."},"geometry":{"type":"LineString","coordinates":[[-0.1730743,51.5847404],[-0.1735788,51.5847958],[-0.1737251,51.5848526]]}},{"type":"Feature","properties":{"id":"lens-traffic-road-london-way/8119969","layer":"traffic_road","category":"transport","year":1969,"visible_year":2023,"rank":4,"name":"Great North Road","source_id":"way/8119969","source_url":"https://www.openstreetmap.org/way/8119969","license":"ODbL","transport_raw":0.656,"transport_count":4,"transport_activity":0.195,"representation":"major-road transport-event activity","timing_note":"Road color is a three-year transport-event activity surface on current OSM major road geometry, not measured traffic volume or congestion."},"geometry":{"type":"LineString","coordinates":[[-0.1632859,51.5855381],[-0.1633422,51.5856118],[-0.1637526,51.5860391]]}},{"type":"Feature","properties":{"id":"lens-traffic-road-london-way/4341602","layer":"traffic_road","category":"transport","year":1969,"visible_year":2025,"rank":2,"name":"Woodside Avenue","source_id":"way/4341602","source_url":"https://www.openstreetmap.org/way/4341602","license":"ODbL","transport_raw":0.653,"transport_count":4,"transport_activity":0.194,"representation":"major-road transport-event activity","timing_note":"Road color is a three-year transport-event activity surface on current OSM major road geometry, not measured traffic volume or congestion."},"geometry":{"type":"LineString","coordinates":[[-0.1588475,51.5829514],[-0.1587733,51.5830022],[-0.158754,51.5830154],[-0.1585373,51.5831635],[-0.1580697,51.5834654]]}},{"type":"Feature","properties":{"id":"lens-traffic-road-london-way/1124889262","layer":"traffic_road","category":"transport","year":1969,"visible_year":2025,"rank":3,"name":"Hampstead Lane","source_id":"way/1124889262","source_url":"https://www.openstreetmap.org/way/1124889262","license":"ODbL","transport_raw":0.591,"transport_count":3,"transport_activity":0.176,"representation":"major-road transport-event activity","timing_note":"Road color is a three-year transport-event activity surface on current OSM major road geometry, not measured traffic volume or congestion."},"geometry":{"type":"LineString","coordinates":[[-0.1723038,51.5719959],[-0.1721459,51.5720859],[-0.1716329,51.5723459],[-0.1712796,51.5725179]]}},{"type":"Feature","properties":{"id":"lens-traffic-road-london-way/130883589","layer":"traffic_road","category":"transport","year":1969,"visible_year":2023,"rank":4.5,"name":"Aylmer Road","source_id":"way/130883589","source_url":"https://www.openstreetmap.org/way/130883589","license":"ODbL","transport_raw":0.581,"transport_count":4,"transport_activity":0.173,"representation":"major-road transport-event activity","timing_note":"Road color is a three-year transport-event activity surface on current OSM major road geometry, not measured traffic volume or congestion."},"geometry":{"type":"LineString","coordinates":[[-0.1580366,51.5817178],[-0.1575749,51.5817249],[-0.1571948,51.5817301],[-0.1571075,51.5817338],[-0.156858,51.5817339]]}},{"type":"Feature","properties":{"id":"lens-traffic-road-london-way/1140250550","layer":"traffic_road","category":"transport","year":1969,"visible_year":2023,"rank":4,"name":"Great North Road","source_id":"way/1140250550","source_url":"https://www.openstreetmap.org/way/1140250550","license":"ODbL","transport_raw":0.562,"transport_count":3,"transport_activity":0.167,"representation":"major-road transport-event activity","timing_note":"Road color is a three-year transport-event activity surface on current OSM major road geometry, not measured traffic volume or congestion."},"geometry":{"type":"LineString","coordinates":[[-0.1637526,51.5860391],[-0.1637731,51.5860601]]}},{"type":"Feature","properties":{"id":"lens-traffic-road-london-way/1154728402","layer":"traffic_road","category":"transport","year":1969,"visible_year":2023,"rank":4.5,"name":"Aylmer Road","source_id":"way/1154728402","source_url":"https://www.openstreetmap.org/way/1154728402","license":"ODbL","transport_raw":0.507,"transport_count":4,"transport_activity":0.151,"representation":"major-road transport-event activity","timing_note":"Road color is a three-year transport-event activity surface on current OSM major road geometry, not measured traffic volume or congestion."},"geometry":{"type":"LineString","coordinates":[[-0.1568548,51.5815889],[-0.1569767,51.5816157],[-0.1571871,51.581616],[-0.1572055,51.581616]]}},{"type":"Feature","properties":{"id":"lens-traffic-road-london-way/1138957697","layer":"traffic_road","category":"transport","year":1969,"visible_year":2025,"rank":4,"name":"Great North Road","source_id":"way/1138957697","source_url":"https://www.openstreetmap.org/way/1138957697","license":"ODbL","transport_raw":0.486,"transport_count":2,"transport_activity":0.145,"representation":"major-road transport-event activity","timing_note":"Road color is a three-year transport-event activity surface on current OSM major road geometry, not measured traffic volume or congestion."},"geometry":{"type":"LineString","coordinates":[[-0.1639808,51.5866469],[-0.1639453,51.5865326],[-0.1638253,51.5862812],[-0.1637731,51.5860601]]}},{"type":"Feature","properties":{"id":"lens-traffic-road-london-way/843575639","layer":"traffic_road","category":"transport","year":1969,"visible_year":2025,"rank":4,"name":"Great North Road","source_id":"way/843575639","source_url":"https://www.openstreetmap.org/way/843575639","license":"ODbL","transport_raw":0.484,"transport_count":4,"transport_activity":0.144,"representation":"major-road transport-event activity","timing_note":"Road color is a three-year transport-event activity surface on current OSM major road geometry, not measured traffic volume or congestion."},"geometry":{"type":"LineString","coordinates":[[-0.1572502,51.5820201],[-0.1571309,51.5819443],[-0.157095,51.5819225]]}},{"type":"Feature","properties":{"id":"lens-traffic-road-london-way/31461016","layer":"traffic_road","category":"transport","year":1969,"visible_year":2025,"rank":4,"name":"Great North Road","source_id":"way/31461016","source_url":"https://www.openstreetmap.org/way/31461016","license":"ODbL","transport_raw":0.48,"transport_count":2,"transport_activity":0.143,"representation":"major-road transport-event activity","timing_note":"Road color is a three-year transport-event activity surface on current OSM major road geometry, not measured traffic volume or congestion."},"geometry":{"type":"LineString","coordinates":[[-0.1637731,51.5860601],[-0.1639649,51.5862478],[-0.1640514,51.5863803],[-0.1641215,51.5865674],[-0.1641423,51.5866216],[-0.1641899,51.5867998]]}},{"type":"Feature","properties":{"id":"lens-traffic-road-london-way/223425689","layer":"traffic_road","category":"transport","year":1969,"visible_year":2023,"rank":4,"name":"Great North Road","source_id":"way/223425689","source_url":"https://www.openstreetmap.org/way/223425689","license":"ODbL","transport_raw":0.457,"transport_count":4,"transport_activity":0.136,"representation":"major-road transport-event activity","timing_note":"Road color is a three-year transport-event activity surface on current OSM major road geometry, not measured traffic volume or congestion."},"geometry":{"type":"LineString","coordinates":[[-0.156858,51.5817339],[-0.1570558,51.5818432],[-0.157095,51.5819225]]}},{"type":"Feature","properties":{"id":"lens-traffic-road-london-way/297004517","layer":"traffic_road","category":"transport","year":1969,"visible_year":2025,"rank":4,"name":"A1000","source_id":"way/297004517","source_url":"https://www.openstreetmap.org/way/297004517","license":"ODbL","transport_raw":0.433,"transport_count":4,"transport_activity":0.129,"representation":"major-road transport-event activity","timing_note":"Road color is a three-year transport-event activity surface on current OSM major road geometry, not measured traffic volume or congestion."},"geometry":{"type":"LineString","coordinates":[[-0.157095,51.5819225],[-0.1569573,51.5819085],[-0.1569008,51.5818814],[-0.1568661,51.5818622]]}},{"type":"Feature","properties":{"id":"lens-traffic-road-london-way/949446110","layer":"traffic_road","category":"transport","year":1969,"visible_year":2023,"rank":2,"name":"Woodside Avenue","source_id":"way/949446110","source_url":"https://www.openstreetmap.org/way/949446110","license":"ODbL","transport_raw":0.413,"transport_count":4,"transport_activity":0.123,"representation":"major-road transport-event activity","timing_note":"Road color is a three-year transport-event activity surface on current OSM major road geometry, not measured traffic volume or congestion."},"geometry":{"type":"LineString","coordinates":[[-0.1580697,51.5834654],[-0.1580552,51.5834744]]}},{"type":"Feature","properties":{"id":"lens-traffic-road-london-way/1425910732","layer":"traffic_road","category":"transport","year":1969,"visible_year":2025,"rank":4,"name":"High Road","source_id":"way/1425910732","source_url":"https://www.openstreetmap.org/way/1425910732","license":"ODbL","transport_raw":0.399,"transport_count":2,"transport_activity":0.119,"representation":"major-road transport-event activity","timing_note":"Road color is a three-year transport-event activity surface on current OSM major road geometry, not measured traffic volume or congestion."},"geometry":{"type":"LineString","coordinates":[[-0.1640262,51.5868868],[-0.1639808,51.5866469]]}},{"type":"Feature","properties":{"id":"lens-traffic-road-london-way/949446109","layer":"traffic_road","category":"transport","year":1969,"visible_year":2023,"rank":2,"name":"Woodside Avenue","source_id":"way/949446109","source_url":"https://www.openstreetmap.org/way/949446109","license":"ODbL","transport_raw":0.396,"transport_count":4,"transport_activity":0.118,"representation":"major-road transport-event activity","timing_note":"Road color is a three-year transport-event activity surface on current OSM major road geometry, not measured traffic volume or congestion."},"geometry":{"type":"LineString","coordinates":[[-0.1580552,51.5834744],[-0.1579952,51.5835117]]}},{"type":"Feature","properties":{"id":"lens-traffic-road-london-way/223425686","layer":"traffic_road","category":"transport","year":1969,"visible_year":2023,"rank":4.5,"name":"Aylmer Road","source_id":"way/223425686","source_url":"https://www.openstreetmap.org/way/223425686","license":"ODbL","transport_raw":0.394,"transport_count":4,"transport_activity":0.117,"representation":"major-road transport-event activity","timing_note":"Road color is a three-year transport-event activity surface on current OSM major road geometry, not measured traffic volume or congestion."},"geometry":{"type":"LineString","coordinates":[[-0.1563604,51.5813877],[-0.1564715,51.5814002],[-0.156643,51.5814873],[-0.1567126,51.5815238],[-0.1568178,51.5815753],[-0.1568548,51.5815889]]}},{"type":"Feature","properties":{"id":"lens-traffic-road-london-way/2495380","layer":"traffic_road","category":"transport","year":1969,"visible_year":2025,"rank":4.5,"name":"Archway Road","source_id":"way/2495380","source_url":"https://www.openstreetmap.org/way/2495380","license":"ODbL","transport_raw":0.379,"transport_count":4,"transport_activity":0.113,"representation":"major-road transport-event activity","timing_note":"Road color is a three-year transport-event activity surface on current OSM major road geometry, not measured traffic volume or congestion."},"geometry":{"type":"LineString","coordinates":[[-0.156858,51.5817339],[-0.1567224,51.5817327],[-0.1566482,51.5817299],[-0.1565474,51.5817118]]}},{"type":"Feature","properties":{"id":"lens-traffic-road-london-way/297032820","layer":"traffic_road","category":"transport","year":1969,"visible_year":2023,"rank":4,"name":"North Hill","source_id":"way/297032820","source_url":"https://www.openstreetmap.org/way/297032820","license":"ODbL","transport_raw":0.375,"transport_count":4,"transport_activity":0.112,"representation":"major-road transport-event activity","timing_note":"Road color is a three-year transport-event activity surface on current OSM major road geometry, not measured traffic volume or congestion."},"geometry":{"type":"LineString","coordinates":[[-0.1563934,51.5814382],[-0.1565887,51.5815654],[-0.1566212,51.5815846],[-0.156858,51.5817339]]}},{"type":"Feature","properties":{"id":"lens-traffic-road-london-way/1154757514","layer":"traffic_road","category":"transport","year":1969,"visible_year":2023,"rank":4,"name":"A1000","source_id":"way/1154757514","source_url":"https://www.openstreetmap.org/way/1154757514","license":"ODbL","transport_raw":0.374,"transport_count":4,"transport_activity":0.111,"representation":"major-road transport-event activity","timing_note":"Road color is a three-year transport-event activity surface on current OSM major road geometry, not measured traffic volume or congestion."},"geometry":{"type":"LineString","coordinates":[[-0.1568661,51.5818622],[-0.1565474,51.5817118]]}},{"type":"Feature","properties":{"id":"lens-traffic-road-london-way/540071931","layer":"traffic_road","category":"transport","year":1969,"visible_year":2026,"rank":2,"name":"Woodside Avenue","source_id":"way/540071931","source_url":"https://www.openstreetmap.org/way/540071931","license":"ODbL","transport_raw":0.359,"transport_count":3,"transport_activity":0.107,"representation":"major-road transport-event activity","timing_note":"Road color is a three-year transport-event activity surface on current OSM major road geometry, not measured traffic volume or congestion."},"geometry":{"type":"LineString","coordinates":[[-0.1579952,51.5835117],[-0.1579168,51.5835604],[-0.1579045,51.583568]]}},{"type":"Feature","properties":{"id":"lens-traffic-road-london-way/949446108","layer":"traffic_road","category":"transport","year":1969,"visible_year":2023,"rank":2,"name":"Woodside Avenue","source_id":"way/949446108","source_url":"https://www.openstreetmap.org/way/949446108","license":"ODbL","transport_raw":0.347,"transport_count":3,"transport_activity":0.103,"representation":"major-road transport-event activity","timing_note":"Road color is a three-year transport-event activity surface on current OSM major road geometry, not measured traffic volume or congestion."},"geometry":{"type":"LineString","coordinates":[[-0.1579045,51.583568],[-0.1578988,51.5835715]]}},{"type":"Feature","properties":{"id":"lens-traffic-road-london-way/1156262493","layer":"traffic_road","category":"transport","year":1969,"visible_year":2023,"rank":4,"name":"High Road","source_id":"way/1156262493","source_url":"https://www.openstreetmap.org/way/1156262493","license":"ODbL","transport_raw":0.339,"transport_count":2,"transport_activity":0.101,"representation":"major-road transport-event activity","timing_note":"Road color is a three-year transport-event activity surface on current OSM major road geometry, not measured traffic volume or congestion."},"geometry":{"type":"LineString","coordinates":[[-0.1640946,51.587201],[-0.1640449,51.586986],[-0.1640262,51.5868868]]}},{"type":"Feature","properties":{"id":"lens-traffic-road-london-way/1425910733","layer":"traffic_road","category":"transport","year":1969,"visible_year":2025,"rank":4,"name":"High Road","source_id":"way/1425910733","source_url":"https://www.openstreetmap.org/way/1425910733","license":"ODbL","transport_raw":0.334,"transport_count":2,"transport_activity":0.1,"representation":"major-road transport-event activity","timing_note":"Road color is a three-year transport-event activity surface on current OSM major road geometry, not measured traffic volume or congestion."},"geometry":{"type":"LineString","coordinates":[[-0.1641899,51.5867998],[-0.1642074,51.5870566],[-0.1642102,51.5870983],[-0.164226,51.5871847],[-0.1642233,51.587241]]}},{"type":"Feature","properties":{"id":"lens-traffic-road-london-way/1154748659","layer":"traffic_road","category":"transport","year":1969,"visible_year":2025,"rank":4.5,"name":"North Hill","source_id":"way/1154748659","source_url":"https://www.openstreetmap.org/way/1154748659","license":"ODbL","transport_raw":0.322,"transport_count":4,"transport_activity":0.096,"representation":"major-road transport-event activity","timing_note":"Road color is a three-year transport-event activity surface on current OSM major road geometry, not measured traffic volume or congestion."},"geometry":{"type":"LineString","coordinates":[[-0.1563604,51.5813877],[-0.1563934,51.5814382]]}},{"type":"Feature","properties":{"id":"lens-traffic-road-london-way/157911772","layer":"traffic_road","category":"transport","year":1969,"visible_year":2023,"rank":2,"name":"Woodside Avenue","source_id":"way/157911772","source_url":"https://www.openstreetmap.org/way/157911772","license":"ODbL","transport_raw":0.323,"transport_count":3,"transport_activity":0.096,"representation":"major-road transport-event activity","timing_note":"Road color is a three-year transport-event activity surface on current OSM major road geometry, not measured traffic volume or congestion."},"geometry":{"type":"LineString","coordinates":[[-0.1578988,51.5835715],[-0.1577613,51.5836564]]}},{"type":"Feature","properties":{"id":"lens-traffic-road-london-way/3663498","layer":"traffic_road","category":"transport","year":1969,"visible_year":2023,"rank":3,"name":"Hampstead Lane","source_id":"way/3663498","source_url":"https://www.openstreetmap.org/way/3663498","license":"ODbL","transport_raw":0.322,"transport_count":2,"transport_activity":0.096,"representation":"major-road transport-event activity","timing_note":"Road color is a three-year transport-event activity surface on current OSM major road geometry, not measured traffic volume or congestion."},"geometry":{"type":"LineString","coordinates":[[-0.1732856,51.5713252],[-0.1730644,51.5715172],[-0.1729659,51.5715947],[-0.1728807,51.5716618],[-0.1728467,51.5716868],[-0.1723381,51.5719764],[-0.1723038,51.5719959]]}},{"type":"Feature","properties":{"id":"lens-traffic-road-london-way/229588921","layer":"traffic_road","category":"transport","year":1969,"visible_year":2025,"rank":4.5,"name":"Archway Road","source_id":"way/229588921","source_url":"https://www.openstreetmap.org/way/229588921","license":"ODbL","transport_raw":0.293,"transport_count":4,"transport_activity":0.087,"representation":"major-road transport-event activity","timing_note":"Road color is a three-year transport-event activity surface on current OSM major road geometry, not measured traffic volume or congestion."},"geometry":{"type":"LineString","coordinates":[[-0.1565474,51.5817118],[-0.1562101,51.5815702]]}},{"type":"Feature","properties":{"id":"lens-traffic-road-london-way/1156262446","layer":"traffic_road","category":"transport","year":1969,"visible_year":2023,"rank":4,"name":"High Road","source_id":"way/1156262446","source_url":"https://www.openstreetmap.org/way/1156262446","license":"ODbL","transport_raw":0.279,"transport_count":2,"transport_activity":0.083,"representation":"major-road transport-event activity","timing_note":"Road color is a three-year transport-event activity surface on current OSM major road geometry, not measured traffic volume or congestion."},"geometry":{"type":"LineString","coordinates":[[-0.1641772,51.5873953],[-0.1641035,51.5872477],[-0.1640946,51.587201]]}},{"type":"Feature","properties":{"id":"lens-traffic-road-london-way/31461013","layer":"traffic_road","category":"transport","year":1969,"visible_year":2023,"rank":4,"name":"High Road","source_id":"way/31461013","source_url":"https://www.openstreetmap.org/way/31461013","license":"ODbL","transport_raw":0.274,"transport_count":2,"transport_activity":0.081,"representation":"major-road transport-event activity","timing_note":"Road color is a three-year transport-event activity surface on current OSM major road geometry, not measured traffic volume or congestion."},"geometry":{"type":"LineString","coordinates":[[-0.1642233,51.587241],[-0.1641772,51.5873953]]}},{"type":"Feature","properties":{"id":"lens-traffic-road-london-way/1138957698","layer":"traffic_road","category":"transport","year":1969,"visible_year":2023,"rank":4,"name":"High Road","source_id":"way/1138957698","source_url":"https://www.openstreetmap.org/way/1138957698","license":"ODbL","transport_raw":0.247,"transport_count":2,"transport_activity":0.074,"representation":"major-road transport-event activity","timing_note":"Road color is a three-year transport-event activity surface on current OSM major road geometry, not measured traffic volume or congestion."},"geometry":{"type":"LineString","coordinates":[[-0.1641793,51.5874435],[-0.1641772,51.5873953]]}},{"type":"Feature","properties":{"id":"lens-traffic-road-london-way/8124221","layer":"traffic_road","category":"transport","year":1969,"visible_year":2023,"rank":4.5,"name":"Lyttelton Road","source_id":"way/8124221","source_url":"https://www.openstreetmap.org/way/8124221","license":"ODbL","transport_raw":0.222,"transport_count":2,"transport_activity":0.066,"representation":"major-road transport-event activity","timing_note":"Road color is a three-year transport-event activity surface on current OSM major road geometry, not measured traffic volume or congestion."},"geometry":{"type":"LineString","coordinates":[[-0.1737251,51.5848526],[-0.1737431,51.5848547],[-0.1741961,51.5849073],[-0.1742892,51.5849176],[-0.174786,51.5849735],[-0.1752782,51.5850288],[-0.1762268,51.5851371],[-0.1764061,51.5851573],[-0.1776539,51.5852982],[-0.1781306,51.585351],[-0.1787045,51.5854141],[-0.1791638,51.5854685]]}},{"type":"Feature","properties":{"id":"lens-traffic-road-london-way/3663499","layer":"traffic_road","category":"transport","year":1969,"visible_year":2022,"rank":3,"name":"Spaniards Road","source_id":"way/3663499","source_url":"https://www.openstreetmap.org/way/3663499","license":"ODbL","transport_raw":0.201,"transport_count":1,"transport_activity":0.06,"representation":"major-road transport-event activity","timing_note":"Road color is a three-year transport-event activity surface on current OSM major road geometry, not measured traffic volume or congestion."},"geometry":{"type":"LineString","coordinates":[[-0.1732856,51.5713252],[-0.17344,51.5711629],[-0.1735068,51.5710821],[-0.1735904,51.5709606],[-0.1736832,51.570806],[-0.1737416,51.5706529],[-0.1737807,51.5704631]]}},{"type":"Feature","properties":{"id":"lens-traffic-road-london-way/130883591","layer":"traffic_road","category":"transport","year":1969,"visible_year":2025,"rank":4.5,"name":"North Hill","source_id":"way/130883591","source_url":"https://www.openstreetmap.org/way/130883591","license":"ODbL","transport_raw":0.198,"transport_count":4,"transport_activity":0.059,"representation":"major-road transport-event activity","timing_note":"Road color is a three-year transport-event activity surface on current OSM major road geometry, not measured traffic volume or congestion."},"geometry":{"type":"LineString","coordinates":[[-0.1553039,51.580512],[-0.1556161,51.5808109],[-0.1556768,51.5808616],[-0.1560139,51.5811264],[-0.156094,51.5811893],[-0.1563604,51.5813877]]}},{"type":"Feature","properties":{"id":"lens-traffic-road-london-way/668139265","layer":"traffic_road","category":"transport","year":1969,"visible_year":2023,"rank":4,"name":"High Road","source_id":"way/668139265","source_url":"https://www.openstreetmap.org/way/668139265","license":"ODbL","transport_raw":0.198,"transport_count":2,"transport_activity":0.059,"representation":"major-road transport-event activity","timing_note":"Road color is a three-year transport-event activity surface on current OSM major road geometry, not measured traffic volume or congestion."},"geometry":{"type":"LineString","coordinates":[[-0.164188,51.587789],[-0.1641815,51.5876246],[-0.1641793,51.5874435]]}},{"type":"Feature","properties":{"id":"lens-traffic-road-london-way/668139266","layer":"traffic_road","category":"transport","year":1969,"visible_year":2025,"rank":4,"name":"High Road","source_id":"way/668139266","source_url":"https://www.openstreetmap.org/way/668139266","license":"ODbL","transport_raw":0.123,"transport_count":2,"transport_activity":0.037,"representation":"major-road transport-event activity","timing_note":"Road color is a three-year transport-event activity surface on current OSM major road geometry, not measured traffic volume or congestion."},"geometry":{"type":"LineString","coordinates":[[-0.164188,51.587789],[-0.1642259,51.5878213],[-0.164218,51.5879285],[-0.1642113,51.5880194],[-0.1641656,51.5880455]]}},{"type":"Feature","properties":{"id":"lens-traffic-road-london-way/668139267","layer":"traffic_road","category":"transport","year":1969,"visible_year":2025,"rank":4,"name":"High Road","source_id":"way/668139267","source_url":"https://www.openstreetmap.org/way/668139267","license":"ODbL","transport_raw":0.122,"transport_count":2,"transport_activity":0.036,"representation":"major-road transport-event activity","timing_note":"Road color is a three-year transport-event activity surface on current OSM major road geometry, not measured traffic volume or congestion."},"geometry":{"type":"LineString","coordinates":[[-0.1641656,51.5880455],[-0.1641306,51.5880218],[-0.1641351,51.5879414],[-0.16414,51.5878988],[-0.1641456,51.5878169],[-0.164188,51.587789]]}},{"type":"Feature","properties":{"id":"lens-traffic-road-london-way/1124996524","layer":"traffic_road","category":"transport","year":1969,"visible_year":2022,"rank":3,"name":"Spaniards Road","source_id":"way/1124996524","source_url":"https://www.openstreetmap.org/way/1124996524","license":"ODbL","transport_raw":0.097,"transport_count":1,"transport_activity":0.029,"representation":"major-road transport-event activity","timing_note":"Road color is a three-year transport-event activity surface on current OSM major road geometry, not measured traffic volume or congestion."},"geometry":{"type":"LineString","coordinates":[[-0.1737807,51.5704631],[-0.1737945,51.5702318],[-0.1737983,51.5701261],[-0.1738297,51.5700035],[-0.1738337,51.5699821],[-0.1738433,51.5698999]]}},{"type":"Feature","properties":{"id":"lens-traffic-road-london-way/130883592","layer":"traffic_road","category":"transport","year":1969,"visible_year":2025,"rank":4.5,"name":"Archway Road","source_id":"way/130883592","source_url":"https://www.openstreetmap.org/way/130883592","license":"ODbL","transport_raw":0.069,"transport_count":3,"transport_activity":0.021,"representation":"major-road transport-event activity","timing_note":"Road color is a three-year transport-event activity surface on current OSM major road geometry, not measured traffic volume or congestion."},"geometry":{"type":"LineString","coordinates":[[-0.1562101,51.5815702],[-0.1558541,51.5814314],[-0.1556959,51.5813584],[-0.1554552,51.5812612],[-0.1552988,51.5812019],[-0.1552093,51.5811649],[-0.1549993,51.5810782],[-0.1549377,51.5810527]]}},{"type":"Feature","properties":{"id":"lens-traffic-road-london-way/334243378","layer":"traffic_road","category":"transport","year":1969,"visible_year":2024,"rank":3,"name":"Spaniards Road","source_id":"way/334243378","source_url":"https://www.openstreetmap.org/way/334243378","license":"ODbL","transport_raw":0.066,"transport_count":1,"transport_activity":0.02,"representation":"major-road transport-event activity","timing_note":"Road color is a three-year transport-event activity surface on current OSM major road geometry, not measured traffic volume or congestion."},"geometry":{"type":"LineString","coordinates":[[-0.1738433,51.5698999],[-0.1738625,51.5698393]]}},{"type":"Feature","properties":{"id":"lens-traffic-road-london-way/386968671","layer":"traffic_road","category":"transport","year":1969,"visible_year":2025,"rank":3,"name":"Hampstead Lane","source_id":"way/386968671","source_url":"https://www.openstreetmap.org/way/386968671","license":"ODbL","transport_raw":0.069,"transport_count":3,"transport_activity":0.02,"representation":"major-road transport-event activity","timing_note":"Road color is a three-year transport-event activity surface on current OSM major road geometry, not measured traffic volume or congestion."},"geometry":{"type":"LineString","coordinates":[[-0.1650227,51.5726796],[-0.1647558,51.5726237],[-0.164617,51.5725946],[-0.1640862,51.5725486],[-0.1629894,51.5726255],[-0.1626202,51.5726579],[-0.1624815,51.5726716],[-0.1616069,51.5727577],[-0.1614222,51.5727753],[-0.1611961,51.5727985],[-0.1610281,51.5728133],[-0.160993,51.5728161],[-0.160534,51.5728615],[-0.160312,51.5728384],[-0.160066,51.5727859],[-0.1598318,51.5727006],[-0.159592,51.5725946],[-0.1588837,51.5723414],[-0.1587156,51.5722895],[-0.1586095,51.5722568],[-0.1584439,51.5722347],[-0.1580538,51.5721959],[-0.1576782,51.5721627],[-0.1574532,51.5721414],[-0.1571236,51.5721103],[-0.1566539,51.5720865],[-0.1557033,51.5720064],[-0.1549896,51.5719462],[-0.1548529,51.5719407],[-0.1547455,51.5719331]]}},{"type":"Feature","properties":{"id":"lens-traffic-road-london-way/2236993","layer":"traffic_road","category":"transport","year":1969,"visible_year":2023,"rank":3,"name":"North Hill","source_id":"way/2236993","source_url":"https://www.openstreetmap.org/way/2236993","license":"ODbL","transport_raw":0.048,"transport_count":3,"transport_activity":0.014,"representation":"major-road transport-event activity","timing_note":"Road color is a three-year transport-event activity surface on current OSM major road geometry, not measured traffic volume or congestion."},"geometry":{"type":"LineString","coordinates":[[-0.1551957,51.5803502],[-0.1552406,51.5803994],[-0.1552789,51.5804406],[-0.1553039,51.580512]]}},{"type":"Feature","properties":{"id":"lens-traffic-road-london-way/2211","layer":"traffic_road","category":"transport","year":1969,"visible_year":2025,"rank":4,"name":"High Road","source_id":"way/2211","source_url":"https://www.openstreetmap.org/way/2211","license":"ODbL","transport_raw":0.032,"transport_count":1,"transport_activity":0.01,"representation":"major-road transport-event activity","timing_note":"Road color is a three-year transport-event activity surface on current OSM major road geometry, not measured traffic volume or congestion."},"geometry":{"type":"LineString","coordinates":[[-0.163976,51.5889927],[-0.1639898,51.588925],[-0.1640533,51.5886095],[-0.1641116,51.5883356],[-0.1641656,51.5880455]]}},{"type":"Feature","properties":{"id":"lens-traffic-road-london-way/1103508755","layer":"traffic_road","category":"transport","year":1969,"visible_year":2023,"rank":3,"name":"mapped road segment","source_id":"way/1103508755","source_url":"https://www.openstreetmap.org/way/1103508755","license":"ODbL","transport_raw":0.023,"transport_count":3,"transport_activity":0.007,"representation":"major-road transport-event activity","timing_note":"Road color is a three-year transport-event activity surface on current OSM major road geometry, not measured traffic volume or congestion."},"geometry":{"type":"LineString","coordinates":[[-0.1550876,51.5803853],[-0.1551607,51.5803615],[-0.1551957,51.5803502]]}},{"type":"Feature","properties":{"id":"lens-traffic-road-london-way/223425687","layer":"traffic_road","category":"transport","year":1969,"visible_year":2025,"rank":4.5,"name":"Baker's Lane","source_id":"way/223425687","source_url":"https://www.openstreetmap.org/way/223425687","license":"ODbL","transport_raw":0.025,"transport_count":3,"transport_activity":0.007,"representation":"major-road transport-event activity","timing_note":"Road color is a three-year transport-event activity surface on current OSM major road geometry, not measured traffic volume or congestion."},"geometry":{"type":"LineString","coordinates":[[-0.155028,51.5804791],[-0.1550998,51.5804661],[-0.155145,51.5804673],[-0.155224,51.5804825],[-0.1553039,51.580512]]}},{"type":"Feature","properties":{"id":"lens-traffic-road-london-way/229588917","layer":"traffic_road","category":"transport","year":1969,"visible_year":2025,"rank":3,"name":"North Hill","source_id":"way/229588917","source_url":"https://www.openstreetmap.org/way/229588917","license":"ODbL","transport_raw":0.018,"transport_count":1,"transport_activity":0.005,"representation":"major-road transport-event activity","timing_note":"Road color is a three-year transport-event activity surface on current OSM major road geometry, not measured traffic volume or congestion."},"geometry":{"type":"LineString","coordinates":[[-0.1550249,51.5801554],[-0.1551957,51.5803502]]}},{"type":"Feature","properties":{"id":"lens-traffic-road-london-way/1154796879","layer":"traffic_road","category":"transport","year":1969,"visible_year":2025,"rank":3,"name":"B519","source_id":"way/1154796879","source_url":"https://www.openstreetmap.org/way/1154796879","license":"ODbL","transport_raw":0.013,"transport_count":1,"transport_activity":0.004,"representation":"major-road transport-event activity","timing_note":"Road color is a three-year transport-event activity surface on current OSM major road geometry, not measured traffic volume or congestion."},"geometry":{"type":"LineString","coordinates":[[-0.1550876,51.5803853],[-0.1550851,51.5803215],[-0.1550249,51.5801554]]}},{"type":"Feature","properties":{"id":"lens-traffic-road-london-way/223425697","layer":"traffic_road","category":"transport","year":1969,"visible_year":2026,"rank":3,"name":"B519","source_id":"way/223425697","source_url":"https://www.openstreetmap.org/way/223425697","license":"ODbL","transport_raw":0.008,"transport_count":1,"transport_activity":0.002,"representation":"major-road transport-event activity","timing_note":"Road color is a three-year transport-event activity surface on current OSM major road geometry, not measured traffic volume or congestion."},"geometry":{"type":"LineString","coordinates":[[-0.155028,51.5804791],[-0.1550541,51.5804416],[-0.1550876,51.5803853]]}},{"type":"Feature","properties":{"id":"lens-traffic-road-london-way/960992437","layer":"traffic_road","category":"transport","year":1969,"visible_year":2021,"rank":3,"name":"Spaniards Road","source_id":"way/960992437","source_url":"https://www.openstreetmap.org/way/960992437","license":"ODbL","transport_raw":0.004,"transport_count":1,"transport_activity":0.001,"representation":"major-road transport-event activity","timing_note":"Road color is a three-year transport-event activity surface on current OSM major road geometry, not measured traffic volume or congestion."},"geometry":{"type":"LineString","coordinates":[[-0.1738625,51.5698393],[-0.1738847,51.5697896],[-0.1739411,51.5697099],[-0.174059,51.5696165],[-0.1741781,51.5695232],[-0.1742532,51.5694688],[-0.1743156,51.569419],[-0.174362,51.5693778],[-0.1744683,51.5692807],[-0.1744935,51.5692526],[-0.1745476,51.5691924],[-0.1747242,51.5690094]]}}]}
