{"type":"FeatureCollection","schema_version":"1.0.0","city_id":"belfast","year":2011,"map_feature_count":34,"withheld_geometry_event_count":118,"features":[{"type":"Feature","id":"bfs_arch_alexandra_park_peace_wall_gate_opening_2011","properties":{"city_id":"belfast","event_id":"bfs_arch_alexandra_park_peace_wall_gate_opening_2011","title":"Alexandra Park peace-wall gate formally opened","subtitle":"Alexandra Park / North Belfast / 2011-09-16 / Documented / Belfast City Council Parks and Leisure Committee report: Alexandra Park Update","details":"Public source material documents this event near Alexandra Park / North Belfast. Related local changes should be treated as associated context, not causal claims.","year":2011,"effective_date":"2011-09-16","date_precision":"day","short_description":"Belfast City Council's Alexandra Park update recorded that a gate in the park's peace wall was formally opened on 16 September 2011 after local consultation and as part of a trial access arrangement.","category":"built_environment","lens":"built_environment","confidence":"documented","source_ids":["belfast-architecture-public-pages"],"affected_area_label":"Alexandra Park / North Belfast","explanation":"Public source material documents this event near Alexandra Park / North Belfast. Related local changes should be treated as associated context, not causal claims."},"geometry":{"type":"Point","coordinates":[-5.9343,54.619]}},{"type":"Feature","id":"bfs_arch_beech_hall_wellbeing_centre_opening_2011","properties":{"city_id":"belfast","event_id":"bfs_arch_beech_hall_wellbeing_centre_opening_2011","title":"Beech Hall Wellbeing and Treatment Centre opened","subtitle":"Andersonstown Road / West Belfast / 2011-11 / Documented / Belfast Media / Andersonstown News","details":"Public source material documents this event near Andersonstown Road / West Belfast. Related local changes should be treated as associated context, not causal claims.","year":2011,"effective_date":"2011-11","date_precision":"month","short_description":"Belfast Media reported in June 2012 that Beech Hall Wellbeing and Treatment Centre on Andersonstown Road had opened in November 2011.","category":"built_environment","lens":"built_environment","confidence":"documented","source_ids":["belfast-architecture-public-pages"],"affected_area_label":"Andersonstown Road / West Belfast","explanation":"Public source material documents this event near Andersonstown Road / West Belfast. Related local changes should be treated as associated context, not causal claims."},"geometry":{"type":"Point","coordinates":[-5.9828,54.5848]}},{"type":"Feature","id":"bfs_arch_belfast_harni_spatial_26_08_013_date_added_2011_09_29","properties":{"city_id":"belfast","event_id":"bfs_arch_belfast_harni_spatial_26_08_013_date_added_2011_09_29","title":"HARNI spatial layer recorded Saved status for Templemore Baths, Belfast","subtitle":"Templemore Baths, Belfast / 2011-09-29 / Documented / Heritage at Risk in Northern Ireland Belfast ArcGIS spatial layer","details":"Public source material documents this event near Templemore Baths, Belfast. Related local changes should be treated as associated context, not causal claims.","year":2011,"effective_date":"2011-09-29","date_precision":"day","short_description":"The Department for Communities HED Heritage at Risk spatial layer records Templemore Baths, Belfast in Belfast with category 'Saved', Date_Added 2011/09/29, BHARNI reference 26/08/013, HB reference HB26/08/003, and...","category":"built_environment","lens":"built_environment","confidence":"documented","source_ids":["dfc-harni-belfast"],"affected_area_label":"Templemore Baths, Belfast","explanation":"Public source material documents this event near Templemore Baths, Belfast. Related local changes should be treated as associated context, not causal claims."},"geometry":{"type":"Point","coordinates":[-5.901183,54.596524]}},{"type":"Feature","id":"bfs_arch_belfast_met_titanic_quarter_opening_2011","properties":{"city_id":"belfast","event_id":"bfs_arch_belfast_met_titanic_quarter_opening_2011","title":"Belfast Metropolitan College opened its Titanic Quarter campus","subtitle":"Titanic Quarter / 2011-09 / Documented / Northern Ireland Office","details":"Public source material documents this event near Titanic Quarter. Related local changes should be treated as associated context, not causal claims.","year":2011,"effective_date":"2011-09","date_precision":"month","short_description":"Belfast Metropolitan College opened its flagship Titanic Quarter headquarters and campus in September 2011.","category":"built_environment","lens":"built_environment","confidence":"documented","source_ids":["belfast-architecture-public-pages"],"affected_area_label":"Titanic Quarter","explanation":"Public source material documents this event near Titanic Quarter. Related local changes should be treated as associated context, not causal claims."},"geometry":{"type":"Point","coordinates":[-5.9015,54.6026]}},{"type":"Feature","id":"bfs_arch_bridges_urban_sports_park_operational_2011","properties":{"city_id":"belfast","event_id":"bfs_arch_bridges_urban_sports_park_operational_2011","title":"Bridges Urban Sports Park was in regular use under the M3 flyover","subtitle":"Little Patrick Street / Corporation Street / Custom House area / 2011-05 / Documented / Belfast City Council Parks and Leisure Committee report: Bridges Urban Sports Park - End...","details":"Public source material documents this event near Little Patrick Street / Corporation Street / Custom House area. Related local changes should be treated as associated context, not causal claims.","year":2011,"effective_date":"2011-05","date_precision":"month","short_description":"Belfast City Council's Bridges Urban Sports Park end-project review recorded that, since May 2011, regular sports events, activities and programmes had been running at the outdoor urban sports facility between Little...","category":"built_environment","lens":"built_environment","confidence":"documented","source_ids":["belfast-architecture-public-pages"],"affected_area_label":"Little Patrick Street / Corporation Street / Custom House area","explanation":"Public source material documents this event near Little Patrick Street / Corporation Street / Custom House area. Related local changes should be treated as associated context, not causal claims."},"geometry":{"type":"Point","coordinates":[-5.9212,54.6038]}},{"type":"Feature","id":"bfs_arch_culturlann_reopening_2011","properties":{"city_id":"belfast","event_id":"bfs_arch_culturlann_reopening_2011","title":"Culturlann McAdam O Fiaich reopened after renovation","subtitle":"Falls Road / Gaeltacht Quarter / 2011-09 / Documented / NICVA","details":"Public source material documents this event near Falls Road / Gaeltacht Quarter. Related local changes should be treated as associated context, not causal claims.","year":2011,"effective_date":"2011-09","date_precision":"month","short_description":"Public sector records describe the re-launch of the renovated Culturlann McAdam O Fiaich Irish-language cultural centre in September 2011.","category":"built_environment","lens":"built_environment","confidence":"documented","source_ids":["belfast-architecture-public-pages"],"affected_area_label":"Falls Road / Gaeltacht Quarter","explanation":"Public source material documents this event near Falls Road / Gaeltacht Quarter. Related local changes should be treated as associated context, not causal claims."},"geometry":{"type":"Point","coordinates":[-5.9559,54.5964]}},{"type":"Feature","id":"bfs_arch_hamilton_house_office_opening_2011","properties":{"city_id":"belfast","event_id":"bfs_arch_hamilton_house_office_opening_2011","title":"Hamilton House offices opened on Joy Street","subtitle":"Joy Street / Linen Quarter / 2011-10-18 / Documented / GOV.UK / Northern Ireland Office","details":"Public source material documents this event near Joy Street / Linen Quarter. Related local changes should be treated as associated context, not causal claims.","year":2011,"effective_date":"2011-10-18","date_precision":"day","short_description":"GOV.UK recorded the Secretary of State officially opening Hamilton Architects' new offices in Hamilton House on 18 October 2011.","category":"built_environment","lens":"built_environment","confidence":"documented","source_ids":["belfast-architecture-public-pages"],"affected_area_label":"Joy Street / Linen Quarter","explanation":"Public source material documents this event near Joy Street / Linen Quarter. Related local changes should be treated as associated context, not causal claims."},"geometry":{"type":"Point","coordinates":[-5.9287,54.5934]}},{"type":"Feature","id":"bfs_arch_lyric_theatre_opening_2011","properties":{"city_id":"belfast","event_id":"bfs_arch_lyric_theatre_opening_2011","title":"New Lyric Theatre opened","subtitle":"Stranmillis / River Lagan / 2011-05-01 / Documented / Lyric Theatre Belfast","details":"Public source material documents this event near Stranmillis / River Lagan. Related local changes should be treated as associated context, not causal claims.","year":2011,"effective_date":"2011-05-01","date_precision":"day","short_description":"The rebuilt Lyric Theatre opened on Ridgeway Street on the site of the old Lyric.","category":"built_environment","lens":"built_environment","confidence":"documented","source_ids":["belfast-architecture-public-pages"],"affected_area_label":"Stranmillis / River Lagan","explanation":"Public source material documents this event near Stranmillis / River Lagan. Related local changes should be treated as associated context, not causal claims."},"geometry":{"type":"Point","coordinates":[-5.9348,54.5774]}},{"type":"Feature","id":"bfs_arch_murrays_exchange_refurbishment_completion_2011","properties":{"city_id":"belfast","event_id":"bfs_arch_murrays_exchange_refurbishment_completion_2011","title":"Murray's Exchange offices completed","subtitle":"Sandy Row / Durham Street / 2011 / Documented / White Ink Architects","details":"Public source material documents this event near Sandy Row / Durham Street. Related local changes should be treated as associated context, not causal claims.","year":2011,"effective_date":"2011","date_precision":"year","short_description":"White Ink Architects records Murray's Exchange Offices in Belfast as completed in 2011 after restoration and extension of the listed Whitehall Tobacco Works for commercial office use.","category":"built_environment","lens":"built_environment","confidence":"documented","source_ids":["belfast-architecture-public-pages"],"affected_area_label":"Sandy Row / Durham Street","explanation":"Public source material documents this event near Sandy Row / Durham Street. Related local changes should be treated as associated context, not causal claims."},"geometry":{"type":"Point","coordinates":[-5.9368,54.592]}},{"type":"Feature","id":"bfs_arch_mv_confiance_belfast_barge_restored_museum_use_2011","properties":{"city_id":"belfast","event_id":"bfs_arch_mv_confiance_belfast_barge_restored_museum_use_2011","title":"MV Confiance was documented as restored for maritime museum use","subtitle":"Lanyon Quay / River Lagan / 2011 / Documented / The National Lottery Heritage Fund","details":"Public source material documents this event near Lanyon Quay / River Lagan. Related local changes should be treated as associated context, not causal claims.","year":2011,"effective_date":"2011","date_precision":"year","short_description":"The National Lottery Heritage Fund recorded the Belfast Barge MV Confiance as restored for Lagan Legacy's maritime museum, with exhibition, multi-use heritage and arts space, and visitor access to maritime heritage...","category":"built_environment","lens":"built_environment","confidence":"documented","source_ids":["belfast-architecture-public-pages"],"affected_area_label":"Lanyon Quay / River Lagan","explanation":"Public source material documents this event near Lanyon Quay / River Lagan. Related local changes should be treated as associated context, not causal claims."},"geometry":{"type":"Point","coordinates":[-5.9166,54.5964]}},{"type":"Feature","id":"bfs_arch_obel_tower_completion_2011","properties":{"city_id":"belfast","event_id":"bfs_arch_obel_tower_completion_2011","title":"Obel Tower completed on Donegall Quay","subtitle":"Donegall Quay / Waterfront / 2011 / Documented / Geberit UK","details":"Public source material documents this event near Donegall Quay / Waterfront. Related local changes should be treated as associated context, not causal claims.","year":2011,"effective_date":"2011","date_precision":"year","short_description":"A Geberit reference project records Obel Tower's project completion in spring 2011, noting the tower's prominent height in Belfast.","category":"built_environment","lens":"built_environment","confidence":"documented","source_ids":["belfast-architecture-public-pages"],"affected_area_label":"Donegall Quay / Waterfront","explanation":"Public source material documents this event near Donegall Quay / Waterfront. Related local changes should be treated as associated context, not causal claims."},"geometry":{"type":"Point","coordinates":[-5.9185,54.6029]}},{"type":"Feature","id":"bfs_arch_proni_titanic_quarter_opening_2011","properties":{"city_id":"belfast","event_id":"bfs_arch_proni_titanic_quarter_opening_2011","title":"PRONI relocated to its Titanic Quarter building","subtitle":"Titanic Quarter / 2011-03 / Documented / Public Record Office of Northern Ireland","details":"Public source material documents this event near Titanic Quarter. Related local changes should be treated as associated context, not causal claims.","year":2011,"effective_date":"2011-03","date_precision":"month","short_description":"The Public Record Office of Northern Ireland relocated to purpose-built premises at 2 Titanic Boulevard.","category":"built_environment","lens":"built_environment","confidence":"documented","source_ids":["belfast-architecture-public-pages"],"affected_area_label":"Titanic Quarter","explanation":"Public source material documents this event near Titanic Quarter. Related local changes should be treated as associated context, not causal claims."},"geometry":{"type":"Point","coordinates":[-5.8988,54.606]}},{"type":"Feature","id":"bfs_arch_riddel_hall_reopening_2011","properties":{"city_id":"belfast","event_id":"bfs_arch_riddel_hall_reopening_2011","title":"Riddel Hall reopened for Queen's University Management School","subtitle":"Stranmillis / Queen's Quarter / 2011-09 / Documented / Queen's University Belfast","details":"Public source material documents this event near Stranmillis / Queen's Quarter. Related local changes should be treated as associated context, not causal claims.","year":2011,"effective_date":"2011-09","date_precision":"month","short_description":"Queen's University Belfast records the restored Riddel Hall reopening as part of the Management School estate.","category":"built_environment","lens":"built_environment","confidence":"documented","source_ids":["belfast-architecture-public-pages"],"affected_area_label":"Stranmillis / Queen's Quarter","explanation":"Public source material documents this event near Stranmillis / Queen's Quarter. Related local changes should be treated as associated context, not causal claims."},"geometry":{"type":"Point","coordinates":[-5.9364,54.5764]}},{"type":"Feature","id":"bfs_arch_rosemount_house_extension_completion_2011","properties":{"city_id":"belfast","event_id":"bfs_arch_rosemount_house_extension_completion_2011","title":"Rosemount House extension completed","subtitle":"Sydenham Road / East Belfast / 2011-10 / Documented / H&J Martin","details":"Public source material documents this event near Sydenham Road / East Belfast. Related local changes should be treated as associated context, not causal claims.","year":2011,"effective_date":"2011-10","date_precision":"month","short_description":"H&J Martin records its Rosemount House project running from February to October 2011 and delivering additional office, meeting, storage, and landscaped staff space at the Sydenham Road headquarters.","category":"built_environment","lens":"built_environment","confidence":"documented","source_ids":["belfast-architecture-public-pages"],"affected_area_label":"Sydenham Road / East Belfast","explanation":"Public source material documents this event near Sydenham Road / East Belfast. Related local changes should be treated as associated context, not causal claims."},"geometry":{"type":"Point","coordinates":[-5.89,54.6068]}},{"type":"Feature","id":"bfs_arch_round130_belfast_dfc_scheduled_zone_061_024_date_added_2011_04_21","properties":{"city_id":"belfast","event_id":"bfs_arch_round130_belfast_dfc_scheduled_zone_061_024_date_added_2011_04_21","title":"HED Scheduled Zones recorded Fundamental Bench Mark at SKEGONEILL","subtitle":"Fundamental Bench Mark, SKEGONEILL / 2011-04-21 / Documented / Scheduled Historic Monument Areas / HED Scheduled Zones","details":"Public source material documents this event near Fundamental Bench Mark, SKEGONEILL. Related local changes should be treated as associated context, not causal claims.","year":2011,"effective_date":"2011-04-21","date_precision":"day","short_description":"The Department for Communities Historic Environment Division Scheduled Zones layer records SMNO 061:024 in Belfast with Date_added 2011-04-21, type 'Fundamental Bench Mark', townland 'SKEGONEILL' and OBJECTID 6717.","category":"built_environment","lens":"built_environment","confidence":"documented","source_ids":["dfc-hed-scheduled-zones-belfast-round130"],"affected_area_label":"Fundamental Bench Mark, SKEGONEILL","explanation":"Public source material documents this event near Fundamental Bench Mark, SKEGONEILL. Related local changes should be treated as associated context, not causal claims."},"geometry":{"type":"Point","coordinates":[-5.924036,54.622208]}},{"type":"Feature","id":"bfs_arch_shankill_wellbeing_centre_opening_2011","properties":{"city_id":"belfast","event_id":"bfs_arch_shankill_wellbeing_centre_opening_2011","title":"Shankill Wellbeing and Treatment Centre opened","subtitle":"Shankill Road / West Belfast / 2011-11 / Documented / Belfast Media / Andersonstown News","details":"Public source material documents this event near Shankill Road / West Belfast. Related local changes should be treated as associated context, not causal claims.","year":2011,"effective_date":"2011-11","date_precision":"month","short_description":"Belfast Media reported in June 2012 that Shankill Wellbeing and Treatment Centre had opened in November 2011.","category":"built_environment","lens":"built_environment","confidence":"documented","source_ids":["belfast-architecture-public-pages"],"affected_area_label":"Shankill Road / West Belfast","explanation":"Public source material documents this event near Shankill Road / West Belfast. Related local changes should be treated as associated context, not causal claims."},"geometry":{"type":"Point","coordinates":[-5.9507,54.6043]}},{"type":"Feature","id":"osm-traffic-way-10543260","properties":{"city_id":"belfast","event_id":"osm-traffic-way-10543260","title":"Orangefield Parade road mapped in OSM","subtitle":"Orangefield Parade / 2011-01-22 / Inferred / OpenStreetMap / Overpass API","details":"OpenStreetMap metadata records this feature as publicly mapped near Orangefield Parade. This is an observed mapped-change record, not a confirmed real-world opening or construction date.","year":2011,"effective_date":"2011-01-22","date_precision":"day","short_description":"Public OSM mapped-event record for road; use as mapped change evidence, not a confirmed construction/opening date.","category":"transport","lens":"mobility","confidence":"inferred","source_ids":["osm-overpass"],"affected_area_label":"Orangefield Parade","explanation":"OpenStreetMap metadata records this feature as publicly mapped near Orangefield Parade. This is an observed mapped-change record, not a confirmed real-world opening or construction date."},"geometry":{"type":"Point","coordinates":[-5.873349,54.5907]}},{"type":"Feature","id":"osm-traffic-way-117071357","properties":{"city_id":"belfast","event_id":"osm-traffic-way-117071357","title":"residential road mapped in OSM — road","subtitle":"road / 2011-06-10 / Inferred / OpenStreetMap / Overpass API","details":"OpenStreetMap metadata records this feature as publicly mapped near road. This is an observed mapped-change record, not a confirmed real-world opening or construction date.","year":2011,"effective_date":"2011-06-10","date_precision":"day","short_description":"Public OSM mapped-event record for road; use as mapped change evidence, not a confirmed construction/opening date.","category":"transport","lens":"mobility","confidence":"inferred","source_ids":["osm-overpass"],"affected_area_label":"road","explanation":"OpenStreetMap metadata records this feature as publicly mapped near road. This is an observed mapped-change record, not a confirmed real-world opening or construction date."},"geometry":{"type":"Point","coordinates":[-5.934904,54.629203]}},{"type":"Feature","id":"osm-traffic-way-136688427","properties":{"city_id":"belfast","event_id":"osm-traffic-way-136688427","title":"residential road mapped in OSM — road · way/136688427","subtitle":"road / 2011-11-12 / Inferred / OpenStreetMap / Overpass API","details":"OpenStreetMap metadata records this feature as publicly mapped near road. This is an observed mapped-change record, not a confirmed real-world opening or construction date.","year":2011,"effective_date":"2011-11-12","date_precision":"day","short_description":"Public OSM mapped-event record for road; use as mapped change evidence, not a confirmed construction/opening date.","category":"transport","lens":"mobility","confidence":"inferred","source_ids":["osm-overpass"],"affected_area_label":"road","explanation":"OpenStreetMap metadata records this feature as publicly mapped near road. This is an observed mapped-change record, not a confirmed real-world opening or construction date."},"geometry":{"type":"Point","coordinates":[-5.92878,54.639026]}},{"type":"Feature","id":"osm-traffic-way-136688589","properties":{"city_id":"belfast","event_id":"osm-traffic-way-136688589","title":"residential road mapped in OSM — road · way/136688589","subtitle":"road / 2011-11-12 / Inferred / OpenStreetMap / Overpass API","details":"OpenStreetMap metadata records this feature as publicly mapped near road. This is an observed mapped-change record, not a confirmed real-world opening or construction date.","year":2011,"effective_date":"2011-11-12","date_precision":"day","short_description":"Public OSM mapped-event record for road; use as mapped change evidence, not a confirmed construction/opening date.","category":"transport","lens":"mobility","confidence":"inferred","source_ids":["osm-overpass"],"affected_area_label":"road","explanation":"OpenStreetMap metadata records this feature as publicly mapped near road. This is an observed mapped-change record, not a confirmed real-world opening or construction date."},"geometry":{"type":"Point","coordinates":[-5.921321,54.640682]}},{"type":"Feature","id":"osm-traffic-way-136688592","properties":{"city_id":"belfast","event_id":"osm-traffic-way-136688592","title":"residential road mapped in OSM — road · way/136688592","subtitle":"road / 2011-11-12 / Inferred / OpenStreetMap / Overpass API","details":"OpenStreetMap metadata records this feature as publicly mapped near road. This is an observed mapped-change record, not a confirmed real-world opening or construction date.","year":2011,"effective_date":"2011-11-12","date_precision":"day","short_description":"Public OSM mapped-event record for road; use as mapped change evidence, not a confirmed construction/opening date.","category":"transport","lens":"mobility","confidence":"inferred","source_ids":["osm-overpass"],"affected_area_label":"road","explanation":"OpenStreetMap metadata records this feature as publicly mapped near road. This is an observed mapped-change record, not a confirmed real-world opening or construction date."},"geometry":{"type":"Point","coordinates":[-5.922239,54.639769]}},{"type":"Feature","id":"osm-traffic-way-136688595","properties":{"city_id":"belfast","event_id":"osm-traffic-way-136688595","title":"residential road mapped in OSM — road · way/136688595","subtitle":"road / 2011-11-12 / Inferred / OpenStreetMap / Overpass API","details":"OpenStreetMap metadata records this feature as publicly mapped near road. This is an observed mapped-change record, not a confirmed real-world opening or construction date.","year":2011,"effective_date":"2011-11-12","date_precision":"day","short_description":"Public OSM mapped-event record for road; use as mapped change evidence, not a confirmed construction/opening date.","category":"transport","lens":"mobility","confidence":"inferred","source_ids":["osm-overpass"],"affected_area_label":"road","explanation":"OpenStreetMap metadata records this feature as publicly mapped near road. This is an observed mapped-change record, not a confirmed real-world opening or construction date."},"geometry":{"type":"Point","coordinates":[-5.921708,54.639014]}},{"type":"Feature","id":"osm-traffic-way-136688597","properties":{"city_id":"belfast","event_id":"osm-traffic-way-136688597","title":"residential road mapped in OSM — road · way/136688597","subtitle":"road / 2011-11-12 / Inferred / OpenStreetMap / Overpass API","details":"OpenStreetMap metadata records this feature as publicly mapped near road. This is an observed mapped-change record, not a confirmed real-world opening or construction date.","year":2011,"effective_date":"2011-11-12","date_precision":"day","short_description":"Public OSM mapped-event record for road; use as mapped change evidence, not a confirmed construction/opening date.","category":"transport","lens":"mobility","confidence":"inferred","source_ids":["osm-overpass"],"affected_area_label":"road","explanation":"OpenStreetMap metadata records this feature as publicly mapped near road. This is an observed mapped-change record, not a confirmed real-world opening or construction date."},"geometry":{"type":"Point","coordinates":[-5.924809,54.64066]}},{"type":"Feature","id":"osm-traffic-way-136688598","properties":{"city_id":"belfast","event_id":"osm-traffic-way-136688598","title":"residential road mapped in OSM — road · way/136688598","subtitle":"road / 2011-11-12 / Inferred / OpenStreetMap / Overpass API","details":"OpenStreetMap metadata records this feature as publicly mapped near road. This is an observed mapped-change record, not a confirmed real-world opening or construction date.","year":2011,"effective_date":"2011-11-12","date_precision":"day","short_description":"Public OSM mapped-event record for road; use as mapped change evidence, not a confirmed construction/opening date.","category":"transport","lens":"mobility","confidence":"inferred","source_ids":["osm-overpass"],"affected_area_label":"road","explanation":"OpenStreetMap metadata records this feature as publicly mapped near road. This is an observed mapped-change record, not a confirmed real-world opening or construction date."},"geometry":{"type":"Point","coordinates":[-5.926416,54.640537]}},{"type":"Feature","id":"osm-traffic-way-136688599","properties":{"city_id":"belfast","event_id":"osm-traffic-way-136688599","title":"residential road mapped in OSM — road · way/136688599","subtitle":"road / 2011-11-12 / Inferred / OpenStreetMap / Overpass API","details":"OpenStreetMap metadata records this feature as publicly mapped near road. This is an observed mapped-change record, not a confirmed real-world opening or construction date.","year":2011,"effective_date":"2011-11-12","date_precision":"day","short_description":"Public OSM mapped-event record for road; use as mapped change evidence, not a confirmed construction/opening date.","category":"transport","lens":"mobility","confidence":"inferred","source_ids":["osm-overpass"],"affected_area_label":"road","explanation":"OpenStreetMap metadata records this feature as publicly mapped near road. This is an observed mapped-change record, not a confirmed real-world opening or construction date."},"geometry":{"type":"Point","coordinates":[-5.925614,54.640592]}},{"type":"Feature","id":"osm-traffic-way-137123563","properties":{"city_id":"belfast","event_id":"osm-traffic-way-137123563","title":"residential road mapped in OSM — road · way/137123563","subtitle":"road / 2011-11-15 / Inferred / OpenStreetMap / Overpass API","details":"OpenStreetMap metadata records this feature as publicly mapped near road. This is an observed mapped-change record, not a confirmed real-world opening or construction date.","year":2011,"effective_date":"2011-11-15","date_precision":"day","short_description":"Public OSM mapped-event record for road; use as mapped change evidence, not a confirmed construction/opening date.","category":"transport","lens":"mobility","confidence":"inferred","source_ids":["osm-overpass"],"affected_area_label":"road","explanation":"OpenStreetMap metadata records this feature as publicly mapped near road. This is an observed mapped-change record, not a confirmed real-world opening or construction date."},"geometry":{"type":"Point","coordinates":[-5.929009,54.609968]}},{"type":"Feature","id":"osm-traffic-way-137126097","properties":{"city_id":"belfast","event_id":"osm-traffic-way-137126097","title":"residential road mapped in OSM — road · way/137126097","subtitle":"road / 2011-12-18 / Inferred / OpenStreetMap / Overpass API","details":"OpenStreetMap metadata records this feature as publicly mapped near road. This is an observed mapped-change record, not a confirmed real-world opening or construction date.","year":2011,"effective_date":"2011-12-18","date_precision":"day","short_description":"Public OSM mapped-event record for road; use as mapped change evidence, not a confirmed construction/opening date.","category":"transport","lens":"mobility","confidence":"inferred","source_ids":["osm-overpass"],"affected_area_label":"road","explanation":"OpenStreetMap metadata records this feature as publicly mapped near road. This is an observed mapped-change record, not a confirmed real-world opening or construction date."},"geometry":{"type":"Point","coordinates":[-5.927854,54.607928]}},{"type":"Feature","id":"osm-traffic-way-137127309","properties":{"city_id":"belfast","event_id":"osm-traffic-way-137127309","title":"Robina Street road mapped in OSM","subtitle":"Robina Street / 2011-11-15 / Inferred / OpenStreetMap / Overpass API","details":"OpenStreetMap metadata records this feature as publicly mapped near Robina Street. This is an observed mapped-change record, not a confirmed real-world opening or construction date.","year":2011,"effective_date":"2011-11-15","date_precision":"day","short_description":"Public OSM mapped-event record for road; use as mapped change evidence, not a confirmed construction/opening date.","category":"transport","lens":"mobility","confidence":"inferred","source_ids":["osm-overpass"],"affected_area_label":"Robina Street","explanation":"OpenStreetMap metadata records this feature as publicly mapped near Robina Street. This is an observed mapped-change record, not a confirmed real-world opening or construction date."},"geometry":{"type":"Point","coordinates":[-5.931439,54.615488]}},{"type":"Feature","id":"osm-traffic-way-139156359","properties":{"city_id":"belfast","event_id":"osm-traffic-way-139156359","title":"residential road mapped in OSM — road · way/139156359","subtitle":"road / 2011-11-30 / Inferred / OpenStreetMap / Overpass API","details":"OpenStreetMap metadata records this feature as publicly mapped near road. This is an observed mapped-change record, not a confirmed real-world opening or construction date.","year":2011,"effective_date":"2011-11-30","date_precision":"day","short_description":"Public OSM mapped-event record for road; use as mapped change evidence, not a confirmed construction/opening date.","category":"transport","lens":"mobility","confidence":"inferred","source_ids":["osm-overpass"],"affected_area_label":"road","explanation":"OpenStreetMap metadata records this feature as publicly mapped near road. This is an observed mapped-change record, not a confirmed real-world opening or construction date."},"geometry":{"type":"Point","coordinates":[-5.934036,54.647819]}},{"type":"Feature","id":"osm-traffic-way-19270061","properties":{"city_id":"belfast","event_id":"osm-traffic-way-19270061","title":"Avoniel Parade road mapped in OSM","subtitle":"Avoniel Parade / 2011-03-28 / Inferred / OpenStreetMap / Overpass API","details":"OpenStreetMap metadata records this feature as publicly mapped near Avoniel Parade. This is an observed mapped-change record, not a confirmed real-world opening or construction date.","year":2011,"effective_date":"2011-03-28","date_precision":"day","short_description":"Public OSM mapped-event record for road; use as mapped change evidence, not a confirmed construction/opening date.","category":"transport","lens":"mobility","confidence":"inferred","source_ids":["osm-overpass"],"affected_area_label":"Avoniel Parade","explanation":"OpenStreetMap metadata records this feature as publicly mapped near Avoniel Parade. This is an observed mapped-change record, not a confirmed real-world opening or construction date."},"geometry":{"type":"Point","coordinates":[-5.895756,54.592653]}},{"type":"Feature","id":"osm-traffic-way-38503066","properties":{"city_id":"belfast","event_id":"osm-traffic-way-38503066","title":"Killarn Close road mapped in OSM","subtitle":"Killarn Close / 2011-04-23 / Inferred / OpenStreetMap / Overpass API","details":"OpenStreetMap metadata records this feature as publicly mapped near Killarn Close. This is an observed mapped-change record, not a confirmed real-world opening or construction date.","year":2011,"effective_date":"2011-04-23","date_precision":"day","short_description":"Public OSM mapped-event record for road; use as mapped change evidence, not a confirmed construction/opening date.","category":"transport","lens":"mobility","confidence":"inferred","source_ids":["osm-overpass"],"affected_area_label":"Killarn Close","explanation":"OpenStreetMap metadata records this feature as publicly mapped near Killarn Close. This is an observed mapped-change record, not a confirmed real-world opening or construction date."},"geometry":{"type":"Point","coordinates":[-5.875863,54.578139]}},{"type":"Feature","id":"osm-traffic-way-39434984","properties":{"city_id":"belfast","event_id":"osm-traffic-way-39434984","title":"Massey Green road mapped in OSM","subtitle":"Massey Green / 2011-01-16 / Inferred / OpenStreetMap / Overpass API","details":"OpenStreetMap metadata records this feature as publicly mapped near Massey Green. This is an observed mapped-change record, not a confirmed real-world opening or construction date.","year":2011,"effective_date":"2011-01-16","date_precision":"day","short_description":"Public OSM mapped-event record for road; use as mapped change evidence, not a confirmed construction/opening date.","category":"transport","lens":"mobility","confidence":"inferred","source_ids":["osm-overpass"],"affected_area_label":"Massey Green","explanation":"OpenStreetMap metadata records this feature as publicly mapped near Massey Green. This is an observed mapped-change record, not a confirmed real-world opening or construction date."},"geometry":{"type":"Point","coordinates":[-5.849526,54.604693]}},{"type":"Feature","id":"osm-traffic-way-40551403","properties":{"city_id":"belfast","event_id":"osm-traffic-way-40551403","title":"Carnamena Gardens road mapped in OSM","subtitle":"Carnamena Gardens / 2011-04-23 / Inferred / OpenStreetMap / Overpass API","details":"OpenStreetMap metadata records this feature as publicly mapped near Carnamena Gardens. This is an observed mapped-change record, not a confirmed real-world opening or construction date.","year":2011,"effective_date":"2011-04-23","date_precision":"day","short_description":"Public OSM mapped-event record for road; use as mapped change evidence, not a confirmed construction/opening date.","category":"transport","lens":"mobility","confidence":"inferred","source_ids":["osm-overpass"],"affected_area_label":"Carnamena Gardens","explanation":"OpenStreetMap metadata records this feature as publicly mapped near Carnamena Gardens. This is an observed mapped-change record, not a confirmed real-world opening or construction date."},"geometry":{"type":"Point","coordinates":[-5.882728,54.576436]}},{"type":"Feature","id":"osm-traffic-way-40611379","properties":{"city_id":"belfast","event_id":"osm-traffic-way-40611379","title":"Ardenlee Drive road mapped in OSM","subtitle":"Ardenlee Drive / 2011-05-06 / Inferred / OpenStreetMap / Overpass API","details":"OpenStreetMap metadata records this feature as publicly mapped near Ardenlee Drive. This is an observed mapped-change record, not a confirmed real-world opening or construction date.","year":2011,"effective_date":"2011-05-06","date_precision":"day","short_description":"Public OSM mapped-event record for road; use as mapped change evidence, not a confirmed construction/opening date.","category":"transport","lens":"mobility","confidence":"inferred","source_ids":["osm-overpass"],"affected_area_label":"Ardenlee Drive","explanation":"OpenStreetMap metadata records this feature as publicly mapped near Ardenlee Drive. This is an observed mapped-change record, not a confirmed real-world opening or construction date."},"geometry":{"type":"Point","coordinates":[-5.900862,54.582516]}}]}
