{"type":"FeatureCollection","schema_version":"1.0.0","city_id":"belfast","year":2013,"map_feature_count":58,"withheld_geometry_event_count":87,"features":[{"type":"Feature","id":"belfast_offshore_wind_terminal_handover_2013","properties":{"city_id":"belfast","event_id":"belfast_offshore_wind_terminal_handover_2013","title":"Belfast Harbour offshore wind terminal handed over","subtitle":"Belfast Harbour offshore wind terminal / 2013 / Documented / Belfast Harbour offshore wind terminal news page","details":"The source documents a port and energy-infrastructure hand-over milestone at Belfast Harbour.","year":2013,"effective_date":"2013","date_precision":"year","short_description":"Belfast Harbour records hand-over of its offshore wind terminal in 2013.","category":"utilities","lens":"utilities","confidence":"documented","source_ids":["belfast_harbour_offshore_wind_terminal_2013"],"affected_area_label":"Belfast Harbour offshore wind terminal","explanation":"The source documents a port and energy-infrastructure hand-over milestone at Belfast Harbour."},"geometry":{"type":"Point","coordinates":[-5.8729,54.6173]}},{"type":"Feature","id":"bfs_arch_barnett_demesne_mountain_bike_trail_jumps_park_opening_2013","properties":{"city_id":"belfast","event_id":"bfs_arch_barnett_demesne_mountain_bike_trail_jumps_park_opening_2013","title":"Barnett Demesne Mountain Bike Trail and Jumps Park officially opened","subtitle":"Barnett Demesne / Malone / 2013-04-26 / Documented / Parks and Leisure Committee public reports pack, 8 August 2013","details":"Public source material documents this event near Barnett Demesne / Malone. Related local changes should be treated as associated context, not causal claims.","year":2013,"effective_date":"2013-04-26","date_precision":"day","short_description":"A Belfast City Council Parks and Leisure Committee report recorded that Barnett Demesne Mountain Bike Trail and Jumps Park was officially opened on 26 April 2013 after an investment of about GBP 475,000.","category":"built_environment","lens":"built_environment","confidence":"documented","source_ids":["belfast-architecture-public-pages"],"affected_area_label":"Barnett Demesne / Malone","explanation":"Public source material documents this event near Barnett Demesne / Malone. Related local changes should be treated as associated context, not causal claims."},"geometry":{"type":"Point","coordinates":[-5.9638,54.5445]}},{"type":"Feature","id":"bfs_arch_belfast_harni_spatial_26_16_001_date_added_2013_09_23","properties":{"city_id":"belfast","event_id":"bfs_arch_belfast_harni_spatial_26_16_001_date_added_2013_09_23","title":"HARNI spatial layer recorded Heritage at Risk status for Wilmont House","subtitle":"Wilmont House / 2013-09-23 / Documented / Heritage at Risk in Northern Ireland Belfast ArcGIS spatial layer","details":"Public source material documents this event near Wilmont House. Related local changes should be treated as associated context, not causal claims.","year":2013,"effective_date":"2013-09-23","date_precision":"day","short_description":"The Department for Communities HED Heritage at Risk spatial layer records Wilmont House in Belfast with category 'Heritage at Risk', Date_Added 23/09/2013, BHARNI reference 26/16/001, HB reference HB26/16/005 A, and...","category":"built_environment","lens":"built_environment","confidence":"documented","source_ids":["dfc-harni-belfast"],"affected_area_label":"Wilmont House","explanation":"Public source material documents this event near Wilmont House. Related local changes should be treated as associated context, not causal claims."},"geometry":{"type":"Point","coordinates":[-5.982686,54.53994]}},{"type":"Feature","id":"bfs_arch_belfast_harni_spatial_26_50_024_date_added_2013_03_04","properties":{"city_id":"belfast","event_id":"bfs_arch_belfast_harni_spatial_26_50_024_date_added_2013_03_04","title":"HARNI spatial layer recorded Heritage at Risk status for TGWU/ Transport House, High Street/ Victoria Street, Belfast","subtitle":"TGWU/ Transport House, High Street/ Victoria Street, Belfast / 2013-03-04 / Documented / Heritage at Risk in Northern Ireland Belfast ArcGIS spatial layer","details":"Public source material documents this event near TGWU/ Transport House, High Street/ Victoria Street, Belfast. Related local changes should be treated as associated context, not causal claims.","year":2013,"effective_date":"2013-03-04","date_precision":"day","short_description":"The Department for Communities HED Heritage at Risk spatial layer records TGWU/ Transport House, High Street/ Victoria Street, Belfast in Belfast with category 'Heritage at Risk', Date_Added 2013/03/04, BHARNI...","category":"built_environment","lens":"built_environment","confidence":"documented","source_ids":["dfc-harni-belfast"],"affected_area_label":"TGWU/ Transport House, High Street/ Victoria Street, Belfast","explanation":"Public source material documents this event near TGWU/ Transport House, High Street/ Victoria Street, Belfast. Related local changes should be treated as associated context, not causal claims."},"geometry":{"type":"Point","coordinates":[-5.924934,54.601007]}},{"type":"Feature","id":"bfs_arch_dunville_park_refurbishment_reopening_2013","properties":{"city_id":"belfast","event_id":"bfs_arch_dunville_park_refurbishment_reopening_2013","title":"Dunville Park officially reopened after refurbishment","subtitle":"Falls Road / West Belfast / 2013-08-13 / Documented / Belfast Media","details":"Public source material documents this event near Falls Road / West Belfast. Related local changes should be treated as associated context, not causal claims.","year":2013,"effective_date":"2013-08-13","date_precision":"day","short_description":"Belfast Media reported Belfast's Lord Mayor officially opening Dunville Park after a GBP2 million renovation in August 2013.","category":"built_environment","lens":"built_environment","confidence":"documented","source_ids":["belfast-architecture-public-pages"],"affected_area_label":"Falls Road / West Belfast","explanation":"Public source material documents this event near Falls Road / West Belfast. Related local changes should be treated as associated context, not causal claims."},"geometry":{"type":"Point","coordinates":[-5.9574,54.5956]}},{"type":"Feature","id":"bfs_arch_hammer_complex_3g_pitch_developed_2013","properties":{"city_id":"belfast","event_id":"bfs_arch_hammer_complex_3g_pitch_developed_2013","title":"Hammer Complex 3G pitch was developed","subtitle":"Shankill / Hammer / 2013-11-22 / Documented / Investment Programme Half Year Update","details":"Public source material documents this event near Shankill / Hammer. Related local changes should be treated as associated context, not causal claims.","year":2013,"effective_date":"2013-11-22","date_precision":"day","short_description":"A Belfast City Council investment update recorded completion progress including a GBP 470,000 new pitch at the Hammer Complex developed in partnership with SportNI.","category":"built_environment","lens":"built_environment","confidence":"documented","source_ids":["belfast-architecture-public-pages"],"affected_area_label":"Shankill / Hammer","explanation":"Public source material documents this event near Shankill / Hammer. Related local changes should be treated as associated context, not causal claims."},"geometry":{"type":"Point","coordinates":[-5.9495,54.6067]}},{"type":"Feature","id":"bfs_arch_john_luke_bridge_clement_wilson_park_opening_2013","properties":{"city_id":"belfast","event_id":"bfs_arch_john_luke_bridge_clement_wilson_park_opening_2013","title":"John Luke Bridge opened in Clement Wilson Park","subtitle":"Clement Wilson Park / Newforge / 2013-11-15 / Documented / Investment Programme Half Year Update","details":"Public source material documents this event near Clement Wilson Park / Newforge. Related local changes should be treated as associated context, not causal claims.","year":2013,"effective_date":"2013-11-15","date_precision":"day","short_description":"A Belfast City Council investment update recorded that the GBP 200,000 John Luke Bridge in Clement Wilson Park was officially opened on 15 November 2013.","category":"built_environment","lens":"built_environment","confidence":"documented","source_ids":["belfast-architecture-public-pages"],"affected_area_label":"Clement Wilson Park / Newforge","explanation":"Public source material documents this event near Clement Wilson Park / Newforge. Related local changes should be treated as associated context, not causal claims."},"geometry":{"type":"Point","coordinates":[-5.9449,54.5546]}},{"type":"Feature","id":"bfs_arch_mary_peters_track_reopening_2013","properties":{"city_id":"belfast","event_id":"bfs_arch_mary_peters_track_reopening_2013","title":"Mary Peters Track reopened after refurbishment","subtitle":"Malone / South Belfast / 2013-03-28 / Documented / 4ni","details":"Public source material documents this event near Malone / South Belfast. Related local changes should be treated as associated context, not causal claims.","year":2013,"effective_date":"2013-03-28","date_precision":"day","short_description":"4ni reported on 28 March 2013 that the Mary Peters Track reopened after a GBP 3m refurbishment including a new eight-lane track, field-event upgrades, and spectator stand.","category":"built_environment","lens":"built_environment","confidence":"documented","source_ids":["belfast-architecture-public-pages"],"affected_area_label":"Malone / South Belfast","explanation":"Public source material documents this event near Malone / South Belfast. Related local changes should be treated as associated context, not causal claims."},"geometry":{"type":"Point","coordinates":[-5.9594,54.5587]}},{"type":"Feature","id":"bfs_arch_molecular_pathology_laboratory_opening_2013","properties":{"city_id":"belfast","event_id":"bfs_arch_molecular_pathology_laboratory_opening_2013","title":"Molecular Pathology Laboratory officially opened at Queen's","subtitle":"Queen's University / Belfast City Hospital / 2013-01-09 / Documented / Queen's University Belfast Pure research repository","details":"Public source material documents this event near Queen's University / Belfast City Hospital. Related local changes should be treated as associated context, not causal claims.","year":2013,"effective_date":"2013-01-09","date_precision":"day","short_description":"Queen's University Belfast's research repository records the official opening of the Molecular Pathology Laboratory at the Centre for Cancer Research and Cell Biology on 9 January 2013.","category":"built_environment","lens":"built_environment","confidence":"documented","source_ids":["belfast-architecture-public-pages"],"affected_area_label":"Queen's University / Belfast City Hospital","explanation":"Public source material documents this event near Queen's University / Belfast City Hospital. Related local changes should be treated as associated context, not causal claims."},"geometry":{"type":"Point","coordinates":[-5.9412,54.5838]}},{"type":"Feature","id":"bfs_arch_nicrf_established_belfast_city_hospital_2013","properties":{"city_id":"belfast","event_id":"bfs_arch_nicrf_established_belfast_city_hospital_2013","title":"Northern Ireland Clinical Research Facility established at Belfast City Hospital","subtitle":"Belfast City Hospital / Lisburn Road / 2013 / Documented / Queen's University Belfast: Wellcome Trust-Wolfson Northern Ireland Clinical Research Facility","details":"Public source material documents this event near Belfast City Hospital / Lisburn Road. Related local changes should be treated as associated context, not causal claims.","year":2013,"effective_date":"2013","date_precision":"year","short_description":"Queen's University Belfast records that the Wellcome Trust-Wolfson Northern Ireland Clinical Research Facility was established in 2013 and is located on U Floor at Belfast City Hospital.","category":"built_environment","lens":"built_environment","confidence":"documented","source_ids":["belfast-architecture-public-pages"],"affected_area_label":"Belfast City Hospital / Lisburn Road","explanation":"Public source material documents this event near Belfast City Hospital / Lisburn Road. Related local changes should be treated as associated context, not causal claims."},"geometry":{"type":"Point","coordinates":[-5.9408,54.5863]}},{"type":"Feature","id":"bfs_arch_round177_belfast_duncrue_fuel_station_reported_2013","properties":{"city_id":"belfast","event_id":"bfs_arch_round177_belfast_duncrue_fuel_station_reported_2013","title":"Duncrue council fuel station was reported as a new facility","subtitle":"Duncrue, Belfast / 2013-11-22 / Documented / Belfast City Council Democratic Services minutes","details":"Public source material documents this event near Duncrue, Belfast. Related local changes should be treated as associated context, not causal claims.","year":2013,"effective_date":"2013-11-22","date_precision":"day","short_description":"Belfast City Council's Investment Programme half-year update records a new fuel station at Duncrue for Council vehicles among recent physical projects.","category":"built_environment","lens":"built_environment","confidence":"documented","source_ids":["bcc-democratic-services-minutes-round177"],"affected_area_label":"Duncrue, Belfast","explanation":"Public source material documents this event near Duncrue, Belfast. Related local changes should be treated as associated context, not causal claims."},"geometry":{"type":"Point","coordinates":[-5.9239,54.6227]}},{"type":"Feature","id":"bfs_arch_round177_belfast_finlay_park_community_garden_opened_2013","properties":{"city_id":"belfast","event_id":"bfs_arch_round177_belfast_finlay_park_community_garden_opened_2013","title":"Finlay Park community garden opening was reported","subtitle":"Finlay Park, Belfast / 2013-11-22 / Documented / Belfast City Council Democratic Services minutes","details":"Public source material documents this event near Finlay Park, Belfast. Related local changes should be treated as associated context, not causal claims.","year":2013,"effective_date":"2013-11-22","date_precision":"day","short_description":"Belfast City Council's Investment Programme half-year update records that three community gardens had opened across the city, including Finlay Park.","category":"built_environment","lens":"built_environment","confidence":"documented","source_ids":["bcc-democratic-services-minutes-round177"],"affected_area_label":"Finlay Park, Belfast","explanation":"Public source material documents this event near Finlay Park, Belfast. Related local changes should be treated as associated context, not causal claims."},"geometry":{"type":"Point","coordinates":[-5.99,54.582]}},{"type":"Feature","id":"bfs_arch_round177_belfast_knocknagoney_linear_park_community_garden_opened_2013","properties":{"city_id":"belfast","event_id":"bfs_arch_round177_belfast_knocknagoney_linear_park_community_garden_opened_2013","title":"Knocknagoney Linear Park community garden opening was reported","subtitle":"Knocknagoney Linear Park, Belfast / 2013-11-22 / Documented / Belfast City Council Democratic Services minutes","details":"Public source material documents this event near Knocknagoney Linear Park, Belfast. Related local changes should be treated as associated context, not causal claims.","year":2013,"effective_date":"2013-11-22","date_precision":"day","short_description":"Belfast City Council's Investment Programme half-year update records that three community gardens had opened across the city, including Knocknagoney Linear Park.","category":"built_environment","lens":"built_environment","confidence":"documented","source_ids":["bcc-democratic-services-minutes-round177"],"affected_area_label":"Knocknagoney Linear Park, Belfast","explanation":"Public source material documents this event near Knocknagoney Linear Park, Belfast. Related local changes should be treated as associated context, not causal claims."},"geometry":{"type":"Point","coordinates":[-5.8179,54.6012]}},{"type":"Feature","id":"bfs_arch_round177_belfast_whiterock_community_garden_opened_2013","properties":{"city_id":"belfast","event_id":"bfs_arch_round177_belfast_whiterock_community_garden_opened_2013","title":"Whiterock community garden opening was reported","subtitle":"Whiterock, Belfast / 2013-11-22 / Documented / Belfast City Council Democratic Services minutes","details":"Public source material documents this event near Whiterock, Belfast. Related local changes should be treated as associated context, not causal claims.","year":2013,"effective_date":"2013-11-22","date_precision":"day","short_description":"Belfast City Council's Investment Programme half-year update records that three community gardens had opened across the city, including Whiterock.","category":"built_environment","lens":"built_environment","confidence":"documented","source_ids":["bcc-democratic-services-minutes-round177"],"affected_area_label":"Whiterock, Belfast","explanation":"Public source material documents this event near Whiterock, Belfast. Related local changes should be treated as associated context, not causal claims."},"geometry":{"type":"Point","coordinates":[-5.9796,54.5867]}},{"type":"Feature","id":"bfs_arch_round201_belfast_final_deep_tail_dfc_public_realm_masterplan_update_published_2013","properties":{"city_id":"belfast","event_id":"bfs_arch_round201_belfast_final_deep_tail_dfc_public_realm_masterplan_update_published_2013","title":"Belfast city centre public realm masterplan update was published","subtitle":"Belfast city centre / 2013-10-24 / Documented / DfC Belfast urban regeneration plans and frameworks","details":"Public source material documents this event near Belfast city centre. Related local changes should be treated as associated context, not causal claims.","year":2013,"effective_date":"2013-10-24","date_precision":"day","short_description":"The Department for Communities publication page records the Belfast city centre public realm masterplan report and update as published on 24 October 2013.","category":"built_environment","lens":"built_environment","confidence":"documented","source_ids":["dfc-belfast-urban-regeneration-frameworks-round201"],"affected_area_label":"Belfast city centre","explanation":"Public source material documents this event near Belfast city centre. Related local changes should be treated as associated context, not causal claims."},"geometry":{"type":"Point","coordinates":[-5.93018,54.59639]}},{"type":"Feature","id":"bfs_arch_ss_nomadic_official_opening_2013","properties":{"city_id":"belfast","event_id":"bfs_arch_ss_nomadic_official_opening_2013","title":"SS Nomadic officially opened after restoration","subtitle":"Titanic Quarter / 2013-05-31 / Documented / Nomadic Preservation Society","details":"Public source material documents this event near Titanic Quarter. Related local changes should be treated as associated context, not causal claims.","year":2013,"effective_date":"2013-05-31","date_precision":"day","short_description":"Nomadic Preservation Society records the official opening of SS Nomadic on 31 May 2013 after a six-year restoration.","category":"built_environment","lens":"built_environment","confidence":"documented","source_ids":["belfast-architecture-public-pages"],"affected_area_label":"Titanic Quarter","explanation":"Public source material documents this event near Titanic Quarter. Related local changes should be treated as associated context, not causal claims."},"geometry":{"type":"Point","coordinates":[-5.9079,54.6077]}},{"type":"Feature","id":"bfs_arch_visit_belfast_welcome_centre_opening_2013","properties":{"city_id":"belfast","event_id":"bfs_arch_visit_belfast_welcome_centre_opening_2013","title":"Visit Belfast Welcome Centre opened on Donegall Square North","subtitle":"Donegall Square North / City Centre / 2013-12-12 / Documented / Visit Belfast","details":"Public source material documents this event near Donegall Square North / City Centre. Related local changes should be treated as associated context, not causal claims.","year":2013,"effective_date":"2013-12-12","date_precision":"day","short_description":"Visit Belfast recorded the official opening of its new Welcome Centre premises on 12 December 2013.","category":"built_environment","lens":"built_environment","confidence":"documented","source_ids":["belfast-architecture-public-pages"],"affected_area_label":"Donegall Square North / City Centre","explanation":"Public source material documents this event near Donegall Square North / City Centre. Related local changes should be treated as associated context, not causal claims."},"geometry":{"type":"Point","coordinates":[-5.9306,54.5971]}},{"type":"Feature","id":"bfs_arch_woodvale_park_refurbishment_reopening_2013","properties":{"city_id":"belfast","event_id":"bfs_arch_woodvale_park_refurbishment_reopening_2013","title":"Woodvale Park reopened after refurbishment","subtitle":"Woodvale / Shankill / 2013-08-06 / Documented / Belfast Media","details":"Public source material documents this event near Woodvale / Shankill. Related local changes should be treated as associated context, not causal claims.","year":2013,"effective_date":"2013-08-06","date_precision":"day","short_description":"Contemporary Belfast reporting records Woodvale Park's reopening after a GBP 2 million refurbishment in August 2013.","category":"built_environment","lens":"built_environment","confidence":"documented","source_ids":["belfast-architecture-public-pages"],"affected_area_label":"Woodvale / Shankill","explanation":"Public source material documents this event near Woodvale / Shankill. Related local changes should be treated as associated context, not causal claims."},"geometry":{"type":"Point","coordinates":[-5.9626,54.6076]}},{"type":"Feature","id":"osm-traffic-way-136682423","properties":{"city_id":"belfast","event_id":"osm-traffic-way-136682423","title":"Duncrue Pass road mapped in OSM","subtitle":"Duncrue Pass / 2013-06-18 / Inferred / OpenStreetMap / Overpass API","details":"OpenStreetMap metadata records this feature as publicly mapped near Duncrue Pass. This is an observed mapped-change record, not a confirmed real-world opening or construction date.","year":2013,"effective_date":"2013-06-18","date_precision":"day","short_description":"Public OSM mapped-event record for road; use as mapped change evidence, not a confirmed construction/opening date.","category":"transport","lens":"mobility","confidence":"inferred","source_ids":["osm-overpass"],"affected_area_label":"Duncrue Pass","explanation":"OpenStreetMap metadata records this feature as publicly mapped near Duncrue Pass. This is an observed mapped-change record, not a confirmed real-world opening or construction date."},"geometry":{"type":"Point","coordinates":[-5.916923,54.623562]}},{"type":"Feature","id":"osm-traffic-way-137133379","properties":{"city_id":"belfast","event_id":"osm-traffic-way-137133379","title":"Oakwood Court road mapped in OSM","subtitle":"Oakwood Court / 2013-04-17 / Inferred / OpenStreetMap / Overpass API","details":"OpenStreetMap metadata records this feature as publicly mapped near Oakwood Court. This is an observed mapped-change record, not a confirmed real-world opening or construction date.","year":2013,"effective_date":"2013-04-17","date_precision":"day","short_description":"Public OSM mapped-event record for road; use as mapped change evidence, not a confirmed construction/opening date.","category":"transport","lens":"mobility","confidence":"inferred","source_ids":["osm-overpass"],"affected_area_label":"Oakwood Court","explanation":"OpenStreetMap metadata records this feature as publicly mapped near Oakwood Court. This is an observed mapped-change record, not a confirmed real-world opening or construction date."},"geometry":{"type":"Point","coordinates":[-5.955102,54.562393]}},{"type":"Feature","id":"osm-traffic-way-137133389","properties":{"city_id":"belfast","event_id":"osm-traffic-way-137133389","title":"Oakwood Grove road mapped in OSM","subtitle":"Oakwood Grove / 2013-04-17 / Inferred / OpenStreetMap / Overpass API","details":"OpenStreetMap metadata records this feature as publicly mapped near Oakwood Grove. This is an observed mapped-change record, not a confirmed real-world opening or construction date.","year":2013,"effective_date":"2013-04-17","date_precision":"day","short_description":"Public OSM mapped-event record for road; use as mapped change evidence, not a confirmed construction/opening date.","category":"transport","lens":"mobility","confidence":"inferred","source_ids":["osm-overpass"],"affected_area_label":"Oakwood Grove","explanation":"OpenStreetMap metadata records this feature as publicly mapped near Oakwood Grove. This is an observed mapped-change record, not a confirmed real-world opening or construction date."},"geometry":{"type":"Point","coordinates":[-5.955715,54.562911]}},{"type":"Feature","id":"osm-traffic-way-15090141","properties":{"city_id":"belfast","event_id":"osm-traffic-way-15090141","title":"Viewfort Park road mapped in OSM — Viewfort Park","subtitle":"Viewfort Park / 2013-09-14 / Inferred / OpenStreetMap / Overpass API","details":"OpenStreetMap metadata records this feature as publicly mapped near Viewfort Park. This is an observed mapped-change record, not a confirmed real-world opening or construction date.","year":2013,"effective_date":"2013-09-14","date_precision":"day","short_description":"Public OSM mapped-event record for road; use as mapped change evidence, not a confirmed construction/opening date.","category":"transport","lens":"mobility","confidence":"inferred","source_ids":["osm-overpass"],"affected_area_label":"Viewfort Park","explanation":"OpenStreetMap metadata records this feature as publicly mapped near Viewfort Park. This is an observed mapped-change record, not a confirmed real-world opening or construction date."},"geometry":{"type":"Point","coordinates":[-5.978293,54.547873]}},{"type":"Feature","id":"osm-traffic-way-15090143","properties":{"city_id":"belfast","event_id":"osm-traffic-way-15090143","title":"Viewfort Park road mapped in OSM — Viewfort Park · way/15090143","subtitle":"Viewfort Park / 2013-09-14 / Inferred / OpenStreetMap / Overpass API","details":"OpenStreetMap metadata records this feature as publicly mapped near Viewfort Park. This is an observed mapped-change record, not a confirmed real-world opening or construction date.","year":2013,"effective_date":"2013-09-14","date_precision":"day","short_description":"Public OSM mapped-event record for road; use as mapped change evidence, not a confirmed construction/opening date.","category":"transport","lens":"mobility","confidence":"inferred","source_ids":["osm-overpass"],"affected_area_label":"Viewfort Park","explanation":"OpenStreetMap metadata records this feature as publicly mapped near Viewfort Park. This is an observed mapped-change record, not a confirmed real-world opening or construction date."},"geometry":{"type":"Point","coordinates":[-5.977842,54.54844]}},{"type":"Feature","id":"osm-traffic-way-152220427","properties":{"city_id":"belfast","event_id":"osm-traffic-way-152220427","title":"Fingal Street road mapped in OSM","subtitle":"Fingal Street / 2013-10-23 / Inferred / OpenStreetMap / Overpass API","details":"OpenStreetMap metadata records this feature as publicly mapped near Fingal Street. This is an observed mapped-change record, not a confirmed real-world opening or construction date.","year":2013,"effective_date":"2013-10-23","date_precision":"day","short_description":"Public OSM mapped-event record for road; use as mapped change evidence, not a confirmed construction/opening date.","category":"transport","lens":"mobility","confidence":"inferred","source_ids":["osm-overpass"],"affected_area_label":"Fingal Street","explanation":"OpenStreetMap metadata records this feature as publicly mapped near Fingal Street. This is an observed mapped-change record, not a confirmed real-world opening or construction date."},"geometry":{"type":"Point","coordinates":[-5.9615,54.609529]}},{"type":"Feature","id":"osm-traffic-way-152222880","properties":{"city_id":"belfast","event_id":"osm-traffic-way-152222880","title":"Bootle Street road mapped in OSM","subtitle":"Bootle Street / 2013-10-23 / Inferred / OpenStreetMap / Overpass API","details":"OpenStreetMap metadata records this feature as publicly mapped near Bootle Street. This is an observed mapped-change record, not a confirmed real-world opening or construction date.","year":2013,"effective_date":"2013-10-23","date_precision":"day","short_description":"Public OSM mapped-event record for road; use as mapped change evidence, not a confirmed construction/opening date.","category":"transport","lens":"mobility","confidence":"inferred","source_ids":["osm-overpass"],"affected_area_label":"Bootle Street","explanation":"OpenStreetMap metadata records this feature as publicly mapped near Bootle Street. This is an observed mapped-change record, not a confirmed real-world opening or construction date."},"geometry":{"type":"Point","coordinates":[-5.955656,54.606975]}},{"type":"Feature","id":"osm-traffic-way-152416694","properties":{"city_id":"belfast","event_id":"osm-traffic-way-152416694","title":"Glenburn Manor road mapped in OSM — Glenburn Manor","subtitle":"Glenburn Manor / 2013-08-02 / Inferred / OpenStreetMap / Overpass API","details":"OpenStreetMap metadata records this feature as publicly mapped near Glenburn Manor. This is an observed mapped-change record, not a confirmed real-world opening or construction date.","year":2013,"effective_date":"2013-08-02","date_precision":"day","short_description":"Public OSM mapped-event record for road; use as mapped change evidence, not a confirmed construction/opening date.","category":"transport","lens":"mobility","confidence":"inferred","source_ids":["osm-overpass"],"affected_area_label":"Glenburn Manor","explanation":"OpenStreetMap metadata records this feature as publicly mapped near Glenburn Manor. This is an observed mapped-change record, not a confirmed real-world opening or construction date."},"geometry":{"type":"Point","coordinates":[-5.999363,54.548406]}},{"type":"Feature","id":"osm-traffic-way-152416708","properties":{"city_id":"belfast","event_id":"osm-traffic-way-152416708","title":"Glenburn Manor road mapped in OSM — Glenburn Manor · way/152416708","subtitle":"Glenburn Manor / 2013-08-02 / Inferred / OpenStreetMap / Overpass API","details":"OpenStreetMap metadata records this feature as publicly mapped near Glenburn Manor. This is an observed mapped-change record, not a confirmed real-world opening or construction date.","year":2013,"effective_date":"2013-08-02","date_precision":"day","short_description":"Public OSM mapped-event record for road; use as mapped change evidence, not a confirmed construction/opening date.","category":"transport","lens":"mobility","confidence":"inferred","source_ids":["osm-overpass"],"affected_area_label":"Glenburn Manor","explanation":"OpenStreetMap metadata records this feature as publicly mapped near Glenburn Manor. This is an observed mapped-change record, not a confirmed real-world opening or construction date."},"geometry":{"type":"Point","coordinates":[-5.999962,54.548507]}},{"type":"Feature","id":"osm-traffic-way-17276263","properties":{"city_id":"belfast","event_id":"osm-traffic-way-17276263","title":"Thornhill Parade road mapped in OSM — Thornhill Parade","subtitle":"Thornhill Parade / 2013-05-12 / Inferred / OpenStreetMap / Overpass API","details":"OpenStreetMap metadata records this feature as publicly mapped near Thornhill Parade. This is an observed mapped-change record, not a confirmed real-world opening or construction date.","year":2013,"effective_date":"2013-05-12","date_precision":"day","short_description":"Public OSM mapped-event record for road; use as mapped change evidence, not a confirmed construction/opening date.","category":"transport","lens":"mobility","confidence":"inferred","source_ids":["osm-overpass"],"affected_area_label":"Thornhill Parade","explanation":"OpenStreetMap metadata records this feature as publicly mapped near Thornhill Parade. This is an observed mapped-change record, not a confirmed real-world opening or construction date."},"geometry":{"type":"Point","coordinates":[-5.848102,54.592025]}},{"type":"Feature","id":"osm-traffic-way-18610163","properties":{"city_id":"belfast","event_id":"osm-traffic-way-18610163","title":"Rosepark South road mapped in OSM","subtitle":"Rosepark South / 2013-05-10 / Inferred / OpenStreetMap / Overpass API","details":"OpenStreetMap metadata records this feature as publicly mapped near Rosepark South. This is an observed mapped-change record, not a confirmed real-world opening or construction date.","year":2013,"effective_date":"2013-05-10","date_precision":"day","short_description":"Public OSM mapped-event record for road; use as mapped change evidence, not a confirmed construction/opening date.","category":"transport","lens":"mobility","confidence":"inferred","source_ids":["osm-overpass"],"affected_area_label":"Rosepark South","explanation":"OpenStreetMap metadata records this feature as publicly mapped near Rosepark South. This is an observed mapped-change record, not a confirmed real-world opening or construction date."},"geometry":{"type":"Point","coordinates":[-5.830053,54.593337]}},{"type":"Feature","id":"osm-traffic-way-18610199","properties":{"city_id":"belfast","event_id":"osm-traffic-way-18610199","title":"Rosepark Central road mapped in OSM","subtitle":"Rosepark Central / 2013-05-10 / Inferred / OpenStreetMap / Overpass API","details":"OpenStreetMap metadata records this feature as publicly mapped near Rosepark Central. This is an observed mapped-change record, not a confirmed real-world opening or construction date.","year":2013,"effective_date":"2013-05-10","date_precision":"day","short_description":"Public OSM mapped-event record for road; use as mapped change evidence, not a confirmed construction/opening date.","category":"transport","lens":"mobility","confidence":"inferred","source_ids":["osm-overpass"],"affected_area_label":"Rosepark Central","explanation":"OpenStreetMap metadata records this feature as publicly mapped near Rosepark Central. This is an observed mapped-change record, not a confirmed real-world opening or construction date."},"geometry":{"type":"Point","coordinates":[-5.82901,54.592719]}},{"type":"Feature","id":"osm-traffic-way-18857285","properties":{"city_id":"belfast","event_id":"osm-traffic-way-18857285","title":"Kingsway Gardens road mapped in OSM","subtitle":"Kingsway Gardens / 2013-05-13 / Inferred / OpenStreetMap / Overpass API","details":"OpenStreetMap metadata records this feature as publicly mapped near Kingsway Gardens. This is an observed mapped-change record, not a confirmed real-world opening or construction date.","year":2013,"effective_date":"2013-05-13","date_precision":"day","short_description":"Public OSM mapped-event record for road; use as mapped change evidence, not a confirmed construction/opening date.","category":"transport","lens":"mobility","confidence":"inferred","source_ids":["osm-overpass"],"affected_area_label":"Kingsway Gardens","explanation":"OpenStreetMap metadata records this feature as publicly mapped near Kingsway Gardens. This is an observed mapped-change record, not a confirmed real-world opening or construction date."},"geometry":{"type":"Point","coordinates":[-5.84383,54.58651]}},{"type":"Feature","id":"osm-traffic-way-208864863","properties":{"city_id":"belfast","event_id":"osm-traffic-way-208864863","title":"pedestrian road mapped in OSM — road","subtitle":"road / 2013-03-08 / Inferred / OpenStreetMap / Overpass API","details":"OpenStreetMap metadata records this feature as publicly mapped near road. This is an observed mapped-change record, not a confirmed real-world opening or construction date.","year":2013,"effective_date":"2013-03-08","date_precision":"day","short_description":"Public OSM mapped-event record for road; use as mapped change evidence, not a confirmed construction/opening date.","category":"transport","lens":"mobility","confidence":"inferred","source_ids":["osm-overpass"],"affected_area_label":"road","explanation":"OpenStreetMap metadata records this feature as publicly mapped near road. This is an observed mapped-change record, not a confirmed real-world opening or construction date."},"geometry":{"type":"Point","coordinates":[-5.915861,54.603371]}},{"type":"Feature","id":"osm-traffic-way-221138349","properties":{"city_id":"belfast","event_id":"osm-traffic-way-221138349","title":"Barnett's Court road mapped in OSM — Barnett's Court","subtitle":"Barnett's Court / 2013-05-12 / Inferred / OpenStreetMap / Overpass API","details":"OpenStreetMap metadata records this feature as publicly mapped near Barnett's Court. This is an observed mapped-change record, not a confirmed real-world opening or construction date.","year":2013,"effective_date":"2013-05-12","date_precision":"day","short_description":"Public OSM mapped-event record for road; use as mapped change evidence, not a confirmed construction/opening date.","category":"transport","lens":"mobility","confidence":"inferred","source_ids":["osm-overpass"],"affected_area_label":"Barnett's Court","explanation":"OpenStreetMap metadata records this feature as publicly mapped near Barnett's Court. This is an observed mapped-change record, not a confirmed real-world opening or construction date."},"geometry":{"type":"Point","coordinates":[-5.841993,54.592183]}},{"type":"Feature","id":"osm-traffic-way-221138355","properties":{"city_id":"belfast","event_id":"osm-traffic-way-221138355","title":"residential road mapped in OSM — road · way/221138355","subtitle":"road / 2013-05-12 / Inferred / OpenStreetMap / Overpass API","details":"OpenStreetMap metadata records this feature as publicly mapped near road. This is an observed mapped-change record, not a confirmed real-world opening or construction date.","year":2013,"effective_date":"2013-05-12","date_precision":"day","short_description":"Public OSM mapped-event record for road; use as mapped change evidence, not a confirmed construction/opening date.","category":"transport","lens":"mobility","confidence":"inferred","source_ids":["osm-overpass"],"affected_area_label":"road","explanation":"OpenStreetMap metadata records this feature as publicly mapped near road. This is an observed mapped-change record, not a confirmed real-world opening or construction date."},"geometry":{"type":"Point","coordinates":[-5.843136,54.591436]}},{"type":"Feature","id":"osm-traffic-way-221138356","properties":{"city_id":"belfast","event_id":"osm-traffic-way-221138356","title":"residential road mapped in OSM — road · way/221138356","subtitle":"road / 2013-05-12 / Inferred / OpenStreetMap / Overpass API","details":"OpenStreetMap metadata records this feature as publicly mapped near road. This is an observed mapped-change record, not a confirmed real-world opening or construction date.","year":2013,"effective_date":"2013-05-12","date_precision":"day","short_description":"Public OSM mapped-event record for road; use as mapped change evidence, not a confirmed construction/opening date.","category":"transport","lens":"mobility","confidence":"inferred","source_ids":["osm-overpass"],"affected_area_label":"road","explanation":"OpenStreetMap metadata records this feature as publicly mapped near road. This is an observed mapped-change record, not a confirmed real-world opening or construction date."},"geometry":{"type":"Point","coordinates":[-5.825047,54.591584]}},{"type":"Feature","id":"osm-traffic-way-221141194","properties":{"city_id":"belfast","event_id":"osm-traffic-way-221141194","title":"Lochinver Drive road mapped in OSM","subtitle":"Lochinver Drive / 2013-05-13 / Inferred / OpenStreetMap / Overpass API","details":"OpenStreetMap metadata records this feature as publicly mapped near Lochinver Drive. This is an observed mapped-change record, not a confirmed real-world opening or construction date.","year":2013,"effective_date":"2013-05-13","date_precision":"day","short_description":"Public OSM mapped-event record for road; use as mapped change evidence, not a confirmed construction/opening date.","category":"transport","lens":"mobility","confidence":"inferred","source_ids":["osm-overpass"],"affected_area_label":"Lochinver Drive","explanation":"OpenStreetMap metadata records this feature as publicly mapped near Lochinver Drive. This is an observed mapped-change record, not a confirmed real-world opening or construction date."},"geometry":{"type":"Point","coordinates":[-5.833123,54.585155]}},{"type":"Feature","id":"osm-traffic-way-221141208","properties":{"city_id":"belfast","event_id":"osm-traffic-way-221141208","title":"residential road mapped in OSM — road · way/221141208","subtitle":"road / 2013-05-13 / Inferred / OpenStreetMap / Overpass API","details":"OpenStreetMap metadata records this feature as publicly mapped near road. This is an observed mapped-change record, not a confirmed real-world opening or construction date.","year":2013,"effective_date":"2013-05-13","date_precision":"day","short_description":"Public OSM mapped-event record for road; use as mapped change evidence, not a confirmed construction/opening date.","category":"transport","lens":"mobility","confidence":"inferred","source_ids":["osm-overpass"],"affected_area_label":"road","explanation":"OpenStreetMap metadata records this feature as publicly mapped near road. This is an observed mapped-change record, not a confirmed real-world opening or construction date."},"geometry":{"type":"Point","coordinates":[-5.825068,54.586039]}},{"type":"Feature","id":"osm-traffic-way-222664312","properties":{"city_id":"belfast","event_id":"osm-traffic-way-222664312","title":"residential road mapped in OSM — road · way/222664312","subtitle":"road / 2013-05-22 / Inferred / OpenStreetMap / Overpass API","details":"OpenStreetMap metadata records this feature as publicly mapped near road. This is an observed mapped-change record, not a confirmed real-world opening or construction date.","year":2013,"effective_date":"2013-05-22","date_precision":"day","short_description":"Public OSM mapped-event record for road; use as mapped change evidence, not a confirmed construction/opening date.","category":"transport","lens":"mobility","confidence":"inferred","source_ids":["osm-overpass"],"affected_area_label":"road","explanation":"OpenStreetMap metadata records this feature as publicly mapped near road. This is an observed mapped-change record, not a confirmed real-world opening or construction date."},"geometry":{"type":"Point","coordinates":[-5.92007,54.594934]}},{"type":"Feature","id":"osm-traffic-way-222746720","properties":{"city_id":"belfast","event_id":"osm-traffic-way-222746720","title":"residential road mapped in OSM — road · way/222746720","subtitle":"road / 2013-05-23 / Inferred / OpenStreetMap / Overpass API","details":"OpenStreetMap metadata records this feature as publicly mapped near road. This is an observed mapped-change record, not a confirmed real-world opening or construction date.","year":2013,"effective_date":"2013-05-23","date_precision":"day","short_description":"Public OSM mapped-event record for road; use as mapped change evidence, not a confirmed construction/opening date.","category":"transport","lens":"mobility","confidence":"inferred","source_ids":["osm-overpass"],"affected_area_label":"road","explanation":"OpenStreetMap metadata records this feature as publicly mapped near road. This is an observed mapped-change record, not a confirmed real-world opening or construction date."},"geometry":{"type":"Point","coordinates":[-5.918069,54.594265]}},{"type":"Feature","id":"osm-traffic-way-222746721","properties":{"city_id":"belfast","event_id":"osm-traffic-way-222746721","title":"residential road mapped in OSM — road · way/222746721","subtitle":"road / 2013-05-23 / Inferred / OpenStreetMap / Overpass API","details":"OpenStreetMap metadata records this feature as publicly mapped near road. This is an observed mapped-change record, not a confirmed real-world opening or construction date.","year":2013,"effective_date":"2013-05-23","date_precision":"day","short_description":"Public OSM mapped-event record for road; use as mapped change evidence, not a confirmed construction/opening date.","category":"transport","lens":"mobility","confidence":"inferred","source_ids":["osm-overpass"],"affected_area_label":"road","explanation":"OpenStreetMap metadata records this feature as publicly mapped near road. This is an observed mapped-change record, not a confirmed real-world opening or construction date."},"geometry":{"type":"Point","coordinates":[-5.918811,54.594389]}},{"type":"Feature","id":"osm-traffic-way-226259688","properties":{"city_id":"belfast","event_id":"osm-traffic-way-226259688","title":"Duncrue Link road mapped in OSM","subtitle":"Duncrue Link / 2013-06-18 / Inferred / OpenStreetMap / Overpass API","details":"OpenStreetMap metadata records this feature as publicly mapped near Duncrue Link. This is an observed mapped-change record, not a confirmed real-world opening or construction date.","year":2013,"effective_date":"2013-06-18","date_precision":"day","short_description":"Public OSM mapped-event record for road; use as mapped change evidence, not a confirmed construction/opening date.","category":"transport","lens":"mobility","confidence":"inferred","source_ids":["osm-overpass"],"affected_area_label":"Duncrue Link","explanation":"OpenStreetMap metadata records this feature as publicly mapped near Duncrue Link. This is an observed mapped-change record, not a confirmed real-world opening or construction date."},"geometry":{"type":"Point","coordinates":[-5.916534,54.625279]}},{"type":"Feature","id":"osm-traffic-way-244292824","properties":{"city_id":"belfast","event_id":"osm-traffic-way-244292824","title":"pedestrian road mapped in OSM — road · way/244292824","subtitle":"road / 2013-11-01 / Inferred / OpenStreetMap / Overpass API","details":"OpenStreetMap metadata records this feature as publicly mapped near road. This is an observed mapped-change record, not a confirmed real-world opening or construction date.","year":2013,"effective_date":"2013-11-01","date_precision":"day","short_description":"Public OSM mapped-event record for road; use as mapped change evidence, not a confirmed construction/opening date.","category":"transport","lens":"mobility","confidence":"inferred","source_ids":["osm-overpass"],"affected_area_label":"road","explanation":"OpenStreetMap metadata records this feature as publicly mapped near road. This is an observed mapped-change record, not a confirmed real-world opening or construction date."},"geometry":{"type":"Point","coordinates":[-5.931077,54.600676]}},{"type":"Feature","id":"osm-traffic-way-246520471","properties":{"city_id":"belfast","event_id":"osm-traffic-way-246520471","title":"residential road mapped in OSM — road · way/246520471","subtitle":"road / 2013-11-16 / Inferred / OpenStreetMap / Overpass API","details":"OpenStreetMap metadata records this feature as publicly mapped near road. This is an observed mapped-change record, not a confirmed real-world opening or construction date.","year":2013,"effective_date":"2013-11-16","date_precision":"day","short_description":"Public OSM mapped-event record for road; use as mapped change evidence, not a confirmed construction/opening date.","category":"transport","lens":"mobility","confidence":"inferred","source_ids":["osm-overpass"],"affected_area_label":"road","explanation":"OpenStreetMap metadata records this feature as publicly mapped near road. This is an observed mapped-change record, not a confirmed real-world opening or construction date."},"geometry":{"type":"Point","coordinates":[-6.003018,54.574072]}},{"type":"Feature","id":"osm-traffic-way-38246469","properties":{"city_id":"belfast","event_id":"osm-traffic-way-38246469","title":"Thornhill Parade road mapped in OSM — Thornhill Parade · way/38246469","subtitle":"Thornhill Parade / 2013-05-12 / Inferred / OpenStreetMap / Overpass API","details":"OpenStreetMap metadata records this feature as publicly mapped near Thornhill Parade. This is an observed mapped-change record, not a confirmed real-world opening or construction date.","year":2013,"effective_date":"2013-05-12","date_precision":"day","short_description":"Public OSM mapped-event record for road; use as mapped change evidence, not a confirmed construction/opening date.","category":"transport","lens":"mobility","confidence":"inferred","source_ids":["osm-overpass"],"affected_area_label":"Thornhill Parade","explanation":"OpenStreetMap metadata records this feature as publicly mapped near Thornhill Parade. This is an observed mapped-change record, not a confirmed real-world opening or construction date."},"geometry":{"type":"Point","coordinates":[-5.846792,54.592932]}},{"type":"Feature","id":"osm-traffic-way-38246470","properties":{"city_id":"belfast","event_id":"osm-traffic-way-38246470","title":"Barnett's Green road mapped in OSM","subtitle":"Barnett's Green / 2013-05-12 / Inferred / OpenStreetMap / Overpass API","details":"OpenStreetMap metadata records this feature as publicly mapped near Barnett's Green. This is an observed mapped-change record, not a confirmed real-world opening or construction date.","year":2013,"effective_date":"2013-05-12","date_precision":"day","short_description":"Public OSM mapped-event record for road; use as mapped change evidence, not a confirmed construction/opening date.","category":"transport","lens":"mobility","confidence":"inferred","source_ids":["osm-overpass"],"affected_area_label":"Barnett's Green","explanation":"OpenStreetMap metadata records this feature as publicly mapped near Barnett's Green. This is an observed mapped-change record, not a confirmed real-world opening or construction date."},"geometry":{"type":"Point","coordinates":[-5.847091,54.591633]}},{"type":"Feature","id":"osm-traffic-way-38246480","properties":{"city_id":"belfast","event_id":"osm-traffic-way-38246480","title":"Castleview Cottage Gardens road mapped in OSM","subtitle":"Castleview Cottage Gardens / 2013-05-12 / Inferred / OpenStreetMap / Overpass API","details":"OpenStreetMap metadata records this feature as publicly mapped near Castleview Cottage Gardens. This is an observed mapped-change record, not a confirmed real-world opening or construction date.","year":2013,"effective_date":"2013-05-12","date_precision":"day","short_description":"Public OSM mapped-event record for road; use as mapped change evidence, not a confirmed construction/opening date.","category":"transport","lens":"mobility","confidence":"inferred","source_ids":["osm-overpass"],"affected_area_label":"Castleview Cottage Gardens","explanation":"OpenStreetMap metadata records this feature as publicly mapped near Castleview Cottage Gardens. This is an observed mapped-change record, not a confirmed real-world opening or construction date."},"geometry":{"type":"Point","coordinates":[-5.837631,54.592788]}},{"type":"Feature","id":"osm-traffic-way-38246483","properties":{"city_id":"belfast","event_id":"osm-traffic-way-38246483","title":"Rosepark West road mapped in OSM","subtitle":"Rosepark West / 2013-05-10 / Inferred / OpenStreetMap / Overpass API","details":"OpenStreetMap metadata records this feature as publicly mapped near Rosepark West. This is an observed mapped-change record, not a confirmed real-world opening or construction date.","year":2013,"effective_date":"2013-05-10","date_precision":"day","short_description":"Public OSM mapped-event record for road; use as mapped change evidence, not a confirmed construction/opening date.","category":"transport","lens":"mobility","confidence":"inferred","source_ids":["osm-overpass"],"affected_area_label":"Rosepark West","explanation":"OpenStreetMap metadata records this feature as publicly mapped near Rosepark West. This is an observed mapped-change record, not a confirmed real-world opening or construction date."},"geometry":{"type":"Point","coordinates":[-5.832574,54.592252]}},{"type":"Feature","id":"osm-traffic-way-38246974","properties":{"city_id":"belfast","event_id":"osm-traffic-way-38246974","title":"Kingsland Park road mapped in OSM","subtitle":"Kingsland Park / 2013-05-13 / Inferred / OpenStreetMap / Overpass API","details":"OpenStreetMap metadata records this feature as publicly mapped near Kingsland Park. This is an observed mapped-change record, not a confirmed real-world opening or construction date.","year":2013,"effective_date":"2013-05-13","date_precision":"day","short_description":"Public OSM mapped-event record for road; use as mapped change evidence, not a confirmed construction/opening date.","category":"transport","lens":"mobility","confidence":"inferred","source_ids":["osm-overpass"],"affected_area_label":"Kingsland Park","explanation":"OpenStreetMap metadata records this feature as publicly mapped near Kingsland Park. This is an observed mapped-change record, not a confirmed real-world opening or construction date."},"geometry":{"type":"Point","coordinates":[-5.83747,54.587456]}},{"type":"Feature","id":"osm-traffic-way-38248713","properties":{"city_id":"belfast","event_id":"osm-traffic-way-38248713","title":"Kilmory Gardens road mapped in OSM","subtitle":"Kilmory Gardens / 2013-05-13 / Inferred / OpenStreetMap / Overpass API","details":"OpenStreetMap metadata records this feature as publicly mapped near Kilmory Gardens. This is an observed mapped-change record, not a confirmed real-world opening or construction date.","year":2013,"effective_date":"2013-05-13","date_precision":"day","short_description":"Public OSM mapped-event record for road; use as mapped change evidence, not a confirmed construction/opening date.","category":"transport","lens":"mobility","confidence":"inferred","source_ids":["osm-overpass"],"affected_area_label":"Kilmory Gardens","explanation":"OpenStreetMap metadata records this feature as publicly mapped near Kilmory Gardens. This is an observed mapped-change record, not a confirmed real-world opening or construction date."},"geometry":{"type":"Point","coordinates":[-5.834406,54.587757]}},{"type":"Feature","id":"osm-traffic-way-38248734","properties":{"city_id":"belfast","event_id":"osm-traffic-way-38248734","title":"Vionville Way road mapped in OSM","subtitle":"Vionville Way / 2013-05-13 / Inferred / OpenStreetMap / Overpass API","details":"OpenStreetMap metadata records this feature as publicly mapped near Vionville Way. This is an observed mapped-change record, not a confirmed real-world opening or construction date.","year":2013,"effective_date":"2013-05-13","date_precision":"day","short_description":"Public OSM mapped-event record for road; use as mapped change evidence, not a confirmed construction/opening date.","category":"transport","lens":"mobility","confidence":"inferred","source_ids":["osm-overpass"],"affected_area_label":"Vionville Way","explanation":"OpenStreetMap metadata records this feature as publicly mapped near Vionville Way. This is an observed mapped-change record, not a confirmed real-world opening or construction date."},"geometry":{"type":"Point","coordinates":[-5.826153,54.585619]}},{"type":"Feature","id":"osm-traffic-way-38248738","properties":{"city_id":"belfast","event_id":"osm-traffic-way-38248738","title":"Vionville Place road mapped in OSM","subtitle":"Vionville Place / 2013-05-13 / Inferred / OpenStreetMap / Overpass API","details":"OpenStreetMap metadata records this feature as publicly mapped near Vionville Place. This is an observed mapped-change record, not a confirmed real-world opening or construction date.","year":2013,"effective_date":"2013-05-13","date_precision":"day","short_description":"Public OSM mapped-event record for road; use as mapped change evidence, not a confirmed construction/opening date.","category":"transport","lens":"mobility","confidence":"inferred","source_ids":["osm-overpass"],"affected_area_label":"Vionville Place","explanation":"OpenStreetMap metadata records this feature as publicly mapped near Vionville Place. This is an observed mapped-change record, not a confirmed real-world opening or construction date."},"geometry":{"type":"Point","coordinates":[-5.825438,54.586655]}},{"type":"Feature","id":"osm-traffic-way-38248754","properties":{"city_id":"belfast","event_id":"osm-traffic-way-38248754","title":"Barnett's Court road mapped in OSM — Barnett's Court · way/38248754","subtitle":"Barnett's Court / 2013-05-12 / Inferred / OpenStreetMap / Overpass API","details":"OpenStreetMap metadata records this feature as publicly mapped near Barnett's Court. This is an observed mapped-change record, not a confirmed real-world opening or construction date.","year":2013,"effective_date":"2013-05-12","date_precision":"day","short_description":"Public OSM mapped-event record for road; use as mapped change evidence, not a confirmed construction/opening date.","category":"transport","lens":"mobility","confidence":"inferred","source_ids":["osm-overpass"],"affected_area_label":"Barnett's Court","explanation":"OpenStreetMap metadata records this feature as publicly mapped near Barnett's Court. This is an observed mapped-change record, not a confirmed real-world opening or construction date."},"geometry":{"type":"Point","coordinates":[-5.841271,54.591943]}},{"type":"Feature","id":"osm-traffic-way-38429065","properties":{"city_id":"belfast","event_id":"osm-traffic-way-38429065","title":"Henderson Court road mapped in OSM","subtitle":"Henderson Court / 2013-05-07 / Inferred / OpenStreetMap / Overpass API","details":"OpenStreetMap metadata records this feature as publicly mapped near Henderson Court. This is an observed mapped-change record, not a confirmed real-world opening or construction date.","year":2013,"effective_date":"2013-05-07","date_precision":"day","short_description":"Public OSM mapped-event record for road; use as mapped change evidence, not a confirmed construction/opening date.","category":"transport","lens":"mobility","confidence":"inferred","source_ids":["osm-overpass"],"affected_area_label":"Henderson Court","explanation":"OpenStreetMap metadata records this feature as publicly mapped near Henderson Court. This is an observed mapped-change record, not a confirmed real-world opening or construction date."},"geometry":{"type":"Point","coordinates":[-5.944329,54.633078]}},{"type":"Feature","id":"osm-traffic-way-38429067","properties":{"city_id":"belfast","event_id":"osm-traffic-way-38429067","title":"Henderson Avenue road mapped in OSM","subtitle":"Henderson Avenue / 2013-05-07 / Inferred / OpenStreetMap / Overpass API","details":"OpenStreetMap metadata records this feature as publicly mapped near Henderson Avenue. This is an observed mapped-change record, not a confirmed real-world opening or construction date.","year":2013,"effective_date":"2013-05-07","date_precision":"day","short_description":"Public OSM mapped-event record for road; use as mapped change evidence, not a confirmed construction/opening date.","category":"transport","lens":"mobility","confidence":"inferred","source_ids":["osm-overpass"],"affected_area_label":"Henderson Avenue","explanation":"OpenStreetMap metadata records this feature as publicly mapped near Henderson Avenue. This is an observed mapped-change record, not a confirmed real-world opening or construction date."},"geometry":{"type":"Point","coordinates":[-5.944938,54.63269]}},{"type":"Feature","id":"osm-traffic-way-38439183","properties":{"city_id":"belfast","event_id":"osm-traffic-way-38439183","title":"Ashdene Drive road mapped in OSM","subtitle":"Ashdene Drive / 2013-05-15 / Inferred / OpenStreetMap / Overpass API","details":"OpenStreetMap metadata records this feature as publicly mapped near Ashdene Drive. This is an observed mapped-change record, not a confirmed real-world opening or construction date.","year":2013,"effective_date":"2013-05-15","date_precision":"day","short_description":"Public OSM mapped-event record for road; use as mapped change evidence, not a confirmed construction/opening date.","category":"transport","lens":"mobility","confidence":"inferred","source_ids":["osm-overpass"],"affected_area_label":"Ashdene Drive","explanation":"OpenStreetMap metadata records this feature as publicly mapped near Ashdene Drive. This is an observed mapped-change record, not a confirmed real-world opening or construction date."},"geometry":{"type":"Point","coordinates":[-5.933829,54.623049]}},{"type":"Feature","id":"osm-traffic-way-40426157","properties":{"city_id":"belfast","event_id":"osm-traffic-way-40426157","title":"Stanfield Row road mapped in OSM","subtitle":"Stanfield Row / 2013-05-22 / Inferred / OpenStreetMap / Overpass API","details":"OpenStreetMap metadata records this feature as publicly mapped near Stanfield Row. This is an observed mapped-change record, not a confirmed real-world opening or construction date.","year":2013,"effective_date":"2013-05-22","date_precision":"day","short_description":"Public OSM mapped-event record for road; use as mapped change evidence, not a confirmed construction/opening date.","category":"transport","lens":"mobility","confidence":"inferred","source_ids":["osm-overpass"],"affected_area_label":"Stanfield Row","explanation":"OpenStreetMap metadata records this feature as publicly mapped near Stanfield Row. This is an observed mapped-change record, not a confirmed real-world opening or construction date."},"geometry":{"type":"Point","coordinates":[-5.920311,54.594013]}},{"type":"Feature","id":"osm-traffic-way-41762446","properties":{"city_id":"belfast","event_id":"osm-traffic-way-41762446","title":"residential road mapped in OSM — road · way/41762446","subtitle":"road / 2013-05-12 / Inferred / OpenStreetMap / Overpass API","details":"OpenStreetMap metadata records this feature as publicly mapped near road. This is an observed mapped-change record, not a confirmed real-world opening or construction date.","year":2013,"effective_date":"2013-05-12","date_precision":"day","short_description":"Public OSM mapped-event record for road; use as mapped change evidence, not a confirmed construction/opening date.","category":"transport","lens":"mobility","confidence":"inferred","source_ids":["osm-overpass"],"affected_area_label":"road","explanation":"OpenStreetMap metadata records this feature as publicly mapped near road. This is an observed mapped-change record, not a confirmed real-world opening or construction date."},"geometry":{"type":"Point","coordinates":[-5.83145,54.590079]}},{"type":"Feature","id":"osm-traffic-way-42028800","properties":{"city_id":"belfast","event_id":"osm-traffic-way-42028800","title":"residential road mapped in OSM — road · way/42028800","subtitle":"road / 2013-05-13 / Inferred / OpenStreetMap / Overpass API","details":"OpenStreetMap metadata records this feature as publicly mapped near road. This is an observed mapped-change record, not a confirmed real-world opening or construction date.","year":2013,"effective_date":"2013-05-13","date_precision":"day","short_description":"Public OSM mapped-event record for road; use as mapped change evidence, not a confirmed construction/opening date.","category":"transport","lens":"mobility","confidence":"inferred","source_ids":["osm-overpass"],"affected_area_label":"road","explanation":"OpenStreetMap metadata records this feature as publicly mapped near road. This is an observed mapped-change record, not a confirmed real-world opening or construction date."},"geometry":{"type":"Point","coordinates":[-5.826494,54.585086]}}]}
