{"type":"FeatureCollection","schema_version":"1.0.0","city_id":"belfast","year":2010,"features":[{"type":"Feature","id":"belfast_titanic_quarter_mou_update_2010","properties":{"city_id":"belfast","event_id":"belfast_titanic_quarter_mou_update_2010","title":"Titanic Quarter memorandum-of-understanding update recorded","subtitle":"Titanic Quarter / 2010-11-30 / Documented / Belfast City Council Titanic Signature Project MoU agenda item","details":"The record documents a 2010 administrative and economic-development project stage for Titanic Quarter and Titanic Belfast.","year":2010,"effective_date":"2010-11-30","date_precision":"day","short_description":"Belfast City Council minutes record a 2010 update on the Titanic Quarter memorandum of understanding and Titanic Belfast project governance.","category":"economy","lens":"economic_opportunity","confidence":"documented","source_ids":["belfast_city_council_minutes_2008_2015"],"affected_area_label":"Titanic Quarter","explanation":"The record documents a 2010 administrative and economic-development project stage for Titanic Quarter and Titanic Belfast."},"geometry":{"type":"Point","coordinates":[-5.9103,54.6082]}},{"type":"Feature","id":"bfs_arch_beechcroft_camhs_unit_opening_2010","properties":{"city_id":"belfast","event_id":"bfs_arch_beechcroft_camhs_unit_opening_2010","title":"Beechcroft child and adolescent mental health unit opened","subtitle":"Forster Green / South Belfast / 2010-09-10 / Documented / 4ni","details":"Public source material documents this event near Forster Green / South Belfast. Related local changes should be treated as associated context, not causal claims.","year":2010,"effective_date":"2010-09-10","date_precision":"day","short_description":"4ni reported on 10 September 2010 that the new Regional Child and Adolescent Mental Health Inpatient Unit at Forster Green, Belfast had been officially opened.","category":"built_environment","lens":"built_environment","confidence":"documented","source_ids":["belfast-architecture-public-pages"],"affected_area_label":"Forster Green / South Belfast","explanation":"Public source material documents this event near Forster Green / South Belfast. Related local changes should be treated as associated context, not causal claims."},"geometry":{"type":"Point","coordinates":[-5.9099,54.5437]}},{"type":"Feature","id":"bfs_arch_belfast_boys_model_new_accommodation_documented_2010","properties":{"city_id":"belfast","event_id":"bfs_arch_belfast_boys_model_new_accommodation_documented_2010","title":"Belfast Boys' Model School new accommodation was documented","subtitle":"Ballysillan / North Belfast / 2010-09-29 / Documented / Northern Ireland Assembly","details":"Public source material documents this event near Ballysillan / North Belfast. Related local changes should be treated as associated context, not causal claims.","year":2010,"effective_date":"2010-09-29","date_precision":"day","short_description":"The Northern Ireland Assembly Committee for Education visited the newly constructed Belfast Boys' Model School on 29 September 2010 and described new sports, theatre, IT, health-clinic, and community facilities.","category":"built_environment","lens":"built_environment","confidence":"documented","source_ids":["belfast-architecture-public-pages"],"affected_area_label":"Ballysillan / North Belfast","explanation":"Public source material documents this event near Ballysillan / North Belfast. Related local changes should be treated as associated context, not causal claims."},"geometry":{"type":"Point","coordinates":[-5.969,54.6305]}},{"type":"Feature","id":"bfs_arch_belfast_model_school_for_girls_completion_2010","properties":{"city_id":"belfast","event_id":"bfs_arch_belfast_model_school_for_girls_completion_2010","title":"Belfast Model School for Girls new building completed","subtitle":"Ballysillan / North Belfast / 2010-06 / Documented / McAdam Design","details":"Public source material documents this event near Ballysillan / North Belfast. Related local changes should be treated as associated context, not causal claims.","year":2010,"effective_date":"2010-06","date_precision":"month","short_description":"McAdam Design records completion of the new Belfast Model School for Girls building in June 2010, with press coverage later describing the new facilities.","category":"built_environment","lens":"built_environment","confidence":"documented","source_ids":["belfast-architecture-public-pages"],"affected_area_label":"Ballysillan / North Belfast","explanation":"Public source material documents this event near Ballysillan / North Belfast. Related local changes should be treated as associated context, not causal claims."},"geometry":{"type":"Point","coordinates":[-5.9549,54.637]}},{"type":"Feature","id":"bfs_arch_crescent_arts_centre_reopening_2010","properties":{"city_id":"belfast","event_id":"bfs_arch_crescent_arts_centre_reopening_2010","title":"Crescent Arts Centre reopened after redevelopment","subtitle":"Queen's Quarter / 2010-03 / Documented / The Crescent Arts Centre","details":"Public source material documents this event near Queen's Quarter. Related local changes should be treated as associated context, not causal claims.","year":2010,"effective_date":"2010-03","date_precision":"month","short_description":"The Crescent Arts Centre records the reopening of its restored building after redevelopment in 2010.","category":"built_environment","lens":"built_environment","confidence":"documented","source_ids":["belfast-architecture-public-pages"],"affected_area_label":"Queen's Quarter","explanation":"Public source material documents this event near Queen's Quarter. Related local changes should be treated as associated context, not causal claims."},"geometry":{"type":"Point","coordinates":[-5.9355,54.5898]}},{"type":"Feature","id":"bfs_arch_gate_lodge_bbt_home_2010","properties":{"city_id":"belfast","event_id":"bfs_arch_gate_lodge_bbt_home_2010","title":"Gate Lodge became Belfast Buildings Trust's home","subtitle":"Ormeau Road / Rosetta / 2010-01 / Documented / Belfast Buildings Trust","details":"Public source material documents this event near Ormeau Road / Rosetta. Related local changes should be treated as associated context, not causal claims.","year":2010,"effective_date":"2010-01","date_precision":"month","short_description":"Belfast Buildings Trust records moving to its new home in the Gate Lodge on Ormeau Road in January 2010, in an 1867 former caretaker residence for the Good Shepherd Convent.","category":"built_environment","lens":"built_environment","confidence":"documented","source_ids":["belfast-architecture-public-pages"],"affected_area_label":"Ormeau Road / Rosetta","explanation":"Public source material documents this event near Ormeau Road / Rosetta. Related local changes should be treated as associated context, not causal claims."},"geometry":{"type":"Point","coordinates":[-5.9149,54.5711]}},{"type":"Feature","id":"bfs_arch_grosvenor_grammar_school_opening_2010","properties":{"city_id":"belfast","event_id":"bfs_arch_grosvenor_grammar_school_opening_2010","title":"Grosvenor Grammar School opened its Marina Park building","subtitle":"Marina Park / East Belfast / 2010-04-12 / Documented / Grosvenor Grammar School","details":"Public source material documents this event near Marina Park / East Belfast. Related local changes should be treated as associated context, not causal claims.","year":2010,"effective_date":"2010-04-12","date_precision":"day","short_description":"Grosvenor Grammar School records its new Marina Park building opening on 12 April 2010 after the Belfast public-private school-building project.","category":"built_environment","lens":"built_environment","confidence":"documented","source_ids":["belfast-architecture-public-pages"],"affected_area_label":"Marina Park / East Belfast","explanation":"Public source material documents this event near Marina Park / East Belfast. Related local changes should be treated as associated context, not causal claims."},"geometry":{"type":"Point","coordinates":[-5.8832,54.5509]}},{"type":"Feature","id":"bfs_arch_iveagh_centre_opening_2010","properties":{"city_id":"belfast","event_id":"bfs_arch_iveagh_centre_opening_2010","title":"Iveagh Centre opened in Broadway","subtitle":"Broadway / West Belfast / 2010-03-26 / Documented / Iveagh Centre Opens","details":"Public source material documents this event near Broadway / West Belfast. Related local changes should be treated as associated context, not causal claims.","year":2010,"effective_date":"2010-03-26","date_precision":"day","short_description":"Belfast Health and Social Care Trust recorded on 26 March 2010 that the new Iveagh Centre had opened in the Broadway area of Belfast.","category":"built_environment","lens":"built_environment","confidence":"documented","source_ids":["belfast-architecture-public-pages"],"affected_area_label":"Broadway / West Belfast","explanation":"Public source material documents this event near Broadway / West Belfast. Related local changes should be treated as associated context, not causal claims."},"geometry":{"type":"Point","coordinates":[-5.9667,54.5871]}},{"type":"Feature","id":"bfs_arch_knockbreda_health_care_centre_opening_2010","properties":{"city_id":"belfast","event_id":"bfs_arch_knockbreda_health_care_centre_opening_2010","title":"Knockbreda Health and Care Centre officially opened","subtitle":"Knockbreda / South Belfast / 2010-01-22 / Documented / 4ni","details":"Public source material documents this event near Knockbreda / South Belfast. Related local changes should be treated as associated context, not causal claims.","year":2010,"effective_date":"2010-01-22","date_precision":"day","short_description":"4ni reported on 22 January 2010 that Health Minister Michael McGimpsey officially opened the new GBP 10m health and care centre at Knockbreda in south Belfast.","category":"built_environment","lens":"built_environment","confidence":"documented","source_ids":["belfast-architecture-public-pages"],"affected_area_label":"Knockbreda / South Belfast","explanation":"Public source material documents this event near Knockbreda / South Belfast. Related local changes should be treated as associated context, not causal claims."},"geometry":{"type":"Point","coordinates":[-5.9105,54.5448]}},{"type":"Feature","id":"bfs_arch_merchant_hotel_extension_opening_2010","properties":{"city_id":"belfast","event_id":"bfs_arch_merchant_hotel_extension_opening_2010","title":"Merchant Hotel New Chapter extension opened","subtitle":"Cathedral Quarter / Skipper Street / 2010-07-30 / Documented / 4ni","details":"Public source material documents this event near Cathedral Quarter / Skipper Street. Related local changes should be treated as associated context, not causal claims.","year":2010,"effective_date":"2010-07-30","date_precision":"day","short_description":"4ni reported on 30 July 2010 that first guests were arriving for the Merchant Hotel's 16m GBP New Chapter extension.","category":"built_environment","lens":"built_environment","confidence":"documented","source_ids":["belfast-architecture-public-pages"],"affected_area_label":"Cathedral Quarter / Skipper Street","explanation":"Public source material documents this event near Cathedral Quarter / Skipper Street. Related local changes should be treated as associated context, not causal claims."},"geometry":{"type":"Point","coordinates":[-5.9262,54.6014]}},{"type":"Feature","id":"bfs_arch_plenum_building_pharmacy_opening_2010","properties":{"city_id":"belfast","event_id":"bfs_arch_plenum_building_pharmacy_opening_2010","title":"Plenum Building regional pharmacy manufacturing service opened","subtitle":"Royal Hospitals / West Belfast / 2010-09-08 / Documented / Health Minister opens two new Trust facilities","details":"Public source material documents this event near Royal Hospitals / West Belfast. Related local changes should be treated as associated context, not causal claims.","year":2010,"effective_date":"2010-09-08","date_precision":"day","short_description":"Belfast Health and Social Care Trust recorded on 8 September 2010 that the Health Minister officially opened the Plenum Building regional pharmacy manufacturing service.","category":"built_environment","lens":"built_environment","confidence":"documented","source_ids":["belfast-architecture-public-pages"],"affected_area_label":"Royal Hospitals / West Belfast","explanation":"Public source material documents this event near Royal Hospitals / West Belfast. Related local changes should be treated as associated context, not causal claims."},"geometry":{"type":"Point","coordinates":[-5.9556,54.5946]}},{"type":"Feature","id":"bfs_arch_round124_belfast_2010_pac_victoria_street_demolition_appeal_dismissed","properties":{"city_id":"belfast","event_id":"bfs_arch_round124_belfast_2010_pac_victoria_street_demolition_appeal_dismissed","title":"75-81 Victoria Street demolition appeal was dismissed","subtitle":"75-81 Victoria Street, Belfast / 2010-02-26 / Documented / Planning Appeals Commission NI appeal details for 2008/A0075","details":"Public source material documents this event near 75-81 Victoria Street, Belfast. Related local changes should be treated as associated context, not causal claims.","year":2010,"effective_date":"2010-02-26","date_precision":"day","short_description":"PAC case 2008/A0075 records an appeal dismissed decision for demolition of an existing building at 75-81 Victoria Street.","category":"built_environment","lens":"built_environment","confidence":"documented","source_ids":["pacni-appeals-search-round124"],"affected_area_label":"75-81 Victoria Street, Belfast","explanation":"Public source material documents this event near 75-81 Victoria Street, Belfast. Related local changes should be treated as associated context, not causal claims."},"geometry":{"type":"Point","coordinates":[-5.9252,54.598]}},{"type":"Feature","id":"bfs_arch_round124_belfast_2010_pac_wellington_park_hotel_demolition_appeal_dismissed","properties":{"city_id":"belfast","event_id":"bfs_arch_round124_belfast_2010_pac_wellington_park_hotel_demolition_appeal_dismissed","title":"Wellington Park Hotel demolition appeal was dismissed","subtitle":"The Wellington Park Hotel, Malone Road, Belfast / 2010-08-09 / Documented / Planning Appeals Commission NI appeal details for 2007/A1315","details":"Public source material documents this event near The Wellington Park Hotel, Malone Road, Belfast. Related local changes should be treated as associated context, not causal claims.","year":2010,"effective_date":"2010-08-09","date_precision":"day","short_description":"PAC case 2007/A1315 records an appeal dismissed decision for demolition of the existing hotel complex at the Wellington Park Hotel, Malone Road.","category":"built_environment","lens":"built_environment","confidence":"documented","source_ids":["pacni-appeals-search-round124"],"affected_area_label":"The Wellington Park Hotel, Malone Road, Belfast","explanation":"Public source material documents this event near The Wellington Park Hotel, Malone Road, Belfast. Related local changes should be treated as associated context, not causal claims."},"geometry":{"type":"Point","coordinates":[-5.9405,54.5849]}},{"type":"Feature","id":"osm-traffic-way-18837331","properties":{"city_id":"belfast","event_id":"osm-traffic-way-18837331","title":"Antrim Street road mapped in OSM","subtitle":"Antrim Street / 2010-11-03 / Inferred / OpenStreetMap / Overpass API","details":"OpenStreetMap metadata records this feature as publicly mapped near Antrim Street. This is an observed mapped-change record, not a confirmed real-world opening or construction date.","year":2010,"effective_date":"2010-11-03","date_precision":"day","short_description":"Public OSM mapped-event record for road; use as mapped change evidence, not a confirmed construction/opening date.","category":"transport","lens":"mobility","confidence":"inferred","source_ids":["osm-overpass"],"affected_area_label":"Antrim Street","explanation":"OpenStreetMap metadata records this feature as publicly mapped near Antrim Street. This is an observed mapped-change record, not a confirmed real-world opening or construction date."},"geometry":{"type":"Point","coordinates":[-5.936172,54.604499]}},{"type":"Feature","id":"osm-traffic-way-18837352","properties":{"city_id":"belfast","event_id":"osm-traffic-way-18837352","title":"Plunkett Court road mapped in OSM","subtitle":"Plunkett Court / 2010-11-03 / Inferred / OpenStreetMap / Overpass API","details":"OpenStreetMap metadata records this feature as publicly mapped near Plunkett Court. This is an observed mapped-change record, not a confirmed real-world opening or construction date.","year":2010,"effective_date":"2010-11-03","date_precision":"day","short_description":"Public OSM mapped-event record for road; use as mapped change evidence, not a confirmed construction/opening date.","category":"transport","lens":"mobility","confidence":"inferred","source_ids":["osm-overpass"],"affected_area_label":"Plunkett Court","explanation":"OpenStreetMap metadata records this feature as publicly mapped near Plunkett Court. This is an observed mapped-change record, not a confirmed real-world opening or construction date."},"geometry":{"type":"Point","coordinates":[-5.934546,54.60477]}},{"type":"Feature","id":"osm-traffic-way-18840348","properties":{"city_id":"belfast","event_id":"osm-traffic-way-18840348","title":"Brae Hill Parade road mapped in OSM","subtitle":"Brae Hill Parade / 2010-08-17 / Inferred / OpenStreetMap / Overpass API","details":"OpenStreetMap metadata records this feature as publicly mapped near Brae Hill Parade. This is an observed mapped-change record, not a confirmed real-world opening or construction date.","year":2010,"effective_date":"2010-08-17","date_precision":"day","short_description":"Public OSM mapped-event record for road; use as mapped change evidence, not a confirmed construction/opening date.","category":"transport","lens":"mobility","confidence":"inferred","source_ids":["osm-overpass"],"affected_area_label":"Brae Hill Parade","explanation":"OpenStreetMap metadata records this feature as publicly mapped near Brae Hill Parade. This is an observed mapped-change record, not a confirmed real-world opening or construction date."},"geometry":{"type":"Point","coordinates":[-5.973936,54.62838]}},{"type":"Feature","id":"osm-traffic-way-38305354","properties":{"city_id":"belfast","event_id":"osm-traffic-way-38305354","title":"Glencairn Crescent road mapped in OSM","subtitle":"Glencairn Crescent / 2010-08-17 / Inferred / OpenStreetMap / Overpass API","details":"OpenStreetMap metadata records this feature as publicly mapped near Glencairn Crescent. This is an observed mapped-change record, not a confirmed real-world opening or construction date.","year":2010,"effective_date":"2010-08-17","date_precision":"day","short_description":"Public OSM mapped-event record for road; use as mapped change evidence, not a confirmed construction/opening date.","category":"transport","lens":"mobility","confidence":"inferred","source_ids":["osm-overpass"],"affected_area_label":"Glencairn Crescent","explanation":"OpenStreetMap metadata records this feature as publicly mapped near Glencairn Crescent. This is an observed mapped-change record, not a confirmed real-world opening or construction date."},"geometry":{"type":"Point","coordinates":[-5.970154,54.611127]}},{"type":"Feature","id":"osm-traffic-way-38309750","properties":{"city_id":"belfast","event_id":"osm-traffic-way-38309750","title":"Loughview Manor road mapped in OSM","subtitle":"Loughview Manor / 2010-08-19 / Inferred / OpenStreetMap / Overpass API","details":"OpenStreetMap metadata records this feature as publicly mapped near Loughview Manor. This is an observed mapped-change record, not a confirmed real-world opening or construction date.","year":2010,"effective_date":"2010-08-19","date_precision":"day","short_description":"Public OSM mapped-event record for road; use as mapped change evidence, not a confirmed construction/opening date.","category":"transport","lens":"mobility","confidence":"inferred","source_ids":["osm-overpass"],"affected_area_label":"Loughview Manor","explanation":"OpenStreetMap metadata records this feature as publicly mapped near Loughview Manor. This is an observed mapped-change record, not a confirmed real-world opening or construction date."},"geometry":{"type":"Point","coordinates":[-5.968832,54.634148]}},{"type":"Feature","id":"osm-traffic-way-38423215","properties":{"city_id":"belfast","event_id":"osm-traffic-way-38423215","title":"Glendarragh road mapped in OSM — Glendarragh","subtitle":"Glendarragh / 2010-12-27 / Inferred / OpenStreetMap / Overpass API","details":"OpenStreetMap metadata records this feature as publicly mapped near Glendarragh. This is an observed mapped-change record, not a confirmed real-world opening or construction date.","year":2010,"effective_date":"2010-12-27","date_precision":"day","short_description":"Public OSM mapped-event record for road; use as mapped change evidence, not a confirmed construction/opening date.","category":"transport","lens":"mobility","confidence":"inferred","source_ids":["osm-overpass"],"affected_area_label":"Glendarragh","explanation":"OpenStreetMap metadata records this feature as publicly mapped near Glendarragh. This is an observed mapped-change record, not a confirmed real-world opening or construction date."},"geometry":{"type":"Point","coordinates":[-5.855303,54.619413]}},{"type":"Feature","id":"osm-traffic-way-38423216","properties":{"city_id":"belfast","event_id":"osm-traffic-way-38423216","title":"Glendarragh road mapped in OSM — Glendarragh · way/38423216","subtitle":"Glendarragh / 2010-12-27 / Inferred / OpenStreetMap / Overpass API","details":"OpenStreetMap metadata records this feature as publicly mapped near Glendarragh. This is an observed mapped-change record, not a confirmed real-world opening or construction date.","year":2010,"effective_date":"2010-12-27","date_precision":"day","short_description":"Public OSM mapped-event record for road; use as mapped change evidence, not a confirmed construction/opening date.","category":"transport","lens":"mobility","confidence":"inferred","source_ids":["osm-overpass"],"affected_area_label":"Glendarragh","explanation":"OpenStreetMap metadata records this feature as publicly mapped near Glendarragh. This is an observed mapped-change record, not a confirmed real-world opening or construction date."},"geometry":{"type":"Point","coordinates":[-5.854912,54.619168]}},{"type":"Feature","id":"osm-traffic-way-38423220","properties":{"city_id":"belfast","event_id":"osm-traffic-way-38423220","title":"Glendarragh road mapped in OSM — Glendarragh · way/38423220","subtitle":"Glendarragh / 2010-12-27 / Inferred / OpenStreetMap / Overpass API","details":"OpenStreetMap metadata records this feature as publicly mapped near Glendarragh. This is an observed mapped-change record, not a confirmed real-world opening or construction date.","year":2010,"effective_date":"2010-12-27","date_precision":"day","short_description":"Public OSM mapped-event record for road; use as mapped change evidence, not a confirmed construction/opening date.","category":"transport","lens":"mobility","confidence":"inferred","source_ids":["osm-overpass"],"affected_area_label":"Glendarragh","explanation":"OpenStreetMap metadata records this feature as publicly mapped near Glendarragh. This is an observed mapped-change record, not a confirmed real-world opening or construction date."},"geometry":{"type":"Point","coordinates":[-5.854907,54.619669]}},{"type":"Feature","id":"osm-traffic-way-38426788","properties":{"city_id":"belfast","event_id":"osm-traffic-way-38426788","title":"residential road mapped in OSM — road","subtitle":"road / 2010-04-28 / Inferred / OpenStreetMap / Overpass API","details":"OpenStreetMap metadata records this feature as publicly mapped near road. This is an observed mapped-change record, not a confirmed real-world opening or construction date.","year":2010,"effective_date":"2010-04-28","date_precision":"day","short_description":"Public OSM mapped-event record for road; use as mapped change evidence, not a confirmed construction/opening date.","category":"transport","lens":"mobility","confidence":"inferred","source_ids":["osm-overpass"],"affected_area_label":"road","explanation":"OpenStreetMap metadata records this feature as publicly mapped near road. This is an observed mapped-change record, not a confirmed real-world opening or construction date."},"geometry":{"type":"Point","coordinates":[-6.034297,54.561168]}},{"type":"Feature","id":"osm-traffic-way-38426793","properties":{"city_id":"belfast","event_id":"osm-traffic-way-38426793","title":"residential road mapped in OSM — road · way/38426793","subtitle":"road / 2010-04-28 / Inferred / OpenStreetMap / Overpass API","details":"OpenStreetMap metadata records this feature as publicly mapped near road. This is an observed mapped-change record, not a confirmed real-world opening or construction date.","year":2010,"effective_date":"2010-04-28","date_precision":"day","short_description":"Public OSM mapped-event record for road; use as mapped change evidence, not a confirmed construction/opening date.","category":"transport","lens":"mobility","confidence":"inferred","source_ids":["osm-overpass"],"affected_area_label":"road","explanation":"OpenStreetMap metadata records this feature as publicly mapped near road. This is an observed mapped-change record, not a confirmed real-world opening or construction date."},"geometry":{"type":"Point","coordinates":[-6.033222,54.561506]}},{"type":"Feature","id":"osm-traffic-way-38426801","properties":{"city_id":"belfast","event_id":"osm-traffic-way-38426801","title":"residential road mapped in OSM — road · way/38426801","subtitle":"road / 2010-04-28 / Inferred / OpenStreetMap / Overpass API","details":"OpenStreetMap metadata records this feature as publicly mapped near road. This is an observed mapped-change record, not a confirmed real-world opening or construction date.","year":2010,"effective_date":"2010-04-28","date_precision":"day","short_description":"Public OSM mapped-event record for road; use as mapped change evidence, not a confirmed construction/opening date.","category":"transport","lens":"mobility","confidence":"inferred","source_ids":["osm-overpass"],"affected_area_label":"road","explanation":"OpenStreetMap metadata records this feature as publicly mapped near road. This is an observed mapped-change record, not a confirmed real-world opening or construction date."},"geometry":{"type":"Point","coordinates":[-6.033433,54.560272]}},{"type":"Feature","id":"osm-traffic-way-38429713","properties":{"city_id":"belfast","event_id":"osm-traffic-way-38429713","title":"Brae Hill Link road mapped in OSM","subtitle":"Brae Hill Link / 2010-08-17 / Inferred / OpenStreetMap / Overpass API","details":"OpenStreetMap metadata records this feature as publicly mapped near Brae Hill Link. This is an observed mapped-change record, not a confirmed real-world opening or construction date.","year":2010,"effective_date":"2010-08-17","date_precision":"day","short_description":"Public OSM mapped-event record for road; use as mapped change evidence, not a confirmed construction/opening date.","category":"transport","lens":"mobility","confidence":"inferred","source_ids":["osm-overpass"],"affected_area_label":"Brae Hill Link","explanation":"OpenStreetMap metadata records this feature as publicly mapped near Brae Hill Link. This is an observed mapped-change record, not a confirmed real-world opening or construction date."},"geometry":{"type":"Point","coordinates":[-5.973079,54.627828]}},{"type":"Feature","id":"osm-traffic-way-38429729","properties":{"city_id":"belfast","event_id":"osm-traffic-way-38429729","title":"Brae Hill Way road mapped in OSM","subtitle":"Brae Hill Way / 2010-08-17 / Inferred / OpenStreetMap / Overpass API","details":"OpenStreetMap metadata records this feature as publicly mapped near Brae Hill Way. This is an observed mapped-change record, not a confirmed real-world opening or construction date.","year":2010,"effective_date":"2010-08-17","date_precision":"day","short_description":"Public OSM mapped-event record for road; use as mapped change evidence, not a confirmed construction/opening date.","category":"transport","lens":"mobility","confidence":"inferred","source_ids":["osm-overpass"],"affected_area_label":"Brae Hill Way","explanation":"OpenStreetMap metadata records this feature as publicly mapped near Brae Hill Way. This is an observed mapped-change record, not a confirmed real-world opening or construction date."},"geometry":{"type":"Point","coordinates":[-5.972824,54.627226]}},{"type":"Feature","id":"osm-traffic-way-38790122","properties":{"city_id":"belfast","event_id":"osm-traffic-way-38790122","title":"Dalboyne Park road mapped in OSM","subtitle":"Dalboyne Park / 2010-12-27 / Inferred / OpenStreetMap / Overpass API","details":"OpenStreetMap metadata records this feature as publicly mapped near Dalboyne Park. This is an observed mapped-change record, not a confirmed real-world opening or construction date.","year":2010,"effective_date":"2010-12-27","date_precision":"day","short_description":"Public OSM mapped-event record for road; use as mapped change evidence, not a confirmed construction/opening date.","category":"transport","lens":"mobility","confidence":"inferred","source_ids":["osm-overpass"],"affected_area_label":"Dalboyne Park","explanation":"OpenStreetMap metadata records this feature as publicly mapped near Dalboyne Park. This is an observed mapped-change record, not a confirmed real-world opening or construction date."},"geometry":{"type":"Point","coordinates":[-6.041588,54.520484]}},{"type":"Feature","id":"osm-traffic-way-72900251","properties":{"city_id":"belfast","event_id":"osm-traffic-way-72900251","title":"Silverstream Avenue road mapped in OSM — Silverstream Avenue","subtitle":"Silverstream Avenue / 2010-08-17 / Inferred / OpenStreetMap / Overpass API","details":"OpenStreetMap metadata records this feature as publicly mapped near Silverstream Avenue. This is an observed mapped-change record, not a confirmed real-world opening or construction date.","year":2010,"effective_date":"2010-08-17","date_precision":"day","short_description":"Public OSM mapped-event record for road; use as mapped change evidence, not a confirmed construction/opening date.","category":"transport","lens":"mobility","confidence":"inferred","source_ids":["osm-overpass"],"affected_area_label":"Silverstream Avenue","explanation":"OpenStreetMap metadata records this feature as publicly mapped near Silverstream Avenue. This is an observed mapped-change record, not a confirmed real-world opening or construction date."},"geometry":{"type":"Point","coordinates":[-5.971695,54.625472]}},{"type":"Feature","id":"osm-traffic-way-72900254","properties":{"city_id":"belfast","event_id":"osm-traffic-way-72900254","title":"Silverstream Avenue road mapped in OSM — Silverstream Avenue · way/72900254","subtitle":"Silverstream Avenue / 2010-08-17 / Inferred / OpenStreetMap / Overpass API","details":"OpenStreetMap metadata records this feature as publicly mapped near Silverstream Avenue. This is an observed mapped-change record, not a confirmed real-world opening or construction date.","year":2010,"effective_date":"2010-08-17","date_precision":"day","short_description":"Public OSM mapped-event record for road; use as mapped change evidence, not a confirmed construction/opening date.","category":"transport","lens":"mobility","confidence":"inferred","source_ids":["osm-overpass"],"affected_area_label":"Silverstream Avenue","explanation":"OpenStreetMap metadata records this feature as publicly mapped near Silverstream Avenue. This is an observed mapped-change record, not a confirmed real-world opening or construction date."},"geometry":{"type":"Point","coordinates":[-5.970822,54.62584]}},{"type":"Feature","id":"osm-traffic-way-72900256","properties":{"city_id":"belfast","event_id":"osm-traffic-way-72900256","title":"Silverstream Avenue road mapped in OSM — Silverstream Avenue · way/72900256","subtitle":"Silverstream Avenue / 2010-08-17 / Inferred / OpenStreetMap / Overpass API","details":"OpenStreetMap metadata records this feature as publicly mapped near Silverstream Avenue. This is an observed mapped-change record, not a confirmed real-world opening or construction date.","year":2010,"effective_date":"2010-08-17","date_precision":"day","short_description":"Public OSM mapped-event record for road; use as mapped change evidence, not a confirmed construction/opening date.","category":"transport","lens":"mobility","confidence":"inferred","source_ids":["osm-overpass"],"affected_area_label":"Silverstream Avenue","explanation":"OpenStreetMap metadata records this feature as publicly mapped near Silverstream Avenue. This is an observed mapped-change record, not a confirmed real-world opening or construction date."},"geometry":{"type":"Point","coordinates":[-5.97098,54.6253]}},{"type":"Feature","id":"osm-traffic-way-72900259","properties":{"city_id":"belfast","event_id":"osm-traffic-way-72900259","title":"Silverstream Avenue road mapped in OSM — Silverstream Avenue · way/72900259","subtitle":"Silverstream Avenue / 2010-08-17 / Inferred / OpenStreetMap / Overpass API","details":"OpenStreetMap metadata records this feature as publicly mapped near Silverstream Avenue. This is an observed mapped-change record, not a confirmed real-world opening or construction date.","year":2010,"effective_date":"2010-08-17","date_precision":"day","short_description":"Public OSM mapped-event record for road; use as mapped change evidence, not a confirmed construction/opening date.","category":"transport","lens":"mobility","confidence":"inferred","source_ids":["osm-overpass"],"affected_area_label":"Silverstream Avenue","explanation":"OpenStreetMap metadata records this feature as publicly mapped near Silverstream Avenue. This is an observed mapped-change record, not a confirmed real-world opening or construction date."},"geometry":{"type":"Point","coordinates":[-5.971525,54.626081]}},{"type":"Feature","id":"osm-traffic-way-72900264","properties":{"city_id":"belfast","event_id":"osm-traffic-way-72900264","title":"Silverstream Avenue road mapped in OSM — Silverstream Avenue · way/72900264","subtitle":"Silverstream Avenue / 2010-08-17 / Inferred / OpenStreetMap / Overpass API","details":"OpenStreetMap metadata records this feature as publicly mapped near Silverstream Avenue. This is an observed mapped-change record, not a confirmed real-world opening or construction date.","year":2010,"effective_date":"2010-08-17","date_precision":"day","short_description":"Public OSM mapped-event record for road; use as mapped change evidence, not a confirmed construction/opening date.","category":"transport","lens":"mobility","confidence":"inferred","source_ids":["osm-overpass"],"affected_area_label":"Silverstream Avenue","explanation":"OpenStreetMap metadata records this feature as publicly mapped near Silverstream Avenue. This is an observed mapped-change record, not a confirmed real-world opening or construction date."},"geometry":{"type":"Point","coordinates":[-5.972436,54.625652]}},{"type":"Feature","id":"osm-traffic-way-75536984","properties":{"city_id":"belfast","event_id":"osm-traffic-way-75536984","title":"Clontonacally Road road mapped in OSM","subtitle":"Clontonacally Road / 2010-09-01 / Inferred / OpenStreetMap / Overpass API","details":"OpenStreetMap metadata records this feature as publicly mapped near Clontonacally Road. This is an observed mapped-change record, not a confirmed real-world opening or construction date.","year":2010,"effective_date":"2010-09-01","date_precision":"day","short_description":"Public OSM mapped-event record for road; use as mapped change evidence, not a confirmed construction/opening date.","category":"transport","lens":"mobility","confidence":"inferred","source_ids":["osm-overpass"],"affected_area_label":"Clontonacally Road","explanation":"OpenStreetMap metadata records this feature as publicly mapped near Clontonacally Road. This is an observed mapped-change record, not a confirmed real-world opening or construction date."},"geometry":{"type":"Point","coordinates":[-5.859438,54.533276]}}]}
