{"type":"FeatureCollection","schema_version":"1.0.0","city_id":"belfast","year":2007,"map_feature_count":6,"withheld_geometry_event_count":0,"features":[{"type":"Feature","id":"belfast_colin_public_transport_access_context_2007","properties":{"city_id":"belfast","event_id":"belfast_colin_public_transport_access_context_2007","title":"Colin and west Belfast public-transport access context recorded in AIMS answers","subtitle":"Colin area and west Belfast public-transport corridors / 2007 / Documented / Northern Ireland Assembly AIMS Open Data written answers AQW 3166/08 and AQW 3386/08","details":"The AIMS written answers provide source-backed 2007 access context for Colin and west Belfast. They support route-availability and public-transport-infrastructure context, but not stop-level accessibility, timetable frequency, measured service reliability, measured journey speed, or causal access outcomes.","year":2007,"effective_date":"2007","date_precision":"range","short_description":"Northern Ireland Assembly AIMS written answers record an existing Colin-area public-transport system, Metro and Ulsterbus route details, Metro network changes introduced in February 2005, 4.4 km of west Belfast...","category":"transport","lens":"transport","confidence":"documented","source_ids":["ni_assembly_colin_transport_infrastructure_2008","ni_assembly_colin_public_transport_routes_2008"],"affected_area_label":"Colin area and west Belfast public-transport corridors","explanation":"The AIMS written answers provide source-backed 2007 access context for Colin and west Belfast. They support route-availability and public-transport-infrastructure context, but not stop-level accessibility, timetable frequency, measured service reliability, measured journey speed, or causal access outcomes.","excluded_lens_slugs":["transport-reliability","transport-speed","utilities-capacity","utilities-resilience","utilities-works"],"exclude_transport_road_scoring":true},"geometry":{"type":"Point","coordinates":[-6.0004,54.5526]}},{"type":"Feature","id":"belfast_laganside_regeneration_functions_transfer_2007","properties":{"city_id":"belfast","event_id":"belfast_laganside_regeneration_functions_transfer_2007","title":"Laganside regeneration functions transferred after corporation dissolution","subtitle":"Laganside / River Lagan corridor / 2007-03-31 / Documented / Laganside Corporation dissolution legislative record","details":"The record documents a governance-stage change for Laganside regeneration functions in 2007. Treat it as an administrative land-use and regeneration milestone, not as evidence of physical works.","year":2007,"effective_date":"2007-03-31","date_precision":"day","short_description":"Legislative records identify the 2007 dissolution context for Laganside Corporation, creating an administrative marker for Belfast riverfront regeneration governance.","category":"built_environment","lens":"built_environment","confidence":"documented","source_ids":["ni_laganside_dissolution_2007"],"affected_area_label":"Laganside / River Lagan corridor","explanation":"The record documents a governance-stage change for Laganside regeneration functions in 2007. Treat it as an administrative land-use and regeneration milestone, not as evidence of physical works."},"geometry":{"type":"Point","coordinates":[-5.9172,54.5988]}},{"type":"Feature","id":"belfast_m1_blacks_stockmans_road_scheme_delay_2007","properties":{"city_id":"belfast","event_id":"belfast_m1_blacks_stockmans_road_scheme_delay_2007","title":"M1 Blacks Road to Stockmans Lane road scheme delay recorded in AIMS answer","subtitle":"M1 Blacks Road to Stockmans Lane corridor / 2007 / Documented / Northern Ireland Assembly AIMS Open Data written answer AQW 203/08: M1 Blacks Road to Stockmans Lane road scheme...","details":"The written answer provides source-backed 2007 transport activity context for a west Belfast M1 road scheme. It supports road-scheme delay and temporary traffic-management context, but not measured journey speed, traffic volume, stop access, service reliability, or causal road-user outcomes.","year":2007,"effective_date":"2007","date_precision":"range","short_description":"Northern Ireland Assembly AIMS Open Data records that the M1 Blacks Road to Stockmans Lane major road scheme exceeded its expected completion date by four weeks after embankment-slip repair and enhanced temporary...","category":"transport","lens":"transport","confidence":"documented","source_ids":["ni_assembly_m1_blacks_stockmans_scheme_delay_2007"],"affected_area_label":"M1 Blacks Road to Stockmans Lane corridor","explanation":"The written answer provides source-backed 2007 transport activity context for a west Belfast M1 road scheme. It supports road-scheme delay and temporary traffic-management context, but not measured journey speed, traffic volume, stop access, service reliability, or causal road-user outcomes.","excluded_lens_slugs":["transport-access","transport-reliability","utilities-capacity","utilities-resilience","utilities-works"],"exclude_transport_road_scoring":true},"geometry":{"type":"Point","coordinates":[-5.9844,54.5724]}},{"type":"Feature","id":"belfast_metro_punctuality_assembly_2007","properties":{"city_id":"belfast","event_id":"belfast_metro_punctuality_assembly_2007","title":"Metro 2007 punctuality recorded in Assembly written answer","subtitle":"Metro Belfast service-wide context / 2007 / Documented / Northern Ireland Assembly AIMS Open Data written answer AQW 5850/08: Metro punctuality, 2005-2007","details":"The written answer provides a source-backed 2007 Metro service-reliability context row for Belfast. It supports Metro-wide punctuality context, but not South Belfast-only performance, route-level reliability, stop-level performance, journey-speed, access, capacity, or causal travel outcomes.","year":2007,"effective_date":"2007","date_precision":"range","short_description":"Northern Ireland Assembly AIMS Open Data records Metro punctuality of 93.5% in 2007 against a 95% Passenger's Charter target, after noting that South Belfast-only punctuality data was not held.","category":"transport","lens":"transport","confidence":"documented","source_ids":["ni_assembly_translink_metro_punctuality_2007"],"affected_area_label":"Metro Belfast service-wide context","explanation":"The written answer provides a source-backed 2007 Metro service-reliability context row for Belfast. It supports Metro-wide punctuality context, but not South Belfast-only performance, route-level reliability, stop-level performance, journey-speed, access, capacity, or causal travel outcomes.","excluded_lens_slugs":["transport-access","transport-speed","utilities-capacity","utilities-resilience","utilities-works"],"exclude_transport_road_scoring":true},"geometry":{"type":"Point","coordinates":[-5.9301,54.5973]}},{"type":"Feature","id":"belfast_metropolitan_college_formed_2007","properties":{"city_id":"belfast","event_id":"belfast_metropolitan_college_formed_2007","title":"Belfast Metropolitan College formed through merger and rebrand","subtitle":"Belfast Metropolitan College network / 2007-08 / Documented / Belfast Metropolitan College history page","details":"The college-history source documents an institutional civic education-service milestone in August 2007.","year":2007,"effective_date":"2007-08","date_precision":"month","short_description":"Belfast Met's history page records the August 2007 merger and rebrand that formed Belfast Metropolitan College.","category":"civic_services","lens":"civic_services","confidence":"documented","source_ids":["belfast_met_history_2007"],"affected_area_label":"Belfast Metropolitan College network","explanation":"The college-history source documents an institutional civic education-service milestone in August 2007."},"geometry":{"type":"Point","coordinates":[-5.9361,54.6037]}},{"type":"Feature","id":"belfast_sewer_and_water_programme_2007_2008","properties":{"city_id":"belfast","event_id":"belfast_sewer_and_water_programme_2007_2008","title":"Belfast sewer and water works listed in 2007-2008 programme","subtitle":"Belfast citywide utility programme / 2007-04 / Documented / Belfast City Council public reports pack, 5 March 2008","details":"The report-programme row provides source-backed 2007 utility works context for Belfast, including sewer and water-main projects.","year":2007,"effective_date":"2007-04","date_precision":"range","short_description":"A Belfast City Council public report pack lists Belfast sewer and water projects under construction or programmed between April 2007 and March 2008.","category":"utilities","lens":"utilities","confidence":"documented","source_ids":["belfast_city_council_minutes_2008_2015"],"affected_area_label":"Belfast citywide utility programme","explanation":"The report-programme row provides source-backed 2007 utility works context for Belfast, including sewer and water-main projects."},"geometry":{"type":"Point","coordinates":[-5.9301,54.5973]}}]}
