{"type":"FeatureCollection","name":"belfast_lens_detail_2010","metadata":{"schema_version":"1.0.0","city_id":"belfast","year":2010,"generated_at":"2026-05-20T14:24:08.611Z","source_paths":["web/data/city-atlas/cities/belfast/events_2010.json","web/data/city-atlas/cities/belfast/events.json","web/data/city-atlas/cities/belfast/detail_layers.geojson","web/data/city-atlas/cities/belfast/transport_roads_base.geojson"],"method":"Derived OpenCityLog lens geometry built from source-backed event points plus existing OSM road/detail geometry. Grid cells aggregate events by effective year. Trace lines reuse nearest mapped road geometry for context.","caveats":["Derived cells are evidence grids, not surveyed parcels, catchments, zones, or administrative boundaries.","Trace lines are nearest mapped street or work-location context, not surveyed utility networks, measured traffic speed, spend, vacancy, or service quality. No capacity data is inferred.","Borough, citywide, statistical, corridor, and multi-site records are excluded from site-like lens geometry; they remain available in the event list and evidence records.","OSM mapped-visibility dates and administrative decision dates can differ from real-world physical change dates."],"feature_layers":{"planning_cell":12},"excluded_non_site_record_count":0,"excluded_non_site_reasons":{}},"features":[{"type":"Feature","properties":{"id":"lens-detail-belfast-2010-planning_cell-0","layer":"planning_cell","category":"built_environment","year":2010,"visible_year":2010,"title":"1 source-backed planning and built record","confidence":"documented","confidence_mix":"documented:1","event_count":1,"source_count":1,"source_ids":"belfast-architecture-public-pages","event_ids":"bfs_arch_beechcroft_camhs_unit_opening_2010","event_ids_all":"bfs_arch_beechcroft_camhs_unit_opening_2010","source_urls":"https://www.4ni.co.uk/northern-ireland-news/116314/new-15-6m-hospital-unit-opens","geometry_precision_mix":"Approximate unit point, not a measured bed, daycase space, therapy room, school room, recreation hall, outdoor area, or full hospital-site boundary.:1","representation":"planning and built evidence grid cell","timing_note":"Filtered by event effective year. OSM mapped-visibility dates and administrative dates can differ from real-world physical change dates.","caveat":"Planning cells are derived from source-backed event locations; they are not parcel boundaries unless source geometry is separately present.","generated_from":"web/data/city-atlas/cities/belfast/events_2010.json","lifecycle_status":"completed","status":"source_record","cell_size_m":95,"intensity":0.289,"label":"Beechcroft child and adolescent mental health unit opened"},"geometry":{"type":"Polygon","coordinates":[[[-5.9106615,54.5433375],[-5.9091886,54.5433375],[-5.9091886,54.5441966],[-5.9106615,54.5441966],[-5.9106615,54.5433375]]]}},{"type":"Feature","properties":{"id":"lens-detail-belfast-2010-planning_cell-1","layer":"planning_cell","category":"built_environment","year":2010,"visible_year":2010,"title":"1 source-backed planning and built record","confidence":"documented","confidence_mix":"documented:1","event_count":1,"source_count":1,"source_ids":"belfast-architecture-public-pages","event_ids":"bfs_arch_belfast_boys_model_new_accommodation_documented_2010","event_ids_all":"bfs_arch_belfast_boys_model_new_accommodation_documented_2010","source_urls":"https://archive.niassembly.gov.uk/education/2007mandate/press/2010/edu011011.htm","geometry_precision_mix":"Approximate school point, not a measured classroom, theatre, sports facility, clinic room, playground, or full campus boundary.:1","representation":"planning and built evidence grid cell","timing_note":"Filtered by event effective year. OSM mapped-visibility dates and administrative dates can differ from real-world physical change dates.","caveat":"Planning cells are derived from source-backed event locations; they are not parcel boundaries unless source geometry is separately present.","generated_from":"web/data/city-atlas/cities/belfast/events_2010.json","lifecycle_status":"uncertain","status":"source_record","cell_size_m":95,"intensity":0.289,"label":"Belfast Boys' Model School new accommodation was documented"},"geometry":{"type":"Polygon","coordinates":[[[-5.9695766,54.630112],[-5.9681037,54.630112],[-5.9681037,54.6309711],[-5.9695766,54.6309711],[-5.9695766,54.630112]]]}},{"type":"Feature","properties":{"id":"lens-detail-belfast-2010-planning_cell-10","layer":"planning_cell","category":"built_environment","year":2010,"visible_year":2010,"title":"1 source-backed planning and built record","confidence":"documented","confidence_mix":"documented:1","event_count":1,"source_count":1,"source_ids":"pacni-appeals-search-round124","event_ids":"bfs_arch_round124_belfast_2010_pac_victoria_street_demolition_appeal_dismissed","event_ids_all":"bfs_arch_round124_belfast_2010_pac_victoria_street_demolition_appeal_dismissed","source_urls":"https://search.pacni.gov.uk/Appeals/CaseDetails?caseId=107816","geometry_precision_mix":"approximate address point:1","representation":"planning and built evidence grid cell","timing_note":"Filtered by event effective year. OSM mapped-visibility dates and administrative dates can differ from real-world physical change dates.","caveat":"Planning cells are derived from source-backed event locations; they are not parcel boundaries unless source geometry is separately present.","generated_from":"web/data/city-atlas/cities/belfast/events_2010.json","lifecycle_status":"demolished","status":"source_record","cell_size_m":95,"intensity":0.289,"label":"75-81 Victoria Street demolition appeal was dismissed"},"geometry":{"type":"Polygon","coordinates":[[[-5.9253902,54.5974641],[-5.9239174,54.5974641],[-5.9239174,54.5983233],[-5.9253902,54.5983233],[-5.9253902,54.5974641]]]}},{"type":"Feature","properties":{"id":"lens-detail-belfast-2010-planning_cell-11","layer":"planning_cell","category":"built_environment","year":2010,"visible_year":2010,"title":"1 source-backed planning and built record","confidence":"documented","confidence_mix":"documented:1","event_count":1,"source_count":1,"source_ids":"pacni-appeals-search-round124","event_ids":"bfs_arch_round124_belfast_2010_pac_wellington_park_hotel_demolition_appeal_dismissed","event_ids_all":"bfs_arch_round124_belfast_2010_pac_wellington_park_hotel_demolition_appeal_dismissed","source_urls":"https://search.pacni.gov.uk/Appeals/CaseDetails?caseId=107609","geometry_precision_mix":"approximate site point:1","representation":"planning and built evidence grid cell","timing_note":"Filtered by event effective year. OSM mapped-visibility dates and administrative dates can differ from real-world physical change dates.","caveat":"Planning cells are derived from source-backed event locations; they are not parcel boundaries unless source geometry is separately present.","generated_from":"web/data/city-atlas/cities/belfast/events_2010.json","lifecycle_status":"demolished","status":"source_record","cell_size_m":95,"intensity":0.289,"label":"Wellington Park Hotel demolition appeal was dismissed"},"geometry":{"type":"Polygon","coordinates":[[[-5.9415919,54.5845768],[-5.940119,54.5845768],[-5.940119,54.585436],[-5.9415919,54.585436],[-5.9415919,54.5845768]]]}},{"type":"Feature","properties":{"id":"lens-detail-belfast-2010-planning_cell-2","layer":"planning_cell","category":"built_environment","year":2010,"visible_year":2010,"title":"1 source-backed planning and built record","confidence":"documented","confidence_mix":"documented:1","event_count":1,"source_count":1,"source_ids":"belfast-architecture-public-pages","event_ids":"bfs_arch_belfast_model_school_for_girls_completion_2010","event_ids_all":"bfs_arch_belfast_model_school_for_girls_completion_2010","source_urls":"https://www.mcadamdesign.co.uk/projects/belfast-model-school-for-girls","geometry_precision_mix":"Approximate campus point, not a measured school footprint.:1","representation":"planning and built evidence grid cell","timing_note":"Filtered by event effective year. OSM mapped-visibility dates and administrative dates can differ from real-world physical change dates.","caveat":"Planning cells are derived from source-backed event locations; they are not parcel boundaries unless source geometry is separately present.","generated_from":"web/data/city-atlas/cities/belfast/events_2010.json","lifecycle_status":"completed","status":"source_record","cell_size_m":95,"intensity":0.289,"label":"Belfast Model School for Girls new building completed"},"geometry":{"type":"Polygon","coordinates":[[[-5.9563207,54.6369852],[-5.9548478,54.6369852],[-5.9548478,54.6378443],[-5.9563207,54.6378443],[-5.9563207,54.6369852]]]}},{"type":"Feature","properties":{"id":"lens-detail-belfast-2010-planning_cell-3","layer":"planning_cell","category":"built_environment","year":2010,"visible_year":2010,"title":"1 source-backed planning and built record","confidence":"documented","confidence_mix":"documented:1","event_count":1,"source_count":1,"source_ids":"belfast-architecture-public-pages","event_ids":"bfs_arch_crescent_arts_centre_reopening_2010","event_ids_all":"bfs_arch_crescent_arts_centre_reopening_2010","source_urls":"https://crescentarts.org/about-us","geometry_precision_mix":"Approximate building point, not a listed-building boundary.:1","representation":"planning and built evidence grid cell","timing_note":"Filtered by event effective year. OSM mapped-visibility dates and administrative dates can differ from real-world physical change dates.","caveat":"Planning cells are derived from source-backed event locations; they are not parcel boundaries unless source geometry is separately present.","generated_from":"web/data/city-atlas/cities/belfast/events_2010.json","lifecycle_status":"uncertain","status":"source_record","cell_size_m":95,"intensity":0.289,"label":"Crescent Arts Centre reopened after redevelopment"},"geometry":{"type":"Polygon","coordinates":[[[-5.9357004,54.5897318],[-5.9342275,54.5897318],[-5.9342275,54.5905909],[-5.9357004,54.5905909],[-5.9357004,54.5897318]]]}},{"type":"Feature","properties":{"id":"lens-detail-belfast-2010-planning_cell-4","layer":"planning_cell","category":"built_environment","year":2010,"visible_year":2010,"title":"1 source-backed planning and built record","confidence":"documented","confidence_mix":"documented:1","event_count":1,"source_count":1,"source_ids":"belfast-architecture-public-pages","event_ids":"bfs_arch_gate_lodge_bbt_home_2010","event_ids_all":"bfs_arch_gate_lodge_bbt_home_2010","source_urls":"https://www.belfastbuildingstrust.org/projects/gate-lodge/","geometry_precision_mix":"Approximate lodge point, not a measured listed-building boundary, office floor area, convent-complex boundary, or Ormeau Road frontage.:1","representation":"planning and built evidence grid cell","timing_note":"Filtered by event effective year. OSM mapped-visibility dates and administrative dates can differ from real-world physical change dates.","caveat":"Planning cells are derived from source-backed event locations; they are not parcel boundaries unless source geometry is separately present.","generated_from":"web/data/city-atlas/cities/belfast/events_2010.json","lifecycle_status":"uncertain","status":"source_record","cell_size_m":95,"intensity":0.289,"label":"Gate Lodge became Belfast Buildings Trust's home"},"geometry":{"type":"Polygon","coordinates":[[[-5.9150801,54.5708304],[-5.9136072,54.5708304],[-5.9136072,54.5716895],[-5.9150801,54.5716895],[-5.9150801,54.5708304]]]}},{"type":"Feature","properties":{"id":"lens-detail-belfast-2010-planning_cell-5","layer":"planning_cell","category":"built_environment","year":2010,"visible_year":2010,"title":"1 source-backed planning and built record","confidence":"documented","confidence_mix":"documented:1","event_count":1,"source_count":1,"source_ids":"belfast-architecture-public-pages","event_ids":"bfs_arch_grosvenor_grammar_school_opening_2010","event_ids_all":"bfs_arch_grosvenor_grammar_school_opening_2010","source_urls":"https://www.grosvenorgrammarschool.org.uk/our-history","geometry_precision_mix":"Approximate campus point, not a measured building or grounds footprint.:1","representation":"planning and built evidence grid cell","timing_note":"Filtered by event effective year. OSM mapped-visibility dates and administrative dates can differ from real-world physical change dates.","caveat":"Planning cells are derived from source-backed event locations; they are not parcel boundaries unless source geometry is separately present.","generated_from":"web/data/city-atlas/cities/belfast/events_2010.json","lifecycle_status":"completed","status":"source_record","cell_size_m":95,"intensity":0.289,"label":"Grosvenor Grammar School opened its Marina Park building"},"geometry":{"type":"Polygon","coordinates":[[[-5.8841496,54.5502107],[-5.8826768,54.5502107],[-5.8826768,54.5510699],[-5.8841496,54.5510699],[-5.8841496,54.5502107]]]}},{"type":"Feature","properties":{"id":"lens-detail-belfast-2010-planning_cell-6","layer":"planning_cell","category":"built_environment","year":2010,"visible_year":2010,"title":"1 source-backed planning and built record","confidence":"documented","confidence_mix":"documented:1","event_count":1,"source_count":1,"source_ids":"belfast-architecture-public-pages","event_ids":"bfs_arch_iveagh_centre_opening_2010","event_ids_all":"bfs_arch_iveagh_centre_opening_2010","source_urls":"https://belfasttrust.hscni.net/2010/03/26/iveagh-centre-opens/","geometry_precision_mix":"Approximate centre point, not a measured building footprint, ward, therapy room, garden, entrance, or full site boundary.:1","representation":"planning and built evidence grid cell","timing_note":"Filtered by event effective year. OSM mapped-visibility dates and administrative dates can differ from real-world physical change dates.","caveat":"Planning cells are derived from source-backed event locations; they are not parcel boundaries unless source geometry is separately present.","generated_from":"web/data/city-atlas/cities/belfast/events_2010.json","lifecycle_status":"completed","status":"source_record","cell_size_m":95,"intensity":0.289,"label":"Iveagh Centre opened in Broadway"},"geometry":{"type":"Polygon","coordinates":[[[-5.9681037,54.5862952],[-5.9666308,54.5862952],[-5.9666308,54.5871543],[-5.9681037,54.5871543],[-5.9681037,54.5862952]]]}},{"type":"Feature","properties":{"id":"lens-detail-belfast-2010-planning_cell-7","layer":"planning_cell","category":"built_environment","year":2010,"visible_year":2010,"title":"1 source-backed planning and built record","confidence":"documented","confidence_mix":"documented:1","event_count":1,"source_count":1,"source_ids":"belfast-architecture-public-pages","event_ids":"bfs_arch_knockbreda_health_care_centre_opening_2010","event_ids_all":"bfs_arch_knockbreda_health_care_centre_opening_2010","source_urls":"https://www.4ni.co.uk/northern-ireland-news/105583/mcgimpsey-opens-10m-health-centre","geometry_precision_mix":"Approximate health-centre point, not a measured consulting room, procedures unit, diagnostics area, cafe, car park, or full site boundary.:1","representation":"planning and built evidence grid cell","timing_note":"Filtered by event effective year. OSM mapped-visibility dates and administrative dates can differ from real-world physical change dates.","caveat":"Planning cells are derived from source-backed event locations; they are not parcel boundaries unless source geometry is separately present.","generated_from":"web/data/city-atlas/cities/belfast/events_2010.json","lifecycle_status":"completed","status":"source_record","cell_size_m":95,"intensity":0.289,"label":"Knockbreda Health and Care Centre officially opened"},"geometry":{"type":"Polygon","coordinates":[[[-5.9106615,54.5441966],[-5.9091886,54.5441966],[-5.9091886,54.5450558],[-5.9106615,54.5450558],[-5.9106615,54.5441966]]]}},{"type":"Feature","properties":{"id":"lens-detail-belfast-2010-planning_cell-8","layer":"planning_cell","category":"built_environment","year":2010,"visible_year":2010,"title":"1 source-backed planning and built record","confidence":"documented","confidence_mix":"documented:1","event_count":1,"source_count":1,"source_ids":"belfast-architecture-public-pages","event_ids":"bfs_arch_merchant_hotel_extension_opening_2010","event_ids_all":"bfs_arch_merchant_hotel_extension_opening_2010","source_urls":"https://www.4ni.co.uk/northern-ireland-news/114673/merchant-hotel-opens-16m-extension","geometry_precision_mix":"Approximate hotel point, not a measured room, spa, jazz bar, roof garden, conference suite, or listed-building boundary.:1","representation":"planning and built evidence grid cell","timing_note":"Filtered by event effective year. OSM mapped-visibility dates and administrative dates can differ from real-world physical change dates.","caveat":"Planning cells are derived from source-backed event locations; they are not parcel boundaries unless source geometry is separately present.","generated_from":"web/data/city-atlas/cities/belfast/events_2010.json","lifecycle_status":"completed","status":"source_record","cell_size_m":95,"intensity":0.289,"label":"Merchant Hotel New Chapter extension opened"},"geometry":{"type":"Polygon","coordinates":[[[-5.9268631,54.6009008],[-5.9253902,54.6009008],[-5.9253902,54.6017599],[-5.9268631,54.6017599],[-5.9268631,54.6009008]]]}},{"type":"Feature","properties":{"id":"lens-detail-belfast-2010-planning_cell-9","layer":"planning_cell","category":"built_environment","year":2010,"visible_year":2010,"title":"1 source-backed planning and built record","confidence":"documented","confidence_mix":"documented:1","event_count":1,"source_count":1,"source_ids":"belfast-architecture-public-pages","event_ids":"bfs_arch_plenum_building_pharmacy_opening_2010","event_ids_all":"bfs_arch_plenum_building_pharmacy_opening_2010","source_urls":"https://belfasttrust.hscni.net/2010/09/08/health-minister-opens-two-new-trust-facilities/","geometry_precision_mix":"Approximate hospital-campus point, not a measured manufacturing room, clean room, loading bay, plant area, or full site boundary.:1","representation":"planning and built evidence grid cell","timing_note":"Filtered by event effective year. OSM mapped-visibility dates and administrative dates can differ from real-world physical change dates.","caveat":"Planning cells are derived from source-backed event locations; they are not parcel boundaries unless source geometry is separately present.","generated_from":"web/data/city-atlas/cities/belfast/events_2010.json","lifecycle_status":"completed","status":"source_record","cell_size_m":95,"intensity":0.289,"label":"Plenum Building regional pharmacy manufacturing service opened"},"geometry":{"type":"Polygon","coordinates":[[[-5.9563207,54.5940275],[-5.9548478,54.5940275],[-5.9548478,54.5948867],[-5.9563207,54.5948867],[-5.9563207,54.5940275]]]}}]}
