{"type":"FeatureCollection","name":"belfast_lens_detail_2009","metadata":{"schema_version":"1.0.0","city_id":"belfast","year":2009,"generated_at":"2026-06-03T19:48:20.691Z","source_paths":["web/data/city-atlas/cities/belfast/events_2009.json","web/data/city-atlas/cities/belfast/events.json","web/data/city-atlas/cities/belfast/detail_layers.geojson","web/data/city-atlas/cities/belfast/transport_roads_base.geojson"],"method":"Derived OpenCityLog lens geometry built from source-backed event points plus existing OSM road/detail geometry. Grid cells aggregate events by effective year. Trace lines reuse nearest mapped road geometry for context.","caveats":["Derived cells are evidence grids, not surveyed parcels, catchments, zones, or administrative boundaries.","Trace lines are nearest mapped street or work-location context, not surveyed utility networks, measured traffic speed, spend, vacancy, or service quality. No capacity data is inferred.","When a lens/year has no same-category source-backed records, no coverage geometry is generated; sparse data remains sparse.","Borough, citywide, statistical, corridor, and multi-site records are excluded from site-like lens geometry; they remain available in the event list and evidence records.","OSM mapped-visibility dates and administrative decision dates can differ from real-world physical change dates."],"feature_layers":{"planning_cell":1},"excluded_non_site_record_count":0,"excluded_non_site_reasons":{}},"features":[{"type":"Feature","properties":{"id":"lens-detail-belfast-2009-planning_cell-0","layer":"planning_cell","category":"built_environment","year":2009,"visible_year":2009,"title":"1 source-backed planning and built record","confidence":"documented","confidence_mix":"documented:1","event_count":1,"source_count":1,"source_ids":"dfc_westside_masterplan_2009","event_ids":"belfast_westside_regeneration_masterplan_2009","event_ids_all":"belfast_westside_regeneration_masterplan_2009","source_urls":"https://www.communities-ni.gov.uk/publications/belfast-city-centre-westside-regeneration-masterplan","geometry_precision_mix":"Area reference marker only; the masterplan area boundary should be taken from the cited publication.:1","representation":"planning and built evidence grid cell","timing_note":"Filtered by event effective year. OSM mapped-visibility dates and administrative dates can differ from real-world physical change dates.","caveat":"Planning cells are derived from source-backed event locations; they are not parcel boundaries unless source geometry is separately present.","generated_from":"web/data/city-atlas/cities/belfast/events_2009.json","lifecycle_status":"planned","status":"source_record","cell_size_m":95,"intensity":0.289,"label":"Westside regeneration masterplan published for Belfast city centre"},"geometry":{"type":"Polygon","coordinates":[[[-5.9381371,54.6000416],[-5.936664,54.6000416],[-5.936664,54.6009008],[-5.9381371,54.6009008],[-5.9381371,54.6000416]]]}}]}
