{"type":"FeatureCollection","name":"belfast_lens_detail_2014","metadata":{"schema_version":"1.0.0","city_id":"belfast","year":2014,"generated_at":"2026-05-27T02:11:24.777Z","source_paths":["web/data/city-atlas/cities/belfast/events_2014.json","web/data/city-atlas/cities/belfast/events.json","web/data/city-atlas/cities/belfast/detail_layers.geojson","web/data/city-atlas/cities/belfast/transport_roads_base.geojson"],"method":"Derived OpenCityLog lens geometry built from source-backed event points plus existing OSM road/detail geometry. Grid cells aggregate events by effective year. Trace lines reuse nearest mapped road geometry for context.","caveats":["Derived cells are evidence grids, not surveyed parcels, catchments, zones, or administrative boundaries.","Trace lines are nearest mapped street or work-location context, not surveyed utility networks, measured traffic speed, spend, vacancy, or service quality. No capacity data is inferred.","When a lens/year has no same-category source-backed records, faint coverage-context grids keep the lens visible while explicitly recording the source gap. Those context features are not city-change events and are excluded from headline counts.","Borough, citywide, statistical, corridor, and multi-site records are excluded from site-like lens geometry; they remain available in the event list and evidence records.","OSM mapped-visibility dates and administrative decision dates can differ from real-world physical change dates."],"feature_layers":{"planning_cell":14,"economy_activity_cell":25,"utility_trace":12},"excluded_non_site_record_count":0,"excluded_non_site_reasons":{}},"features":[{"type":"Feature","properties":{"id":"lens-detail-belfast-2014-planning_cell-0","layer":"planning_cell","category":"built_environment","year":2014,"visible_year":2014,"title":"2 source-backed planning and built records","confidence":"documented","confidence_mix":"documented:2","event_count":2,"source_count":1,"source_ids":"dfc-harni-belfast","event_ids":"bfs_arch_belfast_harni_spatial_26_50_025_date_added_2014_02_24,bfs_arch_belfast_harni_spatial_26_50_026_date_added_2014_02_24","event_ids_all":"bfs_arch_belfast_harni_spatial_26_50_025_date_added_2014_02_24,bfs_arch_belfast_harni_spatial_26_50_026_date_added_2014_02_24","source_urls":"https://services2.arcgis.com/BdBkthNLO9mzGAMO/ArcGIS/rest/services/Historic_Environment_Division_GIS_Data/FeatureServer/3/query?where=OBJECTID%3D471&outFields=HB_Ref,BHARNI_Ref,Address,Category,Ownership,Date_Added,LGD,County,OBJECTID,Main_ID&returnGeometry=true&f=geojson,https://services2.arcgis.com/BdBkthNLO9mzGAMO/ArcGIS/rest/services/Historic_Environment_Division_GIS_Data/FeatureServer/3/query?where=OBJECTID%3D472&outFields=HB_Ref,BHARNI_Ref,Address,Category,Ownership,Date_Added,LGD,County,OBJECTID,Main_ID&returnGeometry=true&f=geojson","geometry_precision_mix":"Official heritage-at-risk point for the register entry; not a measured building footprint, parcel boundary, or condition-survey extent.:2","representation":"planning and built evidence grid cell","timing_note":"Filtered by event effective year. OSM mapped-visibility dates and administrative dates can differ from real-world physical change dates.","caveat":"Planning cells are derived from source-backed event locations; they are not parcel boundaries unless source geometry is separately present.","generated_from":"web/data/city-atlas/cities/belfast/events_2014.json","lifecycle_status":"demolished","status":"source_record","cell_size_m":95,"intensity":0.458,"label":"HARNI spatial layer recorded Demolished status for 58-66 Royal Avenue, Belfast"},"geometry":{"type":"Polygon","coordinates":[[[-5.9321733,54.6009008],[-5.9307002,54.6009008],[-5.9307002,54.6017599],[-5.9321733,54.6017599],[-5.9321733,54.6009008]]]}},{"type":"Feature","properties":{"id":"lens-detail-belfast-2014-planning_cell-1","layer":"planning_cell","category":"built_environment","year":2014,"visible_year":2014,"title":"1 source-backed planning and built record","confidence":"documented","confidence_mix":"documented:1","event_count":1,"source_count":1,"source_ids":"belfast-architecture-public-pages","event_ids":"bfs_arch_duncairn_centre_opening_2014","event_ids_all":"bfs_arch_duncairn_centre_opening_2014","source_urls":"https://belfastmedia.com/duncairn-culture-and-arts-centre-opens-its-doors","geometry_precision_mix":"Approximate building point, not a listed-site boundary.:1","representation":"planning and built evidence grid cell","timing_note":"Filtered by event effective year. OSM mapped-visibility dates and administrative dates can differ from real-world physical change dates.","caveat":"Planning cells are derived from source-backed event locations; they are not parcel boundaries unless source geometry is separately present.","generated_from":"web/data/city-atlas/cities/belfast/events_2014.json","lifecycle_status":"completed","status":"source_record","cell_size_m":95,"intensity":0.289,"label":"Duncairn Centre for Culture and Arts opened"},"geometry":{"type":"Polygon","coordinates":[[[-5.9351195,54.6129289],[-5.9336464,54.6129289],[-5.9336464,54.6137881],[-5.9351195,54.6137881],[-5.9351195,54.6129289]]]}},{"type":"Feature","properties":{"id":"lens-detail-belfast-2014-planning_cell-10","layer":"planning_cell","category":"built_environment","year":2014,"visible_year":2014,"title":"1 source-backed planning and built record","confidence":"documented","confidence_mix":"documented:1","event_count":1,"source_count":1,"source_ids":"bcc-minutes-pip-2014-2015-round183","event_ids":"bfs_arch_round183_belfast_new_lodge_playground_transformed_2014","event_ids_all":"bfs_arch_round183_belfast_new_lodge_playground_transformed_2014","source_urls":"https://minutes.belfastcity.gov.uk/ieListDocuments.aspx?CId=299&MId=1580","geometry_precision_mix":"approximate playground point, not a surveyed play-area boundary:1","representation":"planning and built evidence grid cell","timing_note":"Filtered by event effective year. OSM mapped-visibility dates and administrative dates can differ from real-world physical change dates.","caveat":"Planning cells are derived from source-backed event locations; they are not parcel boundaries unless source geometry is separately present.","generated_from":"web/data/city-atlas/cities/belfast/events_2014.json","lifecycle_status":"planned","status":"source_record","cell_size_m":95,"intensity":0.289,"label":"New Lodge playground was reported transformed in the 2013/2014 programme"},"geometry":{"type":"Polygon","coordinates":[[[-5.9365926,54.6069148],[-5.9351195,54.6069148],[-5.9351195,54.607774],[-5.9365926,54.607774],[-5.9365926,54.6069148]]]}},{"type":"Feature","properties":{"id":"lens-detail-belfast-2014-planning_cell-11","layer":"planning_cell","category":"built_environment","year":2014,"visible_year":2014,"title":"1 source-backed planning and built record","confidence":"documented","confidence_mix":"documented:1","event_count":1,"source_count":1,"source_ids":"bcc-minutes-pip-2014-2015-round183","event_ids":"bfs_arch_round183_belfast_sir_thomas_lady_dixon_playground_transformed_2014","event_ids_all":"bfs_arch_round183_belfast_sir_thomas_lady_dixon_playground_transformed_2014","source_urls":"https://minutes.belfastcity.gov.uk/ieListDocuments.aspx?CId=299&MId=1580","geometry_precision_mix":"approximate playground/site point, not a surveyed play-area boundary:1","representation":"planning and built evidence grid cell","timing_note":"Filtered by event effective year. OSM mapped-visibility dates and administrative dates can differ from real-world physical change dates.","caveat":"Planning cells are derived from source-backed event locations; they are not parcel boundaries unless source geometry is separately present.","generated_from":"web/data/city-atlas/cities/belfast/events_2014.json","lifecycle_status":"uncertain","status":"source_record","cell_size_m":95,"intensity":0.289,"label":"Sir Thomas and Lady Dixon Park playground was reported transformed"},"geometry":{"type":"Polygon","coordinates":[[[-5.9999359,54.5424783],[-5.9984628,54.5424783],[-5.9984628,54.5433375],[-5.9999359,54.5433375],[-5.9999359,54.5424783]]]}},{"type":"Feature","properties":{"id":"lens-detail-belfast-2014-planning_cell-12","layer":"planning_cell","category":"built_environment","year":2014,"visible_year":2014,"title":"1 source-backed planning and built record","confidence":"documented","confidence_mix":"documented:1","event_count":1,"source_count":1,"source_ids":"bcc-minutes-pip-2014-2015-round183","event_ids":"bfs_arch_round183_belfast_taughmonagh_playground_transformed_2014","event_ids_all":"bfs_arch_round183_belfast_taughmonagh_playground_transformed_2014","source_urls":"https://minutes.belfastcity.gov.uk/ieListDocuments.aspx?CId=299&MId=1580","geometry_precision_mix":"approximate playground point, not a surveyed play-area boundary:1","representation":"planning and built evidence grid cell","timing_note":"Filtered by event effective year. OSM mapped-visibility dates and administrative dates can differ from real-world physical change dates.","caveat":"Planning cells are derived from source-backed event locations; they are not parcel boundaries unless source geometry is separately present.","generated_from":"web/data/city-atlas/cities/belfast/events_2014.json","lifecycle_status":"uncertain","status":"source_record","cell_size_m":95,"intensity":0.289,"label":"Taughmonagh playground was reported transformed"},"geometry":{"type":"Polygon","coordinates":[[[-5.9690008,54.5553656],[-5.9675277,54.5553656],[-5.9675277,54.5562248],[-5.9690008,54.5562248],[-5.9690008,54.5553656]]]}},{"type":"Feature","properties":{"id":"lens-detail-belfast-2014-planning_cell-13","layer":"planning_cell","category":"built_environment","year":2014,"visible_year":2014,"title":"1 source-backed planning and built record","confidence":"documented","confidence_mix":"documented:1","event_count":1,"source_count":1,"source_ids":"belfast-architecture-public-pages","event_ids":"bfs_arch_soloist_completion_2014","event_ids_all":"bfs_arch_soloist_completion_2014","source_urls":"https://www.futurebelfast.com/property/1-lanyon-place-soloist/","geometry_precision_mix":"Approximate office point, not a measured office floor, cafe, restaurant, terrace, or Lanyon Place masterplan boundary.:1","representation":"planning and built evidence grid cell","timing_note":"Filtered by event effective year. OSM mapped-visibility dates and administrative dates can differ from real-world physical change dates.","caveat":"Planning cells are derived from source-backed event locations; they are not parcel boundaries unless source geometry is separately present.","generated_from":"web/data/city-atlas/cities/belfast/events_2014.json","lifecycle_status":"completed","status":"source_record","cell_size_m":95,"intensity":0.289,"label":"The Soloist completed at Lanyon Place"},"geometry":{"type":"Polygon","coordinates":[[[-5.9189154,54.596605],[-5.9174423,54.596605],[-5.9174423,54.5974641],[-5.9189154,54.5974641],[-5.9189154,54.596605]]]}},{"type":"Feature","properties":{"id":"lens-detail-belfast-2014-planning_cell-2","layer":"planning_cell","category":"built_environment","year":2014,"visible_year":2014,"title":"1 source-backed planning and built record","confidence":"documented","confidence_mix":"documented:1","event_count":1,"source_count":1,"source_ids":"belfast-architecture-public-pages","event_ids":"bfs_arch_kingspan_stadium_opening_2014","event_ids_all":"bfs_arch_kingspan_stadium_opening_2014","source_urls":"https://www.communities-ni.gov.uk/articles/stadium-development","geometry_precision_mix":"Approximate stadium point, not a stand-by-stand footprint.:1","representation":"planning and built evidence grid cell","timing_note":"Filtered by event effective year. OSM mapped-visibility dates and administrative dates can differ from real-world physical change dates.","caveat":"Planning cells are derived from source-backed event locations; they are not parcel boundaries unless source geometry is separately present.","generated_from":"web/data/city-atlas/cities/belfast/events_2014.json","lifecycle_status":"completed","status":"source_record","cell_size_m":95,"intensity":0.289,"label":"Redeveloped Kingspan Stadium officially opened"},"geometry":{"type":"Polygon","coordinates":[[[-5.9100768,54.5716895],[-5.9086037,54.5716895],[-5.9086037,54.5725487],[-5.9100768,54.5725487],[-5.9100768,54.5716895]]]}},{"type":"Feature","properties":{"id":"lens-detail-belfast-2014-planning_cell-3","layer":"planning_cell","category":"built_environment","year":2014,"visible_year":2014,"title":"1 source-backed planning and built record","confidence":"documented","confidence_mix":"documented:1","event_count":1,"source_count":1,"source_ids":"belfast-architecture-public-pages","event_ids":"bfs_arch_lagan_college_new_building_opening_2014","event_ids_all":"bfs_arch_lagan_college_new_building_opening_2014","source_urls":"https://nicie.org/odowd-officially-opens-new-building-for-lagan-college/","geometry_precision_mix":"Approximate school point, not a measured classroom, sports facility, entrance, car park, refurbished block, or full school boundary.:1","representation":"planning and built evidence grid cell","timing_note":"Filtered by event effective year. OSM mapped-visibility dates and administrative dates can differ from real-world physical change dates.","caveat":"Planning cells are derived from source-backed event locations; they are not parcel boundaries unless source geometry is separately present.","generated_from":"web/data/city-atlas/cities/belfast/events_2014.json","lifecycle_status":"completed","status":"source_record","cell_size_m":95,"intensity":0.289,"label":"Lagan College new school building officially opened"},"geometry":{"type":"Polygon","coordinates":[[[-5.8570452,54.5605206],[-5.8555721,54.5605206],[-5.8555721,54.5613797],[-5.8570452,54.5613797],[-5.8570452,54.5605206]]]}},{"type":"Feature","properties":{"id":"lens-detail-belfast-2014-planning_cell-4","layer":"planning_cell","category":"built_environment","year":2014,"visible_year":2014,"title":"1 source-backed planning and built record","confidence":"documented","confidence_mix":"documented:1","event_count":1,"source_count":1,"source_ids":"belfast-architecture-public-pages","event_ids":"bfs_arch_playground_programme_2013_2014_completion_2014","event_ids_all":"bfs_arch_playground_programme_2013_2014_completion_2014","source_urls":"https://minutes.belfastcity.gov.uk/documents/s28322/Playground%20Improvement%20Programme%202014%20-%202015.pdf","geometry_precision_mix":"Representative multi-site point, not a measured play item, safety surface, fence, planting bed, site furniture item, or individual playground boundary.:1","representation":"planning and built evidence grid cell","timing_note":"Filtered by event effective year. OSM mapped-visibility dates and administrative dates can differ from real-world physical change dates.","caveat":"Planning cells are derived from source-backed event locations; they are not parcel boundaries unless source geometry is separately present.","generated_from":"web/data/city-atlas/cities/belfast/events_2014.json","lifecycle_status":"completed","status":"source_record","cell_size_m":95,"intensity":0.289,"label":"Belfast 2013-2014 playground improvement programme completed"},"geometry":{"type":"Polygon","coordinates":[[[-5.9513236,54.5785628],[-5.9498505,54.5785628],[-5.9498505,54.5794219],[-5.9513236,54.5794219],[-5.9513236,54.5785628]]]}},{"type":"Feature","properties":{"id":"lens-detail-belfast-2014-planning_cell-5","layer":"planning_cell","category":"built_environment","year":2014,"visible_year":2014,"title":"1 source-backed planning and built record","confidence":"documented","confidence_mix":"documented:1","event_count":1,"source_count":1,"source_ids":"dfc-hed-buildings-harni","event_ids":"bfs_arch_round117_belfast_lime_kilns_listed_and_at_risk_2014","event_ids_all":"bfs_arch_round117_belfast_lime_kilns_listed_and_at_risk_2014","source_urls":"https://apps.communities-ni.gov.uk/Buildings/buildview.aspx?id=17042&js=false","geometry_precision_mix":"approximate point converted from 4-figure Irish Grid reference, not a measured listing boundary:1","representation":"planning and built evidence grid cell","timing_note":"Filtered by event effective year. OSM mapped-visibility dates and administrative dates can differ from real-world physical change dates.","caveat":"Planning cells are derived from source-backed event locations; they are not parcel boundaries unless source geometry is separately present.","generated_from":"web/data/city-atlas/cities/belfast/events_2014.json","lifecycle_status":"uncertain","status":"source_record","cell_size_m":95,"intensity":0.289,"label":"Lime Kilns at 1049 Crumlin Road were listed at Grade B1"},"geometry":{"type":"Polygon","coordinates":[[[-5.971947,54.6344077],[-5.9704739,54.6344077],[-5.9704739,54.6352669],[-5.971947,54.6352669],[-5.971947,54.6344077]]]}},{"type":"Feature","properties":{"id":"lens-detail-belfast-2014-planning_cell-6","layer":"planning_cell","category":"built_environment","year":2014,"visible_year":2014,"title":"1 source-backed planning and built record","confidence":"documented","confidence_mix":"documented:1","event_count":1,"source_count":1,"source_ids":"dfc-hed-buildings","event_ids":"bfs_arch_round120_belfast_hed_adelaide_street_warehouse_listing_2014","event_ids_all":"bfs_arch_round120_belfast_hed_adelaide_street_warehouse_listing_2014","source_urls":"https://apps.communities-ni.gov.uk/Buildings/buildview.aspx?id=16919&js=false","geometry_precision_mix":"approximate building point, not a measured listed-building boundary or warehouse footprint:1","representation":"planning and built evidence grid cell","timing_note":"Filtered by event effective year. OSM mapped-visibility dates and administrative dates can differ from real-world physical change dates.","caveat":"Planning cells are derived from source-backed event locations; they are not parcel boundaries unless source geometry is separately present.","generated_from":"web/data/city-atlas/cities/belfast/events_2014.json","lifecycle_status":"uncertain","status":"source_record","cell_size_m":95,"intensity":0.289,"label":"51-59 Adelaide Street former linen warehouse was listed"},"geometry":{"type":"Polygon","coordinates":[[[-5.9292271,54.5931684],[-5.927754,54.5931684],[-5.927754,54.5940275],[-5.9292271,54.5940275],[-5.9292271,54.5931684]]]}},{"type":"Feature","properties":{"id":"lens-detail-belfast-2014-planning_cell-7","layer":"planning_cell","category":"built_environment","year":2014,"visible_year":2014,"title":"1 source-backed planning and built record","confidence":"documented","confidence_mix":"documented:1","event_count":1,"source_count":1,"source_ids":"bcc-minutes-pip-2014-2015-round183","event_ids":"bfs_arch_round183_belfast_clara_street_playground_transformed_2014","event_ids_all":"bfs_arch_round183_belfast_clara_street_playground_transformed_2014","source_urls":"https://minutes.belfastcity.gov.uk/ieListDocuments.aspx?CId=299&MId=1580","geometry_precision_mix":"approximate playground point, not a surveyed play-area boundary:1","representation":"planning and built evidence grid cell","timing_note":"Filtered by event effective year. OSM mapped-visibility dates and administrative dates can differ from real-world physical change dates.","caveat":"Planning cells are derived from source-backed event locations; they are not parcel boundaries unless source geometry is separately present.","generated_from":"web/data/city-atlas/cities/belfast/events_2014.json","lifecycle_status":"uncertain","status":"source_record","cell_size_m":95,"intensity":0.289,"label":"Clara Street playground was reported transformed"},"geometry":{"type":"Polygon","coordinates":[[[-5.8879803,54.5948867],[-5.8865072,54.5948867],[-5.8865072,54.5957458],[-5.8879803,54.5957458],[-5.8879803,54.5948867]]]}},{"type":"Feature","properties":{"id":"lens-detail-belfast-2014-planning_cell-8","layer":"planning_cell","category":"built_environment","year":2014,"visible_year":2014,"title":"1 source-backed planning and built record","confidence":"documented","confidence_mix":"documented:1","event_count":1,"source_count":1,"source_ids":"bcc-minutes-pip-2014-2015-round183","event_ids":"bfs_arch_round183_belfast_dover_street_playground_transformed_2014","event_ids_all":"bfs_arch_round183_belfast_dover_street_playground_transformed_2014","source_urls":"https://minutes.belfastcity.gov.uk/ieListDocuments.aspx?CId=299&MId=1580","geometry_precision_mix":"approximate playground point, not a surveyed play-area boundary:1","representation":"planning and built evidence grid cell","timing_note":"Filtered by event effective year. OSM mapped-visibility dates and administrative dates can differ from real-world physical change dates.","caveat":"Planning cells are derived from source-backed event locations; they are not parcel boundaries unless source geometry is separately present.","generated_from":"web/data/city-atlas/cities/belfast/events_2014.json","lifecycle_status":"uncertain","status":"source_record","cell_size_m":95,"intensity":0.289,"label":"Dover Street playground was reported transformed"},"geometry":{"type":"Polygon","coordinates":[[[-5.9498505,54.6026191],[-5.9483774,54.6026191],[-5.9483774,54.6034782],[-5.9498505,54.6034782],[-5.9498505,54.6026191]]]}},{"type":"Feature","properties":{"id":"lens-detail-belfast-2014-planning_cell-9","layer":"planning_cell","category":"built_environment","year":2014,"visible_year":2014,"title":"1 source-backed planning and built record","confidence":"documented","confidence_mix":"documented:1","event_count":1,"source_count":1,"source_ids":"bcc-minutes-pip-2014-2015-round183","event_ids":"bfs_arch_round183_belfast_michelle_baird_playground_transformed_2014","event_ids_all":"bfs_arch_round183_belfast_michelle_baird_playground_transformed_2014","source_urls":"https://minutes.belfastcity.gov.uk/ieListDocuments.aspx?CId=299&MId=1580","geometry_precision_mix":"approximate playground point, not a surveyed play-area boundary:1","representation":"planning and built evidence grid cell","timing_note":"Filtered by event effective year. OSM mapped-visibility dates and administrative dates can differ from real-world physical change dates.","caveat":"Planning cells are derived from source-backed event locations; they are not parcel boundaries unless source geometry is separately present.","generated_from":"web/data/city-atlas/cities/belfast/events_2014.json","lifecycle_status":"planned","status":"source_record","cell_size_m":95,"intensity":0.289,"label":"Michelle Baird Memorial playground was reported transformed in the 2013/2014 programme"},"geometry":{"type":"Polygon","coordinates":[[[-5.9778394,54.6112106],[-5.9763663,54.6112106],[-5.9763663,54.6120697],[-5.9778394,54.6120697],[-5.9778394,54.6112106]]]}},{"type":"Feature","properties":{"id":"lens-detail-belfast-2014-economy_activity_cell-coverage-context-0","layer":"economy_activity_cell","category":"economy","year":2014,"visible_year":2014,"title":"Belfast, Northern Ireland 2014 economy coverage context","confidence":"inferred","confidence_mix":"inferred:1","event_count":0,"source_count":1,"source_ids":"opendatani-spatial-ni","event_ids":"","event_ids_all":"","source_urls":"","geometry_precision_mix":"configured atlas coverage grid from official scope sources","representation":"economy lens coverage context","timing_note":"No license-compatible economy records are currently ingested for 2014; this lens geometry marks source coverage context only.","caveat":"Coverage context is not a city-change event, not a measured condition, and is excluded from headline counts.","generated_from":"web/data/city-atlas/cities/belfast/events_2014.json","coverage_status":"no_same_category_records","evidence_role":"context_not_year_specific_change_evidence","source_kind":"official_scope_context","headline_count_excluded":true,"intensity":0.16,"label":"No same-lens economy records currently ingested","sector":"coverage_context","activity_status":"no_year_records","status":"no_year_records"},"geometry":{"type":"Polygon","coordinates":[[[-6.12,54.45],[-6.044,54.45],[-6.044,54.51],[-6.12,54.51],[-6.12,54.45]]]}},{"type":"Feature","properties":{"id":"lens-detail-belfast-2014-economy_activity_cell-coverage-context-1","layer":"economy_activity_cell","category":"economy","year":2014,"visible_year":2014,"title":"Belfast, Northern Ireland 2014 economy coverage context","confidence":"inferred","confidence_mix":"inferred:1","event_count":0,"source_count":1,"source_ids":"opendatani-spatial-ni","event_ids":"","event_ids_all":"","source_urls":"","geometry_precision_mix":"configured atlas coverage grid from official scope sources","representation":"economy lens coverage context","timing_note":"No license-compatible economy records are currently ingested for 2014; this lens geometry marks source coverage context only.","caveat":"Coverage context is not a city-change event, not a measured condition, and is excluded from headline counts.","generated_from":"web/data/city-atlas/cities/belfast/events_2014.json","coverage_status":"no_same_category_records","evidence_role":"context_not_year_specific_change_evidence","source_kind":"official_scope_context","headline_count_excluded":true,"intensity":0.16,"label":"No same-lens economy records currently ingested","sector":"coverage_context","activity_status":"no_year_records","status":"no_year_records"},"geometry":{"type":"Polygon","coordinates":[[[-6.044,54.45],[-5.968,54.45],[-5.968,54.51],[-6.044,54.51],[-6.044,54.45]]]}},{"type":"Feature","properties":{"id":"lens-detail-belfast-2014-economy_activity_cell-coverage-context-2","layer":"economy_activity_cell","category":"economy","year":2014,"visible_year":2014,"title":"Belfast, Northern Ireland 2014 economy coverage context","confidence":"inferred","confidence_mix":"inferred:1","event_count":0,"source_count":1,"source_ids":"opendatani-spatial-ni","event_ids":"","event_ids_all":"","source_urls":"","geometry_precision_mix":"configured atlas coverage grid from official scope sources","representation":"economy lens coverage context","timing_note":"No license-compatible economy records are currently ingested for 2014; this lens geometry marks source coverage context only.","caveat":"Coverage context is not a city-change event, not a measured condition, and is excluded from headline counts.","generated_from":"web/data/city-atlas/cities/belfast/events_2014.json","coverage_status":"no_same_category_records","evidence_role":"context_not_year_specific_change_evidence","source_kind":"official_scope_context","headline_count_excluded":true,"intensity":0.16,"label":"No same-lens economy records currently ingested","sector":"coverage_context","activity_status":"no_year_records","status":"no_year_records"},"geometry":{"type":"Polygon","coordinates":[[[-5.968,54.45],[-5.892,54.45],[-5.892,54.51],[-5.968,54.51],[-5.968,54.45]]]}},{"type":"Feature","properties":{"id":"lens-detail-belfast-2014-economy_activity_cell-coverage-context-3","layer":"economy_activity_cell","category":"economy","year":2014,"visible_year":2014,"title":"Belfast, Northern Ireland 2014 economy coverage context","confidence":"inferred","confidence_mix":"inferred:1","event_count":0,"source_count":1,"source_ids":"opendatani-spatial-ni","event_ids":"","event_ids_all":"","source_urls":"","geometry_precision_mix":"configured atlas coverage grid from official scope sources","representation":"economy lens coverage context","timing_note":"No license-compatible economy records are currently ingested for 2014; this lens geometry marks source coverage context only.","caveat":"Coverage context is not a city-change event, not a measured condition, and is excluded from headline counts.","generated_from":"web/data/city-atlas/cities/belfast/events_2014.json","coverage_status":"no_same_category_records","evidence_role":"context_not_year_specific_change_evidence","source_kind":"official_scope_context","headline_count_excluded":true,"intensity":0.16,"label":"No same-lens economy records currently ingested","sector":"coverage_context","activity_status":"no_year_records","status":"no_year_records"},"geometry":{"type":"Polygon","coordinates":[[[-5.892,54.45],[-5.816,54.45],[-5.816,54.51],[-5.892,54.51],[-5.892,54.45]]]}},{"type":"Feature","properties":{"id":"lens-detail-belfast-2014-economy_activity_cell-coverage-context-4","layer":"economy_activity_cell","category":"economy","year":2014,"visible_year":2014,"title":"Belfast, Northern Ireland 2014 economy coverage context","confidence":"inferred","confidence_mix":"inferred:1","event_count":0,"source_count":1,"source_ids":"opendatani-spatial-ni","event_ids":"","event_ids_all":"","source_urls":"","geometry_precision_mix":"configured atlas coverage grid from official scope sources","representation":"economy lens coverage context","timing_note":"No license-compatible economy records are currently ingested for 2014; this lens geometry marks source coverage context only.","caveat":"Coverage context is not a city-change event, not a measured condition, and is excluded from headline counts.","generated_from":"web/data/city-atlas/cities/belfast/events_2014.json","coverage_status":"no_same_category_records","evidence_role":"context_not_year_specific_change_evidence","source_kind":"official_scope_context","headline_count_excluded":true,"intensity":0.16,"label":"No same-lens economy records currently ingested","sector":"coverage_context","activity_status":"no_year_records","status":"no_year_records"},"geometry":{"type":"Polygon","coordinates":[[[-5.816,54.45],[-5.74,54.45],[-5.74,54.51],[-5.816,54.51],[-5.816,54.45]]]}},{"type":"Feature","properties":{"id":"lens-detail-belfast-2014-economy_activity_cell-coverage-context-5","layer":"economy_activity_cell","category":"economy","year":2014,"visible_year":2014,"title":"Belfast, Northern Ireland 2014 economy coverage context","confidence":"inferred","confidence_mix":"inferred:1","event_count":0,"source_count":1,"source_ids":"opendatani-spatial-ni","event_ids":"","event_ids_all":"","source_urls":"","geometry_precision_mix":"configured atlas coverage grid from official scope sources","representation":"economy lens coverage context","timing_note":"No license-compatible economy records are currently ingested for 2014; this lens geometry marks source coverage context only.","caveat":"Coverage context is not a city-change event, not a measured condition, and is excluded from headline counts.","generated_from":"web/data/city-atlas/cities/belfast/events_2014.json","coverage_status":"no_same_category_records","evidence_role":"context_not_year_specific_change_evidence","source_kind":"official_scope_context","headline_count_excluded":true,"intensity":0.16,"label":"No same-lens economy records currently ingested","sector":"coverage_context","activity_status":"no_year_records","status":"no_year_records"},"geometry":{"type":"Polygon","coordinates":[[[-6.12,54.51],[-6.044,54.51],[-6.044,54.57],[-6.12,54.57],[-6.12,54.51]]]}},{"type":"Feature","properties":{"id":"lens-detail-belfast-2014-economy_activity_cell-coverage-context-6","layer":"economy_activity_cell","category":"economy","year":2014,"visible_year":2014,"title":"Belfast, Northern Ireland 2014 economy coverage context","confidence":"inferred","confidence_mix":"inferred:1","event_count":0,"source_count":1,"source_ids":"opendatani-spatial-ni","event_ids":"","event_ids_all":"","source_urls":"","geometry_precision_mix":"configured atlas coverage grid from official scope sources","representation":"economy lens coverage context","timing_note":"No license-compatible economy records are currently ingested for 2014; this lens geometry marks source coverage context only.","caveat":"Coverage context is not a city-change event, not a measured condition, and is excluded from headline counts.","generated_from":"web/data/city-atlas/cities/belfast/events_2014.json","coverage_status":"no_same_category_records","evidence_role":"context_not_year_specific_change_evidence","source_kind":"official_scope_context","headline_count_excluded":true,"intensity":0.16,"label":"No same-lens economy records currently ingested","sector":"coverage_context","activity_status":"no_year_records","status":"no_year_records"},"geometry":{"type":"Polygon","coordinates":[[[-6.044,54.51],[-5.968,54.51],[-5.968,54.57],[-6.044,54.57],[-6.044,54.51]]]}},{"type":"Feature","properties":{"id":"lens-detail-belfast-2014-economy_activity_cell-coverage-context-7","layer":"economy_activity_cell","category":"economy","year":2014,"visible_year":2014,"title":"Belfast, Northern Ireland 2014 economy coverage context","confidence":"inferred","confidence_mix":"inferred:1","event_count":0,"source_count":1,"source_ids":"opendatani-spatial-ni","event_ids":"","event_ids_all":"","source_urls":"","geometry_precision_mix":"configured atlas coverage grid from official scope sources","representation":"economy lens coverage context","timing_note":"No license-compatible economy records are currently ingested for 2014; this lens geometry marks source coverage context only.","caveat":"Coverage context is not a city-change event, not a measured condition, and is excluded from headline counts.","generated_from":"web/data/city-atlas/cities/belfast/events_2014.json","coverage_status":"no_same_category_records","evidence_role":"context_not_year_specific_change_evidence","source_kind":"official_scope_context","headline_count_excluded":true,"intensity":0.16,"label":"No same-lens economy records currently ingested","sector":"coverage_context","activity_status":"no_year_records","status":"no_year_records"},"geometry":{"type":"Polygon","coordinates":[[[-5.968,54.51],[-5.892,54.51],[-5.892,54.57],[-5.968,54.57],[-5.968,54.51]]]}},{"type":"Feature","properties":{"id":"lens-detail-belfast-2014-economy_activity_cell-coverage-context-8","layer":"economy_activity_cell","category":"economy","year":2014,"visible_year":2014,"title":"Belfast, Northern Ireland 2014 economy coverage context","confidence":"inferred","confidence_mix":"inferred:1","event_count":0,"source_count":1,"source_ids":"opendatani-spatial-ni","event_ids":"","event_ids_all":"","source_urls":"","geometry_precision_mix":"configured atlas coverage grid from official scope sources","representation":"economy lens coverage context","timing_note":"No license-compatible economy records are currently ingested for 2014; this lens geometry marks source coverage context only.","caveat":"Coverage context is not a city-change event, not a measured condition, and is excluded from headline counts.","generated_from":"web/data/city-atlas/cities/belfast/events_2014.json","coverage_status":"no_same_category_records","evidence_role":"context_not_year_specific_change_evidence","source_kind":"official_scope_context","headline_count_excluded":true,"intensity":0.16,"label":"No same-lens economy records currently ingested","sector":"coverage_context","activity_status":"no_year_records","status":"no_year_records"},"geometry":{"type":"Polygon","coordinates":[[[-5.892,54.51],[-5.816,54.51],[-5.816,54.57],[-5.892,54.57],[-5.892,54.51]]]}},{"type":"Feature","properties":{"id":"lens-detail-belfast-2014-economy_activity_cell-coverage-context-9","layer":"economy_activity_cell","category":"economy","year":2014,"visible_year":2014,"title":"Belfast, Northern Ireland 2014 economy coverage context","confidence":"inferred","confidence_mix":"inferred:1","event_count":0,"source_count":1,"source_ids":"opendatani-spatial-ni","event_ids":"","event_ids_all":"","source_urls":"","geometry_precision_mix":"configured atlas coverage grid from official scope sources","representation":"economy lens coverage context","timing_note":"No license-compatible economy records are currently ingested for 2014; this lens geometry marks source coverage context only.","caveat":"Coverage context is not a city-change event, not a measured condition, and is excluded from headline counts.","generated_from":"web/data/city-atlas/cities/belfast/events_2014.json","coverage_status":"no_same_category_records","evidence_role":"context_not_year_specific_change_evidence","source_kind":"official_scope_context","headline_count_excluded":true,"intensity":0.16,"label":"No same-lens economy records currently ingested","sector":"coverage_context","activity_status":"no_year_records","status":"no_year_records"},"geometry":{"type":"Polygon","coordinates":[[[-5.816,54.51],[-5.74,54.51],[-5.74,54.57],[-5.816,54.57],[-5.816,54.51]]]}},{"type":"Feature","properties":{"id":"lens-detail-belfast-2014-economy_activity_cell-coverage-context-10","layer":"economy_activity_cell","category":"economy","year":2014,"visible_year":2014,"title":"Belfast, Northern Ireland 2014 economy coverage context","confidence":"inferred","confidence_mix":"inferred:1","event_count":0,"source_count":1,"source_ids":"opendatani-spatial-ni","event_ids":"","event_ids_all":"","source_urls":"","geometry_precision_mix":"configured atlas coverage grid from official scope sources","representation":"economy lens coverage context","timing_note":"No license-compatible economy records are currently ingested for 2014; this lens geometry marks source coverage context only.","caveat":"Coverage context is not a city-change event, not a measured condition, and is excluded from headline counts.","generated_from":"web/data/city-atlas/cities/belfast/events_2014.json","coverage_status":"no_same_category_records","evidence_role":"context_not_year_specific_change_evidence","source_kind":"official_scope_context","headline_count_excluded":true,"intensity":0.16,"label":"No same-lens economy records currently ingested","sector":"coverage_context","activity_status":"no_year_records","status":"no_year_records"},"geometry":{"type":"Polygon","coordinates":[[[-6.12,54.57],[-6.044,54.57],[-6.044,54.63],[-6.12,54.63],[-6.12,54.57]]]}},{"type":"Feature","properties":{"id":"lens-detail-belfast-2014-economy_activity_cell-coverage-context-11","layer":"economy_activity_cell","category":"economy","year":2014,"visible_year":2014,"title":"Belfast, Northern Ireland 2014 economy coverage context","confidence":"inferred","confidence_mix":"inferred:1","event_count":0,"source_count":1,"source_ids":"opendatani-spatial-ni","event_ids":"","event_ids_all":"","source_urls":"","geometry_precision_mix":"configured atlas coverage grid from official scope sources","representation":"economy lens coverage context","timing_note":"No license-compatible economy records are currently ingested for 2014; this lens geometry marks source coverage context only.","caveat":"Coverage context is not a city-change event, not a measured condition, and is excluded from headline counts.","generated_from":"web/data/city-atlas/cities/belfast/events_2014.json","coverage_status":"no_same_category_records","evidence_role":"context_not_year_specific_change_evidence","source_kind":"official_scope_context","headline_count_excluded":true,"intensity":0.16,"label":"No same-lens economy records currently ingested","sector":"coverage_context","activity_status":"no_year_records","status":"no_year_records"},"geometry":{"type":"Polygon","coordinates":[[[-6.044,54.57],[-5.968,54.57],[-5.968,54.63],[-6.044,54.63],[-6.044,54.57]]]}},{"type":"Feature","properties":{"id":"lens-detail-belfast-2014-economy_activity_cell-coverage-context-12","layer":"economy_activity_cell","category":"economy","year":2014,"visible_year":2014,"title":"Belfast, Northern Ireland 2014 economy coverage context","confidence":"inferred","confidence_mix":"inferred:1","event_count":0,"source_count":1,"source_ids":"opendatani-spatial-ni","event_ids":"","event_ids_all":"","source_urls":"","geometry_precision_mix":"configured atlas coverage grid from official scope sources","representation":"economy lens coverage context","timing_note":"No license-compatible economy records are currently ingested for 2014; this lens geometry marks source coverage context only.","caveat":"Coverage context is not a city-change event, not a measured condition, and is excluded from headline counts.","generated_from":"web/data/city-atlas/cities/belfast/events_2014.json","coverage_status":"no_same_category_records","evidence_role":"context_not_year_specific_change_evidence","source_kind":"official_scope_context","headline_count_excluded":true,"intensity":0.16,"label":"No same-lens economy records currently ingested","sector":"coverage_context","activity_status":"no_year_records","status":"no_year_records"},"geometry":{"type":"Polygon","coordinates":[[[-5.968,54.57],[-5.892,54.57],[-5.892,54.63],[-5.968,54.63],[-5.968,54.57]]]}},{"type":"Feature","properties":{"id":"lens-detail-belfast-2014-economy_activity_cell-coverage-context-13","layer":"economy_activity_cell","category":"economy","year":2014,"visible_year":2014,"title":"Belfast, Northern Ireland 2014 economy coverage context","confidence":"inferred","confidence_mix":"inferred:1","event_count":0,"source_count":1,"source_ids":"opendatani-spatial-ni","event_ids":"","event_ids_all":"","source_urls":"","geometry_precision_mix":"configured atlas coverage grid from official scope sources","representation":"economy lens coverage context","timing_note":"No license-compatible economy records are currently ingested for 2014; this lens geometry marks source coverage context only.","caveat":"Coverage context is not a city-change event, not a measured condition, and is excluded from headline counts.","generated_from":"web/data/city-atlas/cities/belfast/events_2014.json","coverage_status":"no_same_category_records","evidence_role":"context_not_year_specific_change_evidence","source_kind":"official_scope_context","headline_count_excluded":true,"intensity":0.16,"label":"No same-lens economy records currently ingested","sector":"coverage_context","activity_status":"no_year_records","status":"no_year_records"},"geometry":{"type":"Polygon","coordinates":[[[-5.892,54.57],[-5.816,54.57],[-5.816,54.63],[-5.892,54.63],[-5.892,54.57]]]}},{"type":"Feature","properties":{"id":"lens-detail-belfast-2014-economy_activity_cell-coverage-context-14","layer":"economy_activity_cell","category":"economy","year":2014,"visible_year":2014,"title":"Belfast, Northern Ireland 2014 economy coverage context","confidence":"inferred","confidence_mix":"inferred:1","event_count":0,"source_count":1,"source_ids":"opendatani-spatial-ni","event_ids":"","event_ids_all":"","source_urls":"","geometry_precision_mix":"configured atlas coverage grid from official scope sources","representation":"economy lens coverage context","timing_note":"No license-compatible economy records are currently ingested for 2014; this lens geometry marks source coverage context only.","caveat":"Coverage context is not a city-change event, not a measured condition, and is excluded from headline counts.","generated_from":"web/data/city-atlas/cities/belfast/events_2014.json","coverage_status":"no_same_category_records","evidence_role":"context_not_year_specific_change_evidence","source_kind":"official_scope_context","headline_count_excluded":true,"intensity":0.16,"label":"No same-lens economy records currently ingested","sector":"coverage_context","activity_status":"no_year_records","status":"no_year_records"},"geometry":{"type":"Polygon","coordinates":[[[-5.816,54.57],[-5.74,54.57],[-5.74,54.63],[-5.816,54.63],[-5.816,54.57]]]}},{"type":"Feature","properties":{"id":"lens-detail-belfast-2014-economy_activity_cell-coverage-context-15","layer":"economy_activity_cell","category":"economy","year":2014,"visible_year":2014,"title":"Belfast, Northern Ireland 2014 economy coverage context","confidence":"inferred","confidence_mix":"inferred:1","event_count":0,"source_count":1,"source_ids":"opendatani-spatial-ni","event_ids":"","event_ids_all":"","source_urls":"","geometry_precision_mix":"configured atlas coverage grid from official scope sources","representation":"economy lens coverage context","timing_note":"No license-compatible economy records are currently ingested for 2014; this lens geometry marks source coverage context only.","caveat":"Coverage context is not a city-change event, not a measured condition, and is excluded from headline counts.","generated_from":"web/data/city-atlas/cities/belfast/events_2014.json","coverage_status":"no_same_category_records","evidence_role":"context_not_year_specific_change_evidence","source_kind":"official_scope_context","headline_count_excluded":true,"intensity":0.16,"label":"No same-lens economy records currently ingested","sector":"coverage_context","activity_status":"no_year_records","status":"no_year_records"},"geometry":{"type":"Polygon","coordinates":[[[-6.12,54.63],[-6.044,54.63],[-6.044,54.69],[-6.12,54.69],[-6.12,54.63]]]}},{"type":"Feature","properties":{"id":"lens-detail-belfast-2014-economy_activity_cell-coverage-context-16","layer":"economy_activity_cell","category":"economy","year":2014,"visible_year":2014,"title":"Belfast, Northern Ireland 2014 economy coverage context","confidence":"inferred","confidence_mix":"inferred:1","event_count":0,"source_count":1,"source_ids":"opendatani-spatial-ni","event_ids":"","event_ids_all":"","source_urls":"","geometry_precision_mix":"configured atlas coverage grid from official scope sources","representation":"economy lens coverage context","timing_note":"No license-compatible economy records are currently ingested for 2014; this lens geometry marks source coverage context only.","caveat":"Coverage context is not a city-change event, not a measured condition, and is excluded from headline counts.","generated_from":"web/data/city-atlas/cities/belfast/events_2014.json","coverage_status":"no_same_category_records","evidence_role":"context_not_year_specific_change_evidence","source_kind":"official_scope_context","headline_count_excluded":true,"intensity":0.16,"label":"No same-lens economy records currently ingested","sector":"coverage_context","activity_status":"no_year_records","status":"no_year_records"},"geometry":{"type":"Polygon","coordinates":[[[-6.044,54.63],[-5.968,54.63],[-5.968,54.69],[-6.044,54.69],[-6.044,54.63]]]}},{"type":"Feature","properties":{"id":"lens-detail-belfast-2014-economy_activity_cell-coverage-context-17","layer":"economy_activity_cell","category":"economy","year":2014,"visible_year":2014,"title":"Belfast, Northern Ireland 2014 economy coverage context","confidence":"inferred","confidence_mix":"inferred:1","event_count":0,"source_count":1,"source_ids":"opendatani-spatial-ni","event_ids":"","event_ids_all":"","source_urls":"","geometry_precision_mix":"configured atlas coverage grid from official scope sources","representation":"economy lens coverage context","timing_note":"No license-compatible economy records are currently ingested for 2014; this lens geometry marks source coverage context only.","caveat":"Coverage context is not a city-change event, not a measured condition, and is excluded from headline counts.","generated_from":"web/data/city-atlas/cities/belfast/events_2014.json","coverage_status":"no_same_category_records","evidence_role":"context_not_year_specific_change_evidence","source_kind":"official_scope_context","headline_count_excluded":true,"intensity":0.16,"label":"No same-lens economy records currently ingested","sector":"coverage_context","activity_status":"no_year_records","status":"no_year_records"},"geometry":{"type":"Polygon","coordinates":[[[-5.968,54.63],[-5.892,54.63],[-5.892,54.69],[-5.968,54.69],[-5.968,54.63]]]}},{"type":"Feature","properties":{"id":"lens-detail-belfast-2014-economy_activity_cell-coverage-context-18","layer":"economy_activity_cell","category":"economy","year":2014,"visible_year":2014,"title":"Belfast, Northern Ireland 2014 economy coverage context","confidence":"inferred","confidence_mix":"inferred:1","event_count":0,"source_count":1,"source_ids":"opendatani-spatial-ni","event_ids":"","event_ids_all":"","source_urls":"","geometry_precision_mix":"configured atlas coverage grid from official scope sources","representation":"economy lens coverage context","timing_note":"No license-compatible economy records are currently ingested for 2014; this lens geometry marks source coverage context only.","caveat":"Coverage context is not a city-change event, not a measured condition, and is excluded from headline counts.","generated_from":"web/data/city-atlas/cities/belfast/events_2014.json","coverage_status":"no_same_category_records","evidence_role":"context_not_year_specific_change_evidence","source_kind":"official_scope_context","headline_count_excluded":true,"intensity":0.16,"label":"No same-lens economy records currently ingested","sector":"coverage_context","activity_status":"no_year_records","status":"no_year_records"},"geometry":{"type":"Polygon","coordinates":[[[-5.892,54.63],[-5.816,54.63],[-5.816,54.69],[-5.892,54.69],[-5.892,54.63]]]}},{"type":"Feature","properties":{"id":"lens-detail-belfast-2014-economy_activity_cell-coverage-context-19","layer":"economy_activity_cell","category":"economy","year":2014,"visible_year":2014,"title":"Belfast, Northern Ireland 2014 economy coverage context","confidence":"inferred","confidence_mix":"inferred:1","event_count":0,"source_count":1,"source_ids":"opendatani-spatial-ni","event_ids":"","event_ids_all":"","source_urls":"","geometry_precision_mix":"configured atlas coverage grid from official scope sources","representation":"economy lens coverage context","timing_note":"No license-compatible economy records are currently ingested for 2014; this lens geometry marks source coverage context only.","caveat":"Coverage context is not a city-change event, not a measured condition, and is excluded from headline counts.","generated_from":"web/data/city-atlas/cities/belfast/events_2014.json","coverage_status":"no_same_category_records","evidence_role":"context_not_year_specific_change_evidence","source_kind":"official_scope_context","headline_count_excluded":true,"intensity":0.16,"label":"No same-lens economy records currently ingested","sector":"coverage_context","activity_status":"no_year_records","status":"no_year_records"},"geometry":{"type":"Polygon","coordinates":[[[-5.816,54.63],[-5.74,54.63],[-5.74,54.69],[-5.816,54.69],[-5.816,54.63]]]}},{"type":"Feature","properties":{"id":"lens-detail-belfast-2014-economy_activity_cell-coverage-context-20","layer":"economy_activity_cell","category":"economy","year":2014,"visible_year":2014,"title":"Belfast, Northern Ireland 2014 economy coverage context","confidence":"inferred","confidence_mix":"inferred:1","event_count":0,"source_count":1,"source_ids":"opendatani-spatial-ni","event_ids":"","event_ids_all":"","source_urls":"","geometry_precision_mix":"configured atlas coverage grid from official scope sources","representation":"economy lens coverage context","timing_note":"No license-compatible economy records are currently ingested for 2014; this lens geometry marks source coverage context only.","caveat":"Coverage context is not a city-change event, not a measured condition, and is excluded from headline counts.","generated_from":"web/data/city-atlas/cities/belfast/events_2014.json","coverage_status":"no_same_category_records","evidence_role":"context_not_year_specific_change_evidence","source_kind":"official_scope_context","headline_count_excluded":true,"intensity":0.16,"label":"No same-lens economy records currently ingested","sector":"coverage_context","activity_status":"no_year_records","status":"no_year_records"},"geometry":{"type":"Polygon","coordinates":[[[-6.12,54.69],[-6.044,54.69],[-6.044,54.75],[-6.12,54.75],[-6.12,54.69]]]}},{"type":"Feature","properties":{"id":"lens-detail-belfast-2014-economy_activity_cell-coverage-context-21","layer":"economy_activity_cell","category":"economy","year":2014,"visible_year":2014,"title":"Belfast, Northern Ireland 2014 economy coverage context","confidence":"inferred","confidence_mix":"inferred:1","event_count":0,"source_count":1,"source_ids":"opendatani-spatial-ni","event_ids":"","event_ids_all":"","source_urls":"","geometry_precision_mix":"configured atlas coverage grid from official scope sources","representation":"economy lens coverage context","timing_note":"No license-compatible economy records are currently ingested for 2014; this lens geometry marks source coverage context only.","caveat":"Coverage context is not a city-change event, not a measured condition, and is excluded from headline counts.","generated_from":"web/data/city-atlas/cities/belfast/events_2014.json","coverage_status":"no_same_category_records","evidence_role":"context_not_year_specific_change_evidence","source_kind":"official_scope_context","headline_count_excluded":true,"intensity":0.16,"label":"No same-lens economy records currently ingested","sector":"coverage_context","activity_status":"no_year_records","status":"no_year_records"},"geometry":{"type":"Polygon","coordinates":[[[-6.044,54.69],[-5.968,54.69],[-5.968,54.75],[-6.044,54.75],[-6.044,54.69]]]}},{"type":"Feature","properties":{"id":"lens-detail-belfast-2014-economy_activity_cell-coverage-context-22","layer":"economy_activity_cell","category":"economy","year":2014,"visible_year":2014,"title":"Belfast, Northern Ireland 2014 economy coverage context","confidence":"inferred","confidence_mix":"inferred:1","event_count":0,"source_count":1,"source_ids":"opendatani-spatial-ni","event_ids":"","event_ids_all":"","source_urls":"","geometry_precision_mix":"configured atlas coverage grid from official scope sources","representation":"economy lens coverage context","timing_note":"No license-compatible economy records are currently ingested for 2014; this lens geometry marks source coverage context only.","caveat":"Coverage context is not a city-change event, not a measured condition, and is excluded from headline counts.","generated_from":"web/data/city-atlas/cities/belfast/events_2014.json","coverage_status":"no_same_category_records","evidence_role":"context_not_year_specific_change_evidence","source_kind":"official_scope_context","headline_count_excluded":true,"intensity":0.16,"label":"No same-lens economy records currently ingested","sector":"coverage_context","activity_status":"no_year_records","status":"no_year_records"},"geometry":{"type":"Polygon","coordinates":[[[-5.968,54.69],[-5.892,54.69],[-5.892,54.75],[-5.968,54.75],[-5.968,54.69]]]}},{"type":"Feature","properties":{"id":"lens-detail-belfast-2014-economy_activity_cell-coverage-context-23","layer":"economy_activity_cell","category":"economy","year":2014,"visible_year":2014,"title":"Belfast, Northern Ireland 2014 economy coverage context","confidence":"inferred","confidence_mix":"inferred:1","event_count":0,"source_count":1,"source_ids":"opendatani-spatial-ni","event_ids":"","event_ids_all":"","source_urls":"","geometry_precision_mix":"configured atlas coverage grid from official scope sources","representation":"economy lens coverage context","timing_note":"No license-compatible economy records are currently ingested for 2014; this lens geometry marks source coverage context only.","caveat":"Coverage context is not a city-change event, not a measured condition, and is excluded from headline counts.","generated_from":"web/data/city-atlas/cities/belfast/events_2014.json","coverage_status":"no_same_category_records","evidence_role":"context_not_year_specific_change_evidence","source_kind":"official_scope_context","headline_count_excluded":true,"intensity":0.16,"label":"No same-lens economy records currently ingested","sector":"coverage_context","activity_status":"no_year_records","status":"no_year_records"},"geometry":{"type":"Polygon","coordinates":[[[-5.892,54.69],[-5.816,54.69],[-5.816,54.75],[-5.892,54.75],[-5.892,54.69]]]}},{"type":"Feature","properties":{"id":"lens-detail-belfast-2014-economy_activity_cell-coverage-context-24","layer":"economy_activity_cell","category":"economy","year":2014,"visible_year":2014,"title":"Belfast, Northern Ireland 2014 economy coverage context","confidence":"inferred","confidence_mix":"inferred:1","event_count":0,"source_count":1,"source_ids":"opendatani-spatial-ni","event_ids":"","event_ids_all":"","source_urls":"","geometry_precision_mix":"configured atlas coverage grid from official scope sources","representation":"economy lens coverage context","timing_note":"No license-compatible economy records are currently ingested for 2014; this lens geometry marks source coverage context only.","caveat":"Coverage context is not a city-change event, not a measured condition, and is excluded from headline counts.","generated_from":"web/data/city-atlas/cities/belfast/events_2014.json","coverage_status":"no_same_category_records","evidence_role":"context_not_year_specific_change_evidence","source_kind":"official_scope_context","headline_count_excluded":true,"intensity":0.16,"label":"No same-lens economy records currently ingested","sector":"coverage_context","activity_status":"no_year_records","status":"no_year_records"},"geometry":{"type":"Polygon","coordinates":[[[-5.816,54.69],[-5.74,54.69],[-5.74,54.75],[-5.816,54.75],[-5.816,54.69]]]}},{"type":"Feature","properties":{"id":"lens-detail-belfast-2014-utility_trace-coverage-context-0","layer":"utility_trace","category":"utilities","year":2014,"visible_year":2014,"title":"Belfast, Northern Ireland 2014 utility coverage context","confidence":"inferred","confidence_mix":"inferred:1","event_count":0,"source_count":1,"source_ids":"opendatani-spatial-ni","event_ids":"","event_ids_all":"","source_urls":"","geometry_precision_mix":"configured atlas coverage grid from official scope sources","representation":"utility lens coverage context","timing_note":"No license-compatible utility records are currently ingested for 2014; this lens geometry marks source coverage context only.","caveat":"Coverage context is not a city-change event, not a measured condition, and is excluded from headline counts.","generated_from":"web/data/city-atlas/cities/belfast/events_2014.json","coverage_status":"no_same_category_records","evidence_role":"context_not_year_specific_change_evidence","source_kind":"official_scope_context","headline_count_excluded":true,"intensity":0.16,"label":"No same-lens utility records currently ingested","utility_type":"coverage_context","work_status":"no_year_records","status":"no_year_records"},"geometry":{"type":"LineString","coordinates":[[-6.0657143,54.45],[-6.0657143,54.75]]}},{"type":"Feature","properties":{"id":"lens-detail-belfast-2014-utility_trace-coverage-context-1","layer":"utility_trace","category":"utilities","year":2014,"visible_year":2014,"title":"Belfast, Northern Ireland 2014 utility coverage context","confidence":"inferred","confidence_mix":"inferred:1","event_count":0,"source_count":1,"source_ids":"opendatani-spatial-ni","event_ids":"","event_ids_all":"","source_urls":"","geometry_precision_mix":"configured atlas coverage grid from official scope sources","representation":"utility lens coverage context","timing_note":"No license-compatible utility records are currently ingested for 2014; this lens geometry marks source coverage context only.","caveat":"Coverage context is not a city-change event, not a measured condition, and is excluded from headline counts.","generated_from":"web/data/city-atlas/cities/belfast/events_2014.json","coverage_status":"no_same_category_records","evidence_role":"context_not_year_specific_change_evidence","source_kind":"official_scope_context","headline_count_excluded":true,"intensity":0.16,"label":"No same-lens utility records currently ingested","utility_type":"coverage_context","work_status":"no_year_records","status":"no_year_records"},"geometry":{"type":"LineString","coordinates":[[-6.0114286,54.45],[-6.0114286,54.75]]}},{"type":"Feature","properties":{"id":"lens-detail-belfast-2014-utility_trace-coverage-context-2","layer":"utility_trace","category":"utilities","year":2014,"visible_year":2014,"title":"Belfast, Northern Ireland 2014 utility coverage context","confidence":"inferred","confidence_mix":"inferred:1","event_count":0,"source_count":1,"source_ids":"opendatani-spatial-ni","event_ids":"","event_ids_all":"","source_urls":"","geometry_precision_mix":"configured atlas coverage grid from official scope sources","representation":"utility lens coverage context","timing_note":"No license-compatible utility records are currently ingested for 2014; this lens geometry marks source coverage context only.","caveat":"Coverage context is not a city-change event, not a measured condition, and is excluded from headline counts.","generated_from":"web/data/city-atlas/cities/belfast/events_2014.json","coverage_status":"no_same_category_records","evidence_role":"context_not_year_specific_change_evidence","source_kind":"official_scope_context","headline_count_excluded":true,"intensity":0.16,"label":"No same-lens utility records currently ingested","utility_type":"coverage_context","work_status":"no_year_records","status":"no_year_records"},"geometry":{"type":"LineString","coordinates":[[-5.9571429,54.45],[-5.9571429,54.75]]}},{"type":"Feature","properties":{"id":"lens-detail-belfast-2014-utility_trace-coverage-context-3","layer":"utility_trace","category":"utilities","year":2014,"visible_year":2014,"title":"Belfast, Northern Ireland 2014 utility coverage context","confidence":"inferred","confidence_mix":"inferred:1","event_count":0,"source_count":1,"source_ids":"opendatani-spatial-ni","event_ids":"","event_ids_all":"","source_urls":"","geometry_precision_mix":"configured atlas coverage grid from official scope sources","representation":"utility lens coverage context","timing_note":"No license-compatible utility records are currently ingested for 2014; this lens geometry marks source coverage context only.","caveat":"Coverage context is not a city-change event, not a measured condition, and is excluded from headline counts.","generated_from":"web/data/city-atlas/cities/belfast/events_2014.json","coverage_status":"no_same_category_records","evidence_role":"context_not_year_specific_change_evidence","source_kind":"official_scope_context","headline_count_excluded":true,"intensity":0.16,"label":"No same-lens utility records currently ingested","utility_type":"coverage_context","work_status":"no_year_records","status":"no_year_records"},"geometry":{"type":"LineString","coordinates":[[-5.9028571,54.45],[-5.9028571,54.75]]}},{"type":"Feature","properties":{"id":"lens-detail-belfast-2014-utility_trace-coverage-context-4","layer":"utility_trace","category":"utilities","year":2014,"visible_year":2014,"title":"Belfast, Northern Ireland 2014 utility coverage context","confidence":"inferred","confidence_mix":"inferred:1","event_count":0,"source_count":1,"source_ids":"opendatani-spatial-ni","event_ids":"","event_ids_all":"","source_urls":"","geometry_precision_mix":"configured atlas coverage grid from official scope sources","representation":"utility lens coverage context","timing_note":"No license-compatible utility records are currently ingested for 2014; this lens geometry marks source coverage context only.","caveat":"Coverage context is not a city-change event, not a measured condition, and is excluded from headline counts.","generated_from":"web/data/city-atlas/cities/belfast/events_2014.json","coverage_status":"no_same_category_records","evidence_role":"context_not_year_specific_change_evidence","source_kind":"official_scope_context","headline_count_excluded":true,"intensity":0.16,"label":"No same-lens utility records currently ingested","utility_type":"coverage_context","work_status":"no_year_records","status":"no_year_records"},"geometry":{"type":"LineString","coordinates":[[-5.8485714,54.45],[-5.8485714,54.75]]}},{"type":"Feature","properties":{"id":"lens-detail-belfast-2014-utility_trace-coverage-context-5","layer":"utility_trace","category":"utilities","year":2014,"visible_year":2014,"title":"Belfast, Northern Ireland 2014 utility coverage context","confidence":"inferred","confidence_mix":"inferred:1","event_count":0,"source_count":1,"source_ids":"opendatani-spatial-ni","event_ids":"","event_ids_all":"","source_urls":"","geometry_precision_mix":"configured atlas coverage grid from official scope sources","representation":"utility lens coverage context","timing_note":"No license-compatible utility records are currently ingested for 2014; this lens geometry marks source coverage context only.","caveat":"Coverage context is not a city-change event, not a measured condition, and is excluded from headline counts.","generated_from":"web/data/city-atlas/cities/belfast/events_2014.json","coverage_status":"no_same_category_records","evidence_role":"context_not_year_specific_change_evidence","source_kind":"official_scope_context","headline_count_excluded":true,"intensity":0.16,"label":"No same-lens utility records currently ingested","utility_type":"coverage_context","work_status":"no_year_records","status":"no_year_records"},"geometry":{"type":"LineString","coordinates":[[-5.7942857,54.45],[-5.7942857,54.75]]}},{"type":"Feature","properties":{"id":"lens-detail-belfast-2014-utility_trace-coverage-context-6","layer":"utility_trace","category":"utilities","year":2014,"visible_year":2014,"title":"Belfast, Northern Ireland 2014 utility coverage context","confidence":"inferred","confidence_mix":"inferred:1","event_count":0,"source_count":1,"source_ids":"opendatani-spatial-ni","event_ids":"","event_ids_all":"","source_urls":"","geometry_precision_mix":"configured atlas coverage grid from official scope sources","representation":"utility lens coverage context","timing_note":"No license-compatible utility records are currently ingested for 2014; this lens geometry marks source coverage context only.","caveat":"Coverage context is not a city-change event, not a measured condition, and is excluded from headline counts.","generated_from":"web/data/city-atlas/cities/belfast/events_2014.json","coverage_status":"no_same_category_records","evidence_role":"context_not_year_specific_change_evidence","source_kind":"official_scope_context","headline_count_excluded":true,"intensity":0.16,"label":"No same-lens utility records currently ingested","utility_type":"coverage_context","work_status":"no_year_records","status":"no_year_records"},"geometry":{"type":"LineString","coordinates":[[-6.12,54.4928571],[-5.74,54.4928571]]}},{"type":"Feature","properties":{"id":"lens-detail-belfast-2014-utility_trace-coverage-context-7","layer":"utility_trace","category":"utilities","year":2014,"visible_year":2014,"title":"Belfast, Northern Ireland 2014 utility coverage context","confidence":"inferred","confidence_mix":"inferred:1","event_count":0,"source_count":1,"source_ids":"opendatani-spatial-ni","event_ids":"","event_ids_all":"","source_urls":"","geometry_precision_mix":"configured atlas coverage grid from official scope sources","representation":"utility lens coverage context","timing_note":"No license-compatible utility records are currently ingested for 2014; this lens geometry marks source coverage context only.","caveat":"Coverage context is not a city-change event, not a measured condition, and is excluded from headline counts.","generated_from":"web/data/city-atlas/cities/belfast/events_2014.json","coverage_status":"no_same_category_records","evidence_role":"context_not_year_specific_change_evidence","source_kind":"official_scope_context","headline_count_excluded":true,"intensity":0.16,"label":"No same-lens utility records currently ingested","utility_type":"coverage_context","work_status":"no_year_records","status":"no_year_records"},"geometry":{"type":"LineString","coordinates":[[-6.12,54.5357143],[-5.74,54.5357143]]}},{"type":"Feature","properties":{"id":"lens-detail-belfast-2014-utility_trace-coverage-context-8","layer":"utility_trace","category":"utilities","year":2014,"visible_year":2014,"title":"Belfast, Northern Ireland 2014 utility coverage context","confidence":"inferred","confidence_mix":"inferred:1","event_count":0,"source_count":1,"source_ids":"opendatani-spatial-ni","event_ids":"","event_ids_all":"","source_urls":"","geometry_precision_mix":"configured atlas coverage grid from official scope sources","representation":"utility lens coverage context","timing_note":"No license-compatible utility records are currently ingested for 2014; this lens geometry marks source coverage context only.","caveat":"Coverage context is not a city-change event, not a measured condition, and is excluded from headline counts.","generated_from":"web/data/city-atlas/cities/belfast/events_2014.json","coverage_status":"no_same_category_records","evidence_role":"context_not_year_specific_change_evidence","source_kind":"official_scope_context","headline_count_excluded":true,"intensity":0.16,"label":"No same-lens utility records currently ingested","utility_type":"coverage_context","work_status":"no_year_records","status":"no_year_records"},"geometry":{"type":"LineString","coordinates":[[-6.12,54.5785714],[-5.74,54.5785714]]}},{"type":"Feature","properties":{"id":"lens-detail-belfast-2014-utility_trace-coverage-context-9","layer":"utility_trace","category":"utilities","year":2014,"visible_year":2014,"title":"Belfast, Northern Ireland 2014 utility coverage context","confidence":"inferred","confidence_mix":"inferred:1","event_count":0,"source_count":1,"source_ids":"opendatani-spatial-ni","event_ids":"","event_ids_all":"","source_urls":"","geometry_precision_mix":"configured atlas coverage grid from official scope sources","representation":"utility lens coverage context","timing_note":"No license-compatible utility records are currently ingested for 2014; this lens geometry marks source coverage context only.","caveat":"Coverage context is not a city-change event, not a measured condition, and is excluded from headline counts.","generated_from":"web/data/city-atlas/cities/belfast/events_2014.json","coverage_status":"no_same_category_records","evidence_role":"context_not_year_specific_change_evidence","source_kind":"official_scope_context","headline_count_excluded":true,"intensity":0.16,"label":"No same-lens utility records currently ingested","utility_type":"coverage_context","work_status":"no_year_records","status":"no_year_records"},"geometry":{"type":"LineString","coordinates":[[-6.12,54.6214286],[-5.74,54.6214286]]}},{"type":"Feature","properties":{"id":"lens-detail-belfast-2014-utility_trace-coverage-context-10","layer":"utility_trace","category":"utilities","year":2014,"visible_year":2014,"title":"Belfast, Northern Ireland 2014 utility coverage context","confidence":"inferred","confidence_mix":"inferred:1","event_count":0,"source_count":1,"source_ids":"opendatani-spatial-ni","event_ids":"","event_ids_all":"","source_urls":"","geometry_precision_mix":"configured atlas coverage grid from official scope sources","representation":"utility lens coverage context","timing_note":"No license-compatible utility records are currently ingested for 2014; this lens geometry marks source coverage context only.","caveat":"Coverage context is not a city-change event, not a measured condition, and is excluded from headline counts.","generated_from":"web/data/city-atlas/cities/belfast/events_2014.json","coverage_status":"no_same_category_records","evidence_role":"context_not_year_specific_change_evidence","source_kind":"official_scope_context","headline_count_excluded":true,"intensity":0.16,"label":"No same-lens utility records currently ingested","utility_type":"coverage_context","work_status":"no_year_records","status":"no_year_records"},"geometry":{"type":"LineString","coordinates":[[-6.12,54.6642857],[-5.74,54.6642857]]}},{"type":"Feature","properties":{"id":"lens-detail-belfast-2014-utility_trace-coverage-context-11","layer":"utility_trace","category":"utilities","year":2014,"visible_year":2014,"title":"Belfast, Northern Ireland 2014 utility coverage context","confidence":"inferred","confidence_mix":"inferred:1","event_count":0,"source_count":1,"source_ids":"opendatani-spatial-ni","event_ids":"","event_ids_all":"","source_urls":"","geometry_precision_mix":"configured atlas coverage grid from official scope sources","representation":"utility lens coverage context","timing_note":"No license-compatible utility records are currently ingested for 2014; this lens geometry marks source coverage context only.","caveat":"Coverage context is not a city-change event, not a measured condition, and is excluded from headline counts.","generated_from":"web/data/city-atlas/cities/belfast/events_2014.json","coverage_status":"no_same_category_records","evidence_role":"context_not_year_specific_change_evidence","source_kind":"official_scope_context","headline_count_excluded":true,"intensity":0.16,"label":"No same-lens utility records currently ingested","utility_type":"coverage_context","work_status":"no_year_records","status":"no_year_records"},"geometry":{"type":"LineString","coordinates":[[-6.12,54.7071429],[-5.74,54.7071429]]}}]}
