{"type":"FeatureCollection","name":"belfast_transport_roads_2024","metadata":{"schema_version":"1.0.0","city_id":"belfast","year":2024,"road_source":"detail_layers.geojson","city_scope_filter":{"boundary_source_path":"data/raw/boundaries/belfast_osni_lgd_boundary_2012.geojson","boundary_source_name":"OSNI Open Data - Largescale Boundaries - Local Government Districts (2012)","boundary_source_url":"https://ckan.publishing.service.gov.uk/dataset/osni-open-data-largescale-boundaries-local-government-districts-20123","boundary_licence":"UK Open Government Licence (OGL) v3.0; contains Ordnance Survey of Northern Ireland data.","boundary_scope":"Belfast Local Government District 2012 boundary, delineated under the Local Government (Boundaries) Order (Northern Ireland) 2012 and used from the 2014 elections.","method":"Retains current OSM major-road features only where they intersect the official city boundary polygon, then splits or truncates line geometry at the boundary using source vertices and approximate crossing points. The boundary scopes the visual context; OSM remains the road-geometry source.","input_feature_count":17195,"kept_feature_count":11074,"dropped_out_of_scope_feature_count":6121,"boundary_scoped_feature_count":11074,"boundary_feature_count":1,"boundary_polygon_count":1,"road_source_path":"web/data/city-atlas/cities/belfast/detail_layers.geojson"},"method":"Road features inside the official city boundary are colored from nearby source-backed transport records in a rolling three-year window.","caveat":"Transport road colors are activity hotspots, not measured traffic counts or live congestion.","suppressed":true,"suppression_reason":"No same-year source-backed, road-scorable transport event records support a selected-year transport activity overlay."},"features":[]}
